{
  "type": "FeatureCollection",
  "crs": {
    "type": "name",
    "properties": {
      "name": "urn:ogc:def:crs:OGC:1.3:CRS84"
    }
  },
  "features": [
    {
      "type": "Feature",
      "properties": {
        "timestamp": "2026-04-25T21:41:02.016637",
        "country_name": "Afghanistan",
        "author": "",
        "author_id": "1049879f-f8b2-41fc-a84d-9c1f3a63005f",
        "validated": false,
        "ranking": [
          [
            "Afghanistan",
            0.10889295488595963
          ],
          [
            "Syria",
            0.07756606489419937
          ],
          [
            "Somalia",
            0.07214220613241196
          ],
          [
            "India",
            0.05026491731405258
          ],
          [
            "Jordan",
            0.038254521787166595
          ],
          [
            "Rwanda",
            0.035502951592206955
          ],
          [
            "Fiji",
            0.029037026688456535
          ],
          [
            "Belize",
            0.028895370662212372
          ],
          [
            "Guadeloupe",
            0.028159327805042267
          ],
          [
            "North Macedonia",
            0.02711273543536663
          ],
          [
            "Mozambique",
            0.026590989902615547
          ],
          [
            "Spain",
            0.026476360857486725
          ],
          [
            "Western Sahara",
            0.021536914631724358
          ],
          [
            "Svalbard",
            0.021058127284049988
          ],
          [
            "Argentina",
            0.018281802535057068
          ],
          [
            "Faroe Islands",
            0.018140191212296486
          ],
          [
            "Namibia",
            0.0146415326744318
          ],
          [
            "Sweden",
            0.012279512360692024
          ],
          [
            "Guam",
            0.012057197280228138
          ],
          [
            "Thailand",
            0.011506505310535431
          ],
          [
            "Montenegro",
            0.008919990621507168
          ],
          [
            "Yemen",
            0.008292648009955883
          ],
          [
            "Benin",
            0.00794731080532074
          ],
          [
            "Slovakia",
            0.007629672531038523
          ],
          [
            "North Korea",
            0.007489068899303675
          ],
          [
            "Burkina Faso",
            0.0072677284479141235
          ],
          [
            "Switzerland",
            0.007081371266394854
          ],
          [
            "Czech Republic",
            0.006025755777955055
          ],
          [
            "Nigeria",
            0.005937973037362099
          ],
          [
            "Myanmar",
            0.005763827357441187
          ],
          [
            "Gabon",
            0.005422603338956833
          ],
          [
            "Romania",
            0.0052788145840168
          ],
          [
            "New Zealand",
            0.0051702894270420074
          ],
          [
            "Slovenia",
            0.005099849309772253
          ],
          [
            "Cambodia",
            0.005080334842205048
          ],
          [
            "Vanuatu",
            0.005064014811068773
          ],
          [
            "Croatia",
            0.005010833498090506
          ],
          [
            "Azerbaijan",
            0.00473354198038578
          ],
          [
            "Togo",
            0.0046781268902122974
          ],
          [
            "Peru",
            0.004674523137509823
          ],
          [
            "Chile",
            0.004422846715897322
          ],
          [
            "Norway",
            0.00427484093233943
          ],
          [
            "Japan",
            0.00422917352989316
          ],
          [
            "Ukraine",
            0.00412413477897644
          ],
          [
            "Israel",
            0.004077875521034002
          ],
          [
            "Honduras",
            0.004036598838865757
          ],
          [
            "Taiwan",
            0.003928280435502529
          ],
          [
            "Guinea-Bissau",
            0.0037333504296839237
          ],
          [
            "Bangladesh",
            0.003491107141599059
          ],
          [
            "Australia",
            0.0034368252381682396
          ],
          [
            "Bhutan",
            0.0033863054122775793
          ],
          [
            "Congo",
            0.003142303554341197
          ],
          [
            "Antigua & Barbuda",
            0.003123158821836114
          ],
          [
            "Lesotho",
            0.0030603574123233557
          ],
          [
            "Vietnam",
            0.003048025304451585
          ],
          [
            "Mayotte",
            0.002949079032987356
          ],
          [
            "Malawi",
            0.0028897556476294994
          ],
          [
            "Dominican Republic",
            0.00288033508695662
          ],
          [
            "Solomon Islands",
            0.0028256913647055626
          ],
          [
            "Finland",
            0.0026831652503460646
          ],
          [
            "Guinea",
            0.0026517841033637524
          ],
          [
            "Turkmenistan",
            0.0025683448184281588
          ],
          [
            "Senegal",
            0.002480542752891779
          ],
          [
            "Saudi Arabia",
            0.0023275844287127256
          ],
          [
            "Ethiopia",
            0.002313443226739764
          ],
          [
            "Burundi",
            0.002301661064848304
          ],
          [
            "Greenland",
            0.0022861724719405174
          ],
          [
            "Bulgaria",
            0.0021187684033066034
          ],
          [
            "Sao Tome and Principe",
            0.0020904603879898787
          ],
          [
            "South Korea",
            0.002054885495454073
          ],
          [
            "Hungary",
            0.002051267074421048
          ],
          [
            "Falkland Islands",
            0.0020224794279783964
          ],
          [
            "Libya",
            0.0020173094235360622
          ],
          [
            "Latvia",
            0.0019216358195990324
          ],
          [
            "Turkey",
            0.001908475300297141
          ],
          [
            "Angola",
            0.0018541093450039625
          ],
          [
            "Mauritania",
            0.001846768194809556
          ],
          [
            "Guyana",
            0.0018163968343287706
          ],
          [
            "Papua New Guinea",
            0.0018044523894786835
          ],
          [
            "Sudan",
            0.0017705638892948627
          ],
          [
            "South Georgia Islands",
            0.0017673653783276677
          ],
          [
            "Tajikistan",
            0.0017057349905371666
          ],
          [
            "Kyrgyzstan",
            0.001674664905294776
          ],
          [
            "Bahrain",
            0.001572716049849987
          ],
          [
            "Brunei",
            0.0015723591204732656
          ],
          [
            "Portugal",
            0.0015660348581150174
          ],
          [
            "Qatar",
            0.0015513189136981964
          ],
          [
            "Trinidad and Tobago",
            0.0015421410789713264
          ],
          [
            "Ecuador",
            0.0015247619012370706
          ],
          [
            "Estonia",
            0.0014915275387465954
          ],
          [
            "Palau",
            0.0014509197790175676
          ],
          [
            "Venezuela",
            0.001429289230145514
          ],
          [
            "Iceland",
            0.0014287413796409965
          ],
          [
            "Bahamas",
            0.0014203103492036462
          ],
          [
            "Lithuania",
            0.0014061777619645
          ],
          [
            "Cape Verde",
            0.0013931578723713756
          ],
          [
            "Zambia",
            0.0013870570110157132
          ],
          [
            "Hong Kong",
            0.0013654745416715741
          ],
          [
            "China",
            0.001342209056019783
          ],
          [
            "Central African Republic",
            0.0012742998078465462
          ],
          [
            "Oman",
            0.001226632739417255
          ],
          [
            "Equatorial Guinea",
            0.0012173702707514167
          ],
          [
            "Belarus",
            0.0011456046486273408
          ],
          [
            "Botswana",
            0.0011445671552792192
          ],
          [
            "South Africa",
            0.0011186249321326613
          ],
          [
            "United States of America",
            0.0011176374973729253
          ],
          [
            "Reunion",
            0.0010871302802115679
          ],
          [
            "Iran",
            0.0010645122965797782
          ],
          [
            "Uruguay",
            0.0010625505819916725
          ],
          [
            "Tunisia",
            0.0009427638724446297
          ],
          [
            "El Salvador",
            0.0009422209113836288
          ],
          [
            "Heard and McDonald Islands",
            0.0009252524469047785
          ],
          [
            "Suriname",
            0.0009247619309462607
          ],
          [
            "Albania",
            0.0009098033769987524
          ],
          [
            "Egypt",
            0.0009047003113664687
          ],
          [
            "United Kingdom",
            0.0008896843646652997
          ],
          [
            "Côte d'Ivoire",
            0.0008853947510942817
          ],
          [
            "Dominica",
            0.0008765864185988903
          ],
          [
            "Canada",
            0.000871057971380651
          ],
          [
            "Brazil",
            0.0008575240499339998
          ],
          [
            "Lebanon",
            0.000825225084554404
          ],
          [
            "Mali",
            0.0008243960328400135
          ],
          [
            "Djibouti",
            0.0008117140387184918
          ],
          [
            "Cyprus",
            0.0008037306251935661
          ],
          [
            "West Bank",
            0.0008012647740542889
          ],
          [
            "South Sudan",
            0.0007939912611618638
          ],
          [
            "Moldova",
            0.0007906710379756987
          ],
          [
            "Puerto Rico",
            0.0007852126145735383
          ],
          [
            "France",
            0.0007807264337316155
          ],
          [
            "Belgium",
            0.0007605201681144536
          ],
          [
            "Sri Lanka",
            0.0007338233990594745
          ],
          [
            "Bolivia",
            0.000715073780156672
          ],
          [
            "Kenya",
            0.0006926768110133708
          ],
          [
            "Uzbekistan",
            0.0006862960290163755
          ],
          [
            "Iraq",
            0.0006851947400718927
          ],
          [
            "Eritrea",
            0.0006847988697700202
          ],
          [
            "Zimbabwe",
            0.0006822670111432672
          ],
          [
            "Poland",
            0.0006704491097480059
          ],
          [
            "Russia",
            0.0006471301894634962
          ],
          [
            "Kazakhstan",
            0.0006470807711593807
          ],
          [
            "Algeria",
            0.000633407908026129
          ],
          [
            "Comoros",
            0.0006324529531411827
          ],
          [
            "Madagascar",
            0.0006177397444844246
          ],
          [
            "Panama",
            0.0006056044367142022
          ],
          [
            "Martinique",
            0.0006044412148185074
          ],
          [
            "Niger",
            0.0006011747173033655
          ],
          [
            "Laos",
            0.0005884168203920126
          ],
          [
            "Kuwait",
            0.0005808764835819602
          ],
          [
            "New Caledonia",
            0.0005744146183133125
          ],
          [
            "Indonesia",
            0.0005677495501004159
          ],
          [
            "Mexico",
            0.0005671608378179371
          ],
          [
            "Cuba",
            0.0005628694780170918
          ],
          [
            "Eswatini",
            0.0005622202879749238
          ],
          [
            "Sierra Leone",
            0.000549392425455153
          ],
          [
            "Timor-Leste",
            0.0005467351875267923
          ],
          [
            "Nicaragua",
            0.0005432424950413406
          ],
          [
            "Jamaica",
            0.0005314534646458924
          ],
          [
            "Denmark",
            0.0005149913486093283
          ],
          [
            "Saint Lucia",
            0.0005100605194456875
          ],
          [
            "Ireland",
            0.0004779380979016423
          ],
          [
            "Mongolia",
            0.0004745399346575141
          ],
          [
            "Germany",
            0.00046823019511066377
          ],
          [
            "Philippines",
            0.0004601969849318266
          ],
          [
            "Georgia",
            0.00043649430153891444
          ],
          [
            "Costa Rica",
            0.00043511029798537493
          ],
          [
            "Serbia",
            0.00043309995089657605
          ],
          [
            "Armenia",
            0.00042157137067988515
          ],
          [
            "Tanzania",
            0.0004165319842286408
          ],
          [
            "Greece",
            0.0003853481903206557
          ],
          [
            "Malaysia",
            0.0003791619383264333
          ],
          [
            "Uganda",
            0.0003726426512002945
          ],
          [
            "United Arab Emirates",
            0.0003398429253138602
          ],
          [
            "French Guiana",
            0.00033227328094653785
          ],
          [
            "United States Virgin Islands",
            0.0003174046578351408
          ],
          [
            "Morocco",
            0.0003127019735984504
          ],
          [
            "Liberia",
            0.0003109735553152859
          ],
          [
            "Italy",
            0.0002971889916807413
          ],
          [
            "Barbados",
            0.00027371596661396325
          ],
          [
            "Bosnia & Herzegovina",
            0.00027066643815487623
          ],
          [
            "Nepal",
            0.0002692422131076455
          ],
          [
            "Turks and Caicos Islands",
            0.0002679532626643777
          ],
          [
            "Cameroon",
            0.0002604811452329159
          ],
          [
            "Netherlands",
            0.00025425595231354237
          ],
          [
            "Paraguay",
            0.00025234566419385374
          ],
          [
            "Guatemala",
            0.00023898942163214087
          ],
          [
            "Pakistan",
            0.00023476246860809624
          ],
          [
            "Netherlands Antilles",
            0.00022910516418050975
          ],
          [
            "Haiti",
            0.00022634619381278753
          ],
          [
            "Colombia",
            0.00021846820891369134
          ],
          [
            "Samoa",
            0.0002112802758347243
          ],
          [
            "Luxembourg",
            0.00020732775737997144
          ],
          [
            "Isle of Man",
            0.00020335956651251763
          ],
          [
            "Madeira Islands",
            0.00014151286450214684
          ],
          [
            "DR Congo",
            0.00013316463446244597
          ],
          [
            "Austria",
            0.000120451622933615
          ],
          [
            "Chad",
            0.0001179316604975611
          ],
          [
            "Ghana",
            9.183265501633286e-05
          ],
          [
            "Gambia",
            6.263278919504955e-05
          ],
          [
            "Kiribati",
            2.994128954014741e-05
          ]
        ]
      },
      "geometry": {
        "type": "MultiLineString",
        "coordinates": [
          [
            [
              38.35220125786162,
              48.981132075471706
            ],
            [
              40.23899371069183,
              48.981132075471706
            ],
            [
              41.24528301886792,
              49.106918238993714
            ],
            [
              42.37735849056605,
              49.106918238993714
            ],
            [
              43.76100628930817,
              49.106918238993714
            ],
            [
              44.76729559748429,
              49.358490566037744
            ],
            [
              46.0251572327044,
              49.86163522012579
            ],
            [
              46.90566037735849,
              50.36477987421384
            ],
            [
              47.91194968553458,
              50.8679245283019
            ],
            [
              48.9182389937107,
              51.49685534591195
            ],
            [
              50.17610062893081,
              51.87421383647799
            ],
            [
              51.43396226415095,
              52.25157232704403
            ],
            [
              52.56603773584905,
              52.50314465408806
            ],
            [
              53.69811320754718,
              52.75471698113208
            ],
            [
              54.704402515723274,
              53.00628930817611
            ],
            [
              55.71069182389937,
              53.25786163522014
            ],
            [
              56.84276729559747,
              53.63522012578618
            ],
            [
              58.35220125786162,
              54.13836477987422
            ],
            [
              59.7358490566038,
              54.76729559748429
            ],
            [
              60.8679245283019,
              55.01886792452831
            ],
            [
              62.0,
              55.01886792452831
            ],
            [
              61.748427672955984,
              54.13836477987422
            ],
            [
              60.11320754716982,
              53.132075471698116
            ],
            [
              57.9748427672956,
              52.25157232704403
            ],
            [
              56.59119496855345,
              51.748427672955984
            ],
            [
              55.45911949685535,
              51.49685534591195
            ],
            [
              54.45283018867926,
              51.24528301886794
            ],
            [
              53.572327044025144,
              51.119496855345915
            ],
            [
              52.56603773584905,
              50.99371069182391
            ],
            [
              51.43396226415095,
              50.99371069182391
            ],
            [
              50.30188679245282,
              50.742138364779876
            ],
            [
              49.54716981132077,
              50.49056603773586
            ],
            [
              48.41509433962264,
              49.98742138364781
            ],
            [
              47.40880503144655,
              49.358490566037744
            ],
            [
              46.52830188679246,
              49.106918238993714
            ],
            [
              45.39622641509436,
              48.729559748427675
            ],
            [
              43.76100628930817,
              48.60377358490567
            ],
            [
              42.50314465408806,
              48.35220125786165
            ],
            [
              41.748427672955984,
              48.22641509433963
            ],
            [
              40.99371069182391,
              47.72327044025158
            ],
            [
              40.23899371069183,
              46.968553459119505
            ],
            [
              39.48427672955975,
              46.59119496855347
            ],
            [
              38.60377358490567,
              46.339622641509436
            ],
            [
              37.84905660377359,
              46.08805031446542
            ],
            [
              37.34591194968553,
              45.207547169811335
            ],
            [
              36.8427672955975,
              44.45283018867926
            ],
            [
              36.339622641509436,
              43.82389937106919
            ],
            [
              35.96226415094338,
              43.06918238993711
            ],
            [
              35.71069182389937,
              42.188679245283026
            ],
            [
              35.207547169811335,
              41.43396226415095
            ]
          ],
          [
            [
              37.9748427672956,
              50.23899371069183
            ],
            [
              34.95597484276729,
              50.49056603773586
            ],
            [
              31.685534591194966,
              51.24528301886794
            ],
            [
              30.80503144654088,
              51.371069182389945
            ],
            [
              29.295597484276726,
              51.622641509433976
            ],
            [
              27.91194968553458,
              51.49685534591195
            ],
            [
              26.528301886792462,
              51.24528301886794
            ],
            [
              23.509433962264154,
              50.742138364779876
            ],
            [
              22.62893081761007,
              50.61635220125787
            ],
            [
              20.8679245283019,
              50.61635220125787
            ],
            [
              19.861635220125777,
              50.36477987421384
            ],
            [
              18.47798742138366,
              49.358490566037744
            ],
            [
              17.723270440251582,
              48.60377358490567
            ],
            [
              14.95597484276729,
              46.21383647798743
            ],
            [
              12.943396226415103,
              45.45911949685535
            ],
            [
              12.062893081761018,
              45.33333333333334
            ],
            [
              10.427672955974856,
              45.33333333333334
            ],
            [
              9.421383647798734,
              45.207547169811335
            ],
            [
              8.666666666666686,
              44.830188679245296
            ],
            [
              7.786163522012572,
              43.69811320754718
            ],
            [
              7.534591194968556,
              42.9433962264151
            ],
            [
              7.28301886792454,
              42.188679245283026
            ],
            [
              6.654088050314471,
              41.43396226415095
            ],
            [
              6.15094339622641,
              40.427672955974856
            ],
            [
              5.773584905660385,
              39.16981132075472
            ],
            [
              5.522012578616369,
              38.163522012578625
            ],
            [
              5.2704402515723245,
              36.77987421383648
            ],
            [
              5.144654088050316,
              35.773584905660385
            ],
            [
              5.018867924528308,
              34.76729559748429
            ],
            [
              4.8930817610063,
              34.012578616352215
            ],
            [
              4.8930817610063,
              33.13207547169813
            ],
            [
              5.2704402515723245,
              32.12578616352204
            ],
            [
              5.773584905660385,
              31.245283018867923
            ],
            [
              6.402515723270454,
              29.61006289308176
            ],
            [
              6.779874213836479,
              28.35220125786165
            ],
            [
              7.534591194968556,
              25.58490566037736
            ],
            [
              7.534591194968556,
              24.578616352201266
            ],
            [
              7.031446540880495,
              23.69811320754718
            ],
            [
              6.276729559748446,
              22.943396226415103
            ],
            [
              5.2704402515723245,
              21.93710691823901
            ],
            [
              4.389937106918239,
              21.056603773584925
            ],
            [
              3.886792452830207,
              20.301886792452848
            ],
            [
              3.383647798742146,
              19.169811320754718
            ],
            [
              3.0062893081760933,
              17.91194968553461
            ],
            [
              2.754716981132077,
              17.031446540880495
            ],
            [
              2.251572327044016,
              16.15094339622641
            ],
            [
              2.0,
              15.144654088050316
            ],
            [
              2.251572327044016,
              14.264150943396231
            ],
            [
              3.257861635220138,
              13.13207547169813
            ],
            [
              4.389937106918239,
              12.125786163522037
            ],
            [
              5.144654088050316,
              11.371069182389931
            ],
            [
              6.276729559748446,
              10.490566037735846
            ],
            [
              7.660377358490564,
              9.61006289308176
            ],
            [
              8.540880503144649,
              9.232704402515736
            ],
            [
              9.672955974842779,
              9.106918238993728
            ],
            [
              10.80503144654088,
              8.981132075471692
            ],
            [
              12.817610062893095,
              9.106918238993728
            ],
            [
              13.823899371069189,
              9.232704402515736
            ],
            [
              14.704402515723274,
              9.358490566037744
            ],
            [
              15.836477987421404,
              9.358490566037744
            ],
            [
              16.71698113207549,
              9.735849056603797
            ],
            [
              17.597484276729574,
              10.364779874213838
            ],
            [
              18.35220125786165,
              10.993710691823907
            ],
            [
              20.616352201257854,
              12.377358490566053
            ],
            [
              22.62893081761007,
              13.635220125786162
            ],
            [
              24.138364779874223,
              14.641509433962256
            ],
            [
              24.767295597484292,
              15.144654088050316
            ],
            [
              25.39622641509436,
              15.647798742138377
            ],
            [
              26.65408805031447,
              16.65408805031447
            ],
            [
              27.660377358490564,
              17.534591194968556
            ],
            [
              28.792452830188694,
              18.666666666666686
            ],
            [
              29.54716981132077,
              19.295597484276755
            ],
            [
              30.30188679245282,
              19.798742138364787
            ],
            [
              30.427672955974856,
              20.553459119496864
            ],
            [
              30.679245283018872,
              21.685534591194994
            ],
            [
              31.811320754716974,
              22.440251572327043
            ],
            [
              33.06918238993711,
              23.19496855345912
            ],
            [
              33.572327044025144,
              23.82389937106919
            ],
            [
              33.69811320754718,
              24.578616352201266
            ],
            [
              33.446540880503164,
              25.45911949685535
            ],
            [
              33.06918238993711,
              26.339622641509436
            ],
            [
              32.817610062893095,
              27.597484276729574
            ],
            [
              33.32075471698113,
              28.35220125786165
            ],
            [
              34.704402515723274,
              28.98113207547169
            ],
            [
              35.71069182389937,
              29.232704402515736
            ],
            [
              36.59119496855345,
              29.484276729559753
            ],
            [
              36.08805031446542,
              30.74213836477989
            ],
            [
              34.20125786163521,
              33.13207547169813
            ],
            [
              32.56603773584905,
              35.01886792452831
            ],
            [
              31.43396226415095,
              36.150943396226424
            ],
            [
              32.44025157232704,
              36.52830188679246
            ],
            [
              33.572327044025144,
              37.40880503144655
            ],
            [
              34.075471698113205,
              38.03773584905662
            ],
            [
              34.32704402515725,
              38.792452830188694
            ],
            [
              34.83018867924528,
              39.79874213836479
            ],
            [
              35.33333333333334,
              40.553459119496864
            ]
          ]
        ]
      }
    }
  ]
}