{
  "type": "FeatureCollection",
  "crs": {
    "type": "name",
    "properties": {
      "name": "urn:ogc:def:crs:OGC:1.3:CRS84"
    }
  },
  "features": [
    {
      "type": "Feature",
      "properties": {
        "timestamp": "2026-06-18T23:06:46.996598",
        "country_name": "Albania",
        "author": "",
        "author_id": "7790ce1c-1819-4081-a6fb-98bec85dd63d",
        "validated": false,
        "ranking": [
          [
            "Togo",
            0.2204633206129074
          ],
          [
            "Antigua & Barbuda",
            0.09979511797428131
          ],
          [
            "Vanuatu",
            0.09402443468570709
          ],
          [
            "Chile",
            0.07371727377176285
          ],
          [
            "Malawi",
            0.0586421936750412
          ],
          [
            "Bahrain",
            0.05658349394798279
          ],
          [
            "Albania",
            0.03746555373072624
          ],
          [
            "Israel",
            0.0312229972332716
          ],
          [
            "Myanmar",
            0.028656886890530586
          ],
          [
            "Benin",
            0.027829427272081375
          ],
          [
            "Vietnam",
            0.024638701230287552
          ],
          [
            "United States Virgin Islands",
            0.024536605924367905
          ],
          [
            "Portugal",
            0.0181133933365345
          ],
          [
            "Belize",
            0.017305411398410797
          ],
          [
            "Dominica",
            0.017190106213092804
          ],
          [
            "Faroe Islands",
            0.011761300265789032
          ],
          [
            "Martinique",
            0.009293092414736748
          ],
          [
            "Argentina",
            0.008438875898718834
          ],
          [
            "Finland",
            0.008187011815607548
          ],
          [
            "Thailand",
            0.008001402951776981
          ],
          [
            "Tunisia",
            0.007689292076975107
          ],
          [
            "Guyana",
            0.007068759761750698
          ],
          [
            "West Bank",
            0.00689525343477726
          ],
          [
            "Qatar",
            0.006786332465708256
          ],
          [
            "Sao Tome and Principe",
            0.006704769097268581
          ],
          [
            "Namibia",
            0.006415062118321657
          ],
          [
            "Moldova",
            0.004888072609901428
          ],
          [
            "Sweden",
            0.004608757793903351
          ],
          [
            "Solomon Islands",
            0.004348404239863157
          ],
          [
            "Cape Verde",
            0.0034616829361766577
          ],
          [
            "New Zealand",
            0.003184192581102252
          ],
          [
            "Equatorial Guinea",
            0.003059081733226776
          ],
          [
            "Spain",
            0.002305153524503112
          ],
          [
            "Serbia",
            0.0021503018215298653
          ],
          [
            "United Kingdom",
            0.002104393905028701
          ],
          [
            "Ecuador",
            0.0021015179809182882
          ],
          [
            "Sri Lanka",
            0.0018859402043744922
          ],
          [
            "Mozambique",
            0.0018815530929714441
          ],
          [
            "Saudi Arabia",
            0.0018397207604721189
          ],
          [
            "Somalia",
            0.0017799973720684648
          ],
          [
            "Heard and McDonald Islands",
            0.0016778026474639773
          ],
          [
            "South Korea",
            0.0015364611754193902
          ],
          [
            "Taiwan",
            0.001414354657754302
          ],
          [
            "Mayotte",
            0.0013289661146700382
          ],
          [
            "Saint Lucia",
            0.0013039316982030869
          ],
          [
            "Bahamas",
            0.0012727014254778624
          ],
          [
            "Timor-Leste",
            0.0011302930070087314
          ],
          [
            "Greenland",
            0.0010918170446529984
          ],
          [
            "Philippines",
            0.0010839136084541678
          ],
          [
            "Palau",
            0.0010804540943354368
          ],
          [
            "Turkmenistan",
            0.0010797620052471757
          ],
          [
            "Paraguay",
            0.001050539081916213
          ],
          [
            "Peru",
            0.001016895635984838
          ],
          [
            "Comoros",
            0.0009804248111322522
          ],
          [
            "Czech Republic",
            0.0007559348596259952
          ],
          [
            "Barbados",
            0.0006868872442282736
          ],
          [
            "Oman",
            0.0006729761953465641
          ],
          [
            "Eritrea",
            0.0006300346576608717
          ],
          [
            "Lithuania",
            0.0005759191699326038
          ],
          [
            "Uzbekistan",
            0.000571320706512779
          ],
          [
            "Turkey",
            0.0005664379568770528
          ],
          [
            "Japan",
            0.0005109402118250728
          ],
          [
            "Guam",
            0.0004757429414894432
          ],
          [
            "Colombia",
            0.0004453542933333665
          ],
          [
            "Indonesia",
            0.0004372837720438838
          ],
          [
            "Puerto Rico",
            0.00042726576793938875
          ],
          [
            "Netherlands Antilles",
            0.0004167635925114155
          ],
          [
            "Libya",
            0.000398355012293905
          ],
          [
            "Guadeloupe",
            0.0003889260406140238
          ],
          [
            "Laos",
            0.00038215721724554896
          ],
          [
            "Luxembourg",
            0.0003719392407219857
          ],
          [
            "Bosnia & Herzegovina",
            0.0003699207736644894
          ],
          [
            "Romania",
            0.00036321449442766607
          ],
          [
            "Egypt",
            0.0003613019362092018
          ],
          [
            "Mali",
            0.00035258184652775526
          ],
          [
            "Suriname",
            0.0003473321266938001
          ],
          [
            "Madagascar",
            0.0003373812069185078
          ],
          [
            "Mexico",
            0.00033624607021920383
          ],
          [
            "Malaysia",
            0.00033266859827563167
          ],
          [
            "Georgia",
            0.000327559799188748
          ],
          [
            "Reunion",
            0.00032507951254956424
          ],
          [
            "Bangladesh",
            0.0003238615463487804
          ],
          [
            "Svalbard",
            0.0003146226517856121
          ],
          [
            "El Salvador",
            0.0002878803643397987
          ],
          [
            "Ethiopia",
            0.00028180330991744995
          ],
          [
            "Trinidad and Tobago",
            0.00028034616843797266
          ],
          [
            "Congo",
            0.00028007361106574535
          ],
          [
            "Slovakia",
            0.00027539770235307515
          ],
          [
            "Liberia",
            0.00027402807609178126
          ],
          [
            "South Georgia Islands",
            0.0002695867442525923
          ],
          [
            "Cameroon",
            0.0002682403428480029
          ],
          [
            "Iran",
            0.0002671869588084519
          ],
          [
            "India",
            0.0002630872477311641
          ],
          [
            "Kenya",
            0.0002460577816236764
          ],
          [
            "Italy",
            0.00024398048117291182
          ],
          [
            "Armenia",
            0.0002396643249085173
          ],
          [
            "Fiji",
            0.00023812193830963224
          ],
          [
            "New Caledonia",
            0.0002363959647482261
          ],
          [
            "Mongolia",
            0.00021111207024659961
          ],
          [
            "Rwanda",
            0.00020880303054582328
          ],
          [
            "Latvia",
            0.0002072749484796077
          ],
          [
            "Iraq",
            0.00020535696239676327
          ],
          [
            "United States of America",
            0.00020529939502011985
          ],
          [
            "Yemen",
            0.0001946343545569107
          ],
          [
            "Cuba",
            0.0001932965824380517
          ],
          [
            "Croatia",
            0.00017890383605845273
          ],
          [
            "Montenegro",
            0.0001750905066728592
          ],
          [
            "Kazakhstan",
            0.0001657435786910355
          ],
          [
            "Switzerland",
            0.0001655274973018095
          ],
          [
            "Azerbaijan",
            0.00014912406913936138
          ],
          [
            "Papua New Guinea",
            0.0001477830664953217
          ],
          [
            "Norway",
            0.00014569962513633072
          ],
          [
            "Brazil",
            0.00014501869736704975
          ],
          [
            "North Macedonia",
            0.00014484068378806114
          ],
          [
            "Western Sahara",
            0.0001445417874492705
          ],
          [
            "Ghana",
            0.00014381085929926485
          ],
          [
            "Syria",
            0.00014212213864084333
          ],
          [
            "DR Congo",
            0.00014111972996033728
          ],
          [
            "Honduras",
            0.00013808015501126647
          ],
          [
            "Jamaica",
            0.000137028080644086
          ],
          [
            "Turks and Caicos Islands",
            0.00013388217485044152
          ],
          [
            "Guatemala",
            0.0001313161919824779
          ],
          [
            "Burundi",
            0.00012995945871807635
          ],
          [
            "Dominican Republic",
            0.00012809186591766775
          ],
          [
            "Jordan",
            0.00012702090316452086
          ],
          [
            "Bhutan",
            0.00012323127884883434
          ],
          [
            "Ukraine",
            0.00012232709559611976
          ],
          [
            "Cyprus",
            0.00012076781422365457
          ],
          [
            "French Guiana",
            0.00011947059829253703
          ],
          [
            "Australia",
            0.00011703542259056121
          ],
          [
            "South Sudan",
            0.0001167402442661114
          ],
          [
            "Samoa",
            0.00011579046258702874
          ],
          [
            "Poland",
            0.00011508412717375904
          ],
          [
            "Algeria",
            0.0001147404545918107
          ],
          [
            "Nepal",
            0.00010749017383204773
          ],
          [
            "Botswana",
            0.00010695925448089838
          ],
          [
            "Bolivia",
            0.00010055139136966318
          ],
          [
            "Belgium",
            9.942278120433912e-05
          ],
          [
            "Zimbabwe",
            9.913419489748776e-05
          ],
          [
            "Angola",
            9.721991955302656e-05
          ],
          [
            "United Arab Emirates",
            9.635301830712706e-05
          ],
          [
            "Kyrgyzstan",
            9.61947298492305e-05
          ],
          [
            "Tajikistan",
            9.531878458801657e-05
          ],
          [
            "Mauritania",
            9.401406714459881e-05
          ],
          [
            "Eswatini",
            9.372294880449772e-05
          ],
          [
            "Chad",
            9.301895624957979e-05
          ],
          [
            "Venezuela",
            8.973127114586532e-05
          ],
          [
            "Costa Rica",
            8.813377644401044e-05
          ],
          [
            "Senegal",
            8.653551776660606e-05
          ],
          [
            "Burkina Faso",
            8.388653805013746e-05
          ],
          [
            "Russia",
            8.37514380691573e-05
          ],
          [
            "Isle of Man",
            8.33034428069368e-05
          ],
          [
            "Uruguay",
            8.231173706008121e-05
          ],
          [
            "Sierra Leone",
            8.20642089820467e-05
          ],
          [
            "Guinea",
            7.948339771246538e-05
          ],
          [
            "Gabon",
            7.657954120077193e-05
          ],
          [
            "Brunei",
            7.503193046431988e-05
          ],
          [
            "Central African Republic",
            7.490981806768104e-05
          ],
          [
            "North Korea",
            7.270056084962562e-05
          ],
          [
            "Uganda",
            6.676660996163264e-05
          ],
          [
            "Lebanon",
            6.577563908649608e-05
          ],
          [
            "Tanzania",
            6.468798528658226e-05
          ],
          [
            "Slovenia",
            6.405359454220161e-05
          ],
          [
            "Kuwait",
            6.252828461583704e-05
          ],
          [
            "Madeira Islands",
            6.190822750795633e-05
          ],
          [
            "Hong Kong",
            6.0909846069989726e-05
          ],
          [
            "Canada",
            6.046500857337378e-05
          ],
          [
            "Nicaragua",
            6.012872836436145e-05
          ],
          [
            "Niger",
            6.011508230585605e-05
          ],
          [
            "Afghanistan",
            5.954746302450076e-05
          ],
          [
            "Panama",
            5.6315100664505735e-05
          ],
          [
            "Nigeria",
            5.133958256919868e-05
          ],
          [
            "Estonia",
            5.133204467711039e-05
          ],
          [
            "Cambodia",
            5.034216883359477e-05
          ],
          [
            "Lesotho",
            4.7531550080748275e-05
          ],
          [
            "France",
            4.524916221271269e-05
          ],
          [
            "Gambia",
            3.796679084189236e-05
          ],
          [
            "Sudan",
            3.726235809153877e-05
          ],
          [
            "Hungary",
            3.5426557587925345e-05
          ],
          [
            "Germany",
            3.523605118971318e-05
          ],
          [
            "Ireland",
            3.412974183447659e-05
          ],
          [
            "Côte d'Ivoire",
            3.407581971259788e-05
          ],
          [
            "Austria",
            3.390906204003841e-05
          ],
          [
            "Falkland Islands",
            3.128369280602783e-05
          ],
          [
            "Netherlands",
            2.7948006390943192e-05
          ],
          [
            "Zambia",
            2.73353471129667e-05
          ],
          [
            "Belarus",
            2.680642865016125e-05
          ],
          [
            "Djibouti",
            2.612544449220877e-05
          ],
          [
            "Guinea-Bissau",
            2.527619290049188e-05
          ],
          [
            "Iceland",
            2.3848589989938773e-05
          ],
          [
            "South Africa",
            2.031650183198508e-05
          ],
          [
            "Bulgaria",
            1.7526048395666294e-05
          ],
          [
            "China",
            1.5168196114245802e-05
          ],
          [
            "Greece",
            1.2193708244012669e-05
          ],
          [
            "Pakistan",
            1.1393263775971718e-05
          ],
          [
            "Morocco",
            8.415571755904239e-06
          ],
          [
            "Denmark",
            5.719525233871536e-06
          ],
          [
            "Kiribati",
            4.657805675378768e-06
          ],
          [
            "Haiti",
            4.5053643589199055e-06
          ]
        ]
      },
      "geometry": {
        "type": "MultiLineString",
        "coordinates": [
          [
            [
              21.162679425837325,
              49.36842105263156
            ],
            [
              21.162679425837325,
              50.373205741626805
            ],
            [
              21.162679425837325,
              51.23444976076553
            ],
            [
              21.162679425837325,
              51.952153110047846
            ],
            [
              21.162679425837325,
              52.66985645933016
            ],
            [
              21.162679425837325,
              53.67464114832535
            ],
            [
              21.30622009569379,
              54.96650717703346
            ],
            [
              21.30622009569379,
              55.827751196172244
            ],
            [
              21.73684210526315,
              56.976076555023894
            ],
            [
              21.73684210526315,
              58.1244019138756
            ],
            [
              21.880382775119614,
              59.12918660287079
            ],
            [
              22.598086124401902,
              60.42105263157896
            ],
            [
              23.028708133971293,
              61.425837320574146
            ],
            [
              23.459330143540654,
              62.0
            ],
            [
              24.033492822966508,
              62.0
            ],
            [
              24.751196172248797,
              62.0
            ],
            [
              25.755980861244012,
              61.85645933014354
            ],
            [
              26.4736842105263,
              61.56937799043061
            ],
            [
              27.191387559808618,
              61.425837320574146
            ],
            [
              27.62200956937798,
              61.28229665071768
            ],
            [
              28.196172248803833,
              61.28229665071768
            ],
            [
              28.77033492822966,
              60.56459330143542
            ],
            [
              29.488038277511947,
              59.70334928229664
            ],
            [
              29.918660287081337,
              58.985645933014325
            ],
            [
              30.492822966507163,
              57.98086124401914
            ],
            [
              31.354066985645943,
              56.54545454545456
            ],
            [
              31.64114832535884,
              55.68421052631578
            ],
            [
              31.92822966507177,
              54.67942583732054
            ],
            [
              32.21531100478467,
              53.961722488038276
            ],
            [
              32.21531100478467,
              53.24401913875596
            ],
            [
              32.50239234449759,
              52.23923444976077
            ],
            [
              32.50239234449759,
              51.37799043062199
            ],
            [
              32.07177033492823,
              51.23444976076553
            ],
            [
              31.92822966507177,
              50.80382775119614
            ],
            [
              32.07177033492823,
              50.373205741626805
            ],
            [
              32.21531100478467,
              49.65550239234449
            ],
            [
              33.07655502392345,
              47.933014354066984
            ],
            [
              33.65071770334927,
              46.64114832535881
            ],
            [
              34.2248803827751,
              45.92344497607655
            ],
            [
              34.65550239234449,
              44.91866028708131
            ],
            [
              35.08612440191388,
              44.057416267942585
            ],
            [
              36.090909090909065,
              42.62200956937795
            ],
            [
              36.66507177033492,
              41.617224880382764
            ],
            [
              37.5263157894737,
              40.61244019138758
            ],
            [
              38.67464114832535,
              39.03349282296648
            ],
            [
              39.53588516746413,
              37.741626794258366
            ],
            [
              40.11004784688993,
              36.593301435406715
            ],
            [
              40.54066985645932,
              35.301435406698545
            ],
            [
              40.25358851674639,
              33.43540669856458
            ],
            [
              39.53588516746413,
              30.995215311004756
            ],
            [
              38.67464114832535,
              27.69377990430621
            ],
            [
              37.81339712918657,
              24.822966507177
            ],
            [
              37.81339712918657,
              22.5263157894737
            ],
            [
              37.81339712918657,
              20.803827751196195
            ],
            [
              37.81339712918657,
              19.511961722488024
            ],
            [
              37.95693779904303,
              18.076555023923447
            ],
            [
              38.100478468899496,
              16.784688995215333
            ],
            [
              38.38755980861242,
              16.21052631578948
            ],
            [
              38.531100478468886,
              15.77990430622009
            ],
            [
              38.531100478468886,
              15.062200956937772
            ],
            [
              38.531100478468886,
              14.488038277511919
            ],
            [
              38.531100478468886,
              13.483253588516732
            ],
            [
              38.531100478468886,
              12.334928229665081
            ],
            [
              38.531100478468886,
              11.330143540669837
            ],
            [
              38.531100478468886,
              10.755980861243984
            ],
            [
              38.67464114832535,
              10.32535885167465
            ],
            [
              38.81818181818181,
              9.751196172248797
            ],
            [
              39.53588516746413,
              8.74641148325361
            ],
            [
              40.11004784688993,
              7.885167464114829
            ],
            [
              40.827751196172244,
              6.880382775119642
            ],
            [
              41.4019138755981,
              5.588516746411472
            ],
            [
              41.976076555023894,
              4.583732057416228
            ],
            [
              42.69377990430621,
              3.1483253588516504
            ],
            [
              42.837320574162675,
              2.5741626794258536
            ],
            [
              42.26315789473682,
              2.0
            ],
            [
              40.11004784688993,
              2.0
            ],
            [
              36.090909090909065,
              2.0
            ],
            [
              35.08612440191388,
              2.0
            ],
            [
              34.511961722488024,
              3.4354066985645773
            ],
            [
              34.08133971291866,
              4.727272727272748
            ],
            [
              33.65071770334927,
              5.732057416267935
            ],
            [
              33.363636363636374,
              6.736842105263122
            ],
            [
              33.07655502392345,
              7.311004784688976
            ],
            [
              32.64593301435406,
              7.5980861244019025
            ],
            [
              32.21531100478467,
              8.028708133971293
            ],
            [
              30.77990430622009,
              8.459330143540683
            ],
            [
              29.918660287081337,
              8.60287081339709
            ],
            [
              29.488038277511947,
              9.03349282296648
            ],
            [
              28.77033492822966,
              10.181818181818187
            ],
            [
              28.33971291866027,
              10.755980861243984
            ],
            [
              28.196172248803833,
              11.186602870813374
            ],
            [
              27.047846889952154,
              13.339712918660268
            ],
            [
              26.617224880382764,
              13.770334928229659
            ],
            [
              26.330143540669837,
              14.775119617224846
            ],
            [
              25.61244019138755,
              15.77990430622009
            ],
            [
              25.32535885167465,
              16.641148325358813
            ],
            [
              25.038277511961724,
              17.215311004784667
            ],
            [
              24.751196172248797,
              17.645933014354057
            ],
            [
              24.607655502392333,
              18.22009569377991
            ],
            [
              24.17703349282297,
              18.794258373205707
            ],
            [
              24.033492822966508,
              19.36842105263156
            ],
            [
              23.889952153110045,
              19.942583732057415
            ],
            [
              23.889952153110045,
              20.51674641148327
            ],
            [
              23.889952153110045,
              21.23444976076553
            ],
            [
              23.889952153110045,
              22.239234449760772
            ],
            [
              23.74641148325358,
              23.67464114832535
            ],
            [
              23.459330143540654,
              25.25358851674639
            ],
            [
              23.028708133971293,
              26.258373205741634
            ],
            [
              22.88516746411483,
              27.26315789473682
            ],
            [
              22.598086124401902,
              28.1244019138756
            ],
            [
              22.45454545454544,
              28.985645933014325
            ],
            [
              22.45454545454544,
              29.55980861244018
            ],
            [
              22.45454545454544,
              30.133971291866033
            ],
            [
              22.023923444976077,
              30.995215311004756
            ],
            [
              22.023923444976077,
              31.712918660287073
            ],
            [
              22.023923444976077,
              32.43062200956939
            ],
            [
              22.023923444976077,
              33.00478468899519
            ],
            [
              21.880382775119614,
              34.00956937799043
            ],
            [
              21.880382775119614,
              35.01435406698562
            ],
            [
              21.880382775119614,
              36.162679425837325
            ],
            [
              21.880382775119614,
              37.16746411483251
            ],
            [
              21.880382775119614,
              38.60287081339709
            ],
            [
              21.880382775119614,
              39.89473684210526
            ],
            [
              21.880382775119614,
              41.4736842105263
            ],
            [
              21.880382775119614,
              42.76555023923447
            ],
            [
              21.880382775119614,
              43.48325358851673
            ],
            [
              21.880382775119614,
              44.488038277511976
            ],
            [
              21.880382775119614,
              45.06220095693777
            ],
            [
              21.880382775119614,
              45.77990430622009
            ],
            [
              21.880382775119614,
              46.78468899521533
            ],
            [
              21.73684210526315,
              47.35885167464113
            ],
            [
              21.73684210526315,
              48.50717703349284
            ],
            [
              21.449760765550224,
              49.511961722488024
            ],
            [
              21.30622009569379,
              50.08612440191388
            ]
          ]
        ]
      }
    }
  ]
}