{
  "type": "FeatureCollection",
  "crs": {
    "type": "name",
    "properties": {
      "name": "urn:ogc:def:crs:OGC:1.3:CRS84"
    }
  },
  "features": [
    {
      "type": "Feature",
      "properties": {
        "timestamp": "2026-07-15T20:12:43.120578",
        "country_name": "Albania",
        "author": "",
        "author_id": "ee831fe5-6c62-42bd-be08-54b210d88c27",
        "validated": false,
        "ranking": [
          [
            "Albania",
            0.4391196072101593
          ],
          [
            "Malawi",
            0.08042315393686295
          ],
          [
            "Togo",
            0.08040912449359894
          ],
          [
            "Vanuatu",
            0.056468963623046875
          ],
          [
            "Bahrain",
            0.04599093273282051
          ],
          [
            "Vietnam",
            0.03203056752681732
          ],
          [
            "Tunisia",
            0.020117392763495445
          ],
          [
            "Qatar",
            0.015050816349685192
          ],
          [
            "Antigua & Barbuda",
            0.014689241535961628
          ],
          [
            "Belize",
            0.014101308770477772
          ],
          [
            "Portugal",
            0.013745008036494255
          ],
          [
            "Sri Lanka",
            0.011997919529676437
          ],
          [
            "Chile",
            0.009786246344447136
          ],
          [
            "Argentina",
            0.0090620256960392
          ],
          [
            "Myanmar",
            0.008883013390004635
          ],
          [
            "Finland",
            0.007858850993216038
          ],
          [
            "Israel",
            0.007808662485331297
          ],
          [
            "Guyana",
            0.0076825800351798534
          ],
          [
            "Faroe Islands",
            0.007177751045674086
          ],
          [
            "Serbia",
            0.007107637822628021
          ],
          [
            "United States Virgin Islands",
            0.007104987744241953
          ],
          [
            "Dominica",
            0.006938369013369083
          ],
          [
            "Thailand",
            0.006672513671219349
          ],
          [
            "South Korea",
            0.005703184753656387
          ],
          [
            "Martinique",
            0.005048069637268782
          ],
          [
            "Benin",
            0.004927774425595999
          ],
          [
            "Saudi Arabia",
            0.004097934812307358
          ],
          [
            "West Bank",
            0.003965435549616814
          ],
          [
            "United Kingdom",
            0.003887861967086792
          ],
          [
            "Bahamas",
            0.0028006955981254578
          ],
          [
            "Philippines",
            0.0027759179938584566
          ],
          [
            "Sweden",
            0.0025222457479685545
          ],
          [
            "Namibia",
            0.0025115523021668196
          ],
          [
            "Heard and McDonald Islands",
            0.0019767035264521837
          ],
          [
            "Moldova",
            0.0018635778687894344
          ],
          [
            "Sao Tome and Principe",
            0.0017419276991859078
          ],
          [
            "Luxembourg",
            0.001588303130120039
          ],
          [
            "Solomon Islands",
            0.001554933376610279
          ],
          [
            "Cape Verde",
            0.0015299944207072258
          ],
          [
            "Saint Lucia",
            0.0015266319969668984
          ],
          [
            "New Zealand",
            0.0015251083532348275
          ],
          [
            "Peru",
            0.001478061662055552
          ],
          [
            "Eritrea",
            0.0014455197378993034
          ],
          [
            "Mozambique",
            0.0011581066064536572
          ],
          [
            "Colombia",
            0.0011518776882439852
          ],
          [
            "Barbados",
            0.001060554408468306
          ],
          [
            "Somalia",
            0.0010468041291460395
          ],
          [
            "Spain",
            0.0010210133623331785
          ],
          [
            "Turkmenistan",
            0.0009310716413892806
          ],
          [
            "Italy",
            0.0009206333779729903
          ],
          [
            "Greenland",
            0.0008665045024827123
          ],
          [
            "Equatorial Guinea",
            0.0008315294398926198
          ],
          [
            "Czech Republic",
            0.0008277901215478778
          ],
          [
            "Ethiopia",
            0.0008163612801581621
          ],
          [
            "Mayotte",
            0.0007621495751664042
          ],
          [
            "Ecuador",
            0.0007556287455372512
          ],
          [
            "Laos",
            0.000712575507350266
          ],
          [
            "Timor-Leste",
            0.0007102484232746065
          ],
          [
            "Mexico",
            0.0006940072635188699
          ],
          [
            "Comoros",
            0.0006664598477073014
          ],
          [
            "Uzbekistan",
            0.0006314297788776457
          ],
          [
            "Taiwan",
            0.0006236866465769708
          ],
          [
            "Lithuania",
            0.000618381192907691
          ],
          [
            "El Salvador",
            0.0005997340776957572
          ],
          [
            "Romania",
            0.0005381265073083341
          ],
          [
            "Bangladesh",
            0.0004959761281497777
          ],
          [
            "Turkey",
            0.0004671294882427901
          ],
          [
            "United States of America",
            0.00045596135896630585
          ],
          [
            "Georgia",
            0.00044718230492435396
          ],
          [
            "Oman",
            0.0004449354310054332
          ],
          [
            "Svalbard",
            0.0003778423124458641
          ],
          [
            "Paraguay",
            0.00032983976416289806
          ],
          [
            "Mali",
            0.00032089147134684026
          ],
          [
            "Iraq",
            0.00029397328034974635
          ],
          [
            "Mongolia",
            0.00028870717505924404
          ],
          [
            "Puerto Rico",
            0.00028347971965558827
          ],
          [
            "Indonesia",
            0.00028245587600395083
          ],
          [
            "Libya",
            0.00027074702666141093
          ],
          [
            "Ghana",
            0.0002608326612971723
          ],
          [
            "South Georgia Islands",
            0.00025561166694387794
          ],
          [
            "Cuba",
            0.00025523165822960436
          ],
          [
            "Congo",
            0.00025040292530320585
          ],
          [
            "Palau",
            0.0002462026895955205
          ],
          [
            "Suriname",
            0.00024305740953423083
          ],
          [
            "Slovakia",
            0.00023363994841929525
          ],
          [
            "Kenya",
            0.00023107965535018593
          ],
          [
            "Tajikistan",
            0.00022042921045795083
          ],
          [
            "Japan",
            0.00021879894484300166
          ],
          [
            "Cameroon",
            0.00021262530935928226
          ],
          [
            "Reunion",
            0.00020810590649489313
          ],
          [
            "Guadeloupe",
            0.00020386252435855567
          ],
          [
            "Guatemala",
            0.00020232080714777112
          ],
          [
            "Fiji",
            0.00019983445235993713
          ],
          [
            "Russia",
            0.00019834742124658078
          ],
          [
            "Rwanda",
            0.00019655513460747898
          ],
          [
            "Montenegro",
            0.00019047906971536577
          ],
          [
            "Croatia",
            0.00018723469111137092
          ],
          [
            "Iran",
            0.00018497924611438066
          ],
          [
            "Netherlands Antilles",
            0.00018145366630051285
          ],
          [
            "Switzerland",
            0.00017502260743640363
          ],
          [
            "Liberia",
            0.0001742724416544661
          ],
          [
            "Bosnia & Herzegovina",
            0.0001726137415971607
          ],
          [
            "Algeria",
            0.00017141032731160522
          ],
          [
            "Trinidad and Tobago",
            0.00016707337636034936
          ],
          [
            "Eswatini",
            0.0001670195342740044
          ],
          [
            "DR Congo",
            0.0001640313712414354
          ],
          [
            "Bhutan",
            0.0001636232773307711
          ],
          [
            "Chad",
            0.00015945233462844044
          ],
          [
            "Latvia",
            0.0001592860498931259
          ],
          [
            "French Guiana",
            0.00015755949425511062
          ],
          [
            "Guam",
            0.00015524699119850993
          ],
          [
            "Kazakhstan",
            0.00015010792412795126
          ],
          [
            "Dominican Republic",
            0.00014695014397148043
          ],
          [
            "Papua New Guinea",
            0.00014229454973246902
          ],
          [
            "Australia",
            0.00013977913476992399
          ],
          [
            "Norway",
            0.00013926340034231544
          ],
          [
            "Burundi",
            0.00013863608182873577
          ],
          [
            "Malaysia",
            0.00013767900236416608
          ],
          [
            "India",
            0.0001363561168545857
          ],
          [
            "Nepal",
            0.00013599715020973235
          ],
          [
            "Armenia",
            0.00013529937132261693
          ],
          [
            "Samoa",
            0.00012381099804770201
          ],
          [
            "Bolivia",
            0.00012203827645862475
          ],
          [
            "Jordan",
            0.00011991227074759081
          ],
          [
            "Egypt",
            0.00011858534708153456
          ],
          [
            "Syria",
            0.00011805973917944357
          ],
          [
            "Madagascar",
            0.00011656195420073345
          ],
          [
            "North Macedonia",
            0.00011450667807366699
          ],
          [
            "Honduras",
            0.00011357332550687715
          ],
          [
            "Jamaica",
            0.00011016600910807028
          ],
          [
            "Turks and Caicos Islands",
            0.00010883602226385847
          ],
          [
            "Senegal",
            0.00010273615771438926
          ],
          [
            "Gabon",
            9.990764374379069e-05
          ],
          [
            "New Caledonia",
            8.993115625344217e-05
          ],
          [
            "Angola",
            8.79624203662388e-05
          ],
          [
            "Cyprus",
            8.579916902817786e-05
          ],
          [
            "Zimbabwe",
            8.52434168336913e-05
          ],
          [
            "Uganda",
            8.484956924803555e-05
          ],
          [
            "Ukraine",
            8.384697139263153e-05
          ],
          [
            "Kyrgyzstan",
            8.225894998759031e-05
          ],
          [
            "Azerbaijan",
            8.20242494228296e-05
          ],
          [
            "Lesotho",
            8.157833508448675e-05
          ],
          [
            "Germany",
            7.891325367381796e-05
          ],
          [
            "Canada",
            7.471898425137624e-05
          ],
          [
            "Western Sahara",
            7.414614083245397e-05
          ],
          [
            "Brazil",
            7.255118543980643e-05
          ],
          [
            "Ireland",
            7.118633220670745e-05
          ],
          [
            "Guinea",
            7.063747762003914e-05
          ],
          [
            "Poland",
            7.005676161497831e-05
          ],
          [
            "Isle of Man",
            7.000159530434757e-05
          ],
          [
            "Botswana",
            6.91678433213383e-05
          ],
          [
            "France",
            6.800581468269229e-05
          ],
          [
            "Sierra Leone",
            6.496342393802479e-05
          ],
          [
            "Brunei",
            6.375007069436833e-05
          ],
          [
            "Burkina Faso",
            6.268802098929882e-05
          ],
          [
            "Mauritania",
            6.256403139559552e-05
          ],
          [
            "South Sudan",
            6.181438220664859e-05
          ],
          [
            "Kuwait",
            6.036932973074727e-05
          ],
          [
            "Cambodia",
            5.937435707892291e-05
          ],
          [
            "Niger",
            5.7818582718027756e-05
          ],
          [
            "Costa Rica",
            5.723322101403028e-05
          ],
          [
            "Yemen",
            5.6651730119483545e-05
          ],
          [
            "Nicaragua",
            5.576513285632245e-05
          ],
          [
            "Central African Republic",
            5.275146395433694e-05
          ],
          [
            "Venezuela",
            5.157657869858667e-05
          ],
          [
            "Sudan",
            5.133093145559542e-05
          ],
          [
            "United Arab Emirates",
            5.0907969125546515e-05
          ],
          [
            "Belgium",
            4.94081832584925e-05
          ],
          [
            "Nigeria",
            4.88900623167865e-05
          ],
          [
            "Netherlands",
            4.8343797971028835e-05
          ],
          [
            "Madeira Islands",
            4.605305002769455e-05
          ],
          [
            "Lebanon",
            4.422286292538047e-05
          ],
          [
            "Hong Kong",
            4.231421189615503e-05
          ],
          [
            "Falkland Islands",
            4.1974912164732814e-05
          ],
          [
            "Uruguay",
            3.95081915485207e-05
          ],
          [
            "Estonia",
            3.915164415957406e-05
          ],
          [
            "Iceland",
            3.6024939618073404e-05
          ],
          [
            "North Korea",
            3.5774395655607805e-05
          ],
          [
            "Panama",
            3.380088310223073e-05
          ],
          [
            "Gambia",
            3.237827695556916e-05
          ],
          [
            "Belarus",
            3.046302117581945e-05
          ],
          [
            "Tanzania",
            2.8218810257385485e-05
          ],
          [
            "Afghanistan",
            2.6709238227340393e-05
          ],
          [
            "Zambia",
            2.6303778213332407e-05
          ],
          [
            "China",
            2.594402940303553e-05
          ],
          [
            "Côte d'Ivoire",
            2.5343229935970157e-05
          ],
          [
            "Guinea-Bissau",
            2.4117500288411975e-05
          ],
          [
            "Slovenia",
            2.367657180002425e-05
          ],
          [
            "Djibouti",
            2.3305410650209524e-05
          ],
          [
            "Austria",
            2.1439218471641652e-05
          ],
          [
            "Hungary",
            1.9731116481125355e-05
          ],
          [
            "Greece",
            1.9308412447571754e-05
          ],
          [
            "South Africa",
            1.7477499568485655e-05
          ],
          [
            "Kiribati",
            1.397406686010072e-05
          ],
          [
            "Bulgaria",
            1.1593176168389618e-05
          ],
          [
            "Denmark",
            1.0906018360401504e-05
          ],
          [
            "Morocco",
            8.513451575709041e-06
          ],
          [
            "Pakistan",
            7.519560313085094e-06
          ],
          [
            "Haiti",
            4.592531240632525e-06
          ]
        ]
      },
      "geometry": {
        "type": "MultiLineString",
        "coordinates": [
          [
            [
              25.362831858407077,
              62.0
            ],
            [
              24.964601769911468,
              61.60176991150445
            ],
            [
              24.831858407079636,
              61.203539823008896
            ],
            [
              24.300884955752196,
              60.80530973451329
            ],
            [
              23.902654867256587,
              60.672566371681455
            ],
            [
              23.504424778761035,
              60.141592920354014
            ],
            [
              23.106194690265482,
              59.477876106194685
            ],
            [
              22.973451327433594,
              59.07964601769913
            ],
            [
              22.840707964601762,
              58.68141592920358
            ],
            [
              22.442477876106153,
              58.28318584070797
            ],
            [
              22.176991150442433,
              57.48672566371681
            ],
            [
              21.911504424778713,
              56.55752212389382
            ],
            [
              21.51327433628316,
              55.893805309734546
            ],
            [
              20.98230088495572,
              55.49557522123894
            ],
            [
              20.716814159292,
              54.964601769911496
            ],
            [
              20.584070796460168,
              54.566371681415944
            ],
            [
              20.318584070796447,
              54.16814159292039
            ],
            [
              20.053097345132727,
              53.76991150442478
            ],
            [
              19.787610619469007,
              53.37168141592923
            ],
            [
              19.654867256637175,
              52.84070796460179
            ],
            [
              19.654867256637175,
              52.30973451327435
            ],
            [
              19.654867256637175,
              51.77876106194691
            ],
            [
              19.654867256637175,
              51.24778761061947
            ],
            [
              19.654867256637175,
              50.716814159292085
            ],
            [
              19.654867256637175,
              50.185840707964644
            ],
            [
              19.654867256637175,
              49.6548672566372
            ],
            [
              19.654867256637175,
              49.12389380530976
            ],
            [
              19.654867256637175,
              48.59292035398232
            ],
            [
              19.92035398230084,
              48.19469026548677
            ],
            [
              20.318584070796447,
              47.79646017699116
            ],
            [
              20.716814159292,
              47.66371681415933
            ],
            [
              21.11504424778761,
              47.39823008849561
            ],
            [
              21.51327433628316,
              46.86725663716817
            ],
            [
              21.77876106194688,
              46.33628318584073
            ],
            [
              21.911504424778713,
              45.93805309734512
            ],
            [
              22.0442477876106,
              45.407079646017735
            ],
            [
              22.0442477876106,
              44.876106194690294
            ],
            [
              22.0442477876106,
              44.34513274336285
            ],
            [
              22.0442477876106,
              43.81415929203541
            ],
            [
              22.0442477876106,
              43.28318584070797
            ],
            [
              22.0442477876106,
              42.75221238938053
            ],
            [
              22.0442477876106,
              42.22123893805309
            ],
            [
              22.0442477876106,
              41.69026548672571
            ],
            [
              22.0442477876106,
              41.159292035398266
            ],
            [
              22.0442477876106,
              40.628318584070826
            ],
            [
              22.0442477876106,
              39.964601769911496
            ],
            [
              22.0442477876106,
              39.16814159292039
            ],
            [
              22.0442477876106,
              38.63716814159295
            ],
            [
              22.0442477876106,
              38.10619469026551
            ],
            [
              22.0442477876106,
              37.57522123893807
            ],
            [
              22.0442477876106,
              37.04424778761063
            ],
            [
              22.0442477876106,
              36.51327433628319
            ],
            [
              22.0442477876106,
              35.849557522123916
            ],
            [
              22.0442477876106,
              35.318584070796476
            ],
            [
              22.0442477876106,
              34.787610619469035
            ],
            [
              21.911504424778713,
              34.256637168141594
            ],
            [
              21.911504424778713,
              33.725663716814154
            ],
            [
              21.911504424778713,
              33.19469026548677
            ],
            [
              21.64601769911505,
              32.66371681415933
            ],
            [
              21.51327433628316,
              32.13274336283189
            ],
            [
              21.38053097345133,
              31.73451327433628
            ],
            [
              21.38053097345133,
              31.203539823008896
            ],
            [
              21.24778761061944,
              30.672566371681455
            ],
            [
              21.11504424778761,
              30.141592920354014
            ],
            [
              20.716814159292,
              29.610619469026574
            ],
            [
              20.716814159292,
              29.079646017699133
            ],
            [
              20.716814159292,
              28.41592920353986
            ],
            [
              20.716814159292,
              27.88495575221242
            ],
            [
              20.716814159292,
              27.22123893805309
            ],
            [
              20.716814159292,
              26.690265486725707
            ],
            [
              20.716814159292,
              26.159292035398266
            ],
            [
              20.716814159292,
              25.628318584070826
            ],
            [
              20.584070796460168,
              25.230088495575217
            ],
            [
              20.584070796460168,
              24.566371681415944
            ],
            [
              20.584070796460168,
              24.035398230088504
            ],
            [
              20.716814159292,
              23.37168141592923
            ],
            [
              21.11504424778761,
              22.973451327433622
            ],
            [
              21.51327433628316,
              22.70796460176996
            ],
            [
              21.77876106194688,
              22.30973451327435
            ],
            [
              22.176991150442433,
              22.04424778761063
            ],
            [
              22.575221238938042,
              21.646017699115077
            ],
            [
              22.973451327433594,
              21.24778761061947
            ],
            [
              23.238938053097314,
              20.849557522123916
            ],
            [
              23.371681415929203,
              20.451327433628308
            ],
            [
              23.504424778761035,
              19.920353982300867
            ],
            [
              23.106194690265482,
              19.654867256637203
            ],
            [
              22.575221238938042,
              19.654867256637203
            ],
            [
              21.911504424778713,
              19.654867256637203
            ],
            [
              21.51327433628316,
              19.920353982300867
            ],
            [
              21.51327433628316,
              19.389380530973483
            ],
            [
              21.911504424778713,
              18.725663716814154
            ],
            [
              22.30973451327432,
              18.460176991150433
            ],
            [
              22.973451327433594,
              17.929203539822993
            ],
            [
              23.769911504424755,
              17.39823008849561
            ],
            [
              24.168141592920307,
              17.26548672566372
            ],
            [
              24.566371681415916,
              17.13274336283189
            ],
            [
              24.964601769911468,
              17.0
            ],
            [
              25.49557522123891,
              16.601769911504448
            ],
            [
              26.02654867256635,
              16.601769911504448
            ],
            [
              26.4247787610619,
              16.46902654867256
            ],
            [
              26.955752212389342,
              15.805309734513287
            ],
            [
              27.486725663716783,
              15.008849557522126
            ],
            [
              27.752212389380503,
              14.610619469026574
            ],
            [
              27.88495575221239,
              14.212389380531022
            ],
            [
              28.017699115044223,
              13.681415929203581
            ],
            [
              28.150442477876112,
              13.283185840707972
            ],
            [
              28.283185840707944,
              12.752212389380531
            ],
            [
              28.415929203539775,
              12.35398230088498
            ],
            [
              28.548672566371664,
              11.823008849557539
            ],
            [
              28.548672566371664,
              11.292035398230098
            ],
            [
              28.681415929203496,
              10.628318584070826
            ],
            [
              28.681415929203496,
              9.964601769911496
            ],
            [
              28.681415929203496,
              9.433628318584056
            ],
            [
              28.681415929203496,
              8.637168141592952
            ],
            [
              28.681415929203496,
              8.10619469026551
            ],
            [
              28.681415929203496,
              7.57522123893807
            ],
            [
              28.548672566371664,
              7.176991150442518
            ],
            [
              28.548672566371664,
              6.6460176991150774
            ],
            [
              28.415929203539775,
              6.2477876106194685
            ],
            [
              28.415929203539775,
              5.716814159292085
            ],
            [
              28.283185840707944,
              5.318584070796476
            ],
            [
              28.150442477876112,
              4.787610619469035
            ],
            [
              28.150442477876112,
              4.256637168141594
            ],
            [
              28.150442477876112,
              3.7256637168141538
            ],
            [
              28.150442477876112,
              3.19469026548677
            ],
            [
              28.283185840707944,
              2.6637168141593293
            ],
            [
              28.681415929203496,
              2.398230088495609
            ],
            [
              29.079646017699105,
              2.1327433628318886
            ],
            [
              29.477876106194657,
              2.0
            ],
            [
              29.876106194690266,
              2.1327433628318886
            ],
            [
              30.008849557522097,
              2.5309734513274407
            ],
            [
              30.141592920353986,
              2.9292035398229928
            ],
            [
              30.40707964601765,
              3.3274336283186017
            ],
            [
              30.93805309734509,
              3.3274336283186017
            ],
            [
              31.3362831858407,
              3.19469026548677
            ],
            [
              31.99999999999997,
              2.796460176991161
            ],
            [
              32.53097345132741,
              2.398230088495609
            ],
            [
              33.06194690265485,
              2.1327433628318886
            ],
            [
              33.460176991150405,
              2.0
            ],
            [
              33.725663716814125,
              2.5309734513274407
            ],
            [
              33.725663716814125,
              3.0619469026548813
            ],
            [
              33.991150442477846,
              3.592920353982322
            ],
            [
              33.991150442477846,
              4.123893805309763
            ],
            [
              33.725663716814125,
              4.654867256637203
            ],
            [
              33.32743362831857,
              4.920353982300867
            ],
            [
              33.194690265486685,
              5.318584070796476
            ],
            [
              33.06194690265485,
              5.849557522123916
            ],
            [
              33.06194690265485,
              6.513274336283189
            ],
            [
              33.06194690265485,
              7.0442477876106295
            ],
            [
              33.06194690265485,
              7.57522123893807
            ],
            [
              33.06194690265485,
              8.238938053097343
            ],
            [
              33.06194690265485,
              8.902654867256672
            ],
            [
              33.06194690265485,
              9.566371681415944
            ],
            [
              33.06194690265485,
              10.097345132743385
            ],
            [
              33.32743362831857,
              10.628318584070826
            ],
            [
              33.592920353982294,
              11.026548672566378
            ],
            [
              33.592920353982294,
              11.557522123893818
            ],
            [
              33.592920353982294,
              12.088495575221259
            ],
            [
              33.991150442477846,
              12.486725663716811
            ],
            [
              34.522123893805286,
              12.752212389380531
            ],
            [
              34.92035398230084,
              13.017699115044252
            ],
            [
              35.716814159292,
              13.017699115044252
            ],
            [
              36.38053097345133,
              13.283185840707972
            ],
            [
              37.973451327433594,
              13.681415929203581
            ],
            [
              40.76106194690263,
              14.743362831858406
            ],
            [
              42.48672566371678,
              15.672566371681455
            ],
            [
              43.15044247787611,
              16.336283185840728
            ],
            [
              43.415929203539775,
              16.86725663716817
            ],
            [
              43.681415929203496,
              17.53097345132744
            ],
            [
              43.946902654867216,
              17.929203539822993
            ],
            [
              43.946902654867216,
              18.460176991150433
            ],
            [
              43.946902654867216,
              18.991150442477874
            ],
            [
              43.946902654867216,
              19.522123893805315
            ],
            [
              43.946902654867216,
              20.053097345132755
            ],
            [
              43.946902654867216,
              20.716814159292085
            ],
            [
              44.079646017699105,
              21.24778761061947
            ],
            [
              44.21238938053094,
              21.646017699115077
            ],
            [
              44.345132743362825,
              22.04424778761063
            ],
            [
              44.345132743362825,
              22.57522123893807
            ],
            [
              44.345132743362825,
              23.10619469026551
            ],
            [
              44.21238938053094,
              23.769911504424783
            ],
            [
              43.415929203539775,
              24.699115044247833
            ],
            [
              42.48672566371678,
              25.761061946902657
            ],
            [
              42.08849557522123,
              26.292035398230098
            ],
            [
              41.4247787610619,
              26.95575221238937
            ],
            [
              40.6283185840708,
              27.6194690265487
            ],
            [
              40.09734513274336,
              28.15044247787614
            ],
            [
              39.43362831858403,
              28.68141592920358
            ],
            [
              38.769911504424755,
              29.345132743362853
            ],
            [
              38.3716814159292,
              29.743362831858406
            ],
            [
              37.84070796460176,
              30.274336283185846
            ],
            [
              37.44247787610615,
              30.805309734513287
            ],
            [
              37.0442477876106,
              31.336283185840728
            ],
            [
              36.91150442477871,
              31.86725663716817
            ],
            [
              36.64601769911505,
              32.39823008849561
            ],
            [
              36.51327433628316,
              32.79646017699116
            ],
            [
              36.38053097345133,
              33.19469026548677
            ],
            [
              36.24778761061944,
              33.725663716814154
            ],
            [
              35.98230088495572,
              34.38938053097348
            ],
            [
              35.98230088495572,
              34.920353982300924
            ],
            [
              35.716814159292,
              35.45132743362831
            ],
            [
              35.58407079646017,
              36.24778761061947
            ],
            [
              35.31858407079645,
              36.77876106194691
            ],
            [
              35.05309734513273,
              37.57522123893807
            ],
            [
              34.78761061946901,
              38.37168141592923
            ],
            [
              34.522123893805286,
              39.16814159292039
            ],
            [
              34.123893805309734,
              40.23008849557522
            ],
            [
              33.991150442477846,
              40.628318584070826
            ],
            [
              33.725663716814125,
              41.2920353982301
            ],
            [
              33.460176991150405,
              41.82300884955754
            ],
            [
              33.32743362831857,
              42.6194690265487
            ],
            [
              32.929203539822964,
              43.68141592920358
            ],
            [
              32.79646017699113,
              44.477876106194685
            ],
            [
              32.53097345132741,
              45.274336283185846
            ],
            [
              32.398230088495524,
              46.07079646017701
            ],
            [
              32.26548672566369,
              46.60176991150445
            ],
            [
              32.13274336283186,
              47.26548672566372
            ],
            [
              32.13274336283186,
              48.06194690265488
            ],
            [
              32.13274336283186,
              49.12389380530976
            ],
            [
              31.99999999999997,
              49.920353982300924
            ],
            [
              31.99999999999997,
              50.98230088495575
            ],
            [
              31.73451327433625,
              51.77876106194691
            ],
            [
              31.3362831858407,
              53.23893805309734
            ],
            [
              30.80530973451326,
              54.300884955752224
            ],
            [
              30.539823008849538,
              55.097345132743385
            ],
            [
              30.274336283185818,
              55.893805309734546
            ],
            [
              29.876106194690266,
              56.55752212389382
            ],
            [
              29.212389380530936,
              57.08849557522126
            ],
            [
              28.283185840707944,
              57.75221238938053
            ],
            [
              27.221238938053062,
              58.41592920353986
            ],
            [
              26.29203539823007,
              58.68141592920358
            ],
            [
              25.76106194690263,
              58.81415929203541
            ],
            [
              25.097345132743357,
              59.07964601769913
            ],
            [
              24.566371681415916,
              59.21238938053102
            ],
            [
              24.168141592920307,
              59.34513274336285
            ],
            [
              23.504424778761035,
              59.477876106194685
            ]
          ]
        ]
      }
    }
  ]
}