{
  "type": "FeatureCollection",
  "crs": {
    "type": "name",
    "properties": {
      "name": "urn:ogc:def:crs:OGC:1.3:CRS84"
    }
  },
  "features": [
    {
      "type": "Feature",
      "properties": {
        "timestamp": "2026-07-17T20:54:22.570526",
        "country_name": "Algeria",
        "author": "",
        "author_id": "a73faacd-bdee-4b15-9f21-c2f2399be087",
        "validated": false,
        "ranking": [
          [
            "Algeria",
            0.07649564743041992
          ],
          [
            "Qatar",
            0.045718125998973846
          ],
          [
            "South Korea",
            0.04550515487790108
          ],
          [
            "Iraq",
            0.042337190359830856
          ],
          [
            "Belarus",
            0.04182415455579758
          ],
          [
            "Mauritania",
            0.030883878469467163
          ],
          [
            "Benin",
            0.02461760677397251
          ],
          [
            "Martinique",
            0.024469397962093353
          ],
          [
            "Belize",
            0.02344042807817459
          ],
          [
            "Tunisia",
            0.020263297483325005
          ],
          [
            "Sri Lanka",
            0.018195180222392082
          ],
          [
            "DR Congo",
            0.01705683395266533
          ],
          [
            "Ghana",
            0.017021378502249718
          ],
          [
            "Romania",
            0.01645149476826191
          ],
          [
            "Angola",
            0.016266994178295135
          ],
          [
            "Myanmar",
            0.014624225907027721
          ],
          [
            "Eswatini",
            0.013143070973455906
          ],
          [
            "Zimbabwe",
            0.012846670113503933
          ],
          [
            "Uganda",
            0.012729326263070107
          ],
          [
            "Dominica",
            0.012468698434531689
          ],
          [
            "Serbia",
            0.01237655058503151
          ],
          [
            "West Bank",
            0.012374591082334518
          ],
          [
            "Bahrain",
            0.012075237929821014
          ],
          [
            "Guyana",
            0.011549754999577999
          ],
          [
            "Reunion",
            0.011417633853852749
          ],
          [
            "Colombia",
            0.011325346305966377
          ],
          [
            "Antigua & Barbuda",
            0.011306611821055412
          ],
          [
            "Saudi Arabia",
            0.01124158501625061
          ],
          [
            "Greenland",
            0.010098942555487156
          ],
          [
            "Saint Lucia",
            0.010095552541315556
          ],
          [
            "Egypt",
            0.009375871159136295
          ],
          [
            "United States Virgin Islands",
            0.009086400270462036
          ],
          [
            "Guatemala",
            0.008882061578333378
          ],
          [
            "Peru",
            0.008745324797928333
          ],
          [
            "Malawi",
            0.008718361146748066
          ],
          [
            "Rwanda",
            0.008678692393004894
          ],
          [
            "Portugal",
            0.008581100963056087
          ],
          [
            "Albania",
            0.008399556390941143
          ],
          [
            "Argentina",
            0.00834677368402481
          ],
          [
            "Suriname",
            0.008308811113238335
          ],
          [
            "Western Sahara",
            0.007338544353842735
          ],
          [
            "Uruguay",
            0.006620446220040321
          ],
          [
            "Iran",
            0.006579320877790451
          ],
          [
            "Togo",
            0.006560861598700285
          ],
          [
            "Lesotho",
            0.006517668720334768
          ],
          [
            "Paraguay",
            0.006246545817703009
          ],
          [
            "Nicaragua",
            0.00534845981746912
          ],
          [
            "Guadeloupe",
            0.005032939836382866
          ],
          [
            "Luxembourg",
            0.004668401088565588
          ],
          [
            "Lithuania",
            0.004663025960326195
          ],
          [
            "Ethiopia",
            0.004643562249839306
          ],
          [
            "Vanuatu",
            0.004611997399479151
          ],
          [
            "Croatia",
            0.004392463248223066
          ],
          [
            "Kuwait",
            0.004307193215936422
          ],
          [
            "Heard and McDonald Islands",
            0.004172398243099451
          ],
          [
            "Mali",
            0.004134688060730696
          ],
          [
            "Mozambique",
            0.004090229514986277
          ],
          [
            "Azerbaijan",
            0.003954410552978516
          ],
          [
            "Namibia",
            0.003926496487110853
          ],
          [
            "Turkmenistan",
            0.003770202398300171
          ],
          [
            "Cape Verde",
            0.003755811834707856
          ],
          [
            "Burundi",
            0.0037429039366543293
          ],
          [
            "Liberia",
            0.00360519764944911
          ],
          [
            "Spain",
            0.00359453447163105
          ],
          [
            "Faroe Islands",
            0.0035200517158955336
          ],
          [
            "Taiwan",
            0.0034384310711175203
          ],
          [
            "Moldova",
            0.003406425705179572
          ],
          [
            "Comoros",
            0.003376308362931013
          ],
          [
            "Senegal",
            0.0031193720642477274
          ],
          [
            "Vietnam",
            0.0031017691362649202
          ],
          [
            "Gabon",
            0.0030823659617453814
          ],
          [
            "France",
            0.0029837442561984062
          ],
          [
            "Thailand",
            0.0029182974249124527
          ],
          [
            "Ireland",
            0.0028350085485726595
          ],
          [
            "Chad",
            0.0027974513359367847
          ],
          [
            "Sweden",
            0.002658351557329297
          ],
          [
            "Czech Republic",
            0.002655407413840294
          ],
          [
            "Germany",
            0.002605229616165161
          ],
          [
            "Burkina Faso",
            0.0025955280289053917
          ],
          [
            "French Guiana",
            0.0025522878859192133
          ],
          [
            "Djibouti",
            0.0025496454909443855
          ],
          [
            "Ecuador",
            0.002521446207538247
          ],
          [
            "Bhutan",
            0.0023259553126990795
          ],
          [
            "Netherlands Antilles",
            0.00225579971447587
          ],
          [
            "Sao Tome and Principe",
            0.0021315645426511765
          ],
          [
            "Bahamas",
            0.0021169057581573725
          ],
          [
            "South Sudan",
            0.002093312796205282
          ],
          [
            "Switzerland",
            0.0020896107889711857
          ],
          [
            "Kenya",
            0.0020345854572951794
          ],
          [
            "Chile",
            0.0020260929595679045
          ],
          [
            "North Macedonia",
            0.001993825426325202
          ],
          [
            "Somalia",
            0.0019895252771675587
          ],
          [
            "Barbados",
            0.001964445924386382
          ],
          [
            "Bolivia",
            0.0019507207907736301
          ],
          [
            "Botswana",
            0.0018546396167948842
          ],
          [
            "United Kingdom",
            0.0017796579049900174
          ],
          [
            "Kazakhstan",
            0.0017686837818473577
          ],
          [
            "Côte d'Ivoire",
            0.0017340575577691197
          ],
          [
            "Canada",
            0.00171341048553586
          ],
          [
            "Poland",
            0.0017073297640308738
          ],
          [
            "Estonia",
            0.0017060666577890515
          ],
          [
            "Sierra Leone",
            0.0016389911761507392
          ],
          [
            "Solomon Islands",
            0.0016326105687767267
          ],
          [
            "Finland",
            0.0016213181661441922
          ],
          [
            "Jordan",
            0.0015414850786328316
          ],
          [
            "Guam",
            0.0015363746788352728
          ],
          [
            "El Salvador",
            0.0015202228678390384
          ],
          [
            "Tajikistan",
            0.0014376636827364564
          ],
          [
            "Philippines",
            0.0013978341594338417
          ],
          [
            "Latvia",
            0.0013900070916861296
          ],
          [
            "Tanzania",
            0.0013481201604008675
          ],
          [
            "Bosnia & Herzegovina",
            0.001343927695415914
          ],
          [
            "Bangladesh",
            0.0012960120802745223
          ],
          [
            "Papua New Guinea",
            0.0012795798247680068
          ],
          [
            "Fiji",
            0.001193883130326867
          ],
          [
            "Norway",
            0.0011809555580839515
          ],
          [
            "Mayotte",
            0.0011771550634875894
          ],
          [
            "Hong Kong",
            0.0011306110536679626
          ],
          [
            "New Zealand",
            0.0011126898461952806
          ],
          [
            "Israel",
            0.0011084892321377993
          ],
          [
            "Syria",
            0.0011034455383196473
          ],
          [
            "Russia",
            0.0010770272929221392
          ],
          [
            "Mongolia",
            0.0010644327849149704
          ],
          [
            "Australia",
            0.0010569534497335553
          ],
          [
            "Montenegro",
            0.0010500031057745218
          ],
          [
            "Svalbard",
            0.001039707800373435
          ],
          [
            "Libya",
            0.0009426755714230239
          ],
          [
            "Equatorial Guinea",
            0.0009059123694896698
          ],
          [
            "Oman",
            0.0009020449942909181
          ],
          [
            "Puerto Rico",
            0.0008974183583632112
          ],
          [
            "Turkey",
            0.0008882920956239104
          ],
          [
            "Slovakia",
            0.0008864219416864216
          ],
          [
            "Belgium",
            0.0008743302896618843
          ],
          [
            "Georgia",
            0.000842689594719559
          ],
          [
            "United States of America",
            0.0008290570694953203
          ],
          [
            "Costa Rica",
            0.0008167534833773971
          ],
          [
            "Indonesia",
            0.0007905382080934942
          ],
          [
            "Niger",
            0.0007398651214316487
          ],
          [
            "Sudan",
            0.0007332776440307498
          ],
          [
            "Timor-Leste",
            0.0007329839863814414
          ],
          [
            "Congo",
            0.0006881519802846014
          ],
          [
            "Italy",
            0.0006720186211168766
          ],
          [
            "Kyrgyzstan",
            0.0006715317722409964
          ],
          [
            "Cuba",
            0.0006567506352439523
          ],
          [
            "Isle of Man",
            0.0006566128577105701
          ],
          [
            "Laos",
            0.0006445333128795028
          ],
          [
            "North Korea",
            0.0006328449817374349
          ],
          [
            "Armenia",
            0.000632087467238307
          ],
          [
            "Ukraine",
            0.0006235138862393796
          ],
          [
            "South Georgia Islands",
            0.0006159736658446491
          ],
          [
            "Brazil",
            0.000614421209320426
          ],
          [
            "Jamaica",
            0.0006036552949808538
          ],
          [
            "Central African Republic",
            0.000600978615693748
          ],
          [
            "South Africa",
            0.0005940155242569745
          ],
          [
            "Netherlands",
            0.0005728204268962145
          ],
          [
            "Uzbekistan",
            0.0005670557147823274
          ],
          [
            "Malaysia",
            0.0005597229464910924
          ],
          [
            "Yemen",
            0.0005488718161359429
          ],
          [
            "Trinidad and Tobago",
            0.0005458577070385218
          ],
          [
            "Cameroon",
            0.0005410037701949477
          ],
          [
            "Dominican Republic",
            0.0005270279361866415
          ],
          [
            "Mexico",
            0.0005125502357259393
          ],
          [
            "Cambodia",
            0.0004667419125325978
          ],
          [
            "Brunei",
            0.0004433908616192639
          ],
          [
            "United Arab Emirates",
            0.0004416495794430375
          ],
          [
            "Falkland Islands",
            0.00044133380288258195
          ],
          [
            "Honduras",
            0.0004396845179144293
          ],
          [
            "Zambia",
            0.00037640644586645067
          ],
          [
            "Samoa",
            0.0003763368004001677
          ],
          [
            "Eritrea",
            0.0003616746107582003
          ],
          [
            "Turks and Caicos Islands",
            0.0003461439919192344
          ],
          [
            "India",
            0.000342410960001871
          ],
          [
            "Venezuela",
            0.0003298723604530096
          ],
          [
            "New Caledonia",
            0.00032767379889264703
          ],
          [
            "Iceland",
            0.000326961453538388
          ],
          [
            "Panama",
            0.0003107612137682736
          ],
          [
            "Guinea",
            0.0003025630139745772
          ],
          [
            "Lebanon",
            0.00028917775489389896
          ],
          [
            "Madeira Islands",
            0.0002790309372358024
          ],
          [
            "Greece",
            0.00026941378018818796
          ],
          [
            "Gambia",
            0.0002301172207808122
          ],
          [
            "Nepal",
            0.00022750915377400815
          ],
          [
            "Madagascar",
            0.00021315959747880697
          ],
          [
            "Cyprus",
            0.00020856955961789936
          ],
          [
            "Japan",
            0.00020744559878949076
          ],
          [
            "Nigeria",
            0.00018057835404761136
          ],
          [
            "Palau",
            0.00017127659521065652
          ],
          [
            "Afghanistan",
            0.00017033409676514566
          ],
          [
            "China",
            0.00016388056974392384
          ],
          [
            "Denmark",
            0.00015449515194632113
          ],
          [
            "Guinea-Bissau",
            0.00013992526510264724
          ],
          [
            "Hungary",
            0.00011689320672303438
          ],
          [
            "Slovenia",
            0.00010198678501183167
          ],
          [
            "Bulgaria",
            9.40015961532481e-05
          ],
          [
            "Austria",
            6.979772297199816e-05
          ],
          [
            "Pakistan",
            6.0842787206638604e-05
          ],
          [
            "Morocco",
            4.226983219268732e-05
          ],
          [
            "Kiribati",
            3.851891597150825e-05
          ],
          [
            "Haiti",
            1.8249405911774375e-05
          ]
        ]
      },
      "geometry": {
        "type": "MultiLineString",
        "coordinates": [
          [
            [
              16.453441295546554,
              25.744939271255078
            ],
            [
              16.21052631578948,
              26.10931174089069
            ],
            [
              16.089068825910886,
              26.473684210526358
            ],
            [
              15.724696356275274,
              26.595141700404838
            ],
            [
              15.360323886639662,
              26.83805668016197
            ],
            [
              14.874493927125513,
              26.959514170040507
            ],
            [
              14.26720647773277,
              27.080971659919044
            ],
            [
              13.538461538461547,
              27.080971659919044
            ],
            [
              13.052631578947341,
              27.323886639676118
            ],
            [
              12.566801619433193,
              27.323886639676118
            ],
            [
              12.080971659918987,
              27.323886639676118
            ],
            [
              11.595141700404838,
              27.323886639676118
            ],
            [
              11.10931174089069,
              27.323886639676118
            ],
            [
              10.623481781376483,
              27.323886639676118
            ],
            [
              10.016194331983797,
              27.323886639676118
            ],
            [
              9.287449392712517,
              27.20242914979758
            ],
            [
              8.923076923076906,
              27.080971659919044
            ],
            [
              8.437246963562757,
              26.959514170040507
            ],
            [
              8.072874493927088,
              26.83805668016197
            ],
            [
              7.587044534412939,
              26.595141700404838
            ],
            [
              7.1012145748987905,
              26.230769230769226
            ],
            [
              6.736842105263122,
              26.10931174089069
            ],
            [
              6.37246963562751,
              25.866396761133615
            ],
            [
              6.008097165991899,
              25.502024291498003
            ],
            [
              5.400809716599156,
              24.89473684210526
            ],
            [
              5.157894736842081,
              24.53036437246965
            ],
            [
              4.79352226720647,
              24.0445344129555
            ],
            [
              4.550607287449395,
              23.68016194331983
            ],
            [
              4.307692307692264,
              23.31578947368422
            ],
            [
              4.0647773279351895,
              22.951417004048608
            ],
            [
              3.821862348178115,
              22.465587044534402
            ],
            [
              3.5789473684210407,
              21.979757085020253
            ],
            [
              3.3360323886639662,
              21.61538461538464
            ],
            [
              3.214574898785429,
              21.129554655870436
            ],
            [
              3.093117408906892,
              20.643724696356287
            ],
            [
              2.8502024291497605,
              20.157894736842138
            ],
            [
              2.7287449392712233,
              19.672064777327932
            ],
            [
              2.607287449392686,
              19.186234817813784
            ],
            [
              2.3643724696356117,
              18.57894736842104
            ],
            [
              2.3643724696356117,
              17.971659919028355
            ],
            [
              2.2429149797570744,
              17.485829959514206
            ],
            [
              2.121457489878537,
              17.0
            ],
            [
              2.121457489878537,
              16.392712550607314
            ],
            [
              2.0,
              16.028340080971702
            ],
            [
              2.0,
              15.42105263157896
            ],
            [
              2.0,
              14.93522267206481
            ],
            [
              2.0,
              14.327935222672068
            ],
            [
              2.0,
              13.720647773279381
            ],
            [
              2.0,
              12.991902834008101
            ],
            [
              2.0,
              12.506072874493952
            ],
            [
              2.3643724696356117,
              12.020242914979747
            ],
            [
              2.3643724696356117,
              11.534412955465598
            ],
            [
              2.485829959514149,
              11.170040485829986
            ],
            [
              2.8502024291497605,
              10.68421052631578
            ],
            [
              2.9716599190282977,
              10.198380566801632
            ],
            [
              3.3360323886639662,
              9.83400809716602
            ],
            [
              3.4574898785425034,
              9.469635627530351
            ],
            [
              3.700404858299578,
              9.10526315789474
            ],
            [
              3.9433198380566523,
              8.740890688259128
            ],
            [
              4.307692307692264,
              8.37651821862346
            ],
            [
              4.6720647773279325,
              8.133603238866385
            ],
            [
              4.914979757085007,
              7.647773279352236
            ],
            [
              5.2793522267206185,
              7.404858299595162
            ],
            [
              5.64372469635623,
              7.0404858299594935
            ],
            [
              6.251012145748973,
              6.676113360323882
            ],
            [
              6.615384615384585,
              6.31174089068827
            ],
            [
              7.1012145748987905,
              6.068825910931196
            ],
            [
              7.708502024291477,
              5.582995951417047
            ],
            [
              8.072874493927088,
              5.461538461538453
            ],
            [
              8.558704453441294,
              5.097165991902841
            ],
            [
              9.044534412955443,
              4.854251012145767
            ],
            [
              9.651821862348186,
              4.489878542510155
            ],
            [
              10.137651821862335,
              4.368421052631561
            ],
            [
              10.623481781376483,
              4.125506072874487
            ],
            [
              10.987854251012152,
              3.882591093117412
            ],
            [
              11.4736842105263,
              3.761133603238875
            ],
            [
              12.080971659918987,
              3.5182186234818005
            ],
            [
              12.566801619433193,
              3.275303643724726
            ],
            [
              12.931174089068804,
              3.153846153846189
            ],
            [
              13.538461538461547,
              3.0323886639675948
            ],
            [
              14.024291497975696,
              2.9109311740891144
            ],
            [
              14.388663967611308,
              2.7894736842105203
            ],
            [
              14.874493927125513,
              2.668016194331983
            ],
            [
              15.4817813765182,
              2.546558704453446
            ],
            [
              15.846153846153811,
              2.4251012145749087
            ],
            [
              16.331983805668017,
              2.4251012145749087
            ],
            [
              16.817813765182166,
              2.3036437246963715
            ],
            [
              17.42510121457491,
              2.3036437246963715
            ],
            [
              17.910931174089058,
              2.3036437246963715
            ],
            [
              18.396761133603206,
              2.3036437246963715
            ],
            [
              18.882591093117412,
              2.3036437246963715
            ],
            [
              19.36842105263156,
              2.3036437246963715
            ],
            [
              19.85425101214571,
              2.3036437246963715
            ],
            [
              20.21862348178138,
              2.546558704453446
            ],
            [
              20.704453441295527,
              2.546558704453446
            ],
            [
              21.190283400809676,
              2.668016194331983
            ],
            [
              21.676113360323882,
              2.7894736842105203
            ],
            [
              22.16194331983803,
              3.0323886639675948
            ],
            [
              22.647773279352236,
              3.153846153846189
            ],
            [
              23.133603238866385,
              3.275303643724726
            ],
            [
              23.619433198380534,
              3.275303643724726
            ],
            [
              24.10526315789474,
              3.5182186234818005
            ],
            [
              24.59109311740889,
              3.6396761133603377
            ],
            [
              25.076923076923038,
              3.6396761133603377
            ],
            [
              25.562753036437243,
              3.6396761133603377
            ],
            [
              26.048582995951392,
              3.6396761133603377
            ],
            [
              26.53441295546554,
              3.761133603238875
            ],
            [
              27.020242914979747,
              3.761133603238875
            ],
            [
              27.26315789473682,
              4.125506072874487
            ],
            [
              27.627530364372433,
              4.246963562753081
            ],
            [
              27.9919028340081,
              4.611336032388692
            ],
            [
              28.11336032388664,
              4.975708502024304
            ],
            [
              28.47773279352225,
              5.582995951417047
            ],
            [
              28.599190283400787,
              6.068825910931196
            ],
            [
              28.720647773279325,
              6.554655870445345
            ],
            [
              29.085020242914993,
              7.0404858299594935
            ],
            [
              29.085020242914993,
              7.526315789473699
            ],
            [
              29.449392712550605,
              7.890688259109311
            ],
            [
              29.570850202429142,
              8.497975708502054
            ],
            [
              29.570850202429142,
              8.983805668016203
            ],
            [
              29.935222672064754,
              9.348178137651814
            ],
            [
              30.05668016194329,
              9.83400809716602
            ],
            [
              30.178137651821828,
              10.319838056680169
            ],
            [
              30.42105263157896,
              10.805668016194318
            ],
            [
              30.906882591093108,
              10.805668016194318
            ],
            [
              31.392712550607257,
              10.805668016194318
            ],
            [
              31.878542510121463,
              10.562753036437243
            ],
            [
              32.12145748987854,
              10.198380566801632
            ],
            [
              32.48582995951415,
              10.076923076923094
            ],
            [
              32.85020242914976,
              9.955465587044557
            ],
            [
              33.336032388663966,
              9.712550607287483
            ],
            [
              33.94331983805665,
              9.348178137651814
            ],
            [
              34.307692307692264,
              9.10526315789474
            ],
            [
              34.79352226720647,
              8.862348178137665
            ],
            [
              35.400809716599156,
              8.497975708502054
            ],
            [
              35.765182186234824,
              8.25506072874498
            ],
            [
              36.25101214574897,
              8.012145748987848
            ],
            [
              36.73684210526312,
              7.769230769230774
            ],
            [
              37.22267206477733,
              7.404858299595162
            ],
            [
              37.70850202429148,
              7.1619433198380875
            ],
            [
              38.19433198380568,
              6.797570850202419
            ],
            [
              38.68016194331983,
              6.554655870445345
            ],
            [
              39.16599190283398,
              6.190283400809733
            ],
            [
              39.651821862348186,
              5.825910931174121
            ],
            [
              40.137651821862335,
              5.582995951417047
            ],
            [
              40.62348178137648,
              5.218623481781378
            ],
            [
              41.10931174089069,
              4.854251012145767
            ],
            [
              41.59514170040484,
              4.611336032388692
            ],
            [
              42.08097165991899,
              4.246963562753081
            ],
            [
              42.56680161943319,
              4.125506072874487
            ],
            [
              43.17408906882588,
              3.761133603238875
            ],
            [
              43.53846153846155,
              3.5182186234818005
            ],
            [
              44.024291497975696,
              3.275303643724726
            ],
            [
              44.510121457489845,
              3.153846153846189
            ],
            [
              44.99595141700405,
              2.9109311740891144
            ],
            [
              45.60323886639674,
              2.668016194331983
            ],
            [
              45.96761133603235,
              2.546558704453446
            ],
            [
              46.57489878542509,
              2.4251012145749087
            ],
            [
              46.9392712550607,
              2.3036437246963715
            ],
            [
              47.42510121457485,
              2.1821862348178342
            ],
            [
              47.91093117408906,
              2.1821862348178342
            ],
            [
              48.396761133603206,
              2.1821862348178342
            ],
            [
              48.88259109311741,
              2.1821862348178342
            ],
            [
              49.36842105263156,
              2.1821862348178342
            ],
            [
              49.85425101214571,
              2.1821862348178342
            ],
            [
              50.340080971659916,
              2.1821862348178342
            ],
            [
              50.825910931174064,
              2.1821862348178342
            ],
            [
              51.31174089068827,
              2.3036437246963715
            ],
            [
              51.79757085020242,
              2.3036437246963715
            ],
            [
              52.04048582995949,
              2.668016194331983
            ],
            [
              52.52631578947364,
              2.668016194331983
            ],
            [
              53.01214574898785,
              2.7894736842105203
            ],
            [
              53.37651821862346,
              3.0323886639675948
            ],
            [
              53.74089068825907,
              3.153846153846189
            ],
            [
              54.22672064777328,
              3.153846153846189
            ],
            [
              54.712550607287426,
              3.275303643724726
            ],
            [
              55.198380566801575,
              3.5182186234818005
            ],
            [
              55.68421052631578,
              3.6396761133603377
            ],
            [
              56.17004048582993,
              3.761133603238875
            ],
            [
              56.29149797570847,
              4.125506072874487
            ],
            [
              56.655870445344135,
              4.246963562753081
            ],
            [
              56.89878542510121,
              4.611336032388692
            ],
            [
              57.26315789473682,
              4.7327935222672295
            ],
            [
              57.38461538461536,
              5.097165991902841
            ],
            [
              57.74898785425103,
              5.218623481781378
            ],
            [
              57.87044534412951,
              5.582995951417047
            ],
            [
              58.234817813765176,
              5.704453441295527
            ],
            [
              58.35627530364371,
              6.068825910931196
            ],
            [
              58.720647773279325,
              6.433198380566807
            ],
            [
              59.08502024291499,
              6.919028340081013
            ],
            [
              59.57085020242914,
              7.404858299595162
            ],
            [
              59.69230769230768,
              7.890688259109311
            ],
            [
              60.05668016194329,
              8.012145748987848
            ],
            [
              60.17813765182183,
              8.497975708502054
            ],
            [
              60.299595141700365,
              8.862348178137665
            ],
            [
              60.663967611336034,
              9.348178137651814
            ],
            [
              60.78542510121457,
              9.955465587044557
            ],
            [
              61.028340080971645,
              10.319838056680169
            ],
            [
              61.14979757085018,
              10.927125506072912
            ],
            [
              61.27125506072872,
              11.291497975708523
            ],
            [
              61.514170040485794,
              11.89878542510121
            ],
            [
              61.63562753036433,
              12.384615384615415
            ],
            [
              61.63562753036433,
              12.870445344129564
            ],
            [
              61.757085020242926,
              13.356275303643713
            ],
            [
              61.757085020242926,
              13.842105263157919
            ],
            [
              62.0,
              14.20647773279353
            ],
            [
              62.0,
              14.692307692307736
            ],
            [
              62.0,
              15.299595141700422
            ],
            [
              62.0,
              15.785425101214571
            ],
            [
              62.0,
              16.271255060728777
            ],
            [
              61.878542510121406,
              16.757085020242926
            ],
            [
              61.878542510121406,
              17.242914979757074
            ],
            [
              61.757085020242926,
              17.72874493927128
            ],
            [
              61.63562753036433,
              18.21457489878543
            ],
            [
              61.514170040485794,
              18.57894736842104
            ],
            [
              61.39271255060726,
              19.064777327935246
            ],
            [
              61.14979757085018,
              19.672064777327932
            ],
            [
              61.028340080971645,
              20.0364372469636
            ],
            [
              60.78542510121457,
              20.52226720647775
            ],
            [
              60.54251012145744,
              21.129554655870436
            ],
            [
              60.299595141700365,
              21.61538461538464
            ],
            [
              60.05668016194329,
              21.979757085020253
            ],
            [
              59.813765182186216,
              22.465587044534402
            ],
            [
              59.57085020242914,
              23.072874493927145
            ],
            [
              59.32793522267207,
              23.437246963562757
            ],
            [
              58.9635627530364,
              24.0445344129555
            ],
            [
              58.720647773279325,
              24.53036437246965
            ],
            [
              58.47773279352225,
              25.016194331983797
            ],
            [
              58.11336032388664,
              25.502024291498003
            ],
            [
              57.87044534412951,
              25.987854251012152
            ],
            [
              57.62753036437243,
              26.473684210526358
            ],
            [
              57.38461538461536,
              26.959514170040507
            ],
            [
              57.141700404858284,
              27.323886639676118
            ],
            [
              56.77732793522267,
              27.809716599190324
            ],
            [
              56.53441295546554,
              28.295546558704473
            ],
            [
              56.17004048582993,
              28.90283400809716
            ],
            [
              55.927125506072855,
              29.267206477732827
            ],
            [
              55.68421052631578,
              29.753036437246976
            ],
            [
              55.441295546558706,
              30.238866396761125
            ],
            [
              55.076923076923094,
              30.846153846153868
            ],
            [
              54.83400809716596,
              31.21052631578948
            ],
            [
              54.46963562753035,
              31.69635627530363
            ],
            [
              54.22672064777328,
              32.182186234817834
            ],
            [
              53.9838056680162,
              32.66801619433198
            ],
            [
              53.619433198380534,
              33.275303643724726
            ],
            [
              53.37651821862346,
              33.63967611336034
            ],
            [
              53.01214574898785,
              34.12550607287449
            ],
            [
              52.52631578947364,
              34.61133603238869
            ],
            [
              52.04048582995949,
              35.21862348178138
            ],
            [
              51.67611336032388,
              35.70445344129553
            ],
            [
              51.31174089068827,
              36.068825910931196
            ],
            [
              50.9473684210526,
              36.554655870445345
            ],
            [
              50.58299595141699,
              37.04048582995949
            ],
            [
              50.21862348178138,
              37.5263157894737
            ],
            [
              49.73279352226717,
              38.133603238866385
            ],
            [
              49.611336032388635,
              38.497975708502054
            ],
            [
              49.246963562753024,
              38.74089068825913
            ],
            [
              49.00404858299595,
              39.10526315789474
            ],
            [
              48.76113360323882,
              39.46963562753035
            ],
            [
              48.518218623481744,
              39.95546558704456
            ],
            [
              48.15384615384613,
              40.19838056680163
            ],
            [
              48.032388663967595,
              40.56275303643724
            ],
            [
              47.78947368421052,
              40.92712550607291
            ],
            [
              47.546558704453446,
              41.41295546558706
            ],
            [
              47.18218623481778,
              41.655870445344135
            ],
            [
              47.06072874493924,
              42.02024291497975
            ],
            [
              46.817813765182166,
              42.50607287449395
            ],
            [
              46.453441295546554,
              42.9919028340081
            ],
            [
              46.21052631578948,
              43.35627530364371
            ],
            [
              45.84615384615381,
              43.84210526315792
            ],
            [
              45.60323886639674,
              44.32793522267207
            ],
            [
              45.36032388663966,
              44.813765182186216
            ],
            [
              45.11740890688259,
              45.29959514170042
            ],
            [
              44.87449392712551,
              45.78542510121457
            ],
            [
              44.510121457489845,
              46.392712550607314
            ],
            [
              44.14574898785423,
              46.87854251012146
            ],
            [
              44.024291497975696,
              47.242914979757074
            ],
            [
              43.659919028340084,
              47.72874493927128
            ],
            [
              43.41700404858295,
              48.21457489878543
            ],
            [
              43.17408906882588,
              48.700404858299635
            ],
            [
              43.05263157894734,
              49.186234817813784
            ],
            [
              42.68825910931173,
              49.67206477732793
            ],
            [
              42.56680161943319,
              50.15789473684214
            ],
            [
              42.32388663967612,
              50.765182186234824
            ],
            [
              42.08097165991899,
              51.129554655870436
            ],
            [
              41.83805668016191,
              51.61538461538464
            ],
            [
              41.59514170040484,
              52.10121457489879
            ],
            [
              41.352226720647764,
              52.58704453441294
            ],
            [
              41.10931174089069,
              53.072874493927145
            ],
            [
              40.98785425101215,
              53.558704453441294
            ],
            [
              40.74493927125502,
              54.16599190283404
            ],
            [
              40.502024291497946,
              54.53036437246965
            ],
            [
              40.38056680161941,
              55.0161943319838
            ],
            [
              40.137651821862335,
              55.502024291498
            ],
            [
              39.89473684210526,
              55.98785425101215
            ],
            [
              39.651821862348186,
              56.4736842105263
            ],
            [
              39.408906882591054,
              56.95951417004051
            ],
            [
              39.16599190283398,
              57.445344129554655
            ],
            [
              38.80161943319837,
              57.93117408906886
            ],
            [
              38.558704453441294,
              58.41700404858301
            ],
            [
              38.19433198380568,
              58.659919028340084
            ],
            [
              38.07287449392709,
              59.024291497975696
            ],
            [
              37.829959514170014,
              59.388663967611365
            ],
            [
              37.4655870445344,
              59.63157894736844
            ],
            [
              37.344129554655865,
              59.99595141700405
            ],
            [
              36.979757085020196,
              60.36032388663966
            ],
            [
              36.615384615384585,
              60.481781376518256
            ],
            [
              36.37246963562751,
              60.84615384615387
            ],
            [
              36.0080971659919,
              60.967611336032405
            ],
            [
              35.64372469635623,
              61.08906882591094
            ],
            [
              35.27935222672062,
              61.33198380566802
            ],
            [
              34.91497975708501,
              61.453441295546554
            ],
            [
              34.42914979757086,
              61.453441295546554
            ],
            [
              34.06477732793519,
              61.57489878542509
            ],
            [
              33.57894736842104,
              61.57489878542509
            ],
            [
              33.21457489878543,
              61.81781376518222
            ],
            [
              32.72874493927122,
              61.81781376518222
            ],
            [
              32.242914979757074,
              61.81781376518222
            ],
            [
              31.757085020242926,
              61.81781376518222
            ],
            [
              31.27125506072872,
              61.81781376518222
            ],
            [
              30.78542510121457,
              61.81781376518222
            ],
            [
              30.299595141700365,
              61.81781376518222
            ],
            [
              29.935222672064754,
              61.69635627530363
            ],
            [
              29.570850202429142,
              61.453441295546554
            ],
            [
              29.20647773279353,
              61.21052631578948
            ],
            [
              28.842105263157862,
              60.967611336032405
            ],
            [
              28.47773279352225,
              60.603238866396794
            ],
            [
              28.11336032388664,
              60.238866396761125
            ],
            [
              27.748987854251027,
              59.87449392712551
            ],
            [
              27.38461538461536,
              59.5101214574899
            ],
            [
              27.141700404858284,
              59.024291497975696
            ],
            [
              26.777327935222672,
              58.53846153846155
            ],
            [
              26.412955465587004,
              58.0526315789474
            ],
            [
              26.048582995951392,
              57.56680161943319
            ],
            [
              25.805668016194318,
              56.95951417004051
            ],
            [
              25.562753036437243,
              56.4736842105263
            ],
            [
              25.198380566801575,
              55.866396761133615
            ],
            [
              24.834008097165963,
              55.25910931174087
            ],
            [
              24.59109311740889,
              54.77327935222672
            ],
            [
              24.46963562753035,
              54.40890688259111
            ],
            [
              24.226720647773277,
              54.0445344129555
            ],
            [
              24.10526315789474,
              53.68016194331983
            ],
            [
              23.86234817813761,
              53.19433198380568
            ],
            [
              23.619433198380534,
              52.82995951417007
            ],
            [
              23.37651821862346,
              52.344129554655865
            ],
            [
              23.255060728744922,
              51.97975708502025
            ],
            [
              23.012145748987848,
              51.493927125506104
            ],
            [
              22.89068825910931,
              51.129554655870436
            ],
            [
              22.647773279352236,
              50.64372469635629
            ],
            [
              22.404858299595105,
              50.15789473684214
            ],
            [
              22.16194331983803,
              49.550607287449395
            ],
            [
              22.040485829959493,
              49.186234817813784
            ],
            [
              21.79757085020242,
              48.700404858299635
            ],
            [
              21.676113360323882,
              48.21457489878543
            ],
            [
              21.554655870445345,
              47.72874493927128
            ],
            [
              21.31174089068827,
              47.36437246963561
            ],
            [
              21.190283400809676,
              46.87854251012146
            ],
            [
              21.06882591093114,
              46.392712550607314
            ],
            [
              20.825910931174064,
              45.90688259109311
            ],
            [
              20.704453441295527,
              45.5425101214575
            ],
            [
              20.461538461538453,
              45.05668016194335
            ],
            [
              20.340080971659916,
              44.57085020242914
            ],
            [
              20.21862348178138,
              44.08502024291499
            ],
            [
              19.975708502024304,
              43.72064777327938
            ],
            [
              19.85425101214571,
              43.234817813765176
            ],
            [
              19.732793522267173,
              42.870445344129564
            ],
            [
              19.611336032388635,
              42.384615384615415
            ],
            [
              19.489878542510098,
              42.02024291497975
            ],
            [
              19.36842105263156,
              41.655870445344135
            ],
            [
              19.246963562753024,
              41.29149797570852
            ],
            [
              19.125506072874487,
              40.80566801619432
            ],
            [
              19.00404858299595,
              40.31983805668017
            ],
            [
              18.882591093117412,
              39.95546558704456
            ],
            [
              18.761133603238875,
              39.591093117408946
            ],
            [
              18.639676113360338,
              39.22672064777328
            ],
            [
              18.518218623481744,
              38.862348178137665
            ],
            [
              18.396761133603206,
              38.497975708502054
            ],
            [
              18.27530364372467,
              38.01214574898785
            ],
            [
              18.153846153846132,
              37.5263157894737
            ],
            [
              18.032388663967595,
              37.16194331983809
            ],
            [
              18.032388663967595,
              36.67611336032388
            ],
            [
              17.910931174089058,
              36.19028340080973
            ],
            [
              17.78947368421052,
              35.70445344129553
            ],
            [
              17.668016194331983,
              35.340080971659916
            ],
            [
              17.546558704453446,
              34.73279352226723
            ],
            [
              17.546558704453446,
              34.246963562753024
            ],
            [
              17.42510121457491,
              33.88259109311741
            ],
            [
              17.42510121457491,
              33.39676113360326
            ],
            [
              17.303643724696315,
              33.032388663967595
            ],
            [
              17.303643724696315,
              32.546558704453446
            ],
            [
              17.182186234817777,
              32.182186234817834
            ],
            [
              17.182186234817777,
              31.57489878542509
            ],
            [
              17.06072874493924,
              30.967611336032405
            ],
            [
              17.06072874493924,
              30.481781376518256
            ],
            [
              17.06072874493924,
              29.99595141700405
            ],
            [
              17.06072874493924,
              29.510121457489902
            ],
            [
              17.06072874493924,
              28.90283400809716
            ],
            [
              17.06072874493924,
              28.41700404858301
            ],
            [
              17.06072874493924,
              27.93117408906886
            ],
            [
              16.939271255060703,
              27.566801619433193
            ],
            [
              16.939271255060703,
              27.080971659919044
            ],
            [
              16.939271255060703,
              26.595141700404838
            ]
          ]
        ]
      }
    }
  ]
}