{
  "type": "FeatureCollection",
  "crs": {
    "type": "name",
    "properties": {
      "name": "urn:ogc:def:crs:OGC:1.3:CRS84"
    }
  },
  "features": [
    {
      "type": "Feature",
      "properties": {
        "timestamp": "2026-07-08T17:06:14.280519",
        "country_name": "Argentina",
        "author": "",
        "author_id": "60a908b7-8c7b-4638-bc85-2558a1311219",
        "validated": false,
        "ranking": [
          [
            "Chile",
            0.1789344698190689
          ],
          [
            "Argentina",
            0.15056444704532623
          ],
          [
            "Antigua & Barbuda",
            0.06872974336147308
          ],
          [
            "Israel",
            0.05949810892343521
          ],
          [
            "Togo",
            0.05442722886800766
          ],
          [
            "Bahrain",
            0.0405724011361599
          ],
          [
            "Belize",
            0.03855109587311745
          ],
          [
            "Thailand",
            0.030840788036584854
          ],
          [
            "Benin",
            0.030128544196486473
          ],
          [
            "Portugal",
            0.025866951793432236
          ],
          [
            "Dominica",
            0.025763750076293945
          ],
          [
            "Vanuatu",
            0.02333495020866394
          ],
          [
            "Myanmar",
            0.02156595140695572
          ],
          [
            "Sweden",
            0.021236645057797432
          ],
          [
            "Malawi",
            0.02112814597785473
          ],
          [
            "Faroe Islands",
            0.02026592567563057
          ],
          [
            "Albania",
            0.01796073094010353
          ],
          [
            "New Zealand",
            0.013975802809000015
          ],
          [
            "Namibia",
            0.011565261520445347
          ],
          [
            "Tunisia",
            0.0108494209125638
          ],
          [
            "Vietnam",
            0.01057409681379795
          ],
          [
            "Qatar",
            0.009504337795078754
          ],
          [
            "United States Virgin Islands",
            0.009115519002079964
          ],
          [
            "Mozambique",
            0.007156027015298605
          ],
          [
            "West Bank",
            0.0069791404530406
          ],
          [
            "Sao Tome and Principe",
            0.0065937046892941
          ],
          [
            "Moldova",
            0.004998700227588415
          ],
          [
            "Guyana",
            0.004818723537027836
          ],
          [
            "Finland",
            0.004697277210652828
          ],
          [
            "Spain",
            0.004405002109706402
          ],
          [
            "South Korea",
            0.0037158166524022818
          ],
          [
            "Martinique",
            0.003661614842712879
          ],
          [
            "Solomon Islands",
            0.003140790155157447
          ],
          [
            "Peru",
            0.003032252425327897
          ],
          [
            "Mayotte",
            0.002616508863866329
          ],
          [
            "United Kingdom",
            0.0024785627610981464
          ],
          [
            "Somalia",
            0.0022659592796117067
          ],
          [
            "Taiwan",
            0.00174790620803833
          ],
          [
            "Palau",
            0.0015044460305944085
          ],
          [
            "Saint Lucia",
            0.0014727129600942135
          ],
          [
            "Equatorial Guinea",
            0.001393259852193296
          ],
          [
            "Greenland",
            0.001301343902014196
          ],
          [
            "Cape Verde",
            0.0011992224026471376
          ],
          [
            "Japan",
            0.001152357435785234
          ],
          [
            "Guam",
            0.001129291020333767
          ],
          [
            "Svalbard",
            0.0010591360041871667
          ],
          [
            "Sri Lanka",
            0.0009659558418206871
          ],
          [
            "Serbia",
            0.0009169275290332735
          ],
          [
            "Fiji",
            0.0009151995182037354
          ],
          [
            "Paraguay",
            0.0008713810238987207
          ],
          [
            "Mali",
            0.0008217952563427389
          ],
          [
            "Saudi Arabia",
            0.0008158325217664242
          ],
          [
            "Ecuador",
            0.0007703606970608234
          ],
          [
            "Comoros",
            0.0007498060585930943
          ],
          [
            "Lithuania",
            0.0007185058784671128
          ],
          [
            "Libya",
            0.0007058637565933168
          ],
          [
            "Oman",
            0.0006825056625530124
          ],
          [
            "Reunion",
            0.0006809025071561337
          ],
          [
            "Heard and McDonald Islands",
            0.0006683875690214336
          ],
          [
            "Guadeloupe",
            0.0006435352843254805
          ],
          [
            "Colombia",
            0.0005897858063690364
          ],
          [
            "Norway",
            0.000567046576179564
          ],
          [
            "Madagascar",
            0.0005589649081230164
          ],
          [
            "Croatia",
            0.0004983794060535729
          ],
          [
            "Suriname",
            0.0004980923840776086
          ],
          [
            "Egypt",
            0.0004546069249045104
          ],
          [
            "Turkmenistan",
            0.0004475435125641525
          ],
          [
            "Cameroon",
            0.0004292588564567268
          ],
          [
            "Bahamas",
            0.0004040343046654016
          ],
          [
            "Bosnia & Herzegovina",
            0.00039624833152629435
          ],
          [
            "Azerbaijan",
            0.0003937282890547067
          ],
          [
            "Rwanda",
            0.0003932374238502234
          ],
          [
            "Romania",
            0.00039077005931176245
          ],
          [
            "Philippines",
            0.0003907082136720419
          ],
          [
            "Czech Republic",
            0.00039051007479429245
          ],
          [
            "Latvia",
            0.00037779498961754143
          ],
          [
            "Kenya",
            0.0003704538394231349
          ],
          [
            "Timor-Leste",
            0.0003536695730872452
          ],
          [
            "Brazil",
            0.000335659715346992
          ],
          [
            "Iran",
            0.00031687080627307296
          ],
          [
            "Congo",
            0.00028238818049430847
          ],
          [
            "Jordan",
            0.00026816516765393317
          ],
          [
            "Mauritania",
            0.00026360509218648076
          ],
          [
            "Netherlands Antilles",
            0.00026220805011689663
          ],
          [
            "Iraq",
            0.0002535065286792815
          ],
          [
            "Liberia",
            0.0002532673242967576
          ],
          [
            "Australia",
            0.0002456080983392894
          ],
          [
            "Western Sahara",
            0.00024227533140219748
          ],
          [
            "North Macedonia",
            0.00023943631094880402
          ],
          [
            "Eswatini",
            0.0002386293199378997
          ],
          [
            "Zimbabwe",
            0.00023131041962187737
          ],
          [
            "Indonesia",
            0.00023031678574625403
          ],
          [
            "Algeria",
            0.0002267209638375789
          ],
          [
            "India",
            0.00022424077906180173
          ],
          [
            "Poland",
            0.00021721937810070813
          ],
          [
            "Turkey",
            0.00020161904103588313
          ],
          [
            "Yemen",
            0.00019676155352499336
          ],
          [
            "Ukraine",
            0.00018769425514619797
          ],
          [
            "Syria",
            0.00018742954125627875
          ],
          [
            "Burkina Faso",
            0.0001846684026531875
          ],
          [
            "Belgium",
            0.00018465713947080076
          ],
          [
            "Armenia",
            0.00018325647397432476
          ],
          [
            "Uzbekistan",
            0.00017734846915118396
          ],
          [
            "Bangladesh",
            0.00017699025920592248
          ],
          [
            "Laos",
            0.00017375609604641795
          ],
          [
            "South Sudan",
            0.00016673729987815022
          ],
          [
            "Brunei",
            0.00016575938207097352
          ],
          [
            "Slovakia",
            0.00016055474407039583
          ],
          [
            "Trinidad and Tobago",
            0.00015767622971907258
          ],
          [
            "Eritrea",
            0.00015749348676763475
          ],
          [
            "Venezuela",
            0.00015722966054454446
          ],
          [
            "Papua New Guinea",
            0.000154367764480412
          ],
          [
            "Montenegro",
            0.00015327225264627486
          ],
          [
            "DR Congo",
            0.0001486379187554121
          ],
          [
            "Mexico",
            0.0001379038003506139
          ],
          [
            "El Salvador",
            0.0001377607841277495
          ],
          [
            "Georgia",
            0.00013696953828912228
          ],
          [
            "Italy",
            0.00013615608622785658
          ],
          [
            "New Caledonia",
            0.00013518569176085293
          ],
          [
            "Puerto Rico",
            0.00013366297935135663
          ],
          [
            "French Guiana",
            0.00013360333105083555
          ],
          [
            "Switzerland",
            0.00013023984502069652
          ],
          [
            "South Georgia Islands",
            0.00012803396384697407
          ],
          [
            "Botswana",
            0.00012543764023575932
          ],
          [
            "Tanzania",
            0.00012521390453912318
          ],
          [
            "Ethiopia",
            0.0001213725918205455
          ],
          [
            "Burundi",
            0.0001193394127767533
          ],
          [
            "Kazakhstan",
            0.00011684582568705082
          ],
          [
            "Central African Republic",
            0.000114411988761276
          ],
          [
            "Guinea",
            0.00011193379759788513
          ],
          [
            "Barbados",
            0.00011025898129446432
          ],
          [
            "Nicaragua",
            0.0001062895535142161
          ],
          [
            "Honduras",
            0.00010622085392242298
          ],
          [
            "Canada",
            0.00010598811059026048
          ],
          [
            "Costa Rica",
            0.00010374480916652828
          ],
          [
            "Isle of Man",
            0.00010250602645101026
          ],
          [
            "Senegal",
            0.00010115926124854013
          ],
          [
            "Ghana",
            9.997309825848788e-05
          ],
          [
            "Chad",
            9.785764996195212e-05
          ],
          [
            "United States of America",
            9.271146700484678e-05
          ],
          [
            "Malaysia",
            9.25067433854565e-05
          ],
          [
            "Luxembourg",
            9.143807255895808e-05
          ],
          [
            "Niger",
            9.072545799426734e-05
          ],
          [
            "Estonia",
            9.000379941426218e-05
          ],
          [
            "Ireland",
            8.970901399152353e-05
          ],
          [
            "Gabon",
            8.796717884251848e-05
          ],
          [
            "Lesotho",
            8.793228334980085e-05
          ],
          [
            "Angola",
            8.721354970475659e-05
          ],
          [
            "Bhutan",
            8.325355884153396e-05
          ],
          [
            "North Korea",
            8.225067722378299e-05
          ],
          [
            "Mongolia",
            8.056493970798329e-05
          ],
          [
            "Uruguay",
            7.954966713441536e-05
          ],
          [
            "Cuba",
            7.724835450062528e-05
          ],
          [
            "Jamaica",
            7.57065718062222e-05
          ],
          [
            "Kuwait",
            7.542638195445761e-05
          ],
          [
            "Lebanon",
            7.066999387461692e-05
          ],
          [
            "Guatemala",
            6.693185423500836e-05
          ],
          [
            "Nigeria",
            6.461079465225339e-05
          ],
          [
            "Belarus",
            6.40019352431409e-05
          ],
          [
            "Uganda",
            6.313322955975309e-05
          ],
          [
            "Panama",
            6.194589514052495e-05
          ],
          [
            "Sudan",
            5.953678555670194e-05
          ],
          [
            "Sierra Leone",
            5.7744004152482376e-05
          ],
          [
            "Dominican Republic",
            5.7742352510103956e-05
          ],
          [
            "Hong Kong",
            5.732447971240617e-05
          ],
          [
            "Cyprus",
            5.5558353778906167e-05
          ],
          [
            "Tajikistan",
            5.520512058865279e-05
          ],
          [
            "France",
            5.350969877326861e-05
          ],
          [
            "Cambodia",
            5.2358052926138043e-05
          ],
          [
            "United Arab Emirates",
            5.0490642024669796e-05
          ],
          [
            "Kyrgyzstan",
            4.9813392251962796e-05
          ],
          [
            "Afghanistan",
            4.792609252035618e-05
          ],
          [
            "Côte d'Ivoire",
            4.73050786240492e-05
          ],
          [
            "Turks and Caicos Islands",
            4.676697790273465e-05
          ],
          [
            "Samoa",
            4.4537442590808496e-05
          ],
          [
            "Bolivia",
            4.411278132465668e-05
          ],
          [
            "Madeira Islands",
            4.1801722545642406e-05
          ],
          [
            "Zambia",
            4.045584864798002e-05
          ],
          [
            "Nepal",
            3.828485932899639e-05
          ],
          [
            "Falkland Islands",
            3.741197724593803e-05
          ],
          [
            "Russia",
            3.506514985929243e-05
          ],
          [
            "Guinea-Bissau",
            3.463026587269269e-05
          ],
          [
            "Hungary",
            3.4459284506738186e-05
          ],
          [
            "Iceland",
            2.945559026557021e-05
          ],
          [
            "Greece",
            2.867305011022836e-05
          ],
          [
            "Austria",
            2.783755917334929e-05
          ],
          [
            "Slovenia",
            2.591447082522791e-05
          ],
          [
            "Germany",
            2.5486388040008023e-05
          ],
          [
            "South Africa",
            2.410477645753417e-05
          ],
          [
            "Djibouti",
            2.3592963771079667e-05
          ],
          [
            "Netherlands",
            2.1561312678386457e-05
          ],
          [
            "China",
            2.0948984456481412e-05
          ],
          [
            "Gambia",
            1.965476621990092e-05
          ],
          [
            "Pakistan",
            1.857730239862576e-05
          ],
          [
            "Morocco",
            1.551087734696921e-05
          ],
          [
            "Bulgaria",
            1.5118313967832364e-05
          ],
          [
            "Denmark",
            6.697562184854178e-06
          ],
          [
            "Haiti",
            5.590251475950936e-06
          ],
          [
            "Kiribati",
            2.396174295427045e-06
          ]
        ]
      },
      "geometry": {
        "type": "MultiLineString",
        "coordinates": [
          [
            [
              36.63695266642458,
              57.286783129977835
            ],
            [
              35.96384718685482,
              58.10972554052455
            ],
            [
              35.2907382808354,
              58.85785656213511
            ],
            [
              34.54284368425232,
              59.53117276835974
            ],
            [
              33.570578310179485,
              60.12967758564821
            ],
            [
              32.523523819093384,
              60.72817726326207
            ],
            [
              31.626054414933265,
              61.25187069161433
            ],
            [
              30.80336384843747,
              61.62593448919472
            ],
            [
              29.905894444277408,
              61.850375508902744
            ],
            [
              29.157996421244604,
              62.0
            ],
            [
              28.410098398211858,
              62.0
            ],
            [
              27.736989492192436,
              62.0
            ],
            [
              27.063887439072346,
              62.0
            ],
            [
              26.540353340629963,
              61.775560693516866
            ],
            [
              26.091615212100237,
              61.55112310025851
            ],
            [
              25.642880510020177,
              61.25187069161433
            ],
            [
              25.268931498503775,
              60.95261828297009
            ],
            [
              24.89498591343704,
              60.65336930077558
            ],
            [
              24.521036901920695,
              60.354116892131344
            ],
            [
              24.296669550880665,
              60.05486448348711
            ],
            [
              23.99750622992792,
              59.75561207484293
            ],
            [
              23.698349761874567,
              59.45635966619869
            ],
            [
              23.399189867371547,
              59.15710897077935
            ],
            [
              23.100033399318136,
              58.85785656213511
            ],
            [
              22.87566947472783,
              58.48379105132983
            ],
            [
              22.65129527078841,
              58.18453864268565
            ],
            [
              22.501720463211427,
              57.81047313188037
            ],
            [
              22.35213537628539,
              57.436409334299924
            ],
            [
              22.202560568708407,
              56.9875307213336
            ],
            [
              22.052978908232035,
              56.61346863697804
            ],
            [
              21.903397247755663,
              56.08977692185067
            ],
            [
              21.753819013729014,
              55.5660852067233
            ],
            [
              21.60424077970231,
              55.04239349159593
            ],
            [
              21.52945508913865,
              54.593514878629605
            ],
            [
              21.454662545675603,
              54.21945279427399
            ],
            [
              21.454662545675603,
              53.845383857019044
            ],
            [
              21.379870002212613,
              53.47132177266349
            ],
            [
              21.305084311648955,
              53.02244315969716
            ],
            [
              21.230291768185907,
              52.49875487101946
            ],
            [
              21.15550607762225,
              51.90025005373104
            ],
            [
              21.08071353415926,
              51.226932134281526
            ],
            [
              20.931135300132553,
              50.553614214832066
            ],
            [
              20.856342756669562,
              49.73067009106046
            ],
            [
              20.706764522642857,
              48.758106615866154
            ],
            [
              20.631975405629532,
              47.93516249209455
            ],
            [
              20.482400598052493,
              47.037408692611564
            ],
            [
              20.482400598052493,
              46.0648349380682
            ],
            [
              20.407608054589502,
              45.24189424074632
            ],
            [
              20.258029820562797,
              44.41895354342438
            ],
            [
              20.258029820562797,
              43.44637978888102
            ],
            [
              20.183237277099806,
              42.54862256294837
            ],
            [
              20.183237277099806,
              41.65087561636477
            ],
            [
              20.108451586536148,
              40.67830186182141
            ],
            [
              20.108451586536148,
              39.55611218230496
            ],
            [
              20.108451586536148,
              38.50872875205022
            ],
            [
              20.183237277099806,
              37.16209291315124
            ],
            [
              20.258029820562797,
              35.815457074252265
            ],
            [
              20.407608054589502,
              34.16957910605811
            ],
            [
              20.631975405629532,
              32.374064654192864
            ],
            [
              20.856342756669562,
              30.35411774874376
            ],
            [
              21.005924417145877,
              28.25935088823428
            ],
            [
              21.305084311648955,
              26.089777778463088
            ],
            [
              21.52945508913865,
              23.99501091795355
            ],
            [
              21.828611557192005,
              22.124690216826593
            ],
            [
              22.052978908232035,
              20.403988867122393
            ],
            [
              22.277346259272065,
              18.90773367680066
            ],
            [
              22.426927919748437,
              17.710724042223774
            ],
            [
              22.57650272732542,
              16.663340611969033
            ],
            [
              22.72608438780179,
              15.690763430976006
            ],
            [
              22.95045173884182,
              14.867826160103789
            ],
            [
              23.02524428230481,
              14.194515093553662
            ],
            [
              23.249618486244174,
              13.4463840719431
            ],
            [
              23.324400750358222,
              12.698253050332596
            ],
            [
              23.399189867371547,
              12.024928277983747
            ],
            [
              23.54877152784786,
              11.35161721143362
            ],
            [
              23.623557218411577,
              10.528679940561346
            ],
            [
              23.698349761874567,
              9.705735816789797
            ],
            [
              23.84793142235094,
              8.882791693018191
            ],
            [
              23.922720539364263,
              8.134660671407687
            ],
            [
              24.07229877339097,
              7.386522796897793
            ],
            [
              24.147087890404293,
              6.713211730347666
            ],
            [
              24.296669550880665,
              6.114713765958584
            ],
            [
              24.371455241444323,
              5.665835152992258
            ],
            [
              24.521036901920695,
              5.291762789287645
            ],
            [
              24.745404252960725,
              4.917704131381754
            ],
            [
              25.04456072101408,
              4.618444869838186
            ],
            [
              25.343727468416432,
              4.319199314093339
            ],
            [
              25.792458744046826,
              4.019940052549714
            ],
            [
              26.241196872576552,
              3.7206944968048674
            ],
            [
              26.615145884092954,
              3.4962620432210656
            ],
            [
              27.138669703186338,
              3.2718227367379313
            ],
            [
              27.811785462105092,
              2.9725703280936955
            ],
            [
              28.335305854748867,
              2.8229304179728842
            ],
            [
              28.709254866265212,
              2.6733179194494596
            ],
            [
              29.083203877781614,
              2.5236848622280377
            ],
            [
              29.531945432761006,
              2.448871760066993
            ],
            [
              30.055465825404724,
              2.299252408644236
            ],
            [
              30.57899649739744,
              2.1496262043220895
            ],
            [
              31.0277311994775,
              2.0748131021610448
            ],
            [
              31.476469328007227,
              2.0748131021610448
            ],
            [
              31.850418339523628,
              2.0
            ],
            [
              32.37394215861701,
              2.0
            ],
            [
              32.97226537407278,
              2.0
            ],
            [
              33.570578310179485,
              2.0
            ],
            [
              34.094112408621925,
              2.0
            ],
            [
              34.46805114078927,
              2.1496262043220895
            ],
            [
              34.91679269576866,
              2.448871760066993
            ],
            [
              35.2907382808354,
              2.8229304179728842
            ],
            [
              35.58989817533842,
              3.1970096345768297
            ],
            [
              35.96384718685482,
              3.5710751453821103
            ],
            [
              36.263003654908175,
              4.019940052549714
            ],
            [
              36.63695266642458,
              4.468825518415429
            ],
            [
              36.78653432690089,
              4.842891029220709
            ],
            [
              36.78653432690089,
              5.291762789287645
            ],
            [
              36.48737443239787,
              5.815454504415015
            ],
            [
              36.18822139079418,
              6.114713765958584
            ],
            [
              35.58989817533842,
              6.488772423864475
            ],
            [
              35.14116347325836,
              6.7880179796093785
            ],
            [
              34.767214461742014,
              7.162097196213324
            ],
            [
              34.39326545022561,
              7.536162707018605
            ],
            [
              34.01931643870921,
              7.910221364924496
            ],
            [
              33.794945661219515,
              8.284286875729777
            ],
            [
              33.645367427192866,
              8.807978590857147
            ],
            [
              33.570578310179485,
              9.481296510306606
            ],
            [
              33.49578919316616,
              9.930175123272988
            ],
            [
              33.49578919316616,
              10.30423378117888
            ],
            [
              33.49578919316616,
              10.753112394145205
            ],
            [
              33.49578919316616,
              11.127184757849818
            ],
            [
              33.49578919316616,
              11.50124341575571
            ],
            [
              33.49578919316616,
              11.950122028722035
            ],
            [
              33.49578919316616,
              12.39900064168836
            ],
            [
              33.49578919316616,
              12.847879254654686
            ],
            [
              33.49578919316616,
              13.521190321204813
            ],
            [
              33.49578919316616,
              14.194515093553662
            ],
            [
              33.49578919316616,
              14.718199955781643
            ],
            [
              33.49578919316616,
              15.316704773070114
            ],
            [
              33.42099664970317,
              15.990015839620241
            ],
            [
              33.34621438558918,
              16.588520656908656
            ],
            [
              33.27142184212613,
              17.261845429257505
            ],
            [
              33.0470544910861,
              17.86035024654592
            ],
            [
              32.822683713596405,
              18.533661313096047
            ],
            [
              32.6731054795697,
              19.05735988112275
            ],
            [
              32.523523819093384,
              19.6558509926125
            ],
            [
              32.37394215861701,
              20.254355809900915
            ],
            [
              32.14957480757698,
              20.927680582249764
            ],
            [
              32.000003426449666,
              21.675811603860268
            ],
            [
              31.925207456536953,
              22.42394262547083
            ],
            [
              31.850418339523628,
              23.172066794182
            ],
            [
              31.775629222510304,
              23.99501091795355
            ],
            [
              31.700836679047256,
              24.817948188825824
            ],
            [
              31.700836679047256,
              25.566079210436328
            ],
            [
              31.700836679047256,
              26.31421023204689
            ],
            [
              31.700836679047256,
              26.987524725046683
            ],
            [
              31.700836679047256,
              27.66084949739553
            ],
            [
              31.700836679047256,
              28.184534359623513
            ],
            [
              31.850418339523628,
              28.708229501200606
            ],
            [
              32.000003426449666,
              29.231921216327976
            ],
            [
              32.07478569056366,
              29.755612931455346
            ],
            [
              32.14957480757698,
              30.27930122013305
            ],
            [
              32.299156468053354,
              30.877806037421465
            ],
            [
              32.523523819093384,
              31.47631085470988
            ],
            [
              32.747891170133414,
              32.22443844987072
            ],
            [
              32.897472830609786,
              33.19700877796441
            ],
            [
              33.19662929866314,
              34.0947625774474
            ],
            [
              33.49578919316616,
              34.99251980338005
            ],
            [
              33.570578310179485,
              35.815457074252265
            ],
            [
              33.72016339710552,
              36.56359152231249
            ],
            [
              33.86973820468256,
              37.23690944176195
            ],
            [
              34.094112408621925,
              37.83541425905037
            ],
            [
              34.24368378974924,
              38.35910254772807
            ],
            [
              34.39326545022561,
              38.95760736501654
            ],
            [
              34.54284368425232,
              39.48129222724452
            ],
            [
              34.61763280126564,
              39.930174266660515
            ],
            [
              34.69242534472863,
              40.379049453177174
            ],
            [
              34.84200015230567,
              40.75311839043212
            ],
            [
              34.91679269576866,
              41.201997003398446
            ],
            [
              35.066374356245035,
              41.57605908775406
            ],
            [
              35.14116347325836,
              41.95012802500895
            ],
            [
              35.2907382808354,
              42.398999785075944
            ],
            [
              35.44032336776144,
              42.92269492665298
            ],
            [
              35.58989817533842,
              43.296757011008594
            ],
            [
              35.73947983581479,
              43.670822521813875
            ],
            [
              35.96384718685482,
              44.04488460616943
            ],
            [
              36.18822139079418,
              44.718205952068615
            ],
            [
              36.18822139079418,
              45.09226803642417
            ],
            [
              36.263003654908175,
              45.5411466493905
            ],
            [
              36.3377927719215,
              45.915215586645445
            ],
            [
              36.3377927719215,
              46.28927767100106
            ],
            [
              36.48737443239787,
              46.66333975535662
            ],
            [
              36.63695266642458,
              47.33665767480613
            ],
            [
              36.7117417834379,
              48.00997559425559
            ],
            [
              36.86132344391427,
              48.68329351370505
            ],
            [
              37.0856907949543,
              49.3566080067049
            ],
            [
              37.23527245543062,
              49.95511282399332
            ],
            [
              37.459639806470705,
              50.47880111267102
            ],
            [
              37.60921461404769,
              51.00249282779839
            ],
            [
              37.83358881798705,
              51.45137144076472
            ],
            [
              38.207534403053785,
              51.82543695156994
            ],
            [
              38.506694297556805,
              52.04987625805313
            ],
            [
              39.03021811665019,
              52.274315564536266
            ],
            [
              39.478956245179916,
              52.49875487101946
            ],
            [
              39.85290525669632,
              52.72319417750259
            ],
            [
              40.22685426821272,
              53.17206936401925
            ],
            [
              40.45122161925269,
              53.47132177266349
            ],
            [
              40.7503883666551,
              53.770574181307666
            ],
            [
              41.04954140825879,
              54.0698265899519
            ],
            [
              41.273912185748486,
              54.369075572146414
            ],
            [
              41.5730686538019,
              54.66832798079065
            ],
            [
              41.79743943129154,
              54.96758038943483
            ],
            [
              42.02181020878129,
              55.266832798079065
            ],
            [
              42.320966676834644,
              55.49127381778709
            ],
            [
              42.769701378914704,
              55.940150717528525
            ],
            [
              43.06886469986739,
              56.463842432655895
            ],
            [
              43.368021167920745,
              56.9875307213336
            ],
            [
              43.59238509251111,
              57.511220723236136
            ],
            [
              43.741970179437146,
              57.96009933620246
            ],
            [
              43.816762722900194,
              58.33416484700774
            ],
            [
              43.89154841346385,
              58.78304345997407
            ],
            [
              43.89154841346385,
              59.23192207294039
            ],
            [
              43.89154841346385,
              59.60598587052078
            ],
            [
              43.89154841346385,
              59.980051381326064
            ],
            [
              43.51759940194745,
              60.12967758564821
            ],
            [
              43.06886469986739,
              60.05486448348711
            ],
            [
              42.620123144888,
              59.830425177003974
            ],
            [
              42.09660275224428,
              59.60598587052078
            ],
            [
              41.5730686538019,
              59.15710897077935
            ],
            [
              41.12432709882245,
              58.70823035781302
            ],
            [
              40.600803279729064,
              58.33416484700774
            ],
            [
              40.30164338522604,
              58.10972554052455
            ],
            [
              40.002490343622355,
              57.88528794726625
            ],
            [
              39.70333044911928,
              57.511220723236136
            ],
            [
              39.40416712816659,
              57.21196831459196
            ],
            [
              39.17979977712656,
              56.91271590594772
            ],
            [
              38.88064330907321,
              56.688281739139086
            ],
            [
              38.431901754093815,
              56.38902933049485
            ],
            [
              38.05795616902708,
              56.23940312617276
            ],
            [
              37.68400715751068,
              56.08977692185067
            ],
            [
              37.31005814599433,
              56.38902933049485
            ],
            [
              37.16048333841729,
              56.83790451701151
            ],
            [
              37.0856907949543,
              57.286783129977835
            ],
            [
              36.93610913447793,
              57.73566174294416
            ],
            [
              36.78653432690089,
              58.10972554052455
            ],
            [
              36.7117417834379,
              58.48379105132983
            ]
          ]
        ]
      }
    }
  ]
}