{
  "type": "FeatureCollection",
  "crs": {
    "type": "name",
    "properties": {
      "name": "urn:ogc:def:crs:OGC:1.3:CRS84"
    }
  },
  "features": [
    {
      "type": "Feature",
      "properties": {
        "timestamp": "2026-06-30T19:58:19.894033",
        "country_name": "Australia",
        "author": "",
        "author_id": "7b2586d1-bc73-4aa2-8261-88d3ab66d224",
        "validated": false,
        "ranking": [
          [
            "Australia",
            0.8028221130371094
          ],
          [
            "Guinea",
            0.05363508313894272
          ],
          [
            "Costa Rica",
            0.020437395200133324
          ],
          [
            "Belgium",
            0.009324230253696442
          ],
          [
            "Eritrea",
            0.009221172891557217
          ],
          [
            "Laos",
            0.007714982144534588
          ],
          [
            "Turkmenistan",
            0.007298924494534731
          ],
          [
            "Latvia",
            0.005699336063116789
          ],
          [
            "Peru",
            0.0039282143115997314
          ],
          [
            "Lithuania",
            0.003576001152396202
          ],
          [
            "United States of America",
            0.002921805251389742
          ],
          [
            "Bahamas",
            0.002752971602603793
          ],
          [
            "Armenia",
            0.002296393271535635
          ],
          [
            "Ukraine",
            0.00227533932775259
          ],
          [
            "Mexico",
            0.002266879193484783
          ],
          [
            "Guyana",
            0.0018530654488131404
          ],
          [
            "Romania",
            0.0018285864498466253
          ],
          [
            "Venezuela",
            0.0017290333053097129
          ],
          [
            "Italy",
            0.001633753185160458
          ],
          [
            "Suriname",
            0.0016126480186358094
          ],
          [
            "Estonia",
            0.0015894671669229865
          ],
          [
            "North Macedonia",
            0.0015791235491633415
          ],
          [
            "Iran",
            0.0015339994570240378
          ],
          [
            "Brazil",
            0.001410598517395556
          ],
          [
            "Martinique",
            0.0013151534367352724
          ],
          [
            "El Salvador",
            0.0013056782772764564
          ],
          [
            "Senegal",
            0.0013040853664278984
          ],
          [
            "Poland",
            0.0012861787108704448
          ],
          [
            "Bahrain",
            0.0012062013847753406
          ],
          [
            "Reunion",
            0.0011358608026057482
          ],
          [
            "Bangladesh",
            0.0011306601809337735
          ],
          [
            "Côte d'Ivoire",
            0.0010351978708058596
          ],
          [
            "Azerbaijan",
            0.0010113775497302413
          ],
          [
            "Bosnia & Herzegovina",
            0.0010093965101987123
          ],
          [
            "Dominica",
            0.0009958610171452165
          ],
          [
            "Sudan",
            0.0009832287905737758
          ],
          [
            "Papua New Guinea",
            0.0009488300420343876
          ],
          [
            "Turks and Caicos Islands",
            0.000942892802413553
          ],
          [
            "Libya",
            0.0009360103285871446
          ],
          [
            "Svalbard",
            0.0009288218570873141
          ],
          [
            "Croatia",
            0.0009267920977436006
          ],
          [
            "Guadeloupe",
            0.0009176961029879749
          ],
          [
            "Vanuatu",
            0.0009124982752837241
          ],
          [
            "Liberia",
            0.0008745401282794774
          ],
          [
            "Saudi Arabia",
            0.0008033562917262316
          ],
          [
            "Cambodia",
            0.0007566882413811982
          ],
          [
            "Gabon",
            0.0006407138425856829
          ],
          [
            "Kenya",
            0.0005745906964875758
          ],
          [
            "Nepal",
            0.0005657289293594658
          ],
          [
            "South Georgia Islands",
            0.000556043116375804
          ],
          [
            "Faroe Islands",
            0.0005443239933811128
          ],
          [
            "Sierra Leone",
            0.0005250501562841237
          ],
          [
            "Uganda",
            0.0005242815823294222
          ],
          [
            "Malawi",
            0.0005239957245066762
          ],
          [
            "Paraguay",
            0.0005151216755621135
          ],
          [
            "Solomon Islands",
            0.000501663307659328
          ],
          [
            "Samoa",
            0.0004853559366893023
          ],
          [
            "Iraq",
            0.00047546380665153265
          ],
          [
            "Mali",
            0.00047253997763618827
          ],
          [
            "New Caledonia",
            0.00046941384789533913
          ],
          [
            "DR Congo",
            0.00045368639985099435
          ],
          [
            "France",
            0.0004414919239934534
          ],
          [
            "Namibia",
            0.00043474341509863734
          ],
          [
            "Greece",
            0.0004343190521467477
          ],
          [
            "Rwanda",
            0.00043203867971897125
          ],
          [
            "Zimbabwe",
            0.00042539165588095784
          ],
          [
            "Tajikistan",
            0.0004131736350245774
          ],
          [
            "Kuwait",
            0.0003681043453980237
          ],
          [
            "Ethiopia",
            0.00032929389271885157
          ],
          [
            "Comoros",
            0.00032866516266949475
          ],
          [
            "Uruguay",
            0.000327015615766868
          ],
          [
            "Eswatini",
            0.0003030179941561073
          ],
          [
            "Moldova",
            0.00030136434361338615
          ],
          [
            "Vietnam",
            0.00029252443346194923
          ],
          [
            "Syria",
            0.00027945530018769205
          ],
          [
            "Lesotho",
            0.0002791330043692142
          ],
          [
            "Czech Republic",
            0.00027645358932204545
          ],
          [
            "Togo",
            0.00026913167675957084
          ],
          [
            "Yemen",
            0.00026723244809545577
          ],
          [
            "Egypt",
            0.0002635760756675154
          ],
          [
            "Serbia",
            0.00026174349477514625
          ],
          [
            "Angola",
            0.0002580450673121959
          ],
          [
            "Dominican Republic",
            0.0002540488203521818
          ],
          [
            "Cape Verde",
            0.00024456254323013127
          ],
          [
            "Uzbekistan",
            0.0002324764645891264
          ],
          [
            "Burkina Faso",
            0.00022930481645744294
          ],
          [
            "Sri Lanka",
            0.0002281748311361298
          ],
          [
            "Kazakhstan",
            0.00022536302276421338
          ],
          [
            "Somalia",
            0.00022532303410116583
          ],
          [
            "Thailand",
            0.0002245709183625877
          ],
          [
            "Nigeria",
            0.00022217229707166553
          ],
          [
            "South Korea",
            0.0002169015206163749
          ],
          [
            "Algeria",
            0.0002127419866155833
          ],
          [
            "Heard and McDonald Islands",
            0.00021105863561388105
          ],
          [
            "Switzerland",
            0.00021048735652584583
          ],
          [
            "Myanmar",
            0.00020885928825009614
          ],
          [
            "Greenland",
            0.00019640133541543037
          ],
          [
            "Belarus",
            0.00019180816889274865
          ],
          [
            "Germany",
            0.00018896129040513188
          ],
          [
            "Georgia",
            0.00018859402916859835
          ],
          [
            "French Guiana",
            0.0001859309704741463
          ],
          [
            "Kiribati",
            0.0001836281589930877
          ],
          [
            "Spain",
            0.00017764615768101066
          ],
          [
            "Niger",
            0.0001753439282765612
          ],
          [
            "Benin",
            0.00017338144243694842
          ],
          [
            "Guinea-Bissau",
            0.00017088756430894136
          ],
          [
            "Turkey",
            0.0001682484580669552
          ],
          [
            "India",
            0.000165718694915995
          ],
          [
            "Burundi",
            0.00016522571968380362
          ],
          [
            "Mozambique",
            0.00016086779942270368
          ],
          [
            "Albania",
            0.0001552770845592022
          ],
          [
            "Tanzania",
            0.00015295461344067007
          ],
          [
            "Hong Kong",
            0.00014791934518143535
          ],
          [
            "Djibouti",
            0.00014432368334382772
          ],
          [
            "Colombia",
            0.00013946372200734913
          ],
          [
            "Montenegro",
            0.00013845761714037508
          ],
          [
            "United Kingdom",
            0.0001368857774650678
          ],
          [
            "Tunisia",
            0.00013669661711901426
          ],
          [
            "Mauritania",
            0.00013659654359798878
          ],
          [
            "Ecuador",
            0.00013476895401254296
          ],
          [
            "Ghana",
            0.00013351831876207143
          ],
          [
            "Mayotte",
            0.0001311910746153444
          ],
          [
            "Bhutan",
            0.00012896809494122863
          ],
          [
            "New Zealand",
            0.0001285305042983964
          ],
          [
            "Guatemala",
            0.00012598272587638348
          ],
          [
            "Puerto Rico",
            0.0001235205418197438
          ],
          [
            "Denmark",
            0.00012035855615977198
          ],
          [
            "Portugal",
            0.00011598104902077466
          ],
          [
            "Philippines",
            0.00011520279076648876
          ],
          [
            "Cuba",
            0.00011480006651254371
          ],
          [
            "Nicaragua",
            0.00011386953701730818
          ],
          [
            "United States Virgin Islands",
            0.00011282791820121929
          ],
          [
            "Belize",
            0.00011033436021534726
          ],
          [
            "Finland",
            0.00010346149792894721
          ],
          [
            "Israel",
            0.00010250804189126939
          ],
          [
            "Canada",
            0.00010099679639097303
          ],
          [
            "Iceland",
            9.877413685899228e-05
          ],
          [
            "Equatorial Guinea",
            9.732980834087357e-05
          ],
          [
            "Argentina",
            9.720531670609489e-05
          ],
          [
            "Madeira Islands",
            9.249338472727686e-05
          ],
          [
            "Russia",
            8.558302943129092e-05
          ],
          [
            "Indonesia",
            8.374253957299516e-05
          ],
          [
            "Falkland Islands",
            8.225888450397179e-05
          ],
          [
            "Fiji",
            8.165688632288948e-05
          ],
          [
            "Bolivia",
            8.06501557235606e-05
          ],
          [
            "Barbados",
            7.847072265576571e-05
          ],
          [
            "Netherlands Antilles",
            7.489242125302553e-05
          ],
          [
            "Jamaica",
            7.482132059521973e-05
          ],
          [
            "South Sudan",
            7.331706729019061e-05
          ],
          [
            "West Bank",
            7.008197280811146e-05
          ],
          [
            "Timor-Leste",
            6.592085992451757e-05
          ],
          [
            "Malaysia",
            6.301284156506881e-05
          ],
          [
            "Haiti",
            6.209036655491218e-05
          ],
          [
            "Qatar",
            6.18447593296878e-05
          ],
          [
            "Austria",
            6.153295544208959e-05
          ],
          [
            "Kyrgyzstan",
            5.965173113509081e-05
          ],
          [
            "Cameroon",
            5.913561108172871e-05
          ],
          [
            "Chile",
            5.671709732268937e-05
          ],
          [
            "Antigua & Barbuda",
            5.5359199905069545e-05
          ],
          [
            "Slovakia",
            5.174137913854793e-05
          ],
          [
            "Central African Republic",
            4.8310484999092296e-05
          ],
          [
            "Jordan",
            4.450154665391892e-05
          ],
          [
            "Mongolia",
            4.127858846914023e-05
          ],
          [
            "Luxembourg",
            4.005637674708851e-05
          ],
          [
            "China",
            3.858331547235139e-05
          ],
          [
            "Congo",
            3.6356937926029786e-05
          ],
          [
            "Botswana",
            3.614611705415882e-05
          ],
          [
            "Sweden",
            3.614315210143104e-05
          ],
          [
            "Panama",
            3.565243605407886e-05
          ],
          [
            "Norway",
            3.4667096770135686e-05
          ],
          [
            "Honduras",
            3.349536927998997e-05
          ],
          [
            "United Arab Emirates",
            3.198358172085136e-05
          ],
          [
            "Japan",
            3.097608350799419e-05
          ],
          [
            "Bulgaria",
            2.6205656467936933e-05
          ],
          [
            "Zambia",
            2.5453224225202575e-05
          ],
          [
            "Saint Lucia",
            2.49708209594246e-05
          ],
          [
            "Sao Tome and Principe",
            2.3734337446512654e-05
          ],
          [
            "Ireland",
            2.2677591914543882e-05
          ],
          [
            "Guam",
            2.171170672227163e-05
          ],
          [
            "Oman",
            2.118296288244892e-05
          ],
          [
            "Chad",
            1.8579226889414713e-05
          ],
          [
            "Netherlands",
            1.7535954611958005e-05
          ],
          [
            "Taiwan",
            1.717481791274622e-05
          ],
          [
            "South Africa",
            1.686065661488101e-05
          ],
          [
            "Gambia",
            1.5783391063450836e-05
          ],
          [
            "Hungary",
            1.5733616237412207e-05
          ],
          [
            "Trinidad and Tobago",
            1.54345398186706e-05
          ],
          [
            "Western Sahara",
            1.3891358321416192e-05
          ],
          [
            "Brunei",
            1.3253481483843643e-05
          ],
          [
            "Cyprus",
            1.2918961147079244e-05
          ],
          [
            "Isle of Man",
            9.42827136896085e-06
          ],
          [
            "Pakistan",
            9.022294761962257e-06
          ],
          [
            "Slovenia",
            7.594708677061135e-06
          ],
          [
            "Afghanistan",
            7.377883321169065e-06
          ],
          [
            "North Korea",
            5.161046374269063e-06
          ],
          [
            "Madagascar",
            4.758751856570598e-06
          ],
          [
            "Lebanon",
            4.177900791546563e-06
          ],
          [
            "Palau",
            3.6222224935045233e-06
          ],
          [
            "Morocco",
            3.2003824799176073e-06
          ]
        ]
      },
      "geometry": {
        "type": "MultiLineString",
        "coordinates": [
          [
            [
              3.2111801242236027,
              39.267080745341616
            ],
            [
              3.2111801242236027,
              40.01242236024845
            ],
            [
              2.8385093167701996,
              39.45341614906832
            ],
            [
              2.652173913043498,
              38.89440993788821
            ]
          ],
          [
            [
              2.652173913043498,
              38.33540372670808
            ],
            [
              2.652173913043498,
              37.590062111801245
            ],
            [
              2.652173913043498,
              36.84472049689441
            ],
            [
              3.024844720496901,
              36.28571428571428
            ],
            [
              3.2111801242236027,
              35.72670807453417
            ],
            [
              3.024844720496901,
              35.16770186335404
            ],
            [
              2.465838509316768,
              34.79503105590061
            ],
            [
              2.2795031055900665,
              34.236024844720504
            ]
          ],
          [
            [
              2.2795031055900665,
              34.236024844720504
            ],
            [
              2.465838509316768,
              33.67701863354037
            ],
            [
              2.465838509316768,
              32.931677018633536
            ],
            [
              2.465838509316768,
              32.1863354037267
            ],
            [
              2.465838509316768,
              31.440993788819867
            ],
            [
              2.8385093167701996,
              30.69565217391306
            ],
            [
              3.397515527950304,
              30.136645962732928
            ]
          ],
          [
            [
              3.583850931677034,
              29.763975155279496
            ],
            [
              3.9565217391304373,
              29.01863354037266
            ],
            [
              4.329192546583869,
              28.459627329192557
            ],
            [
              4.329192546583869,
              27.714285714285722
            ],
            [
              4.142857142857139,
              26.968944099378888
            ],
            [
              3.9565217391304373,
              26.223602484472053
            ],
            [
              3.9565217391304373,
              25.47826086956522
            ],
            [
              4.142857142857139,
              24.919254658385114
            ],
            [
              3.9565217391304373,
              24.17391304347825
            ],
            [
              3.397515527950304,
              22.86956521739131
            ],
            [
              3.397515527950304,
              22.124223602484477
            ],
            [
              3.2111801242236027,
              21.565217391304344
            ],
            [
              3.024844720496901,
              21.00621118012424
            ]
          ],
          [
            [
              3.024844720496901,
              21.00621118012424
            ],
            [
              3.2111801242236027,
              20.447204968944106
            ],
            [
              3.7701863354037357,
              20.074534161490703
            ],
            [
              4.329192546583869,
              19.701863354037272
            ],
            [
              4.888198757763973,
              19.14285714285714
            ],
            [
              5.633540372670808,
              19.14285714285714
            ],
            [
              6.192546583850941,
              19.32919254658384
            ],
            [
              6.751552795031046,
              19.51552795031057
            ],
            [
              7.49689440993788,
              19.51552795031057
            ]
          ],
          [
            [
              7.49689440993788,
              19.51552795031057
            ],
            [
              8.055900621118013,
              19.701863354037272
            ],
            [
              8.614906832298146,
              19.888198757763973
            ],
            [
              9.360248447204981,
              20.074534161490703
            ],
            [
              9.919254658385086,
              20.447204968944106
            ]
          ],
          [
            [
              10.291925465838517,
              20.633540372670808
            ],
            [
              10.66459627329192,
              21.19254658385094
            ],
            [
              11.223602484472053,
              21.565217391304344
            ],
            [
              11.968944099378888,
              21.751552795031046
            ],
            [
              12.52795031055902,
              21.937888198757776
            ],
            [
              13.086956521739125,
              22.124223602484477
            ],
            [
              13.83229813664596,
              22.124223602484477
            ],
            [
              14.577639751552795,
              22.124223602484477
            ]
          ],
          [
            [
              14.763975155279496,
              22.124223602484477
            ],
            [
              15.50931677018633,
              22.49689440993791
            ],
            [
              16.068322981366464,
              22.86956521739131
            ],
            [
              16.627329192546597,
              23.242236024844715
            ],
            [
              16.8136645962733,
              23.801242236024848
            ],
            [
              17.37267080745343,
              24.17391304347825
            ]
          ],
          [
            [
              17.559006211180133,
              24.17391304347825
            ],
            [
              18.304347826086968,
              24.732919254658384
            ],
            [
              18.863354037267072,
              25.66459627329192
            ],
            [
              19.236024844720504,
              26.409937888198755
            ],
            [
              19.422360248447205,
              26.968944099378888
            ],
            [
              19.422360248447205,
              27.714285714285722
            ],
            [
              19.98136645962734,
              28.086956521739125
            ],
            [
              20.54037267080747,
              28.273291925465855
            ],
            [
              21.472049689441008,
              28.459627329192557
            ],
            [
              22.217391304347842,
              28.459627329192557
            ]
          ],
          [
            [
              22.217391304347842,
              28.459627329192557
            ],
            [
              22.962732919254677,
              28.459627329192557
            ],
            [
              23.708074534161483,
              28.64596273291926
            ],
            [
              24.453416149068318,
              28.64596273291926
            ],
            [
              25.198757763975152,
              28.64596273291926
            ],
            [
              26.13043478260869,
              28.64596273291926
            ],
            [
              26.875776397515523,
              28.64596273291926
            ],
            [
              27.434782608695656,
              28.273291925465855
            ],
            [
              27.99378881987579,
              27.714285714285722
            ],
            [
              28.552795031055894,
              27.34161490683229
            ],
            [
              29.111801242236027,
              27.15527950310559
            ],
            [
              29.67080745341616,
              26.782608695652186
            ],
            [
              30.416149068322994,
              26.409937888198755
            ],
            [
              31.16149068322983,
              25.66459627329192
            ],
            [
              31.720496894409933,
              25.291925465838517
            ],
            [
              32.27950310559007,
              24.732919254658384
            ],
            [
              33.2111801242236,
              24.17391304347825
            ],
            [
              33.770186335403736,
              23.614906832298146
            ],
            [
              34.51552795031057,
              23.242236024844715
            ],
            [
              35.260869565217405,
              23.055900621118013
            ],
            [
              35.260869565217405,
              23.801242236024848
            ],
            [
              35.447204968944106,
              24.36024844720498
            ],
            [
              35.81987577639751,
              24.919254658385114
            ],
            [
              36.00621118012424,
              25.47826086956522
            ],
            [
              36.37888198757764,
              26.03726708074535
            ],
            [
              36.937888198757776,
              26.223602484472053
            ],
            [
              37.49689440993791,
              26.596273291925456
            ],
            [
              37.68322981366458,
              25.66459627329192
            ],
            [
              37.86956521739131,
              25.105590062111787
            ],
            [
              38.05590062111801,
              24.36024844720498
            ],
            [
              38.05590062111801,
              23.614906832298146
            ],
            [
              38.05590062111801,
              22.86956521739131
            ],
            [
              38.05590062111801,
              22.124223602484477
            ],
            [
              38.05590062111801,
              21.378881987577643
            ],
            [
              37.86956521739131,
              20.633540372670808
            ],
            [
              37.31055900621118,
              19.888198757763973
            ],
            [
              37.12422360248448,
              19.32919254658384
            ],
            [
              37.31055900621118,
              18.770186335403736
            ],
            [
              38.05590062111801,
              18.956521739130437
            ],
            [
              38.80124223602485,
              19.888198757763973
            ],
            [
              39.17391304347825,
              20.447204968944106
            ],
            [
              39.54658385093168,
              21.00621118012424
            ],
            [
              39.919254658385086,
              21.565217391304344
            ],
            [
              39.919254658385086,
              22.31055900621118
            ],
            [
              39.919254658385086,
              23.055900621118013
            ],
            [
              39.732919254658384,
              23.801242236024848
            ],
            [
              39.36024844720498,
              24.36024844720498
            ],
            [
              39.36024844720498,
              25.105590062111787
            ]
          ],
          [
            [
              39.36024844720498,
              25.105590062111787
            ],
            [
              39.54658385093168,
              24.36024844720498
            ],
            [
              39.732919254658384,
              23.801242236024848
            ],
            [
              39.732919254658384,
              23.055900621118013
            ],
            [
              39.732919254658384,
              22.31055900621118
            ],
            [
              39.54658385093168,
              21.751552795031046
            ],
            [
              39.36024844720498,
              20.81987577639751
            ],
            [
              39.17391304347825,
              20.260869565217405
            ],
            [
              39.17391304347825,
              19.51552795031057
            ],
            [
              39.919254658385086,
              18.956521739130437
            ],
            [
              40.66459627329192,
              18.956521739130437
            ],
            [
              41.409937888198755,
              18.956521739130437
            ],
            [
              41.96894409937889,
              19.51552795031057
            ],
            [
              42.15527950310559,
              20.260869565217405
            ],
            [
              42.15527950310559,
              21.19254658385094
            ],
            [
              42.34161490683229,
              21.937888198757776
            ]
          ],
          [
            [
              42.34161490683229,
              22.49689440993791
            ],
            [
              42.34161490683229,
              21.751552795031046
            ],
            [
              42.15527950310559,
              21.19254658385094
            ],
            [
              42.15527950310559,
              20.260869565217405
            ],
            [
              42.15527950310559,
              19.51552795031057
            ],
            [
              42.34161490683229,
              18.956521739130437
            ],
            [
              42.900621118012424,
              18.0248447204969
            ],
            [
              43.273291925465855,
              17.465838509316768
            ],
            [
              43.45962732919256,
              16.906832298136635
            ],
            [
              43.83229813664596,
              16.34782608695653
            ],
            [
              44.39130434782609,
              15.788819875776397
            ],
            [
              44.9503105590062,
              15.416149068322994
            ],
            [
              45.50931677018633,
              14.857142857142861
            ],
            [
              46.068322981366464,
              14.48447204968943
            ],
            [
              46.6273291925466,
              14.298136645962728
            ],
            [
              47.1863354037267,
              14.111801242236027
            ],
            [
              47.745341614906835,
              13.925465838509325
            ],
            [
              48.49068322981367,
              13.925465838509325
            ],
            [
              49.60869565217391,
              13.739130434782624
            ],
            [
              50.35403726708074,
              13.739130434782624
            ],
            [
              50.913043478260875,
              13.925465838509325
            ],
            [
              51.47204968944101,
              14.298136645962728
            ],
            [
              52.217391304347814,
              14.298136645962728
            ],
            [
              52.77639751552795,
              14.67080745341616
            ],
            [
              53.70807453416148,
              14.67080745341616
            ],
            [
              54.267080745341616,
              14.857142857142861
            ],
            [
              55.01242236024845,
              15.229813664596293
            ],
            [
              55.571428571428584,
              15.416149068322994
            ],
            [
              55.94409937888199,
              16.16149068322983
            ],
            [
              56.13043478260869,
              17.093167701863365
            ],
            [
              56.13043478260869,
              17.8385093167702
            ],
            [
              56.13043478260869,
              18.583850931677034
            ],
            [
              56.31677018633542,
              19.14285714285714
            ],
            [
              56.50310559006212,
              19.701863354037272
            ]
          ],
          [
            [
              56.50310559006212,
              19.701863354037272
            ],
            [
              56.68944099378882,
              20.260869565217405
            ],
            [
              56.87577639751552,
              20.81987577639751
            ],
            [
              56.87577639751552,
              21.565217391304344
            ],
            [
              57.062111801242224,
              22.124223602484477
            ],
            [
              57.248447204968954,
              22.68322981366461
            ],
            [
              57.62111801242236,
              23.242236024844715
            ],
            [
              57.80745341614909,
              23.801242236024848
            ],
            [
              57.99378881987576,
              24.36024844720498
            ],
            [
              58.36645962732919,
              24.919254658385114
            ],
            [
              58.552795031055894,
              25.47826086956522
            ],
            [
              60.22981366459629,
              27.714285714285722
            ],
            [
              61.72049689440993,
              30.69565217391306
            ],
            [
              61.72049689440993,
              32.745341614906835
            ]
          ],
          [
            [
              2.652173913043498,
              39.267080745341616
            ],
            [
              3.024844720496901,
              39.82608695652175
            ],
            [
              3.397515527950304,
              40.385093167701854
            ],
            [
              3.583850931677034,
              39.82608695652175
            ],
            [
              3.583850931677034,
              39.080745341614914
            ],
            [
              3.583850931677034,
              38.33540372670808
            ],
            [
              4.142857142857139,
              38.52173913043478
            ],
            [
              4.142857142857139,
              39.267080745341616
            ]
          ],
          [
            [
              4.142857142857139,
              39.267080745341616
            ],
            [
              4.51552795031057,
              40.01242236024845
            ],
            [
              4.888198757763973,
              40.571428571428584
            ],
            [
              5.260869565217405,
              41.13043478260869
            ],
            [
              5.447204968944106,
              41.68944099378882
            ],
            [
              6.0062111801242395,
              41.87577639751552
            ]
          ],
          [
            [
              6.0062111801242395,
              41.87577639751552
            ],
            [
              6.192546583850941,
              42.62111801242236
            ],
            [
              6.565217391304344,
              43.18012422360249
            ],
            [
              7.124223602484477,
              43.73913043478262
            ],
            [
              7.869565217391312,
              44.48447204968943
            ],
            [
              8.428571428571445,
              45.04347826086956
            ],
            [
              8.98757763975155,
              45.229813664596264
            ],
            [
              9.546583850931682,
              45.416149068322994
            ]
          ],
          [
            [
              9.919254658385086,
              45.7888198757764
            ],
            [
              10.85093167701865,
              46.53416149068323
            ],
            [
              11.409937888198755,
              47.093167701863365
            ],
            [
              11.968944099378888,
              47.65217391304347
            ],
            [
              12.15527950310559,
              48.2111801242236
            ],
            [
              12.900621118012424,
              48.397515527950304
            ],
            [
              13.645962732919259,
              48.770186335403736
            ]
          ],
          [
            [
              13.83229813664596,
              48.770186335403736
            ],
            [
              14.391304347826093,
              48.95652173913044
            ],
            [
              14.950310559006226,
              49.32919254658384
            ],
            [
              15.32298136645963,
              49.88819875776397
            ],
            [
              15.32298136645963,
              50.63354037267081
            ],
            [
              14.763975155279496,
              51.00621118012424
            ],
            [
              14.391304347826093,
              51.565217391304344
            ],
            [
              14.018633540372662,
              52.12422360248448
            ],
            [
              14.018633540372662,
              52.86956521739131
            ],
            [
              14.018633540372662,
              53.614906832298146
            ],
            [
              14.577639751552795,
              53.98757763975155
            ],
            [
              15.136645962732928,
              54.17391304347825
            ],
            [
              15.881987577639762,
              54.17391304347825
            ],
            [
              16.627329192546597,
              53.80124223602485
            ],
            [
              16.8136645962733,
              53.242236024844715
            ],
            [
              17.1863354037267,
              52.68322981366461
            ]
          ],
          [
            [
              17.1863354037267,
              52.12422360248448
            ],
            [
              17.931677018633536,
              52.12422360248448
            ],
            [
              17.931677018633536,
              52.86956521739131
            ],
            [
              17.931677018633536,
              53.614906832298146
            ],
            [
              17.931677018633536,
              54.36024844720498
            ],
            [
              18.118012422360266,
              54.919254658385086
            ],
            [
              18.304347826086968,
              55.47826086956522
            ],
            [
              18.67701863354037,
              56.03726708074535
            ]
          ],
          [
            [
              18.67701863354037,
              56.03726708074535
            ],
            [
              19.236024844720504,
              56.596273291925456
            ],
            [
              19.795031055900637,
              56.782608695652186
            ],
            [
              20.16770186335404,
              57.34161490683229
            ],
            [
              20.913043478260875,
              57.34161490683229
            ],
            [
              21.472049689441008,
              56.782608695652186
            ],
            [
              22.217391304347842,
              56.596273291925456
            ],
            [
              22.962732919254677,
              56.22360248447205
            ],
            [
              23.894409937888213,
              56.03726708074535
            ],
            [
              24.82608695652175,
              55.47826086956522
            ],
            [
              25.385093167701882,
              55.105590062111816
            ]
          ],
          [
            [
              25.385093167701882,
              54.919254658385086
            ],
            [
              25.757763975155285,
              55.47826086956522
            ],
            [
              26.13043478260869,
              56.03726708074535
            ],
            [
              26.316770186335418,
              56.782608695652186
            ],
            [
              26.50310559006212,
              57.34161490683229
            ],
            [
              26.68944099378882,
              58.086956521739125
            ],
            [
              26.875776397515523,
              58.64596273291926
            ],
            [
              26.875776397515523,
              59.39130434782609
            ],
            [
              26.68944099378882,
              59.9503105590062
            ],
            [
              27.248447204968954,
              60.50931677018633
            ],
            [
              27.807453416149087,
              60.69565217391303
            ],
            [
              28.552795031055894,
              60.69565217391303
            ],
            [
              29.298136645962728,
              60.69565217391303
            ],
            [
              29.85714285714286,
              60.50931677018633
            ],
            [
              30.602484472049696,
              60.32298136645963
            ],
            [
              31.34782608695653,
              60.32298136645963
            ],
            [
              31.906832298136635,
              60.13664596273293
            ],
            [
              32.6521739130435,
              59.9503105590062
            ],
            [
              34.14285714285714,
              59.763975155279496
            ],
            [
              35.447204968944106,
              59.763975155279496
            ],
            [
              35.447204968944106,
              59.01863354037266
            ],
            [
              34.88819875776397,
              58.45962732919256
            ],
            [
              34.51552795031057,
              57.900621118012424
            ],
            [
              34.14285714285714,
              57.34161490683229
            ],
            [
              33.770186335403736,
              56.596273291925456
            ],
            [
              33.583850931677034,
              56.03726708074535
            ],
            [
              33.583850931677034,
              55.29192546583852
            ],
            [
              33.770186335403736,
              54.54658385093168
            ],
            [
              34.32919254658384,
              54.36024844720498
            ],
            [
              35.447204968944106,
              53.80124223602485
            ],
            [
              36.565217391304344,
              53.428571428571445
            ],
            [
              37.31055900621118,
              53.05590062111801
            ],
            [
              38.05590062111801,
              52.86956521739131
            ],
            [
              38.614906832298146,
              52.68322981366461
            ],
            [
              39.36024844720498,
              52.31055900621118
            ],
            [
              39.919254658385086,
              52.12422360248448
            ],
            [
              40.47826086956522,
              51.937888198757776
            ],
            [
              41.22360248447205,
              51.37888198757764
            ],
            [
              42.15527950310559,
              50.63354037267081
            ],
            [
              42.71428571428572,
              50.447204968944106
            ],
            [
              43.273291925465855,
              50.81987577639751
            ],
            [
              43.45962732919256,
              51.37888198757764
            ],
            [
              43.64596273291926,
              51.937888198757776
            ],
            [
              43.64596273291926,
              52.86956521739131
            ],
            [
              44.01863354037266,
              53.428571428571445
            ],
            [
              44.01863354037266,
              54.36024844720498
            ],
            [
              44.20496894409939,
              54.919254658385086
            ],
            [
              44.39130434782609,
              55.66459627329192
            ],
            [
              44.577639751552795,
              56.409937888198755
            ],
            [
              45.13664596273293,
              59.763975155279496
            ],
            [
              45.13664596273293,
              60.69565217391303
            ],
            [
              45.69565217391306,
              62.0
            ],
            [
              46.254658385093165,
              61.6273291925466
            ],
            [
              46.6273291925466,
              60.88198757763976
            ],
            [
              46.8136645962733,
              60.32298136645963
            ],
            [
              47.1863354037267,
              59.763975155279496
            ],
            [
              47.3726708074534,
              59.20496894409939
            ],
            [
              47.55900621118013,
              58.45962732919256
            ],
            [
              47.55900621118013,
              57.71428571428572
            ],
            [
              47.745341614906835,
              57.15527950310559
            ],
            [
              47.931677018633536,
              56.596273291925456
            ],
            [
              48.30434782608697,
              55.85093167701865
            ],
            [
              48.86335403726707,
              55.29192546583852
            ],
            [
              49.0496894409938,
              54.732919254658384
            ],
            [
              49.60869565217391,
              54.36024844720498
            ],
            [
              49.98136645962734,
              53.614906832298146
            ],
            [
              50.35403726708074,
              52.86956521739131
            ],
            [
              50.54037267080747,
              52.31055900621118
            ]
          ],
          [
            [
              50.54037267080747,
              52.31055900621118
            ],
            [
              50.72670807453417,
              51.751552795031046
            ],
            [
              51.28571428571428,
              51.37888198757764
            ],
            [
              51.84472049689441,
              51.00621118012424
            ],
            [
              52.403726708074544,
              50.81987577639751
            ],
            [
              52.96273291925468,
              50.260869565217405
            ],
            [
              53.52173913043478,
              50.074534161490675
            ],
            [
              54.080745341614914,
              49.88819875776397
            ],
            [
              54.82608695652175,
              49.32919254658384
            ],
            [
              55.38509316770188,
              48.770186335403736
            ],
            [
              55.94409937888199,
              48.2111801242236
            ],
            [
              56.31677018633542,
              47.65217391304347
            ],
            [
              56.68944099378882,
              47.093167701863365
            ],
            [
              57.062111801242224,
              46.53416149068323
            ],
            [
              57.62111801242236,
              45.7888198757764
            ],
            [
              58.36645962732919,
              45.416149068322994
            ],
            [
              58.925465838509325,
              45.04347826086956
            ],
            [
              59.67080745341616,
              44.29813664596273
            ],
            [
              60.04347826086956,
              43.552795031055894
            ],
            [
              60.7888198757764,
              42.80745341614906
            ],
            [
              61.16149068322983,
              42.248447204968954
            ],
            [
              61.34782608695653,
              41.50310559006212
            ],
            [
              61.72049689440993,
              40.94409937888199
            ]
          ],
          [
            [
              43.83229813664596,
              8.708074534161483
            ],
            [
              43.64596273291926,
              8.149068322981378
            ],
            [
              43.83229813664596,
              7.590062111801245
            ],
            [
              44.01863354037266,
              7.031055900621112
            ],
            [
              44.20496894409939,
              6.472049689441008
            ],
            [
              44.763975155279496,
              5.726708074534173
            ],
            [
              45.13664596273293,
              5.16770186335404
            ],
            [
              45.32298136645963,
              4.608695652173935
            ],
            [
              45.88198757763976,
              4.236024844720504
            ],
            [
              46.254658385093165,
              3.6770186335403707
            ],
            [
              46.6273291925466,
              3.118012422360266
            ],
            [
              47.1863354037267,
              2.7453416149068346
            ],
            [
              47.745341614906835,
              2.559006211180133
            ],
            [
              48.30434782608697,
              2.0
            ],
            [
              49.0496894409938,
              2.559006211180133
            ],
            [
              49.79503105590061,
              2.931677018633536
            ],
            [
              50.35403726708074,
              3.3043478260869676
            ],
            [
              51.099378881987576,
              3.8633540372670723
            ],
            [
              51.47204968944101,
              4.422360248447205
            ],
            [
              51.84472049689441,
              5.16770186335404
            ],
            [
              51.84472049689441,
              6.099378881987576
            ],
            [
              51.84472049689441,
              6.844720496894411
            ],
            [
              51.84472049689441,
              7.590062111801245
            ],
            [
              51.84472049689441,
              8.33540372670808
            ],
            [
              51.65838509316771,
              8.894409937888213
            ],
            [
              51.28571428571428,
              9.453416149068318
            ],
            [
              51.099378881987576,
              10.198757763975152
            ],
            [
              50.54037267080747,
              10.571428571428584
            ],
            [
              49.79503105590061,
              10.198757763975152
            ],
            [
              49.422360248447205,
              9.639751552795019
            ],
            [
              48.86335403726707,
              9.453416149068318
            ],
            [
              48.30434782608697,
              8.894409937888213
            ],
            [
              48.118012422360266,
              8.33540372670808
            ],
            [
              47.55900621118013,
              8.149068322981378
            ],
            [
              46.8136645962733,
              8.149068322981378
            ],
            [
              46.068322981366464,
              8.149068322981378
            ],
            [
              45.32298136645963,
              8.149068322981378
            ],
            [
              44.577639751552795,
              8.149068322981378
            ],
            [
              43.83229813664596,
              8.33540372670808
            ]
          ]
        ]
      }
    }
  ]
}