{
  "type": "FeatureCollection",
  "crs": {
    "type": "name",
    "properties": {
      "name": "urn:ogc:def:crs:OGC:1.3:CRS84"
    }
  },
  "features": [
    {
      "type": "Feature",
      "properties": {
        "timestamp": "2026-04-13T08:27:17.368543",
        "country_name": "Azerbaijan",
        "author": "",
        "author_id": "c8632033-b087-4b0c-993f-692777c69203",
        "validated": false,
        "ranking": [
          [
            "Romania",
            0.21258044242858887
          ],
          [
            "Switzerland",
            0.045125655829906464
          ],
          [
            "Lithuania",
            0.04340250417590141
          ],
          [
            "Burkina Faso",
            0.04185450077056885
          ],
          [
            "Rwanda",
            0.03954508528113365
          ],
          [
            "Belarus",
            0.03162394091486931
          ],
          [
            "Kazakhstan",
            0.026637496426701546
          ],
          [
            "Gabon",
            0.025005027651786804
          ],
          [
            "North Macedonia",
            0.02365720085799694
          ],
          [
            "Azerbaijan",
            0.021194007247686386
          ],
          [
            "Iceland",
            0.020098544657230377
          ],
          [
            "Nicaragua",
            0.0179623831063509
          ],
          [
            "Niger",
            0.016559120267629623
          ],
          [
            "Estonia",
            0.016451502218842506
          ],
          [
            "Bhutan",
            0.016367949545383453
          ],
          [
            "Iran",
            0.015457835979759693
          ],
          [
            "Ukraine",
            0.013904339633882046
          ],
          [
            "Latvia",
            0.012787503190338612
          ],
          [
            "Czech Republic",
            0.012390327639877796
          ],
          [
            "Colombia",
            0.011460162699222565
          ],
          [
            "Saudi Arabia",
            0.011200455017387867
          ],
          [
            "Algeria",
            0.010740896686911583
          ],
          [
            "Turkmenistan",
            0.010289384052157402
          ],
          [
            "Burundi",
            0.008805686607956886
          ],
          [
            "Lesotho",
            0.008764257654547691
          ],
          [
            "Mali",
            0.008655957877635956
          ],
          [
            "Hong Kong",
            0.008212429471313953
          ],
          [
            "Heard and McDonald Islands",
            0.007258580066263676
          ],
          [
            "France",
            0.007074407301843166
          ],
          [
            "Mauritania",
            0.005773709621280432
          ],
          [
            "Uganda",
            0.0057191490195691586
          ],
          [
            "Cambodia",
            0.005582425743341446
          ],
          [
            "Australia",
            0.005199003033339977
          ],
          [
            "Zimbabwe",
            0.005038402508944273
          ],
          [
            "Angola",
            0.004993313457816839
          ],
          [
            "Belgium",
            0.004823300987482071
          ],
          [
            "Russia",
            0.00480847992002964
          ],
          [
            "Ethiopia",
            0.0047921231016516685
          ],
          [
            "South Sudan",
            0.004725906532257795
          ],
          [
            "Senegal",
            0.004638173617422581
          ],
          [
            "Turkey",
            0.004264328628778458
          ],
          [
            "Guadeloupe",
            0.004256827756762505
          ],
          [
            "Ireland",
            0.004174302332103252
          ],
          [
            "South Africa",
            0.004025543574243784
          ],
          [
            "Papua New Guinea",
            0.003942746203392744
          ],
          [
            "Sudan",
            0.003861401230096817
          ],
          [
            "Yemen",
            0.0036870427429676056
          ],
          [
            "Eswatini",
            0.0034479417372494936
          ],
          [
            "El Salvador",
            0.0034150532446801662
          ],
          [
            "Central African Republic",
            0.0033692526631057262
          ],
          [
            "Slovakia",
            0.0033233817666769028
          ],
          [
            "Mongolia",
            0.0033057054970413446
          ],
          [
            "Bulgaria",
            0.003169445553794503
          ],
          [
            "Greenland",
            0.00288895214907825
          ],
          [
            "South Korea",
            0.0028664537239819765
          ],
          [
            "Cape Verde",
            0.0028310706838965416
          ],
          [
            "Tajikistan",
            0.0027807485312223434
          ],
          [
            "Sierra Leone",
            0.002741508884355426
          ],
          [
            "Bosnia & Herzegovina",
            0.002739172661677003
          ],
          [
            "Honduras",
            0.002694119932129979
          ],
          [
            "Kyrgyzstan",
            0.0025921701453626156
          ],
          [
            "Serbia",
            0.002505655400454998
          ],
          [
            "Germany",
            0.002437841845676303
          ],
          [
            "Kenya",
            0.0024006692692637444
          ],
          [
            "Qatar",
            0.0023470893502235413
          ],
          [
            "Suriname",
            0.002276856219395995
          ],
          [
            "Reunion",
            0.0022643532138317823
          ],
          [
            "Venezuela",
            0.0022541277576237917
          ],
          [
            "Bangladesh",
            0.002207844750955701
          ],
          [
            "Peru",
            0.002168352250009775
          ],
          [
            "DR Congo",
            0.002115014009177685
          ],
          [
            "Spain",
            0.0019722485449165106
          ],
          [
            "Comoros",
            0.0019673830829560757
          ],
          [
            "Ecuador",
            0.0019174735061824322
          ],
          [
            "Belize",
            0.0019094479503110051
          ],
          [
            "Uruguay",
            0.0019007743103429675
          ],
          [
            "Zambia",
            0.001859532087109983
          ],
          [
            "Mozambique",
            0.0017647385830059648
          ],
          [
            "Falkland Islands",
            0.001751796924509108
          ],
          [
            "Nigeria",
            0.0017503239214420319
          ],
          [
            "Saint Lucia",
            0.0017395573668181896
          ],
          [
            "Poland",
            0.0016503633232787251
          ],
          [
            "Benin",
            0.001604638178832829
          ],
          [
            "Syria",
            0.001578203635290265
          ],
          [
            "Libya",
            0.0015713103348389268
          ],
          [
            "Georgia",
            0.0015650499844923615
          ],
          [
            "Montenegro",
            0.0015258941566571593
          ],
          [
            "Guatemala",
            0.0014741483610123396
          ],
          [
            "Fiji",
            0.001465893816202879
          ],
          [
            "Iraq",
            0.0014611707301810384
          ],
          [
            "Botswana",
            0.001455757301300764
          ],
          [
            "Côte d'Ivoire",
            0.0014418273931369185
          ],
          [
            "Hungary",
            0.0013942508958280087
          ],
          [
            "French Guiana",
            0.0013877347810193896
          ],
          [
            "Martinique",
            0.0013123005628585815
          ],
          [
            "Guinea-Bissau",
            0.001296178437769413
          ],
          [
            "Brunei",
            0.0012866287725046277
          ],
          [
            "Costa Rica",
            0.0012789217289537191
          ],
          [
            "Guinea",
            0.001246306230314076
          ],
          [
            "Dominican Republic",
            0.0012437012046575546
          ],
          [
            "Netherlands",
            0.001236944692209363
          ],
          [
            "Sri Lanka",
            0.0012355889193713665
          ],
          [
            "Myanmar",
            0.0012200763449072838
          ],
          [
            "Canada",
            0.0011794480960816145
          ],
          [
            "Guyana",
            0.0011102079879492521
          ],
          [
            "United States of America",
            0.0010837992886081338
          ],
          [
            "Congo",
            0.001082336762920022
          ],
          [
            "Croatia",
            0.0010816969443112612
          ],
          [
            "Malawi",
            0.0010632139164954424
          ],
          [
            "Bahrain",
            0.0010589658049866557
          ],
          [
            "Svalbard",
            0.0010429936228320003
          ],
          [
            "Bolivia",
            0.0010411232942715287
          ],
          [
            "China",
            0.0010387767106294632
          ],
          [
            "Madeira Islands",
            0.0009989208774641156
          ],
          [
            "Tunisia",
            0.0009674064931459725
          ],
          [
            "Moldova",
            0.0009661728399805725
          ],
          [
            "Slovenia",
            0.0009649260900914669
          ],
          [
            "Brazil",
            0.0009332034969702363
          ],
          [
            "Puerto Rico",
            0.0009325451101176441
          ],
          [
            "Ghana",
            0.0009278700454160571
          ],
          [
            "Albania",
            0.0009224755922332406
          ],
          [
            "Uzbekistan",
            0.0008804624085314572
          ],
          [
            "Isle of Man",
            0.0008603355963714421
          ],
          [
            "Dominica",
            0.000842641806229949
          ],
          [
            "Solomon Islands",
            0.0008378482889384031
          ],
          [
            "Vanuatu",
            0.0008196737617254257
          ],
          [
            "Jordan",
            0.000818986096419394
          ],
          [
            "Mexico",
            0.0008121556602418423
          ],
          [
            "North Korea",
            0.0008025865536183119
          ],
          [
            "Namibia",
            0.0007917638868093491
          ],
          [
            "Jamaica",
            0.0007785125053487718
          ],
          [
            "Italy",
            0.0007699049892835319
          ],
          [
            "Antigua & Barbuda",
            0.0007668653852306306
          ],
          [
            "Bahamas",
            0.0007661548443138599
          ],
          [
            "Faroe Islands",
            0.0007530864677391946
          ],
          [
            "Chad",
            0.0007447856478393078
          ],
          [
            "Vietnam",
            0.000740283343475312
          ],
          [
            "Malaysia",
            0.0007297340780496597
          ],
          [
            "Thailand",
            0.0007211677148006856
          ],
          [
            "Netherlands Antilles",
            0.0007164787966758013
          ],
          [
            "Tanzania",
            0.0007033717120066285
          ],
          [
            "Norway",
            0.0006993478164076805
          ],
          [
            "Egypt",
            0.0006739700911566615
          ],
          [
            "Djibouti",
            0.0006706961430609226
          ],
          [
            "Togo",
            0.0006520914030261338
          ],
          [
            "Kuwait",
            0.0006464246544055641
          ],
          [
            "Somalia",
            0.0006300679524429142
          ],
          [
            "Luxembourg",
            0.0006000911816954613
          ],
          [
            "United Arab Emirates",
            0.0005740895285271108
          ],
          [
            "Indonesia",
            0.0005720782792195678
          ],
          [
            "Cuba",
            0.0005713585414923728
          ],
          [
            "Oman",
            0.0005620660958811641
          ],
          [
            "Western Sahara",
            0.0005425281706266105
          ],
          [
            "Mayotte",
            0.0005321098724380136
          ],
          [
            "India",
            0.0005258222809061408
          ],
          [
            "Taiwan",
            0.000501628324855119
          ],
          [
            "Argentina",
            0.0005007383297197521
          ],
          [
            "New Zealand",
            0.0004919747589156032
          ],
          [
            "Portugal",
            0.00048170422087423503
          ],
          [
            "Sao Tome and Principe",
            0.0004798427107743919
          ],
          [
            "Timor-Leste",
            0.00045520366984419525
          ],
          [
            "Panama",
            0.0004547940625343472
          ],
          [
            "Turks and Caicos Islands",
            0.0004533174214884639
          ],
          [
            "United Kingdom",
            0.0004477499460335821
          ],
          [
            "United States Virgin Islands",
            0.00044568796874955297
          ],
          [
            "Philippines",
            0.0004435086448211223
          ],
          [
            "Sweden",
            0.00044306134805083275
          ],
          [
            "New Caledonia",
            0.00043692922918125987
          ],
          [
            "Austria",
            0.0004269869241397828
          ],
          [
            "West Bank",
            0.00038766235229559243
          ],
          [
            "South Georgia Islands",
            0.0003553686838131398
          ],
          [
            "Samoa",
            0.0003446940681897104
          ],
          [
            "Liberia",
            0.00033281248761340976
          ],
          [
            "Haiti",
            0.00033097289269790053
          ],
          [
            "Paraguay",
            0.0003295342030469328
          ],
          [
            "Cyprus",
            0.0003234434698242694
          ],
          [
            "Afghanistan",
            0.00031960938940756023
          ],
          [
            "Guam",
            0.00031928098178468645
          ],
          [
            "Chile",
            0.00030681767384521663
          ],
          [
            "Armenia",
            0.00030586059438064694
          ],
          [
            "Nepal",
            0.00029416740289889276
          ],
          [
            "Cameroon",
            0.0002879988169297576
          ],
          [
            "Morocco",
            0.00024044209567364305
          ],
          [
            "Barbados",
            0.00023848816636018455
          ],
          [
            "Israel",
            0.00023462196986656636
          ],
          [
            "Laos",
            0.00023130103363655508
          ],
          [
            "Finland",
            0.00022383044415619224
          ],
          [
            "Pakistan",
            0.00020081682305317372
          ],
          [
            "Denmark",
            0.00018909340724349022
          ],
          [
            "Greece",
            0.00018392592028249055
          ],
          [
            "Trinidad and Tobago",
            0.000183245210791938
          ],
          [
            "Madagascar",
            0.00016697209503035992
          ],
          [
            "Eritrea",
            0.00015067963977344334
          ],
          [
            "Equatorial Guinea",
            0.0001417114253854379
          ],
          [
            "Gambia",
            0.0001272516674362123
          ],
          [
            "Japan",
            0.0001173635246232152
          ],
          [
            "Lebanon",
            0.00010521100921323523
          ],
          [
            "Palau",
            4.45691985078156e-05
          ],
          [
            "Kiribati",
            3.075352651649155e-05
          ]
        ]
      },
      "geometry": {
        "type": "MultiLineString",
        "coordinates": [
          [
            [
              2.591133004926121,
              29.78325123152709
            ],
            [
              2.591133004926121,
              28.600985221674875
            ],
            [
              2.591133004926121,
              27.1231527093596
            ],
            [
              2.886699507389153,
              25.940886699507388
            ],
            [
              3.1822660098522135,
              25.054187192118206
            ],
            [
              4.364532019704427,
              24.758620689655174
            ],
            [
              4.364532019704427,
              23.576354679802932
            ],
            [
              4.364532019704427,
              22.394088669950747
            ],
            [
              5.546798029556669,
              20.620689655172413
            ],
            [
              6.137931034482762,
              19.73399014778323
            ],
            [
              6.7290640394088825,
              18.256157635467957
            ],
            [
              7.024630541871943,
              17.073891625615772
            ],
            [
              7.911330049261096,
              15.596059113300498
            ],
            [
              8.206896551724157,
              14.709359605911317
            ],
            [
              9.09359605911331,
              14.118226600985224
            ],
            [
              10.571428571428584,
              13.822660098522164
            ],
            [
              13.231527093596071,
              13.231527093596071
            ],
            [
              15.004926108374377,
              13.231527093596071
            ],
            [
              16.18719211822662,
              13.231527093596071
            ],
            [
              15.891625615763559,
              14.118226600985224
            ],
            [
              15.004926108374377,
              15.004926108374377
            ],
            [
              14.413793103448285,
              16.18719211822659
            ],
            [
              13.822660098522164,
              17.073891625615772
            ],
            [
              13.822660098522164,
              18.84729064039408
            ],
            [
              13.527093596059132,
              20.029556650246292
            ],
            [
              12.64039408866995,
              20.916256157635473
            ],
            [
              11.753694581280797,
              21.211822660098505
            ],
            [
              11.458128078817737,
              22.098522167487687
            ],
            [
              11.162561576354676,
              22.98522167487684
            ],
            [
              10.571428571428584,
              23.871921182265993
            ],
            [
              9.684729064039402,
              24.758620689655174
            ],
            [
              8.798029556650249,
              25.645320197044327
            ],
            [
              7.911330049261096,
              26.23645320197045
            ],
            [
              7.320197044334975,
              27.1231527093596
            ],
            [
              6.137931034482762,
              27.1231527093596
            ],
            [
              4.955665024630548,
              27.418719211822662
            ],
            [
              3.7733990147783345,
              27.714285714285722
            ],
            [
              2.886699507389153,
              28.009852216748754
            ],
            [
              2.0,
              28.305418719211815
            ]
          ],
          [
            [
              22.98522167487687,
              16.18719211822659
            ],
            [
              22.098522167487687,
              16.778325123152683
            ],
            [
              21.802955665024626,
              17.665024630541865
            ],
            [
              21.211822660098534,
              18.551724137931046
            ],
            [
              20.916256157635473,
              19.73399014778323
            ],
            [
              20.620689655172413,
              21.507389162561566
            ],
            [
              20.325123152709352,
              22.394088669950747
            ],
            [
              20.325123152709352,
              23.576354679802932
            ],
            [
              20.02955665024632,
              24.758620689655174
            ],
            [
              19.142857142857167,
              25.940886699507388
            ],
            [
              18.256157635467986,
              26.53201970443348
            ],
            [
              17.369458128078833,
              27.1231527093596
            ],
            [
              16.77832512315271,
              28.305418719211815
            ],
            [
              15.891625615763559,
              28.896551724137908
            ],
            [
              15.891625615763559,
              30.07881773399015
            ],
            [
              16.18719211822662,
              31.261083743842363
            ],
            [
              16.18719211822662,
              32.73891625615764
            ],
            [
              15.004926108374377,
              33.92118226600985
            ],
            [
              14.709359605911345,
              34.807881773399004
            ],
            [
              14.118226600985224,
              35.99014778325122
            ],
            [
              13.822660098522164,
              36.8768472906404
            ],
            [
              13.822660098522164,
              38.05911330049261
            ],
            [
              13.822660098522164,
              39.241379310344826
            ],
            [
              13.822660098522164,
              40.42364532019704
            ],
            [
              14.118226600985224,
              41.31034482758619
            ],
            [
              15.004926108374377,
              42.197044334975374
            ],
            [
              15.004926108374377,
              43.37931034482759
            ],
            [
              15.004926108374377,
              44.85714285714286
            ],
            [
              15.004926108374377,
              46.039408866995075
            ],
            [
              15.004926108374377,
              47.51724137931035
            ],
            [
              14.709359605911345,
              48.4039408866995
            ],
            [
              14.413793103448285,
              49.290640394088655
            ],
            [
              14.118226600985224,
              50.4729064039409
            ],
            [
              15.004926108374377,
              49.881773399014776
            ],
            [
              16.18719211822662,
              49.290640394088655
            ],
            [
              17.073891625615772,
              48.4039408866995
            ],
            [
              18.551724137931046,
              47.22167487684729
            ],
            [
              20.02955665024632,
              46.33497536945811
            ],
            [
              21.211822660098534,
              46.039408866995075
            ],
            [
              23.2807881773399,
              46.039408866995075
            ],
            [
              24.463054187192142,
              46.039408866995075
            ],
            [
              25.645320197044327,
              46.33497536945811
            ],
            [
              26.53201970443351,
              46.92610837438423
            ],
            [
              26.82758620689657,
              48.10837438423644
            ],
            [
              27.1231527093596,
              48.99507389162562
            ],
            [
              27.418719211822662,
              49.881773399014776
            ],
            [
              27.714285714285722,
              50.76847290640393
            ],
            [
              27.714285714285722,
              51.95073891625614
            ],
            [
              27.714285714285722,
              53.133004926108356
            ],
            [
              28.009852216748783,
              54.01970443349754
            ],
            [
              29.487684729064057,
              53.428571428571416
            ],
            [
              30.965517241379303,
              52.837438423645324
            ],
            [
              32.73891625615764,
              51.95073891625614
            ],
            [
              34.21674876847291,
              51.65517241379311
            ],
            [
              35.10344827586209,
              51.35960591133005
            ],
            [
              35.990147783251246,
              50.76847290640393
            ],
            [
              36.8768472906404,
              50.4729064039409
            ],
            [
              38.05911330049261,
              50.76847290640393
            ],
            [
              39.241379310344826,
              50.76847290640393
            ],
            [
              40.7192118226601,
              51.95073891625614
            ],
            [
              41.60591133004928,
              52.2463054187192
            ],
            [
              42.788177339901495,
              53.428571428571416
            ],
            [
              43.37931034482759,
              54.3152709359606
            ],
            [
              44.26600985221677,
              54.90640394088669
            ],
            [
              45.44827586206898,
              54.61083743842363
            ],
            [
              46.039408866995075,
              52.54187192118226
            ],
            [
              46.92610837438423,
              51.06403940886699
            ],
            [
              47.22167487684732,
              49.586206896551715
            ],
            [
              48.10837438423647,
              48.4039408866995
            ],
            [
              48.99507389162562,
              47.51724137931035
            ],
            [
              50.177339901477836,
              46.33497536945811
            ],
            [
              51.06403940886702,
              44.85714285714286
            ],
            [
              51.65517241379311,
              42.788177339901466
            ],
            [
              52.54187192118229,
              41.60591133004925
            ],
            [
              53.133004926108384,
              40.12807881773398
            ],
            [
              54.019704433497566,
              39.536945812807886
            ],
            [
              55.20197044334975,
              39.536945812807886
            ],
            [
              56.38423645320199,
              39.241379310344826
            ],
            [
              57.56650246305418,
              38.945812807881765
            ],
            [
              58.74876847290642,
              38.650246305418705
            ],
            [
              59.93103448275863,
              37.76354679802955
            ],
            [
              60.817733990147815,
              37.17241379310343
            ],
            [
              61.40886699507391,
              35.99014778325122
            ],
            [
              61.70443349753697,
              34.807881773399004
            ],
            [
              62.0,
              33.62561576354679
            ],
            [
              62.0,
              32.44334975369458
            ],
            [
              61.40886699507391,
              31.556650246305423
            ],
            [
              61.11330049261085,
              30.669950738916242
            ],
            [
              60.817733990147815,
              29.78325123152709
            ],
            [
              59.93103448275863,
              28.600985221674875
            ],
            [
              58.74876847290642,
              27.1231527093596
            ],
            [
              57.86206896551727,
              26.53201970443348
            ],
            [
              56.679802955665025,
              25.645320197044327
            ],
            [
              56.08866995073893,
              24.758620689655174
            ],
            [
              56.38423645320199,
              22.98522167487684
            ],
            [
              56.679802955665025,
              21.802955665024626
            ],
            [
              56.975369458128085,
              20.620689655172413
            ],
            [
              57.270935960591146,
              19.4384236453202
            ],
            [
              57.270935960591146,
              18.256157635467957
            ],
            [
              57.270935960591146,
              16.18719211822659
            ],
            [
              56.975369458128085,
              14.118226600985224
            ],
            [
              56.975369458128085,
              12.64039408866995
            ],
            [
              57.270935960591146,
              11.753694581280797
            ],
            [
              57.86206896551727,
              10.571428571428555
            ],
            [
              58.1576354679803,
              9.389162561576342
            ],
            [
              56.975369458128085,
              9.093596059113281
            ],
            [
              55.49753694581284,
              10.275862068965523
            ],
            [
              54.019704433497566,
              11.753694581280797
            ],
            [
              52.837438423645324,
              13.527093596059103
            ],
            [
              51.65517241379311,
              15.004926108374377
            ],
            [
              50.76847290640396,
              15.89162561576353
            ],
            [
              49.881773399014776,
              17.073891625615772
            ],
            [
              49.29064039408868,
              17.960591133004925
            ],
            [
              48.4039408866995,
              18.551724137931046
            ],
            [
              46.630541871921196,
              18.256157635467957
            ],
            [
              45.74384236453204,
              17.665024630541865
            ],
            [
              44.85714285714286,
              17.073891625615772
            ],
            [
              42.788177339901495,
              15.89162561576353
            ],
            [
              41.60591133004928,
              15.300492610837438
            ],
            [
              39.241379310344826,
              14.118226600985224
            ],
            [
              38.05911330049261,
              12.935960591132982
            ],
            [
              37.76354679802955,
              12.04926108374383
            ],
            [
              36.58128078817737,
              10.866995073891616
            ],
            [
              35.10344827586209,
              10.571428571428555
            ],
            [
              33.92118226600985,
              10.571428571428555
            ],
            [
              32.44334975369458,
              10.571428571428555
            ],
            [
              31.261083743842363,
              10.571428571428555
            ],
            [
              30.37438423645321,
              10.866995073891616
            ],
            [
              29.783251231527117,
              12.34482758620689
            ],
            [
              29.192118226600996,
              13.231527093596071
            ],
            [
              28.896551724137936,
              14.118226600985224
            ],
            [
              28.305418719211843,
              15.004926108374377
            ],
            [
              27.418719211822662,
              15.596059113300498
            ],
            [
              26.53201970443351,
              16.18719211822659
            ],
            [
              25.349753694581295,
              16.18719211822659
            ],
            [
              24.463054187192142,
              16.48275862068965
            ]
          ]
        ]
      }
    }
  ]
}