{
  "type": "FeatureCollection",
  "crs": {
    "type": "name",
    "properties": {
      "name": "urn:ogc:def:crs:OGC:1.3:CRS84"
    }
  },
  "features": [
    {
      "type": "Feature",
      "properties": {
        "timestamp": "2026-07-20T18:18:28.483695",
        "country_name": "Bahamas",
        "author": "",
        "author_id": "bc485ed6-61ee-4f06-86b7-ad8c0309745e",
        "validated": false,
        "ranking": [
          [
            "Bahamas",
            0.25427478551864624
          ],
          [
            "Laos",
            0.10622619837522507
          ],
          [
            "Guyana",
            0.08815427869558334
          ],
          [
            "Peru",
            0.06113440543413162
          ],
          [
            "Eritrea",
            0.05145804584026337
          ],
          [
            "Sri Lanka",
            0.04552977904677391
          ],
          [
            "United States of America",
            0.04310089349746704
          ],
          [
            "Bahrain",
            0.028084827587008476
          ],
          [
            "Vanuatu",
            0.026262154802680016
          ],
          [
            "Martinique",
            0.021945049986243248
          ],
          [
            "Luxembourg",
            0.019985578954219818
          ],
          [
            "Italy",
            0.018446605652570724
          ],
          [
            "Mexico",
            0.014298954047262669
          ],
          [
            "Albania",
            0.013373290188610554
          ],
          [
            "Togo",
            0.00965011864900589
          ],
          [
            "Serbia",
            0.009551345370709896
          ],
          [
            "Malawi",
            0.009404107928276062
          ],
          [
            "Ethiopia",
            0.009151757694780827
          ],
          [
            "Barbados",
            0.007925504818558693
          ],
          [
            "Vietnam",
            0.0077376593835651875
          ],
          [
            "Saudi Arabia",
            0.007365969009697437
          ],
          [
            "Dominica",
            0.006993460468947887
          ],
          [
            "Samoa",
            0.005274220369756222
          ],
          [
            "El Salvador",
            0.004889985080808401
          ],
          [
            "Nepal",
            0.00460398755967617
          ],
          [
            "South Georgia Islands",
            0.004550731275230646
          ],
          [
            "Bangladesh",
            0.004502271302044392
          ],
          [
            "Guinea",
            0.004386264830827713
          ],
          [
            "Turks and Caicos Islands",
            0.004318541847169399
          ],
          [
            "Faroe Islands",
            0.004182673990726471
          ],
          [
            "Turkmenistan",
            0.0039049023762345314
          ],
          [
            "Kiribati",
            0.003545749466866255
          ],
          [
            "Solomon Islands",
            0.0035183841828256845
          ],
          [
            "Comoros",
            0.003394987666979432
          ],
          [
            "Australia",
            0.0031637460924685
          ],
          [
            "Tunisia",
            0.0027768814470618963
          ],
          [
            "United States Virgin Islands",
            0.0026202627923339605
          ],
          [
            "Iraq",
            0.002509191632270813
          ],
          [
            "Finland",
            0.002413972746580839
          ],
          [
            "Liberia",
            0.002345198066905141
          ],
          [
            "Lithuania",
            0.002153347712010145
          ],
          [
            "Uzbekistan",
            0.002153195673599839
          ],
          [
            "Heard and McDonald Islands",
            0.001974609913304448
          ],
          [
            "Qatar",
            0.0019553720485419035
          ],
          [
            "Cuba",
            0.0019386644707992673
          ],
          [
            "Armenia",
            0.0019130036234855652
          ],
          [
            "Costa Rica",
            0.0018880929565057158
          ],
          [
            "Romania",
            0.0018662133952602744
          ],
          [
            "Eswatini",
            0.001716336701065302
          ],
          [
            "South Korea",
            0.0015732786851003766
          ],
          [
            "United Kingdom",
            0.0015003657899796963
          ],
          [
            "Svalbard",
            0.0013538860948756337
          ],
          [
            "Myanmar",
            0.0012967728544026613
          ],
          [
            "Namibia",
            0.001246727886609733
          ],
          [
            "Benin",
            0.0012113562552258372
          ],
          [
            "Tajikistan",
            0.0011992959771305323
          ],
          [
            "Antigua & Barbuda",
            0.0010120198130607605
          ],
          [
            "Suriname",
            0.0010064432863146067
          ],
          [
            "France",
            0.0009902880992740393
          ],
          [
            "Kenya",
            0.0009710990125313401
          ],
          [
            "Guadeloupe",
            0.0009575144504196942
          ],
          [
            "Cape Verde",
            0.0009378577815368772
          ],
          [
            "Philippines",
            0.0009172286372631788
          ],
          [
            "Greenland",
            0.0009038181742653251
          ],
          [
            "Czech Republic",
            0.0008972979267127812
          ],
          [
            "Moldova",
            0.000881577143445611
          ],
          [
            "Germany",
            0.0008648359798826277
          ],
          [
            "Belize",
            0.0008642752654850483
          ],
          [
            "Algeria",
            0.0008464794955216348
          ],
          [
            "Reunion",
            0.0008371748263016343
          ],
          [
            "Croatia",
            0.0008306250092573464
          ],
          [
            "Zimbabwe",
            0.0008288130047731102
          ],
          [
            "Gabon",
            0.0008170815999619663
          ],
          [
            "Chile",
            0.0008154282113537192
          ],
          [
            "Guatemala",
            0.0008138262783177197
          ],
          [
            "Paraguay",
            0.0007840819307602942
          ],
          [
            "Uganda",
            0.0007472107536159456
          ],
          [
            "Equatorial Guinea",
            0.0007393666310235858
          ],
          [
            "Bosnia & Herzegovina",
            0.0007314094691537321
          ],
          [
            "Sierra Leone",
            0.0007145346025936306
          ],
          [
            "Iran",
            0.0006970963440835476
          ],
          [
            "Djibouti",
            0.0006911426316946745
          ],
          [
            "DR Congo",
            0.000681158562656492
          ],
          [
            "Latvia",
            0.0006624315865337849
          ],
          [
            "Senegal",
            0.0006402921280823648
          ],
          [
            "Belgium",
            0.0006295422790572047
          ],
          [
            "Denmark",
            0.0006162587669678032
          ],
          [
            "Thailand",
            0.0006100429454818368
          ],
          [
            "North Macedonia",
            0.0005807053530588746
          ],
          [
            "West Bank",
            0.0005525224842131138
          ],
          [
            "Ukraine",
            0.0005494296783581376
          ],
          [
            "Venezuela",
            0.0005453484482131898
          ],
          [
            "Argentina",
            0.0005425048293545842
          ],
          [
            "Greece",
            0.0005272116395644844
          ],
          [
            "Colombia",
            0.0005164988688193262
          ],
          [
            "Uruguay",
            0.0005013379268348217
          ],
          [
            "French Guiana",
            0.0005012308829464018
          ],
          [
            "Georgia",
            0.0004934307653456926
          ],
          [
            "Sudan",
            0.000462596450233832
          ],
          [
            "Lesotho",
            0.0004545888223219663
          ],
          [
            "Angola",
            0.00044806039659306407
          ],
          [
            "Syria",
            0.0004367795481812209
          ],
          [
            "Israel",
            0.0004216892411932349
          ],
          [
            "Portugal",
            0.00041854570736177266
          ],
          [
            "Kuwait",
            0.00040975961019285023
          ],
          [
            "Azerbaijan",
            0.0004014135629404336
          ],
          [
            "Bolivia",
            0.00038038360071368515
          ],
          [
            "Spain",
            0.0003721777757164091
          ],
          [
            "Ecuador",
            0.00035746206413023174
          ],
          [
            "Côte d'Ivoire",
            0.0003495039709378034
          ],
          [
            "Nicaragua",
            0.00034762316499836743
          ],
          [
            "New Caledonia",
            0.00034561794018372893
          ],
          [
            "Dominican Republic",
            0.0003356828528922051
          ],
          [
            "Mozambique",
            0.00033216082374565303
          ],
          [
            "Montenegro",
            0.00033206070656888187
          ],
          [
            "Papua New Guinea",
            0.0003289428714197129
          ],
          [
            "Jamaica",
            0.0003238338103983551
          ],
          [
            "Ghana",
            0.0003055634442716837
          ],
          [
            "Somalia",
            0.00029904753318987787
          ],
          [
            "Puerto Rico",
            0.0002975613751914352
          ],
          [
            "Saint Lucia",
            0.00027383427368476987
          ],
          [
            "India",
            0.0002670300891622901
          ],
          [
            "Rwanda",
            0.0002660671598277986
          ],
          [
            "Brazil",
            0.00025639752857387066
          ],
          [
            "Cambodia",
            0.0002512518549337983
          ],
          [
            "Turkey",
            0.00025121832732111216
          ],
          [
            "Burundi",
            0.0002423262340016663
          ],
          [
            "Estonia",
            0.00022659004025626928
          ],
          [
            "Indonesia",
            0.00021171818661969155
          ],
          [
            "Poland",
            0.00019799076835624874
          ],
          [
            "Mongolia",
            0.0001957378553925082
          ],
          [
            "Belarus",
            0.0001883559743873775
          ],
          [
            "Libya",
            0.0001851911802077666
          ],
          [
            "Malaysia",
            0.0001768357615219429
          ],
          [
            "Russia",
            0.00017601200670469552
          ],
          [
            "Netherlands Antilles",
            0.0001547507563373074
          ],
          [
            "Egypt",
            0.00014980202831793576
          ],
          [
            "Switzerland",
            0.0001485874963691458
          ],
          [
            "Mauritania",
            0.00014077535888645798
          ],
          [
            "Bhutan",
            0.0001257222320418805
          ],
          [
            "New Zealand",
            0.00011565694876480848
          ],
          [
            "Canada",
            0.00011561856808839366
          ],
          [
            "Sao Tome and Principe",
            9.405927994521335e-05
          ],
          [
            "Sweden",
            9.14117626962252e-05
          ],
          [
            "Falkland Islands",
            8.942733256844804e-05
          ],
          [
            "Mayotte",
            8.936815720517188e-05
          ],
          [
            "Kazakhstan",
            8.661594620207325e-05
          ],
          [
            "Jordan",
            8.267648081528023e-05
          ],
          [
            "Nigeria",
            8.045685535762459e-05
          ],
          [
            "Slovakia",
            7.548915164079517e-05
          ],
          [
            "South Sudan",
            7.280825957423076e-05
          ],
          [
            "Burkina Faso",
            7.25987265468575e-05
          ],
          [
            "Guinea-Bissau",
            6.992145790718496e-05
          ],
          [
            "Yemen",
            6.964833301026374e-05
          ],
          [
            "Timor-Leste",
            6.792705244151875e-05
          ],
          [
            "Hong Kong",
            6.769656465621665e-05
          ],
          [
            "Madeira Islands",
            6.717525684507564e-05
          ],
          [
            "Kyrgyzstan",
            6.442707672249526e-05
          ],
          [
            "Honduras",
            6.10583956586197e-05
          ],
          [
            "Mali",
            6.0054131608922035e-05
          ],
          [
            "Fiji",
            5.850843808730133e-05
          ],
          [
            "Chad",
            5.777993283118121e-05
          ],
          [
            "Tanzania",
            5.489392060553655e-05
          ],
          [
            "Taiwan",
            5.4502583225257695e-05
          ],
          [
            "Botswana",
            5.3907693654764444e-05
          ],
          [
            "Ireland",
            5.019308810005896e-05
          ],
          [
            "Iceland",
            4.926518886350095e-05
          ],
          [
            "Cameroon",
            4.720009383163415e-05
          ],
          [
            "Congo",
            4.156631985097192e-05
          ],
          [
            "Gambia",
            4.099563739146106e-05
          ],
          [
            "Oman",
            3.875456241075881e-05
          ],
          [
            "Zambia",
            3.783205465879291e-05
          ],
          [
            "China",
            3.4126496757380664e-05
          ],
          [
            "Trinidad and Tobago",
            3.41241538990289e-05
          ],
          [
            "Panama",
            3.243807441322133e-05
          ],
          [
            "South Africa",
            2.5723502403707244e-05
          ],
          [
            "United Arab Emirates",
            2.2909740437171422e-05
          ],
          [
            "Niger",
            2.241688889625948e-05
          ],
          [
            "Cyprus",
            2.2347941921907477e-05
          ],
          [
            "Western Sahara",
            2.1866508177481592e-05
          ],
          [
            "Japan",
            2.0595311070792377e-05
          ],
          [
            "Central African Republic",
            1.794392846932169e-05
          ],
          [
            "Guam",
            1.7833721358329058e-05
          ],
          [
            "Norway",
            1.7552312783664092e-05
          ],
          [
            "Afghanistan",
            1.7415088223060593e-05
          ],
          [
            "Bulgaria",
            1.626308039703872e-05
          ],
          [
            "Hungary",
            1.5424970115418546e-05
          ],
          [
            "Netherlands",
            1.4501948498946149e-05
          ],
          [
            "Brunei",
            1.3869484973838553e-05
          ],
          [
            "Slovenia",
            1.175710258394247e-05
          ],
          [
            "Isle of Man",
            1.0825470781128388e-05
          ],
          [
            "Palau",
            7.3018218245124444e-06
          ],
          [
            "Austria",
            7.038654075586237e-06
          ],
          [
            "Lebanon",
            5.161340141057735e-06
          ],
          [
            "North Korea",
            5.101014266983839e-06
          ],
          [
            "Haiti",
            5.015057467971928e-06
          ],
          [
            "Madagascar",
            4.149927917751484e-06
          ],
          [
            "Pakistan",
            2.425946831863257e-06
          ],
          [
            "Morocco",
            1.341432835033629e-06
          ]
        ]
      },
      "geometry": {
        "type": "MultiLineString",
        "coordinates": [
          [
            [
              25.454545454545453,
              61.999999999999986
            ],
            [
              28.727272727272734,
              54.363636363636346
            ],
            [
              29.818181818181827,
              46.727272727272705
            ],
            [
              31.999999999999986,
              39.090909090909065
            ],
            [
              33.09090909090908,
              35.81818181818181
            ],
            [
              33.09090909090908,
              31.45454545454544
            ],
            [
              37.45454545454545,
              28.18181818181816
            ],
            [
              42.90909090909089,
              24.909090909090907
            ],
            [
              46.18181818181817,
              23.818181818181813
            ],
            [
              50.54545454545455,
              21.636363636363626
            ],
            [
              52.727272727272734,
              17.272727272727252
            ],
            [
              51.63636363636364,
              12.909090909090907
            ],
            [
              49.45454545454545,
              8.545454545454533
            ],
            [
              46.18181818181817,
              6.3636363636363455
            ],
            [
              45.09090909090908,
              2.0
            ],
            [
              39.63636363636364,
              3.090909090909065
            ],
            [
              35.272727272727266,
              6.3636363636363455
            ],
            [
              29.818181818181827,
              10.72727272727272
            ],
            [
              26.545454545454547,
              17.272727272727252
            ],
            [
              22.181818181818173,
              23.818181818181813
            ],
            [
              17.818181818181813,
              28.18181818181816
            ],
            [
              15.63636363636364,
              32.54545454545453
            ],
            [
              13.454545454545453,
              36.90909090909091
            ],
            [
              11.272727272727266,
              41.27272727272725
            ],
            [
              12.36363636363636,
              46.727272727272705
            ],
            [
              15.63636363636364,
              51.09090909090908
            ],
            [
              19.999999999999986,
              54.363636363636346
            ],
            [
              23.272727272727266,
              56.54545454545453
            ],
            [
              28.727272727272734,
              56.54545454545453
            ],
            [
              33.09090909090908,
              56.54545454545453
            ]
          ]
        ]
      }
    }
  ]
}