{
  "type": "FeatureCollection",
  "crs": {
    "type": "name",
    "properties": {
      "name": "urn:ogc:def:crs:OGC:1.3:CRS84"
    }
  },
  "features": [
    {
      "type": "Feature",
      "properties": {
        "timestamp": "2026-05-30T16:39:33.043018",
        "country_name": "Belarus",
        "author": "",
        "author_id": "504c979b-4771-41f6-a295-f5437791ced5",
        "validated": false,
        "ranking": [
          [
            "Belarus",
            0.12193971872329712
          ],
          [
            "Lithuania",
            0.05151011422276497
          ],
          [
            "Zimbabwe",
            0.0473712682723999
          ],
          [
            "Eswatini",
            0.03754387050867081
          ],
          [
            "Uganda",
            0.03679903224110603
          ],
          [
            "Algeria",
            0.03345586359500885
          ],
          [
            "Mauritania",
            0.029023470357060432
          ],
          [
            "Colombia",
            0.02627699449658394
          ],
          [
            "Romania",
            0.02468189224600792
          ],
          [
            "Mali",
            0.018737496808171272
          ],
          [
            "Qatar",
            0.017571354284882545
          ],
          [
            "Rwanda",
            0.016155997291207314
          ],
          [
            "Nicaragua",
            0.01592589169740677
          ],
          [
            "Niger",
            0.015447596088051796
          ],
          [
            "Bosnia & Herzegovina",
            0.014822523109614849
          ],
          [
            "Chad",
            0.014759160578250885
          ],
          [
            "Iran",
            0.013371559791266918
          ],
          [
            "Australia",
            0.013166814111173153
          ],
          [
            "Kenya",
            0.013114482164382935
          ],
          [
            "North Macedonia",
            0.012037095613777637
          ],
          [
            "Dominica",
            0.011636262759566307
          ],
          [
            "Angola",
            0.011315161362290382
          ],
          [
            "Saint Lucia",
            0.011058001779019833
          ],
          [
            "Sri Lanka",
            0.010953609831631184
          ],
          [
            "Estonia",
            0.010518825612962246
          ],
          [
            "Lesotho",
            0.009986833669245243
          ],
          [
            "Suriname",
            0.009831120260059834
          ],
          [
            "Greenland",
            0.009659338742494583
          ],
          [
            "Bahrain",
            0.009232647716999054
          ],
          [
            "Peru",
            0.00879742857068777
          ],
          [
            "Reunion",
            0.008717602118849754
          ],
          [
            "Serbia",
            0.00855792872607708
          ],
          [
            "Azerbaijan",
            0.007371066138148308
          ],
          [
            "Belgium",
            0.007313187699764967
          ],
          [
            "DR Congo",
            0.007135375868529081
          ],
          [
            "Poland",
            0.00686988141387701
          ],
          [
            "Ghana",
            0.0066543021239340305
          ],
          [
            "Spain",
            0.006389232352375984
          ],
          [
            "Ireland",
            0.006335643120110035
          ],
          [
            "South Korea",
            0.00617998419329524
          ],
          [
            "Iraq",
            0.0061362083069980145
          ],
          [
            "French Guiana",
            0.006108288187533617
          ],
          [
            "Tunisia",
            0.0057523963041603565
          ],
          [
            "Côte d'Ivoire",
            0.0055791581980884075
          ],
          [
            "Benin",
            0.005540103651583195
          ],
          [
            "Burkina Faso",
            0.005394865293055773
          ],
          [
            "Latvia",
            0.005043061450123787
          ],
          [
            "Egypt",
            0.0049575804732739925
          ],
          [
            "Brazil",
            0.00484477961435914
          ],
          [
            "Guyana",
            0.004842165391892195
          ],
          [
            "West Bank",
            0.004585143178701401
          ],
          [
            "Germany",
            0.004528251010924578
          ],
          [
            "Uruguay",
            0.004455769434571266
          ],
          [
            "Namibia",
            0.004377052187919617
          ],
          [
            "Saudi Arabia",
            0.00435918103903532
          ],
          [
            "France",
            0.004279990680515766
          ],
          [
            "Gabon",
            0.004210317507386208
          ],
          [
            "Martinique",
            0.004198601469397545
          ],
          [
            "Sierra Leone",
            0.0037698810920119286
          ],
          [
            "Myanmar",
            0.0037670708261430264
          ],
          [
            "Portugal",
            0.0037419209256768227
          ],
          [
            "Turkmenistan",
            0.0036376432981342077
          ],
          [
            "Mozambique",
            0.0036071462091058493
          ],
          [
            "Belize",
            0.003533850656822324
          ],
          [
            "Guadeloupe",
            0.003524198429659009
          ],
          [
            "Argentina",
            0.003522323677316308
          ],
          [
            "Norway",
            0.002981811761856079
          ],
          [
            "Malawi",
            0.0028907658997923136
          ],
          [
            "Albania",
            0.0028172486927360296
          ],
          [
            "Kazakhstan",
            0.0028142197988927364
          ],
          [
            "Fiji",
            0.0027607567608356476
          ],
          [
            "Western Sahara",
            0.0027602300979197025
          ],
          [
            "Burundi",
            0.002712470479309559
          ],
          [
            "Cape Verde",
            0.002695276401937008
          ],
          [
            "Sudan",
            0.0025234492495656013
          ],
          [
            "Tanzania",
            0.002442393684759736
          ],
          [
            "New Zealand",
            0.0024355461355298758
          ],
          [
            "Heard and McDonald Islands",
            0.002433029469102621
          ],
          [
            "Antigua & Barbuda",
            0.002421829616650939
          ],
          [
            "Venezuela",
            0.0023895089980214834
          ],
          [
            "Faroe Islands",
            0.0023417193442583084
          ],
          [
            "Kuwait",
            0.0023023029789328575
          ],
          [
            "United States Virgin Islands",
            0.0022994722239673138
          ],
          [
            "Togo",
            0.0022879664320498705
          ],
          [
            "Guatemala",
            0.0022711835335940123
          ],
          [
            "Switzerland",
            0.002116753486916423
          ],
          [
            "Croatia",
            0.002100697485730052
          ],
          [
            "Costa Rica",
            0.0018761517712846398
          ],
          [
            "South Sudan",
            0.0018734127515926957
          ],
          [
            "Bhutan",
            0.0018304655095562339
          ],
          [
            "Taiwan",
            0.0018139807507395744
          ],
          [
            "Ecuador",
            0.0017822133377194405
          ],
          [
            "Vanuatu",
            0.0017761659109964967
          ],
          [
            "Cambodia",
            0.0017682764446362853
          ],
          [
            "Ethiopia",
            0.0017423202516511083
          ],
          [
            "Djibouti",
            0.0017216898268088698
          ],
          [
            "Svalbard",
            0.0017124280566349626
          ],
          [
            "Comoros",
            0.0015866548055782914
          ],
          [
            "Hong Kong",
            0.0015800048131495714
          ],
          [
            "Vietnam",
            0.0015530663076788187
          ],
          [
            "Moldova",
            0.001502819242887199
          ],
          [
            "Czech Republic",
            0.0014996981481090188
          ],
          [
            "Papua New Guinea",
            0.0014878457877784967
          ],
          [
            "Mayotte",
            0.0014261499745771289
          ],
          [
            "Guinea",
            0.0013808385701850057
          ],
          [
            "Cameroon",
            0.001372535596601665
          ],
          [
            "Ukraine",
            0.0013508002739399672
          ],
          [
            "Senegal",
            0.0013376271817833185
          ],
          [
            "Netherlands",
            0.0012918174033984542
          ],
          [
            "Libya",
            0.0012915044790133834
          ],
          [
            "Sweden",
            0.001281715463846922
          ],
          [
            "Somalia",
            0.0012408627662807703
          ],
          [
            "Iceland",
            0.0012129206443205476
          ],
          [
            "Paraguay",
            0.001186302280984819
          ],
          [
            "Thailand",
            0.0011470152530819178
          ],
          [
            "Canada",
            0.0011137903202325106
          ],
          [
            "Congo",
            0.0010849680984392762
          ],
          [
            "Yemen",
            0.001078506000339985
          ],
          [
            "South Africa",
            0.0010720884893089533
          ],
          [
            "Finland",
            0.0010443951468914747
          ],
          [
            "United Kingdom",
            0.001040619215928018
          ],
          [
            "Bangladesh",
            0.0009779274696484208
          ],
          [
            "El Salvador",
            0.0009508146904408932
          ],
          [
            "Sao Tome and Principe",
            0.0009493034449405968
          ],
          [
            "Solomon Islands",
            0.0009481470915488899
          ],
          [
            "Luxembourg",
            0.0008936098893173039
          ],
          [
            "Botswana",
            0.0008722919737920165
          ],
          [
            "Isle of Man",
            0.0008299562032334507
          ],
          [
            "Chile",
            0.0007214416400529444
          ],
          [
            "Italy",
            0.0007076793699525297
          ],
          [
            "United Arab Emirates",
            0.0006832009530626237
          ],
          [
            "Bolivia",
            0.0006828205659985542
          ],
          [
            "Israel",
            0.0006663989624939859
          ],
          [
            "Netherlands Antilles",
            0.0006502409232780337
          ],
          [
            "Turkey",
            0.0006435362156480551
          ],
          [
            "Syria",
            0.000643027073238045
          ],
          [
            "Guam",
            0.0006159457843750715
          ],
          [
            "Jordan",
            0.0006145669030956924
          ],
          [
            "Tajikistan",
            0.0006066405330784619
          ],
          [
            "Central African Republic",
            0.0005934881046414375
          ],
          [
            "Barbados",
            0.0005582103622145951
          ],
          [
            "Philippines",
            0.0005360071663744748
          ],
          [
            "Brunei",
            0.0005151733057573438
          ],
          [
            "Trinidad and Tobago",
            0.0005081119597889483
          ],
          [
            "Zambia",
            0.0004999901866540313
          ],
          [
            "Georgia",
            0.00048755816533230245
          ],
          [
            "Bahamas",
            0.0004867302777711302
          ],
          [
            "Kyrgyzstan",
            0.00047722685849294066
          ],
          [
            "Slovakia",
            0.00046101334737613797
          ],
          [
            "Oman",
            0.0004601489345077425
          ],
          [
            "Montenegro",
            0.0004594788479153067
          ],
          [
            "Mongolia",
            0.00044867669930681586
          ],
          [
            "North Korea",
            0.0004333843826316297
          ],
          [
            "Laos",
            0.000414949405239895
          ],
          [
            "Russia",
            0.00041301012970507145
          ],
          [
            "Timor-Leste",
            0.00040976167656481266
          ],
          [
            "Nigeria",
            0.0003941594040952623
          ],
          [
            "Armenia",
            0.0003790933988057077
          ],
          [
            "United States of America",
            0.00037852334207855165
          ],
          [
            "Guinea-Bissau",
            0.00036078461562283337
          ],
          [
            "Liberia",
            0.000355160009348765
          ],
          [
            "Madagascar",
            0.0003318946110084653
          ],
          [
            "Falkland Islands",
            0.00032276869751513004
          ],
          [
            "Puerto Rico",
            0.00031845871126279235
          ],
          [
            "Honduras",
            0.0003162891953252256
          ],
          [
            "Malaysia",
            0.0003038928552996367
          ],
          [
            "China",
            0.0003023612662218511
          ],
          [
            "Madeira Islands",
            0.0003003529564011842
          ],
          [
            "Mexico",
            0.0002966312749776989
          ],
          [
            "Greece",
            0.0002864179259631783
          ],
          [
            "India",
            0.00027897997642867267
          ],
          [
            "South Georgia Islands",
            0.000275402853731066
          ],
          [
            "Pakistan",
            0.00026978415553458035
          ],
          [
            "Austria",
            0.00026928752777166665
          ],
          [
            "Cuba",
            0.00025869187084026635
          ],
          [
            "Japan",
            0.00025435161660425365
          ],
          [
            "Panama",
            0.00024073122767731547
          ],
          [
            "Haiti",
            0.00023364846128970385
          ],
          [
            "Hungary",
            0.0002219222078565508
          ],
          [
            "Dominican Republic",
            0.0002185562188969925
          ],
          [
            "Indonesia",
            0.00021137387375347316
          ],
          [
            "Samoa",
            0.00020769514958374202
          ],
          [
            "New Caledonia",
            0.00020496438082773238
          ],
          [
            "Morocco",
            0.00017638997815083712
          ],
          [
            "Lebanon",
            0.0001739105355227366
          ],
          [
            "Cyprus",
            0.00017214591207448393
          ],
          [
            "Jamaica",
            0.00016770621004980057
          ],
          [
            "Turks and Caicos Islands",
            0.00016629291349090636
          ],
          [
            "Eritrea",
            0.0001508507557446137
          ],
          [
            "Bulgaria",
            0.00015066271589603275
          ],
          [
            "Uzbekistan",
            0.00014752306742593646
          ],
          [
            "Equatorial Guinea",
            0.0001431482523912564
          ],
          [
            "Afghanistan",
            0.00011852884199470282
          ],
          [
            "Slovenia",
            0.00011014522169716656
          ],
          [
            "Nepal",
            9.34130948735401e-05
          ],
          [
            "Gambia",
            8.246428478742018e-05
          ],
          [
            "Denmark",
            7.12027758709155e-05
          ],
          [
            "Palau",
            6.53007227811031e-05
          ],
          [
            "Kiribati",
            1.4717982594447676e-05
          ]
        ]
      },
      "geometry": {
        "type": "MultiLineString",
        "coordinates": [
          [
            [
              43.9758064516129,
              55.225806451612925
            ],
            [
              39.86290322580646,
              55.225806451612925
            ],
            [
              34.05645161290323,
              55.70967741935485
            ],
            [
              30.669354838709666,
              55.70967741935485
            ],
            [
              28.975806451612897,
              55.70967741935485
            ],
            [
              28.008064516129025,
              55.4677419354839
            ],
            [
              26.798387096774178,
              54.5
            ],
            [
              25.830645161290306,
              53.7741935483871
            ],
            [
              24.862903225806434,
              53.048387096774206
            ],
            [
              23.895161290322562,
              51.83870967741936
            ],
            [
              23.169354838709666,
              50.62903225806451
            ],
            [
              22.44354838709677,
              49.419354838709694
            ],
            [
              21.717741935483872,
              48.20967741935485
            ],
            [
              20.508064516129025,
              45.548387096774206
            ],
            [
              19.782258064516128,
              43.85483870967744
            ],
            [
              19.05645161290323,
              41.67741935483872
            ],
            [
              18.814516129032256,
              40.46774193548387
            ],
            [
              18.57258064516128,
              39.25806451612905
            ],
            [
              18.330645161290306,
              38.29032258064518
            ],
            [
              18.08870967741936,
              37.32258064516131
            ],
            [
              17.846774193548384,
              35.387096774193566
            ],
            [
              17.846774193548384,
              34.17741935483872
            ],
            [
              17.846774193548384,
              32.96774193548387
            ],
            [
              17.846774193548384,
              31.274193548387103
            ],
            [
              17.846774193548384,
              30.30645161290323
            ],
            [
              17.846774193548384,
              29.096774193548413
            ],
            [
              17.846774193548384,
              28.129032258064512
            ],
            [
              17.846774193548384,
              27.16129032258067
            ],
            [
              17.846774193548384,
              26.19354838709677
            ],
            [
              17.846774193548384,
              25.225806451612925
            ],
            [
              18.330645161290306,
              23.774193548387103
            ],
            [
              19.05645161290323,
              22.80645161290323
            ],
            [
              19.540322580645153,
              21.83870967741936
            ],
            [
              20.26612903225805,
              21.354838709677438
            ],
            [
              20.991935483870975,
              20.629032258064512
            ],
            [
              20.024193548387075,
              20.629032258064512
            ],
            [
              17.362903225806434,
              21.354838709677438
            ],
            [
              15.185483870967744,
              21.83870967741936
            ],
            [
              14.217741935483872,
              22.080645161290334
            ],
            [
              13.25,
              22.080645161290334
            ],
            [
              12.040322580645153,
              22.080645161290334
            ],
            [
              11.072580645161281,
              22.080645161290334
            ],
            [
              9.862903225806434,
              22.080645161290334
            ],
            [
              8.653225806451616,
              21.354838709677438
            ],
            [
              7.443548387096769,
              20.870967741935488
            ],
            [
              6.717741935483872,
              20.629032258064512
            ],
            [
              5.991935483870975,
              20.14516129032259
            ],
            [
              5.26612903225805,
              19.903225806451644
            ],
            [
              4.540322580645153,
              19.419354838709694
            ],
            [
              4.056451612903231,
              17.9677419354839
            ],
            [
              4.056451612903231,
              16.758064516129025
            ],
            [
              3.330645161290306,
              14.822580645161281
            ],
            [
              3.0887096774193594,
              12.645161290322562
            ],
            [
              3.0887096774193594,
              9.98387096774195
            ],
            [
              3.0887096774193594,
              8.774193548387075
            ],
            [
              3.0887096774193594,
              7.806451612903231
            ],
            [
              3.0887096774193594,
              6.596774193548413
            ],
            [
              3.572580645161281,
              5.8709677419354875
            ],
            [
              5.75,
              4.661290322580669
            ],
            [
              7.92741935483869,
              3.9354838709677438
            ],
            [
              10.346774193548384,
              3.2096774193548754
            ],
            [
              12.282258064516128,
              2.9677419354839003
            ],
            [
              14.217741935483872,
              2.7258064516129252
            ],
            [
              15.42741935483869,
              2.48387096774195
            ],
            [
              16.395161290322562,
              2.48387096774195
            ],
            [
              17.120967741935488,
              2.0
            ],
            [
              18.330645161290306,
              2.0
            ],
            [
              19.540322580645153,
              2.0
            ],
            [
              20.508064516129025,
              2.241935483870975
            ],
            [
              21.23387096774192,
              2.48387096774195
            ],
            [
              21.95967741935482,
              2.7258064516129252
            ],
            [
              23.169354838709666,
              2.7258064516129252
            ],
            [
              24.137096774193537,
              2.7258064516129252
            ],
            [
              26.55645161290323,
              2.7258064516129252
            ],
            [
              28.25,
              2.7258064516129252
            ],
            [
              29.45967741935482,
              2.7258064516129252
            ],
            [
              30.185483870967744,
              2.9677419354839003
            ],
            [
              31.153225806451616,
              2.9677419354839003
            ],
            [
              32.12096774193549,
              3.2096774193548754
            ],
            [
              33.330645161290306,
              3.6935483870967687
            ],
            [
              34.29838709677418,
              3.9354838709677438
            ],
            [
              35.508064516129025,
              4.419354838709694
            ],
            [
              37.201612903225794,
              4.903225806451644
            ],
            [
              40.346774193548384,
              5.6290322580645125
            ],
            [
              41.79838709677418,
              6.838709677419388
            ],
            [
              44.21774193548387,
              8.532258064516157
            ],
            [
              45.91129032258064,
              9.98387096774195
            ],
            [
              47.12096774193549,
              11.435483870967744
            ],
            [
              49.54032258064515,
              13.129032258064512
            ],
            [
              51.71774193548387,
              14.822580645161281
            ],
            [
              53.65322580645159,
              16.032258064516157
            ],
            [
              55.346774193548384,
              17.9677419354839
            ],
            [
              56.798387096774206,
              18.935483870967744
            ],
            [
              57.76612903225805,
              20.14516129032259
            ],
            [
              58.25,
              21.354838709677438
            ],
            [
              58.9758064516129,
              23.532258064516157
            ],
            [
              60.185483870967744,
              25.709677419354847
            ],
            [
              60.91129032258064,
              28.612903225806463
            ],
            [
              60.91129032258064,
              30.064516129032256
            ],
            [
              60.91129032258064,
              32.241935483870975
            ],
            [
              60.669354838709666,
              35.14516129032259
            ],
            [
              60.669354838709666,
              37.32258064516131
            ],
            [
              59.701612903225794,
              40.70967741935485
            ],
            [
              59.21774193548387,
              43.12903225806451
            ],
            [
              58.491935483870975,
              45.064516129032256
            ],
            [
              58.25,
              46.2741935483871
            ],
            [
              57.524193548387075,
              46.51612903225808
            ],
            [
              48.08870967741933,
              50.87096774193549
            ],
            [
              39.13709677419354,
              54.741935483870975
            ],
            [
              34.05645161290323,
              57.16129032258067
            ],
            [
              28.73387096774192,
              61.03225806451616
            ],
            [
              26.798387096774178,
              62.0
            ],
            [
              25.830645161290306,
              62.0
            ],
            [
              24.862903225806434,
              62.0
            ],
            [
              24.379032258064512,
              60.548387096774206
            ],
            [
              24.379032258064512,
              59.33870967741936
            ],
            [
              24.379032258064512,
              58.37096774193549
            ]
          ]
        ]
      }
    }
  ]
}