{
  "type": "FeatureCollection",
  "crs": {
    "type": "name",
    "properties": {
      "name": "urn:ogc:def:crs:OGC:1.3:CRS84"
    }
  },
  "features": [
    {
      "type": "Feature",
      "properties": {
        "timestamp": "2026-07-04T16:24:53.200245",
        "country_name": "Belarus",
        "author": "",
        "author_id": "1da0f222-4a94-47fe-8d60-41319baa6671",
        "validated": false,
        "ranking": [
          [
            "Lesotho",
            0.11310143768787384
          ],
          [
            "Belarus",
            0.10362254828214645
          ],
          [
            "Romania",
            0.09200046211481094
          ],
          [
            "North Macedonia",
            0.0740571841597557
          ],
          [
            "Gabon",
            0.04399554431438446
          ],
          [
            "Sudan",
            0.04291049391031265
          ],
          [
            "Eswatini",
            0.03806868940591812
          ],
          [
            "Uganda",
            0.027733225375413895
          ],
          [
            "Rwanda",
            0.02406470663845539
          ],
          [
            "Ethiopia",
            0.024038031697273254
          ],
          [
            "France",
            0.02056899666786194
          ],
          [
            "Lithuania",
            0.01986532472074032
          ],
          [
            "Botswana",
            0.016392575576901436
          ],
          [
            "Algeria",
            0.01620357483625412
          ],
          [
            "Cambodia",
            0.013847126625478268
          ],
          [
            "Burkina Faso",
            0.013164796866476536
          ],
          [
            "Burundi",
            0.01131722703576088
          ],
          [
            "Sierra Leone",
            0.011263090185821056
          ],
          [
            "Côte d'Ivoire",
            0.010920528322458267
          ],
          [
            "Switzerland",
            0.010717346332967281
          ],
          [
            "Germany",
            0.00967737752944231
          ],
          [
            "Angola",
            0.00960703194141388
          ],
          [
            "French Guiana",
            0.008457865566015244
          ],
          [
            "Uruguay",
            0.007464089896529913
          ],
          [
            "Guatemala",
            0.007345525082200766
          ],
          [
            "Reunion",
            0.007203299086540937
          ],
          [
            "Suriname",
            0.006825001444667578
          ],
          [
            "Nicaragua",
            0.006596465595066547
          ],
          [
            "Syria",
            0.005629389081150293
          ],
          [
            "Bhutan",
            0.005469559226185083
          ],
          [
            "Czech Republic",
            0.005415558349341154
          ],
          [
            "Iraq",
            0.005296245217323303
          ],
          [
            "Nigeria",
            0.005192331038415432
          ],
          [
            "Saudi Arabia",
            0.0050027682445943356
          ],
          [
            "Djibouti",
            0.0047940220683813095
          ],
          [
            "Bolivia",
            0.004669064190238714
          ],
          [
            "Guadeloupe",
            0.004468826577067375
          ],
          [
            "Mali",
            0.004204701166599989
          ],
          [
            "Kenya",
            0.004016097169369459
          ],
          [
            "Iran",
            0.003991484642028809
          ],
          [
            "Australia",
            0.003867432242259383
          ],
          [
            "Bosnia & Herzegovina",
            0.003705211216583848
          ],
          [
            "Greenland",
            0.0036613461561501026
          ],
          [
            "Ukraine",
            0.0034177328925579786
          ],
          [
            "Senegal",
            0.003256511874496937
          ],
          [
            "Montenegro",
            0.003232007846236229
          ],
          [
            "Colombia",
            0.0032209306955337524
          ],
          [
            "Mauritania",
            0.003201807849109173
          ],
          [
            "Egypt",
            0.003169791307300329
          ],
          [
            "United States of America",
            0.0031466239597648382
          ],
          [
            "Peru",
            0.0029658570419996977
          ],
          [
            "Ecuador",
            0.002960634883493185
          ],
          [
            "Zimbabwe",
            0.00276074162684381
          ],
          [
            "Guyana",
            0.0026897513307631016
          ],
          [
            "Estonia",
            0.0026423849631100893
          ],
          [
            "Bangladesh",
            0.002592299832031131
          ],
          [
            "Tajikistan",
            0.0024888047482818365
          ],
          [
            "El Salvador",
            0.00242108223028481
          ],
          [
            "Brazil",
            0.0023203431628644466
          ],
          [
            "Sri Lanka",
            0.002263507805764675
          ],
          [
            "Luxembourg",
            0.0022579366341233253
          ],
          [
            "South Africa",
            0.002245079493150115
          ],
          [
            "Hong Kong",
            0.002238264074549079
          ],
          [
            "Cape Verde",
            0.0022273105569183826
          ],
          [
            "Serbia",
            0.0020606094039976597
          ],
          [
            "South Korea",
            0.0019938235636800528
          ],
          [
            "Chad",
            0.0019548158161342144
          ],
          [
            "Moldova",
            0.0019521815702319145
          ],
          [
            "Spain",
            0.001922121038660407
          ],
          [
            "Costa Rica",
            0.0018833302892744541
          ],
          [
            "Zambia",
            0.001851891283877194
          ],
          [
            "Turkmenistan",
            0.0018155148718506098
          ],
          [
            "Belgium",
            0.001747942646034062
          ],
          [
            "Tanzania",
            0.0017089014872908592
          ],
          [
            "DR Congo",
            0.0016682709101587534
          ],
          [
            "Dominica",
            0.0016635871725156903
          ],
          [
            "Belize",
            0.0016558250645175576
          ],
          [
            "Kuwait",
            0.001654707477428019
          ],
          [
            "Poland",
            0.0016372866230085492
          ],
          [
            "Venezuela",
            0.0016144535038620234
          ],
          [
            "Kazakhstan",
            0.0014476312790066004
          ],
          [
            "Ghana",
            0.0013373317196965218
          ],
          [
            "Martinique",
            0.0012896957341581583
          ],
          [
            "Slovakia",
            0.001231155009008944
          ],
          [
            "Comoros",
            0.0012051588855683804
          ],
          [
            "Azerbaijan",
            0.0011790774296969175
          ],
          [
            "Bulgaria",
            0.0011652873363345861
          ],
          [
            "Qatar",
            0.0011622995370998979
          ],
          [
            "Guinea",
            0.0011494860518723726
          ],
          [
            "Benin",
            0.0011388560524210334
          ],
          [
            "Iceland",
            0.0011249311501160264
          ],
          [
            "Heard and McDonald Islands",
            0.001044180360622704
          ],
          [
            "Jordan",
            0.0009939760202541947
          ],
          [
            "Vietnam",
            0.0009806285379454494
          ],
          [
            "Latvia",
            0.000976596842519939
          ],
          [
            "Namibia",
            0.0009703192627057433
          ],
          [
            "Croatia",
            0.0009670378640294075
          ],
          [
            "India",
            0.000917587080039084
          ],
          [
            "Bahrain",
            0.000894894590601325
          ],
          [
            "Antigua & Barbuda",
            0.0008323169313371181
          ],
          [
            "Mongolia",
            0.0008213470573537052
          ],
          [
            "Honduras",
            0.0008149677305482328
          ],
          [
            "Dominican Republic",
            0.0008032714831642807
          ],
          [
            "Russia",
            0.000769263890106231
          ],
          [
            "South Sudan",
            0.0006978969904594123
          ],
          [
            "United States Virgin Islands",
            0.0006841009017080069
          ],
          [
            "Bahamas",
            0.000682041107211262
          ],
          [
            "Hungary",
            0.0006779904942959547
          ],
          [
            "Niger",
            0.0006684309337288141
          ],
          [
            "Yemen",
            0.0006361567648127675
          ],
          [
            "Armenia",
            0.0006322363042272627
          ],
          [
            "Turkey",
            0.000610794872045517
          ],
          [
            "Faroe Islands",
            0.0006043079192750156
          ],
          [
            "Albania",
            0.000580636493396014
          ],
          [
            "Malaysia",
            0.0005614941474050283
          ],
          [
            "Italy",
            0.0005590043147094548
          ],
          [
            "Kyrgyzstan",
            0.0005564767634496093
          ],
          [
            "Ireland",
            0.0005518271937035024
          ],
          [
            "Uzbekistan",
            0.0005473031778819859
          ],
          [
            "China",
            0.0005435372586362064
          ],
          [
            "Vanuatu",
            0.0005103460280224681
          ],
          [
            "South Georgia Islands",
            0.000505014497321099
          ],
          [
            "Tunisia",
            0.0004949028952978551
          ],
          [
            "Central African Republic",
            0.0004860124026890844
          ],
          [
            "Cuba",
            0.0004843808710575104
          ],
          [
            "Libya",
            0.00046142167411744595
          ],
          [
            "Papua New Guinea",
            0.0004579129454214126
          ],
          [
            "Thailand",
            0.00045503632281906903
          ],
          [
            "Denmark",
            0.00045451935147866607
          ],
          [
            "Barbados",
            0.00045108547783456743
          ],
          [
            "Togo",
            0.0004197007219772786
          ],
          [
            "Mozambique",
            0.000406557519454509
          ],
          [
            "Mexico",
            0.0003967958618886769
          ],
          [
            "Liberia",
            0.00039311667205765843
          ],
          [
            "Saint Lucia",
            0.0003902739845216274
          ],
          [
            "Afghanistan",
            0.0003801731509156525
          ],
          [
            "Georgia",
            0.00037521260674111545
          ],
          [
            "Finland",
            0.0003741306718438864
          ],
          [
            "Falkland Islands",
            0.00036088316119275987
          ],
          [
            "West Bank",
            0.0003598754701670259
          ],
          [
            "Turks and Caicos Islands",
            0.00035522313555702567
          ],
          [
            "Mayotte",
            0.000335799966705963
          ],
          [
            "Jamaica",
            0.00033521378645673394
          ],
          [
            "Myanmar",
            0.00033144428743980825
          ],
          [
            "Western Sahara",
            0.00030498456908389926
          ],
          [
            "United Arab Emirates",
            0.0003015199617948383
          ],
          [
            "Somalia",
            0.0002833458420354873
          ],
          [
            "Canada",
            0.0002670157409738749
          ],
          [
            "Puerto Rico",
            0.00026063190307468176
          ],
          [
            "Fiji",
            0.0002596603590063751
          ],
          [
            "Slovenia",
            0.0002595791593194008
          ],
          [
            "Samoa",
            0.00024227255198638886
          ],
          [
            "Congo",
            0.0002406358253210783
          ],
          [
            "Netherlands Antilles",
            0.00023496242647524923
          ],
          [
            "Oman",
            0.00022669503232464194
          ],
          [
            "Malawi",
            0.00022147658455651253
          ],
          [
            "Svalbard",
            0.000216209955397062
          ],
          [
            "Argentina",
            0.00021536539134103805
          ],
          [
            "Brunei",
            0.0002139916323358193
          ],
          [
            "Laos",
            0.0002119439741363749
          ],
          [
            "Madeira Islands",
            0.00020065801800228655
          ],
          [
            "Solomon Islands",
            0.00019667412561830133
          ],
          [
            "Guinea-Bissau",
            0.00019564149260986596
          ],
          [
            "Paraguay",
            0.00019283258006908
          ],
          [
            "Netherlands",
            0.00018919161811936647
          ],
          [
            "Sao Tome and Principe",
            0.00018662403454072773
          ],
          [
            "Indonesia",
            0.00018107242067344487
          ],
          [
            "Philippines",
            0.00017938560631591827
          ],
          [
            "Cyprus",
            0.00015428946062456816
          ],
          [
            "Isle of Man",
            0.00015348581655416638
          ],
          [
            "Panama",
            0.00015142100164666772
          ],
          [
            "North Korea",
            0.00014129422197584063
          ],
          [
            "New Caledonia",
            0.00014079760876484215
          ],
          [
            "Portugal",
            0.00013828440569341183
          ],
          [
            "Equatorial Guinea",
            0.0001329125079791993
          ],
          [
            "Nepal",
            0.00011276545410510153
          ],
          [
            "Eritrea",
            0.00010870972619159147
          ],
          [
            "Greece",
            0.00010821405157912523
          ],
          [
            "Timor-Leste",
            0.00010175197530770674
          ],
          [
            "Cameroon",
            9.705186676001176e-05
          ],
          [
            "New Zealand",
            9.694622713141143e-05
          ],
          [
            "Chile",
            8.806453843135387e-05
          ],
          [
            "Taiwan",
            8.801332296570763e-05
          ],
          [
            "Pakistan",
            8.50695141707547e-05
          ],
          [
            "Sweden",
            8.382926171179861e-05
          ],
          [
            "United Kingdom",
            7.802159962011501e-05
          ],
          [
            "Guam",
            7.089720747899264e-05
          ],
          [
            "Austria",
            6.218051566975191e-05
          ],
          [
            "Japan",
            5.6288467021659017e-05
          ],
          [
            "Trinidad and Tobago",
            5.241650796961039e-05
          ],
          [
            "Norway",
            4.9652040615910664e-05
          ],
          [
            "Haiti",
            4.9435733671998605e-05
          ],
          [
            "Gambia",
            4.40749317931477e-05
          ],
          [
            "Israel",
            4.311277734814212e-05
          ],
          [
            "Morocco",
            3.419255153858103e-05
          ],
          [
            "Lebanon",
            3.299536547274329e-05
          ],
          [
            "Kiribati",
            2.3178594346973114e-05
          ],
          [
            "Madagascar",
            1.849488944571931e-05
          ],
          [
            "Palau",
            1.4922100490366574e-05
          ]
        ]
      },
      "geometry": {
        "type": "MultiLineString",
        "coordinates": [
          [
            [
              12.078125,
              42.078125
            ],
            [
              11.84375,
              39.5
            ],
            [
              11.140625,
              38.328125
            ],
            [
              10.4375,
              37.390625
            ],
            [
              10.4375,
              36.21875
            ],
            [
              10.4375,
              35.28125
            ],
            [
              9.734375,
              34.109375
            ],
            [
              8.328125,
              34.109375
            ],
            [
              6.921875,
              34.109375
            ],
            [
              6.21875,
              33.40625
            ],
            [
              5.515625,
              32.703125
            ],
            [
              4.8125,
              32.0
            ],
            [
              4.109375,
              31.296875
            ],
            [
              3.40625,
              30.59375
            ],
            [
              2.703125,
              29.890625
            ],
            [
              2.0,
              29.1875
            ],
            [
              2.0,
              27.78125
            ],
            [
              2.9375,
              26.140625
            ],
            [
              3.640625,
              24.96875
            ],
            [
              4.34375,
              24.265625
            ],
            [
              4.34375,
              23.328125
            ],
            [
              5.046875,
              22.859375
            ],
            [
              5.75,
              22.15625
            ],
            [
              5.75,
              20.75
            ],
            [
              6.453125,
              19.34375
            ],
            [
              7.15625,
              18.640625
            ],
            [
              7.15625,
              16.53125
            ],
            [
              7.15625,
              15.125
            ],
            [
              7.15625,
              13.71875
            ],
            [
              7.15625,
              12.78125
            ],
            [
              6.453125,
              11.609375
            ],
            [
              6.21875,
              10.90625
            ],
            [
              6.21875,
              9.5
            ],
            [
              6.21875,
              8.09375
            ],
            [
              6.6875,
              7.390625
            ],
            [
              8.09375,
              7.390625
            ],
            [
              9.5,
              8.09375
            ],
            [
              10.203125,
              8.328125
            ],
            [
              12.078125,
              9.03125
            ],
            [
              12.78125,
              9.734375
            ],
            [
              13.71875,
              9.734375
            ],
            [
              14.890625,
              10.203125
            ],
            [
              15.59375,
              11.140625
            ],
            [
              16.53125,
              11.140625
            ],
            [
              17.9375,
              11.140625
            ],
            [
              18.40625,
              11.84375
            ],
            [
              19.109375,
              12.546875
            ],
            [
              20.515625,
              12.546875
            ],
            [
              21.21875,
              13.25
            ],
            [
              22.15625,
              13.015625
            ],
            [
              23.5625,
              13.015625
            ],
            [
              24.96875,
              13.015625
            ],
            [
              26.84375,
              12.546875
            ],
            [
              27.546875,
              11.609375
            ],
            [
              29.1875,
              10.671875
            ],
            [
              29.890625,
              10.203125
            ],
            [
              31.0625,
              9.265625
            ],
            [
              31.765625,
              8.09375
            ],
            [
              32.46875,
              7.390625
            ],
            [
              32.46875,
              6.453125
            ],
            [
              32.46875,
              7.390625
            ],
            [
              32.46875,
              9.5
            ],
            [
              32.46875,
              10.90625
            ],
            [
              32.46875,
              12.3125
            ],
            [
              32.46875,
              13.25
            ],
            [
              33.171875,
              13.953125
            ],
            [
              34.8125,
              13.953125
            ],
            [
              35.984375,
              13.953125
            ],
            [
              36.921875,
              13.953125
            ],
            [
              38.796875,
              13.953125
            ],
            [
              39.734375,
              13.953125
            ],
            [
              41.609375,
              13.953125
            ],
            [
              42.546875,
              13.953125
            ],
            [
              43.953125,
              13.953125
            ],
            [
              45.359375,
              13.953125
            ],
            [
              46.765625,
              13.953125
            ],
            [
              48.640625,
              13.953125
            ],
            [
              49.578125,
              13.953125
            ],
            [
              51.453125,
              13.953125
            ],
            [
              52.859375,
              14.421875
            ],
            [
              53.5625,
              15.359375
            ],
            [
              55.671875,
              15.359375
            ],
            [
              57.078125,
              15.359375
            ],
            [
              58.015625,
              15.359375
            ],
            [
              58.25,
              16.0625
            ],
            [
              57.078125,
              16.765625
            ],
            [
              56.140625,
              16.765625
            ],
            [
              54.265625,
              17.9375
            ],
            [
              53.328125,
              18.875
            ],
            [
              52.625,
              19.578125
            ],
            [
              51.453125,
              19.578125
            ],
            [
              51.21875,
              20.28125
            ],
            [
              51.21875,
              21.453125
            ],
            [
              51.21875,
              23.09375
            ],
            [
              51.21875,
              24.265625
            ],
            [
              51.21875,
              25.671875
            ],
            [
              51.21875,
              27.3125
            ],
            [
              51.21875,
              29.1875
            ],
            [
              51.21875,
              30.59375
            ],
            [
              53.09375,
              30.828125
            ],
            [
              54.265625,
              30.828125
            ],
            [
              55.671875,
              30.359375
            ],
            [
              56.609375,
              29.890625
            ],
            [
              59.1875,
              29.890625
            ],
            [
              60.125,
              29.890625
            ],
            [
              61.296875,
              29.890625
            ],
            [
              62.0,
              30.59375
            ],
            [
              62.0,
              32.0
            ],
            [
              61.296875,
              32.234375
            ],
            [
              61.0625,
              33.40625
            ],
            [
              61.0625,
              34.8125
            ],
            [
              61.0625,
              35.75
            ],
            [
              60.359375,
              37.625
            ],
            [
              59.1875,
              37.859375
            ],
            [
              58.25,
              38.5625
            ],
            [
              57.546875,
              39.265625
            ],
            [
              55.671875,
              40.671875
            ],
            [
              54.03125,
              41.84375
            ],
            [
              53.328125,
              42.078125
            ],
            [
              51.921875,
              42.078125
            ],
            [
              51.21875,
              42.78125
            ],
            [
              50.515625,
              43.484375
            ],
            [
              49.8125,
              44.1875
            ],
            [
              48.640625,
              44.890625
            ],
            [
              47.234375,
              46.0625
            ],
            [
              47.0,
              46.765625
            ],
            [
              46.296875,
              48.40625
            ],
            [
              45.59375,
              49.109375
            ],
            [
              44.421875,
              50.28125
            ],
            [
              43.484375,
              51.21875
            ],
            [
              42.78125,
              51.921875
            ],
            [
              42.78125,
              53.09375
            ],
            [
              42.078125,
              53.328125
            ],
            [
              40.90625,
              53.328125
            ],
            [
              39.265625,
              53.328125
            ],
            [
              37.859375,
              54.03125
            ],
            [
              37.15625,
              54.734375
            ],
            [
              35.984375,
              54.734375
            ],
            [
              34.578125,
              55.90625
            ],
            [
              33.875,
              56.140625
            ],
            [
              32.234375,
              56.140625
            ],
            [
              30.828125,
              56.84375
            ],
            [
              30.125,
              57.546875
            ],
            [
              28.953125,
              57.546875
            ],
            [
              27.546875,
              57.546875
            ],
            [
              26.609375,
              57.546875
            ],
            [
              25.203125,
              57.546875
            ],
            [
              23.796875,
              57.546875
            ],
            [
              23.09375,
              57.078125
            ],
            [
              21.921875,
              56.609375
            ],
            [
              20.984375,
              56.609375
            ],
            [
              19.578125,
              55.671875
            ],
            [
              18.875,
              54.5
            ],
            [
              19.8125,
              52.859375
            ],
            [
              19.8125,
              51.453125
            ],
            [
              19.8125,
              50.28125
            ],
            [
              20.515625,
              48.875
            ],
            [
              19.8125,
              48.171875
            ],
            [
              18.875,
              47.234375
            ],
            [
              18.875,
              46.0625
            ],
            [
              18.875,
              44.65625
            ],
            [
              18.171875,
              43.953125
            ],
            [
              17.46875,
              43.25
            ],
            [
              16.296875,
              42.546875
            ],
            [
              16.0625,
              41.84375
            ],
            [
              15.359375,
              41.140625
            ],
            [
              13.484375,
              41.140625
            ],
            [
              13.25,
              40.4375
            ],
            [
              12.546875,
              39.734375
            ],
            [
              11.375,
              39.734375
            ],
            [
              10.4375,
              38.796875
            ]
          ]
        ]
      }
    }
  ]
}