{
  "type": "FeatureCollection",
  "crs": {
    "type": "name",
    "properties": {
      "name": "urn:ogc:def:crs:OGC:1.3:CRS84"
    }
  },
  "features": [
    {
      "type": "Feature",
      "properties": {
        "timestamp": "2026-07-08T21:37:44.888347",
        "country_name": "Bulgaria",
        "author": "joe",
        "author_id": "7176e9f6-f3a8-4d77-9006-37603200f16f",
        "validated": false,
        "ranking": [
          [
            "Bulgaria",
            0.1487215757369995
          ],
          [
            "Heard and McDonald Islands",
            0.044031791388988495
          ],
          [
            "Bhutan",
            0.04320641979575157
          ],
          [
            "Turkey",
            0.04111732169985771
          ],
          [
            "Czech Republic",
            0.040437567979097366
          ],
          [
            "Madeira Islands",
            0.03068258985877037
          ],
          [
            "Hungary",
            0.02874837815761566
          ],
          [
            "Iceland",
            0.02787010185420513
          ],
          [
            "South Sudan",
            0.027414554730057716
          ],
          [
            "Romania",
            0.02604571357369423
          ],
          [
            "Cape Verde",
            0.023157959803938866
          ],
          [
            "Ecuador",
            0.02100437879562378
          ],
          [
            "Yemen",
            0.018776526674628258
          ],
          [
            "North Macedonia",
            0.017720315605401993
          ],
          [
            "Saudi Arabia",
            0.015598311088979244
          ],
          [
            "Latvia",
            0.015361270867288113
          ],
          [
            "Guadeloupe",
            0.015138931572437286
          ],
          [
            "Azerbaijan",
            0.01462752465158701
          ],
          [
            "Rwanda",
            0.014019381254911423
          ],
          [
            "Switzerland",
            0.013745403848588467
          ],
          [
            "Mongolia",
            0.01115984283387661
          ],
          [
            "Niger",
            0.011120469309389591
          ],
          [
            "Kazakhstan",
            0.011063115671277046
          ],
          [
            "Slovenia",
            0.010620398446917534
          ],
          [
            "Slovakia",
            0.010467316955327988
          ],
          [
            "Georgia",
            0.010370302014052868
          ],
          [
            "Puerto Rico",
            0.010274400003254414
          ],
          [
            "Honduras",
            0.009823143482208252
          ],
          [
            "Lithuania",
            0.009432798251509666
          ],
          [
            "Suriname",
            0.00911868829280138
          ],
          [
            "Ukraine",
            0.009067126549780369
          ],
          [
            "Turkmenistan",
            0.008463880978524685
          ],
          [
            "China",
            0.008295267820358276
          ],
          [
            "Comoros",
            0.0075486646965146065
          ],
          [
            "Estonia",
            0.006114995572715998
          ],
          [
            "Gabon",
            0.006078447215259075
          ],
          [
            "Iran",
            0.005425652023404837
          ],
          [
            "Sierra Leone",
            0.005187374539673328
          ],
          [
            "Burkina Faso",
            0.004742864519357681
          ],
          [
            "New Caledonia",
            0.0046808188781142235
          ],
          [
            "Poland",
            0.004669965710490942
          ],
          [
            "El Salvador",
            0.004532393999397755
          ],
          [
            "Cambodia",
            0.003961043898016214
          ],
          [
            "Côte d'Ivoire",
            0.0039339084178209305
          ],
          [
            "Nigeria",
            0.003920836839824915
          ],
          [
            "Burundi",
            0.0037744457367807627
          ],
          [
            "Cyprus",
            0.0036933734081685543
          ],
          [
            "Solomon Islands",
            0.0036786659620702267
          ],
          [
            "United Arab Emirates",
            0.0035737573634833097
          ],
          [
            "Zambia",
            0.0035681724548339844
          ],
          [
            "Papua New Guinea",
            0.0035579781979322433
          ],
          [
            "Uruguay",
            0.003523495513945818
          ],
          [
            "Ethiopia",
            0.003522474318742752
          ],
          [
            "India",
            0.003347706748172641
          ],
          [
            "Libya",
            0.0033196660224348307
          ],
          [
            "Russia",
            0.003283783094957471
          ],
          [
            "Panama",
            0.003192321164533496
          ],
          [
            "Kyrgyzstan",
            0.0030776176135987043
          ],
          [
            "Dominican Republic",
            0.0030494648963212967
          ],
          [
            "Spain",
            0.00301364460028708
          ],
          [
            "Syria",
            0.002973034745082259
          ],
          [
            "Reunion",
            0.0029652477242052555
          ],
          [
            "Austria",
            0.002902713604271412
          ],
          [
            "Sudan",
            0.002718962961807847
          ],
          [
            "Uzbekistan",
            0.0026954999193549156
          ],
          [
            "Egypt",
            0.0025901857297867537
          ],
          [
            "Botswana",
            0.0024746241979300976
          ],
          [
            "Nicaragua",
            0.0024232317227870226
          ],
          [
            "Central African Republic",
            0.0023668359499424696
          ],
          [
            "Indonesia",
            0.002356322482228279
          ],
          [
            "Jamaica",
            0.0023206674959510565
          ],
          [
            "South Africa",
            0.0023063484113663435
          ],
          [
            "Namibia",
            0.0022888979874551296
          ],
          [
            "Angola",
            0.0022529647685587406
          ],
          [
            "Netherlands Antilles",
            0.002197373192757368
          ],
          [
            "Martinique",
            0.0021687347907572985
          ],
          [
            "Timor-Leste",
            0.0021531344391405582
          ],
          [
            "Lesotho",
            0.0021502082236111164
          ],
          [
            "Tanzania",
            0.002148756990209222
          ],
          [
            "Tajikistan",
            0.0020926848519593477
          ],
          [
            "Guinea-Bissau",
            0.002035050420090556
          ],
          [
            "Belgium",
            0.0019442675402387977
          ],
          [
            "Falkland Islands",
            0.0019309408962726593
          ],
          [
            "Australia",
            0.0018946335185319185
          ],
          [
            "France",
            0.001887023914605379
          ],
          [
            "Venezuela",
            0.0017669564113020897
          ],
          [
            "Mali",
            0.0017664441838860512
          ],
          [
            "Malaysia",
            0.0016866849036887288
          ],
          [
            "Brazil",
            0.001678943051956594
          ],
          [
            "Cuba",
            0.0016530080465599895
          ],
          [
            "Kenya",
            0.0016399940941482782
          ],
          [
            "Bolivia",
            0.0016020220937207341
          ],
          [
            "Bosnia & Herzegovina",
            0.0015884244348853827
          ],
          [
            "Algeria",
            0.0015566886868327856
          ],
          [
            "Sao Tome and Principe",
            0.0015205295057967305
          ],
          [
            "Montenegro",
            0.0014195347903296351
          ],
          [
            "Jordan",
            0.001390939811244607
          ],
          [
            "Fiji",
            0.0013226246228441596
          ],
          [
            "South Georgia Islands",
            0.0013196737272664905
          ],
          [
            "Guinea",
            0.001303187571465969
          ],
          [
            "Zimbabwe",
            0.0012480533914640546
          ],
          [
            "Barbados",
            0.0012165824882686138
          ],
          [
            "Bangladesh",
            0.0012156731681898236
          ],
          [
            "Bahamas",
            0.0011673122644424438
          ],
          [
            "Nepal",
            0.0011561975115910172
          ],
          [
            "Iraq",
            0.0011412593303248286
          ],
          [
            "Senegal",
            0.0011105139274150133
          ],
          [
            "Belize",
            0.0011074637295678258
          ],
          [
            "Mexico",
            0.0010984849650412798
          ],
          [
            "Eswatini",
            0.0010789553634822369
          ],
          [
            "Hong Kong",
            0.001035174005664885
          ],
          [
            "Equatorial Guinea",
            0.0010307843331247568
          ],
          [
            "Uganda",
            0.0009829211048781872
          ],
          [
            "Brunei",
            0.0009789172327145934
          ],
          [
            "Serbia",
            0.0009574780706316233
          ],
          [
            "United States of America",
            0.0009561731712892652
          ],
          [
            "Antigua & Barbuda",
            0.0009204938542097807
          ],
          [
            "Paraguay",
            0.0009076916612684727
          ],
          [
            "New Zealand",
            0.0008958206162787974
          ],
          [
            "Croatia",
            0.0008816042682155967
          ],
          [
            "Turks and Caicos Islands",
            0.0008485730504617095
          ],
          [
            "Vanuatu",
            0.0008375135366804898
          ],
          [
            "Peru",
            0.000814888859167695
          ],
          [
            "Moldova",
            0.0008116608369164169
          ],
          [
            "Afghanistan",
            0.0007921331562101841
          ],
          [
            "Liberia",
            0.0007581617101095617
          ],
          [
            "Guatemala",
            0.0007475401507690549
          ],
          [
            "Belarus",
            0.0007471752469427884
          ],
          [
            "Colombia",
            0.0007294884417206049
          ],
          [
            "Mauritania",
            0.0007043833029456437
          ],
          [
            "United States Virgin Islands",
            0.0006973863928578794
          ],
          [
            "Somalia",
            0.0006862261798232794
          ],
          [
            "Kuwait",
            0.0006806314340792596
          ],
          [
            "French Guiana",
            0.0005689426907338202
          ],
          [
            "Mozambique",
            0.0005670078680850565
          ],
          [
            "Chile",
            0.000565117399673909
          ],
          [
            "Benin",
            0.0005505637964233756
          ],
          [
            "Costa Rica",
            0.0005105770542286336
          ],
          [
            "DR Congo",
            0.0005056547233834863
          ],
          [
            "Thailand",
            0.0004889937117695808
          ],
          [
            "Oman",
            0.0004887801478616893
          ],
          [
            "Trinidad and Tobago",
            0.0004669500340241939
          ],
          [
            "Armenia",
            0.0004637636011466384
          ],
          [
            "Samoa",
            0.00045909464824944735
          ],
          [
            "North Korea",
            0.0004553039325401187
          ],
          [
            "Japan",
            0.000454954948509112
          ],
          [
            "Congo",
            0.000444555829744786
          ],
          [
            "Guam",
            0.0004326149937696755
          ],
          [
            "Togo",
            0.0004295300750527531
          ],
          [
            "Guyana",
            0.00041219202103093266
          ],
          [
            "Dominica",
            0.000411041866755113
          ],
          [
            "Vietnam",
            0.0004048838745802641
          ],
          [
            "Faroe Islands",
            0.0003928283113054931
          ],
          [
            "Svalbard",
            0.0003809943445958197
          ],
          [
            "Eritrea",
            0.00037786862230859697
          ],
          [
            "Cameroon",
            0.00036590630770660937
          ],
          [
            "Italy",
            0.0003625702520366758
          ],
          [
            "Mayotte",
            0.0003393251681700349
          ],
          [
            "Israel",
            0.0003363462456036359
          ],
          [
            "Malawi",
            0.00033496852847747505
          ],
          [
            "Sri Lanka",
            0.0003305845893919468
          ],
          [
            "Bahrain",
            0.00031907306401990354
          ],
          [
            "Greenland",
            0.0003077240544371307
          ],
          [
            "Qatar",
            0.0002952548093162477
          ],
          [
            "Pakistan",
            0.0002933395735453814
          ],
          [
            "South Korea",
            0.00028367742197588086
          ],
          [
            "Ireland",
            0.0002531186619307846
          ],
          [
            "Luxembourg",
            0.00025105453096330166
          ],
          [
            "Albania",
            0.00023780023911967874
          ],
          [
            "Canada",
            0.00023398491612169892
          ],
          [
            "Ghana",
            0.00022488250397145748
          ],
          [
            "Morocco",
            0.00021861268032807857
          ],
          [
            "Isle of Man",
            0.00021243136143311858
          ],
          [
            "Myanmar",
            0.0002100277488352731
          ],
          [
            "Germany",
            0.00020892701286356896
          ],
          [
            "Palau",
            0.0002088250039378181
          ],
          [
            "Sweden",
            0.00020800056518055499
          ],
          [
            "Haiti",
            0.0002002390829147771
          ],
          [
            "Argentina",
            0.00018215292948298156
          ],
          [
            "Laos",
            0.00017675048729870468
          ],
          [
            "Saint Lucia",
            0.0001743457542033866
          ],
          [
            "Gambia",
            0.0001608582679182291
          ],
          [
            "Western Sahara",
            0.00015424804587382823
          ],
          [
            "Finland",
            0.00015356818039435893
          ],
          [
            "Philippines",
            0.00015099077427294105
          ],
          [
            "Tunisia",
            0.00014633774117100984
          ],
          [
            "Norway",
            0.00013573892647400498
          ],
          [
            "United Kingdom",
            0.00013048260007053614
          ],
          [
            "Djibouti",
            0.0001264234451809898
          ],
          [
            "Portugal",
            0.00012522183533292264
          ],
          [
            "Netherlands",
            0.00011985202581854537
          ],
          [
            "West Bank",
            0.00011586783512029797
          ],
          [
            "Taiwan",
            9.37650038395077e-05
          ],
          [
            "Greece",
            7.871280104154721e-05
          ],
          [
            "Madagascar",
            7.862262282287702e-05
          ],
          [
            "Chad",
            5.440268068923615e-05
          ],
          [
            "Denmark",
            4.512248779064976e-05
          ],
          [
            "Lebanon",
            3.7393660022644326e-05
          ],
          [
            "Kiribati",
            1.6659074390190654e-05
          ]
        ]
      },
      "geometry": {
        "type": "MultiLineString",
        "coordinates": [
          [
            [
              5.529411764705856,
              42.30959752321985
            ],
            [
              5.715170278637743,
              41.19504643962853
            ],
            [
              5.90092879256963,
              40.637770897832866
            ],
            [
              6.086687306501517,
              39.523219814241486
            ],
            [
              6.272445820433404,
              38.965944272445824
            ],
            [
              6.458204334365348,
              38.222910216718276
            ],
            [
              6.643962848297235,
              37.47987616099073
            ],
            [
              6.829721362229122,
              36.73684210526318
            ],
            [
              7.201238390092897,
              36.17956656346752
            ],
            [
              7.201238390092897,
              35.43653250773997
            ],
            [
              7.386996904024784,
              34.87925696594431
            ],
            [
              7.572755417956671,
              34.321981424148646
            ],
            [
              7.386996904024784,
              33.57894736842104
            ],
            [
              6.829721362229122,
              33.02167182662538
            ],
            [
              6.272445820433404,
              32.092879256965944
            ],
            [
              6.086687306501517,
              31.349845201238395
            ],
            [
              5.90092879256963,
              30.792569659442734
            ],
            [
              5.715170278637743,
              30.049535603715185
            ],
            [
              5.715170278637743,
              29.12074303405575
            ],
            [
              5.715170278637743,
              28.006191950464427
            ],
            [
              5.715170278637743,
              26.891640866873104
            ],
            [
              5.90092879256963,
              25.962848297213668
            ],
            [
              5.90092879256963,
              24.84829721362229
            ],
            [
              5.90092879256963,
              24.10526315789474
            ],
            [
              5.90092879256963,
              23.36222910216719
            ],
            [
              5.90092879256963,
              22.619195046439643
            ],
            [
              6.086687306501517,
              21.876160990712094
            ],
            [
              6.086687306501517,
              21.133126934984546
            ],
            [
              5.90092879256963,
              20.575851393188884
            ],
            [
              5.3436532507739685,
              20.018575851393223
            ],
            [
              4.786377708978307,
              19.64705882352945
            ],
            [
              4.0433436532507585,
              19.275541795665617
            ],
            [
              3.8575851393188714,
              18.53250773993807
            ],
            [
              4.229102167182646,
              17.78947368421052
            ],
            [
              4.786377708978307,
              17.23219814241486
            ],
            [
              5.715170278637743,
              16.674922600619198
            ],
            [
              6.458204334365348,
              16.117647058823536
            ],
            [
              7.0154798761610095,
              15.560371517027875
            ],
            [
              7.944272445820445,
              15.1888544891641
            ],
            [
              8.501547987616107,
              15.003095975232213
            ],
            [
              9.430340557275542,
              15.003095975232213
            ],
            [
              10.730650154798752,
              15.1888544891641
            ],
            [
              11.845201238390075,
              15.374613003095988
            ],
            [
              12.588235294117624,
              15.560371517027875
            ],
            [
              13.702786377709003,
              16.117647058823536
            ],
            [
              14.260061919504665,
              16.48916408668731
            ],
            [
              15.003095975232213,
              16.674922600619198
            ],
            [
              15.560371517027875,
              17.046439628482972
            ],
            [
              16.117647058823536,
              17.23219814241486
            ],
            [
              16.674922600619198,
              17.417956656346746
            ],
            [
              17.603715170278633,
              16.674922600619198
            ],
            [
              18.160990712074295,
              16.117647058823536
            ],
            [
              18.904024767801843,
              15.560371517027875
            ],
            [
              19.461300309597505,
              15.1888544891641
            ],
            [
              20.204334365325053,
              14.817337461300326
            ],
            [
              20.9473684210526,
              14.631578947368439
            ],
            [
              21.876160990712094,
              14.445820433436552
            ],
            [
              22.80495356037153,
              14.445820433436552
            ],
            [
              23.54798761609908,
              14.631578947368439
            ],
            [
              24.291021671826627,
              14.817337461300326
            ],
            [
              24.84829721362229,
              15.003095975232213
            ],
            [
              25.40557275541795,
              15.1888544891641
            ],
            [
              26.334365325077385,
              15.1888544891641
            ],
            [
              27.26315789473682,
              15.1888544891641
            ],
            [
              28.563467492260088,
              15.003095975232213
            ],
            [
              30.049535603715185,
              14.817337461300326
            ],
            [
              30.97832817337462,
              14.817337461300326
            ],
            [
              32.092879256965944,
              14.817337461300326
            ],
            [
              33.02167182662538,
              14.817337461300326
            ],
            [
              33.76470588235293,
              14.817337461300326
            ],
            [
              34.87925696594425,
              14.817337461300326
            ],
            [
              35.99380804953557,
              14.817337461300326
            ],
            [
              37.29411764705884,
              14.817337461300326
            ],
            [
              38.78018575851394,
              15.003095975232213
            ],
            [
              40.266253869969034,
              15.1888544891641
            ],
            [
              41.566563467492244,
              15.374613003095988
            ],
            [
              42.681114551083624,
              15.560371517027875
            ],
            [
              43.42414860681117,
              15.931888544891649
            ],
            [
              43.981424148606834,
              16.117647058823536
            ],
            [
              44.72445820433438,
              16.117647058823536
            ],
            [
              45.46749226006193,
              16.117647058823536
            ],
            [
              46.582043343653254,
              15.560371517027875
            ],
            [
              47.69659442724458,
              15.1888544891641
            ],
            [
              48.62538699690401,
              14.817337461300326
            ],
            [
              49.739938080495335,
              14.445820433436552
            ],
            [
              50.482972136222884,
              14.074303405572778
            ],
            [
              51.22600619195043,
              13.517027863777116
            ],
            [
              51.78328173374615,
              12.959752321981455
            ],
            [
              52.712074303405586,
              12.773993808049568
            ],
            [
              53.64086687306502,
              12.773993808049568
            ],
            [
              54.19814241486068,
              12.959752321981455
            ],
            [
              55.12693498452012,
              13.331269349845229
            ],
            [
              55.68421052631578,
              13.517027863777116
            ],
            [
              56.613003095975216,
              13.88854489164089
            ],
            [
              57.35603715170282,
              14.260061919504665
            ],
            [
              57.91331269349848,
              14.631578947368439
            ],
            [
              58.28482972136226,
              15.1888544891641
            ],
            [
              58.65634674922603,
              15.931888544891649
            ],
            [
              58.84210526315792,
              16.48916408668731
            ],
            [
              59.027863777089806,
              17.23219814241486
            ],
            [
              59.027863777089806,
              17.975232198142407
            ],
            [
              58.84210526315792,
              18.718266253869956
            ],
            [
              58.65634674922603,
              19.275541795665617
            ],
            [
              58.28482972136226,
              19.832817337461336
            ],
            [
              57.54179566563471,
              20.575851393188884
            ],
            [
              57.170278637770934,
              21.133126934984546
            ],
            [
              56.98452012383899,
              21.690402476780207
            ],
            [
              56.7987616099071,
              22.619195046439643
            ],
            [
              56.613003095975216,
              23.176470588235304
            ],
            [
              56.613003095975216,
              24.10526315789474
            ],
            [
              56.7987616099071,
              25.034055727554176
            ],
            [
              56.7987616099071,
              25.77708978328178
            ],
            [
              56.98452012383899,
              26.334365325077442
            ],
            [
              57.170278637770934,
              27.07739938080499
            ],
            [
              57.170278637770934,
              28.191950464396314
            ],
            [
              57.35603715170282,
              29.67801857585141
            ],
            [
              57.54179566563471,
              31.164086687306508
            ],
            [
              57.54179566563471,
              32.650154798761605
            ],
            [
              57.54179566563471,
              33.76470588235293
            ],
            [
              57.54179566563471,
              34.69349845201242
            ],
            [
              57.54179566563471,
              35.622291021671856
            ],
            [
              57.727554179566596,
              36.55108359133129
            ],
            [
              57.91331269349848,
              37.29411764705884
            ],
            [
              58.09907120743037,
              37.8513931888545
            ],
            [
              58.28482972136226,
              38.59442724458205
            ],
            [
              58.470588235294144,
              39.3374613003096
            ],
            [
              58.84210526315792,
              39.89473684210526
            ],
            [
              59.39938080495358,
              40.266253869969034
            ],
            [
              59.95665634674924,
              40.637770897832866
            ],
            [
              60.5139318885449,
              41.19504643962853
            ],
            [
              61.071207430340564,
              41.938080495356076
            ],
            [
              61.25696594427245,
              42.49535603715174
            ],
            [
              61.628482972136226,
              43.0526315789474
            ],
            [
              61.628482972136226,
              43.79566563467495
            ],
            [
              61.81424148606811,
              44.538699690402495
            ],
            [
              62.0,
              45.281733746130044
            ],
            [
              62.0,
              46.21052631578948
            ],
            [
              62.0,
              46.95356037151703
            ],
            [
              62.0,
              47.69659442724458
            ],
            [
              62.0,
              48.439628482972125
            ],
            [
              62.0,
              49.18266253869973
            ],
            [
              61.81424148606811,
              49.73993808049539
            ],
            [
              61.25696594427245,
              50.111455108359166
            ],
            [
              60.69969040247679,
              50.48297213622294
            ],
            [
              60.14241486068113,
              50.66873065015483
            ],
            [
              59.58513931888547,
              51.0402476780186
            ],
            [
              59.027863777089806,
              51.22600619195049
            ],
            [
              58.28482972136226,
              51.22600619195049
            ],
            [
              58.09907120743037,
              50.66873065015483
            ],
            [
              57.91331269349848,
              50.111455108359166
            ],
            [
              57.91331269349848,
              49.36842105263162
            ],
            [
              58.09907120743037,
              48.8111455108359
            ],
            [
              58.28482972136226,
              48.06811145510835
            ],
            [
              58.470588235294144,
              47.51083591331269
            ],
            [
              58.84210526315792,
              46.95356037151703
            ],
            [
              59.21362229102169,
              46.21052631578948
            ],
            [
              59.39938080495358,
              45.65325077399382
            ],
            [
              59.58513931888547,
              44.72445820433438
            ],
            [
              59.770897832817354,
              43.981424148606834
            ],
            [
              58.84210526315792,
              43.981424148606834
            ],
            [
              58.28482972136226,
              44.35294117647061
            ],
            [
              57.35603715170282,
              44.538699690402495
            ],
            [
              56.42724458204333,
              44.538699690402495
            ],
            [
              55.49845201238389,
              44.72445820433438
            ],
            [
              54.94117647058823,
              44.91021671826627
            ],
            [
              54.38390092879257,
              45.09597523219816
            ],
            [
              53.82662538699691,
              45.281733746130044
            ],
            [
              52.89783281733747,
              45.281733746130044
            ],
            [
              52.154798761609925,
              45.281733746130044
            ],
            [
              51.59752321981426,
              44.72445820433438
            ],
            [
              50.66873065015477,
              43.981424148606834
            ],
            [
              50.11145510835911,
              43.42414860681117
            ],
            [
              49.36842105263156,
              43.42414860681117
            ],
            [
              48.8111455108359,
              43.238390092879285
            ],
            [
              48.06811145510835,
              43.238390092879285
            ],
            [
              47.139318885448915,
              43.238390092879285
            ],
            [
              46.39628482972137,
              43.238390092879285
            ],
            [
              45.46749226006193,
              43.238390092879285
            ],
            [
              44.91021671826627,
              43.42414860681117
            ],
            [
              44.35294117647061,
              43.60990712074306
            ],
            [
              43.79566563467495,
              43.981424148606834
            ],
            [
              43.0526315789474,
              44.35294117647061
            ],
            [
              41.93808049535602,
              45.09597523219816
            ],
            [
              41.19504643962847,
              45.46749226006193
            ],
            [
              40.63777089783281,
              45.65325077399382
            ],
            [
              40.08049535603715,
              46.02476780185759
            ],
            [
              39.3374613003096,
              46.02476780185759
            ],
            [
              38.03715170278639,
              46.02476780185759
            ],
            [
              37.10835913312695,
              45.65325077399382
            ],
            [
              35.99380804953557,
              45.09597523219816
            ],
            [
              34.69349845201236,
              44.35294117647061
            ],
            [
              33.207430340557266,
              43.60990712074306
            ],
            [
              31.72136222910217,
              43.238390092879285
            ],
            [
              30.97832817337462,
              43.0526315789474
            ],
            [
              30.42105263157896,
              42.86687306501551
            ],
            [
              29.67801857585141,
              42.681114551083624
            ],
            [
              29.12074303405575,
              42.49535603715174
            ],
            [
              28.3777089783282,
              42.49535603715174
            ],
            [
              27.077399380804934,
              42.49535603715174
            ],
            [
              25.591331269349837,
              42.49535603715174
            ],
            [
              23.733746130030966,
              42.86687306501551
            ],
            [
              22.433436532507756,
              43.0526315789474
            ],
            [
              21.13312693498449,
              43.238390092879285
            ],
            [
              20.39009287925694,
              43.42414860681117
            ],
            [
              19.64705882352939,
              43.981424148606834
            ],
            [
              18.904024767801843,
              44.538699690402495
            ],
            [
              18.34674922600618,
              44.91021671826627
            ],
            [
              17.975232198142407,
              45.46749226006193
            ],
            [
              17.417956656346746,
              45.65325077399382
            ],
            [
              16.860681114551085,
              45.839009287925705
            ],
            [
              16.303405572755423,
              46.02476780185759
            ],
            [
              15.374613003095988,
              46.21052631578948
            ],
            [
              14.631578947368439,
              46.21052631578948
            ],
            [
              13.88854489164089,
              46.21052631578948
            ],
            [
              12.959752321981455,
              46.21052631578948
            ],
            [
              11.845201238390075,
              46.21052631578948
            ],
            [
              10.730650154798752,
              46.02476780185759
            ],
            [
              9.61609907120743,
              45.839009287925705
            ],
            [
              8.687306501547994,
              45.839009287925705
            ],
            [
              8.130030959752332,
              46.02476780185759
            ],
            [
              7.572755417956671,
              46.76780185758514
            ],
            [
              7.0154798761610095,
              47.69659442724458
            ],
            [
              6.458204334365348,
              48.25386996904024
            ],
            [
              5.90092879256963,
              48.62538699690401
            ],
            [
              5.3436532507739685,
              49.18266253869973
            ],
            [
              4.786377708978307,
              49.554179566563505
            ],
            [
              3.8575851393188714,
              49.36842105263162
            ],
            [
              3.30030959752321,
              48.8111455108359
            ],
            [
              2.5572755417956614,
              47.51083591331269
            ],
            [
              2.185758513931887,
              46.76780185758514
            ],
            [
              2.0,
              46.02476780185759
            ],
            [
              2.0,
              45.09597523219816
            ],
            [
              2.0,
              44.35294117647061
            ],
            [
              2.185758513931887,
              43.60990712074306
            ],
            [
              2.7430340557275485,
              43.0526315789474
            ],
            [
              3.30030959752321,
              42.49535603715174
            ],
            [
              3.8575851393188714,
              42.30959752321985
            ],
            [
              4.414860681114533,
              41.938080495356076
            ],
            [
              5.157894736842081,
              41.5665634674923
            ],
            [
              6.272445820433404,
              41.19504643962853
            ],
            [
              6.829721362229122,
              41.00928792569664
            ],
            [
              7.0154798761610095,
              40.266253869969034
            ]
          ]
        ]
      }
    }
  ]
}