{
  "type": "FeatureCollection",
  "crs": {
    "type": "name",
    "properties": {
      "name": "urn:ogc:def:crs:OGC:1.3:CRS84"
    }
  },
  "features": [
    {
      "type": "Feature",
      "properties": {
        "timestamp": "2026-06-21T16:49:26.894904",
        "country_name": "Cambodia",
        "author": "",
        "author_id": "136ca8e4-f5e8-43dd-b7e4-e33471778868",
        "validated": false,
        "ranking": [
          [
            "Cambodia",
            0.6621382832527161
          ],
          [
            "Nigeria",
            0.048089537769556046
          ],
          [
            "Sudan",
            0.03643963113427162
          ],
          [
            "North Macedonia",
            0.03329502046108246
          ],
          [
            "Burundi",
            0.022319329902529716
          ],
          [
            "Lithuania",
            0.01876247115433216
          ],
          [
            "Rwanda",
            0.010427591390907764
          ],
          [
            "Romania",
            0.009832852520048618
          ],
          [
            "Botswana",
            0.00959125254303217
          ],
          [
            "Lesotho",
            0.007954931817948818
          ],
          [
            "Syria",
            0.007809011731296778
          ],
          [
            "Cape Verde",
            0.007335279136896133
          ],
          [
            "Côte d'Ivoire",
            0.005947086028754711
          ],
          [
            "Gabon",
            0.005641601048409939
          ],
          [
            "Saudi Arabia",
            0.005035245791077614
          ],
          [
            "Bulgaria",
            0.004849862772971392
          ],
          [
            "Bolivia",
            0.004751493223011494
          ],
          [
            "French Guiana",
            0.004738013260066509
          ],
          [
            "Sierra Leone",
            0.0043795728124678135
          ],
          [
            "Angola",
            0.003991862293332815
          ],
          [
            "Suriname",
            0.0037037748843431473
          ],
          [
            "Iran",
            0.0035100996028631926
          ],
          [
            "Uganda",
            0.003459683619439602
          ],
          [
            "Libya",
            0.0032548087183386087
          ],
          [
            "Reunion",
            0.003123960457742214
          ],
          [
            "Ethiopia",
            0.002925445791333914
          ],
          [
            "Poland",
            0.0025131574366241693
          ],
          [
            "Venezuela",
            0.0024555441923439503
          ],
          [
            "Uruguay",
            0.002320883795619011
          ],
          [
            "Egypt",
            0.0022168131545186043
          ],
          [
            "Namibia",
            0.0021403138525784016
          ],
          [
            "South Africa",
            0.0017484601121395826
          ],
          [
            "Mali",
            0.001555667375214398
          ],
          [
            "Niger",
            0.0015370652545243502
          ],
          [
            "Bosnia & Herzegovina",
            0.0015206626849249005
          ],
          [
            "Guatemala",
            0.0014023088151589036
          ],
          [
            "Brazil",
            0.0013457376044243574
          ],
          [
            "Eswatini",
            0.0013030952541157603
          ],
          [
            "Switzerland",
            0.0012228589039295912
          ],
          [
            "Spain",
            0.0011852513998746872
          ],
          [
            "Ecuador",
            0.0011808534618467093
          ],
          [
            "Moldova",
            0.0011242900509387255
          ],
          [
            "Vietnam",
            0.0010204437421634793
          ],
          [
            "Ukraine",
            0.0010190861066803336
          ],
          [
            "Zambia",
            0.000998584320768714
          ],
          [
            "Kenya",
            0.0009834816446527839
          ],
          [
            "Iceland",
            0.000960875244345516
          ],
          [
            "Mauritania",
            0.0009493021643720567
          ],
          [
            "Germany",
            0.00091365264961496
          ],
          [
            "Antigua & Barbuda",
            0.0008914331556297839
          ],
          [
            "Belarus",
            0.0008545369491912425
          ],
          [
            "Jordan",
            0.0008213253458961844
          ],
          [
            "France",
            0.0008176678675226867
          ],
          [
            "Heard and McDonald Islands",
            0.0007988012512214482
          ],
          [
            "United States Virgin Islands",
            0.0007883963990025222
          ],
          [
            "Sao Tome and Principe",
            0.0007743369205854833
          ],
          [
            "Australia",
            0.0007567558786831796
          ],
          [
            "Belize",
            0.0007260125712491572
          ],
          [
            "Guadeloupe",
            0.0007031026179902256
          ],
          [
            "Barbados",
            0.0006989669636823237
          ],
          [
            "Nicaragua",
            0.0006766057922504842
          ],
          [
            "Burkina Faso",
            0.0006410754285752773
          ],
          [
            "Comoros",
            0.0005681845941580832
          ],
          [
            "Greenland",
            0.0005582203739322722
          ],
          [
            "Congo",
            0.00051896768854931
          ],
          [
            "Hungary",
            0.00048639834858477116
          ],
          [
            "Tanzania",
            0.00047657222603447735
          ],
          [
            "Guinea",
            0.00047551802708767354
          ],
          [
            "Turkmenistan",
            0.0004684218147303909
          ],
          [
            "Qatar",
            0.0004528813296929002
          ],
          [
            "Czech Republic",
            0.0004304896283429116
          ],
          [
            "India",
            0.00041772902477532625
          ],
          [
            "Chad",
            0.0004129395238123834
          ],
          [
            "Oman",
            0.00039370282320305705
          ],
          [
            "Martinique",
            0.00038355423021130264
          ],
          [
            "Montenegro",
            0.00037617291673086584
          ],
          [
            "Somalia",
            0.00035729643423110247
          ],
          [
            "United Arab Emirates",
            0.0003514861164148897
          ],
          [
            "Pakistan",
            0.0003508973168209195
          ],
          [
            "Sri Lanka",
            0.0003338649694342166
          ],
          [
            "Peru",
            0.0003171580901835114
          ],
          [
            "Dominican Republic",
            0.0003155265876557678
          ],
          [
            "Belgium",
            0.00030457775574177504
          ],
          [
            "Serbia",
            0.0003012062225025147
          ],
          [
            "Azerbaijan",
            0.0003007836639881134
          ],
          [
            "Finland",
            0.00030055196839384735
          ],
          [
            "Faroe Islands",
            0.0002844093251042068
          ],
          [
            "Ghana",
            0.00027397272060625255
          ],
          [
            "Dominica",
            0.0002684564096853137
          ],
          [
            "Italy",
            0.000253378035267815
          ],
          [
            "Saint Lucia",
            0.00025337463011965156
          ],
          [
            "Fiji",
            0.0002521361457183957
          ],
          [
            "Costa Rica",
            0.0002503186115063727
          ],
          [
            "Trinidad and Tobago",
            0.0002501005365047604
          ],
          [
            "Isle of Man",
            0.00024844976724125445
          ],
          [
            "United States of America",
            0.0002474943466950208
          ],
          [
            "Algeria",
            0.0002464288554619998
          ],
          [
            "Slovenia",
            0.00024352537002414465
          ],
          [
            "Vanuatu",
            0.0002365155378356576
          ],
          [
            "Bhutan",
            0.00023573997896164656
          ],
          [
            "Albania",
            0.00023337869788520038
          ],
          [
            "South Sudan",
            0.00022995384642854333
          ],
          [
            "Yemen",
            0.00022643319971393794
          ],
          [
            "Guyana",
            0.0002256369189126417
          ],
          [
            "Zimbabwe",
            0.00021823393763042986
          ],
          [
            "Turkey",
            0.00021674224990420043
          ],
          [
            "Equatorial Guinea",
            0.00021613786520902067
          ],
          [
            "Kazakhstan",
            0.00021429681510198861
          ],
          [
            "Togo",
            0.0002139770076610148
          ],
          [
            "Uzbekistan",
            0.00020467385184019804
          ],
          [
            "Luxembourg",
            0.0002025105495704338
          ],
          [
            "Afghanistan",
            0.00019789070938713849
          ],
          [
            "Senegal",
            0.0001964114053407684
          ],
          [
            "Cameroon",
            0.0001813745911931619
          ],
          [
            "Benin",
            0.00018130781245417893
          ],
          [
            "Bahrain",
            0.0001765870110830292
          ],
          [
            "Mayotte",
            0.00017551517521496862
          ],
          [
            "Armenia",
            0.0001748492504702881
          ],
          [
            "Bangladesh",
            0.00016619630332570523
          ],
          [
            "Colombia",
            0.00016356693231500685
          ],
          [
            "North Korea",
            0.0001597888913238421
          ],
          [
            "Bahamas",
            0.00015837886894587427
          ],
          [
            "Malawi",
            0.0001530774316051975
          ],
          [
            "Latvia",
            0.00014882092364132404
          ],
          [
            "Hong Kong",
            0.00014130074123386294
          ],
          [
            "Brunei",
            0.00014019176887813956
          ],
          [
            "Slovakia",
            0.00013775346451438963
          ],
          [
            "New Zealand",
            0.00012936371786054224
          ],
          [
            "Djibouti",
            0.00012845301534980536
          ],
          [
            "West Bank",
            0.00012832861102651805
          ],
          [
            "Central African Republic",
            0.00012685265392065048
          ],
          [
            "Norway",
            0.00012387725291773677
          ],
          [
            "Estonia",
            0.00012193413567729294
          ],
          [
            "Iraq",
            0.00011727521632565185
          ],
          [
            "China",
            0.00011465165880508721
          ],
          [
            "South Georgia Islands",
            0.00011269517563050613
          ],
          [
            "Portugal",
            0.00011243024346185848
          ],
          [
            "Laos",
            0.0001097206913982518
          ],
          [
            "South Korea",
            0.00010941974323941395
          ],
          [
            "Mexico",
            0.00010768267384264618
          ],
          [
            "Canada",
            0.0001055328466463834
          ],
          [
            "Netherlands",
            9.959493763744831e-05
          ],
          [
            "Russia",
            9.858231351245195e-05
          ],
          [
            "Solomon Islands",
            9.530298848403618e-05
          ],
          [
            "Malaysia",
            9.294891788158566e-05
          ],
          [
            "Svalbard",
            9.177163883578032e-05
          ],
          [
            "Chile",
            9.067150676855817e-05
          ],
          [
            "Mongolia",
            9.060598677024245e-05
          ],
          [
            "Thailand",
            9.026927000377327e-05
          ],
          [
            "Puerto Rico",
            8.914429054129869e-05
          ],
          [
            "Tunisia",
            8.885689749149606e-05
          ],
          [
            "Eritrea",
            8.646326750749722e-05
          ],
          [
            "El Salvador",
            8.555770182283595e-05
          ],
          [
            "Ireland",
            8.136737596942112e-05
          ],
          [
            "Japan",
            8.003685798030347e-05
          ],
          [
            "Papua New Guinea",
            7.652948261238635e-05
          ],
          [
            "Mozambique",
            7.600956450914964e-05
          ],
          [
            "Honduras",
            7.440999615937471e-05
          ],
          [
            "Morocco",
            7.390701648546383e-05
          ],
          [
            "Paraguay",
            7.349794032052159e-05
          ],
          [
            "Tajikistan",
            7.17103757779114e-05
          ],
          [
            "Liberia",
            6.936012505320832e-05
          ],
          [
            "Guam",
            6.87454521539621e-05
          ],
          [
            "Israel",
            6.767577724531293e-05
          ],
          [
            "Guinea-Bissau",
            6.60570221953094e-05
          ],
          [
            "Turks and Caicos Islands",
            5.8997808082494885e-05
          ],
          [
            "Palau",
            5.4249936511041597e-05
          ],
          [
            "Philippines",
            5.403111572377384e-05
          ],
          [
            "Argentina",
            5.3336792916525155e-05
          ],
          [
            "Myanmar",
            5.0990129238925874e-05
          ],
          [
            "Georgia",
            5.076605884823948e-05
          ],
          [
            "Croatia",
            5.002630496164784e-05
          ],
          [
            "Netherlands Antilles",
            4.98374538437929e-05
          ],
          [
            "Samoa",
            4.858463944401592e-05
          ],
          [
            "Kyrgyzstan",
            4.609518509823829e-05
          ],
          [
            "Sweden",
            4.5820728701073676e-05
          ],
          [
            "Cyprus",
            4.503400487010367e-05
          ],
          [
            "Timor-Leste",
            4.502352385316044e-05
          ],
          [
            "United Kingdom",
            4.185359284747392e-05
          ],
          [
            "Western Sahara",
            4.113490285817534e-05
          ],
          [
            "Cuba",
            4.0122813516063616e-05
          ],
          [
            "Austria",
            3.918738730135374e-05
          ],
          [
            "New Caledonia",
            3.7864036130486056e-05
          ],
          [
            "Taiwan",
            3.687653588713147e-05
          ],
          [
            "Madeira Islands",
            3.6368230212247e-05
          ],
          [
            "Haiti",
            3.608032420743257e-05
          ],
          [
            "Kuwait",
            3.0329989385791123e-05
          ],
          [
            "Madagascar",
            2.973802293126937e-05
          ],
          [
            "Indonesia",
            2.8561109502334148e-05
          ],
          [
            "DR Congo",
            2.8036694857291877e-05
          ],
          [
            "Lebanon",
            2.7214138754061423e-05
          ],
          [
            "Greece",
            2.4145689167198725e-05
          ],
          [
            "Nepal",
            2.360327562200837e-05
          ],
          [
            "Jamaica",
            2.3340438929153606e-05
          ],
          [
            "Falkland Islands",
            2.103073893522378e-05
          ],
          [
            "Denmark",
            2.0205054170219228e-05
          ],
          [
            "Panama",
            1.7260392269236036e-05
          ],
          [
            "Gambia",
            5.566440904658521e-06
          ],
          [
            "Kiribati",
            3.81158861273434e-06
          ]
        ]
      },
      "geometry": {
        "type": "MultiLineString",
        "coordinates": [
          [
            [
              41.81566820276498,
              53.15207373271889
            ],
            [
              40.986175115207345,
              52.59907834101381
            ],
            [
              40.43317972350229,
              51.4930875576037
            ],
            [
              39.88018433179724,
              50.66359447004609
            ],
            [
              39.05069124423963,
              50.11059907834101
            ],
            [
              38.22119815668202,
              49.55760368663596
            ],
            [
              37.39170506912441,
              49.2811059907834
            ],
            [
              36.28571428571428,
              49.2811059907834
            ],
            [
              35.45622119815667,
              50.11059907834101
            ],
            [
              35.17972350230414,
              50.94009216589862
            ],
            [
              34.62672811059906,
              51.76958525345623
            ],
            [
              32.96774193548384,
              52.046082949308754
            ],
            [
              31.861751152073737,
              52.046082949308754
            ],
            [
              30.755760368663573,
              52.046082949308754
            ],
            [
              29.926267281105993,
              51.76958525345623
            ]
          ],
          [
            [
              31.032258064516128,
              51.216589861751146
            ],
            [
              30.20276497695852,
              50.94009216589862
            ],
            [
              29.926267281105993,
              50.11059907834101
            ],
            [
              29.37327188940091,
              49.2811059907834
            ],
            [
              28.543778801843303,
              49.55760368663596
            ],
            [
              27.714285714285722,
              50.11059907834101
            ],
            [
              27.16129032258064,
              50.94009216589862
            ],
            [
              26.331797235023032,
              51.4930875576037
            ],
            [
              25.225806451612897,
              52.046082949308754
            ],
            [
              23.843317972350235,
              52.32258064516128
            ],
            [
              22.460829493087545,
              52.32258064516128
            ],
            [
              21.35483870967741,
              52.32258064516128
            ],
            [
              20.248847926267274,
              52.32258064516128
            ]
          ],
          [
            [
              21.078341013824883,
              51.76958525345623
            ],
            [
              20.248847926267274,
              52.046082949308754
            ],
            [
              19.419354838709666,
              52.32258064516128
            ],
            [
              18.589861751152057,
              53.15207373271889
            ],
            [
              17.760368663594477,
              53.428571428571445
            ],
            [
              16.93087557603684,
              53.70506912442397
            ],
            [
              16.10138248847926,
              53.9815668202765
            ],
            [
              14.995391705069125,
              54.258064516129025
            ],
            [
              14.165898617511516,
              54.53456221198155
            ],
            [
              13.05990783410138,
              54.53456221198155
            ],
            [
              11.953917050691246,
              54.53456221198155
            ],
            [
              10.847926267281082,
              54.53456221198155
            ],
            [
              10.018433179723502,
              54.258064516129025
            ],
            [
              9.188940092165893,
              53.9815668202765
            ],
            [
              7.806451612903231,
              52.87557603686636
            ],
            [
              6.700460829493068,
              51.216589861751146
            ],
            [
              6.147465437788014,
              50.38709677419354
            ],
            [
              5.8709677419354875,
              49.55760368663596
            ]
          ],
          [
            [
              6.976958525345623,
              49.55760368663596
            ],
            [
              5.8709677419354875,
              49.55760368663596
            ],
            [
              5.041474654377879,
              49.2811059907834
            ],
            [
              3.9354838709677438,
              48.17511520737327
            ],
            [
              3.1059907834101352,
              47.62211981566821
            ],
            [
              2.82949308755758,
              46.792626728110605
            ],
            [
              2.82949308755758,
              45.68663594470047
            ],
            [
              2.82949308755758,
              44.580645161290306
            ],
            [
              3.1059907834101352,
              43.751152073732726
            ],
            [
              3.382488479262662,
              42.92165898617512
            ],
            [
              3.6589861751151886,
              42.09216589861751
            ],
            [
              3.1059907834101352,
              41.2626728110599
            ],
            [
              2.82949308755758,
              40.43317972350229
            ],
            [
              2.5529953917050534,
              39.60368663594471
            ],
            [
              2.0,
              38.7741935483871
            ]
          ],
          [
            [
              2.5529953917050534,
              37.944700460829495
            ],
            [
              2.82949308755758,
              37.115207373271886
            ],
            [
              3.382488479262662,
              36.28571428571428
            ],
            [
              3.6589861751151886,
              35.17972350230414
            ],
            [
              3.9354838709677438,
              34.350230414746534
            ],
            [
              3.9354838709677438,
              32.96774193548387
            ],
            [
              4.2119815668202705,
              32.13824884792626
            ],
            [
              4.488479262672797,
              30.7557603686636
            ],
            [
              4.764976958525324,
              29.926267281105993
            ],
            [
              4.764976958525324,
              28.820276497695858
            ],
            [
              5.041474654377879,
              27.99078341013825
            ],
            [
              5.317972350230406,
              27.16129032258064
            ],
            [
              5.594470046082932,
              26.331797235023032
            ],
            [
              6.147465437788014,
              25.502304147465452
            ],
            [
              6.423963133640541,
              24.672811059907815
            ]
          ],
          [
            [
              7.529953917050676,
              24.39631336405529
            ],
            [
              8.082949308755758,
              23.566820276497708
            ],
            [
              8.359447004608285,
              22.73732718894007
            ],
            [
              8.912442396313338,
              21.90783410138249
            ],
            [
              9.188940092165893,
              21.078341013824883
            ],
            [
              9.188940092165893,
              19.972350230414747
            ],
            [
              9.188940092165893,
              18.866359447004612
            ],
            [
              9.188940092165893,
              17.760368663594477
            ],
            [
              9.188940092165893,
              18.866359447004612
            ],
            [
              8.912442396313338,
              19.69585253456222
            ],
            [
              8.635944700460811,
              20.5253456221198
            ],
            [
              8.359447004608285,
              21.631336405529964
            ],
            [
              8.082949308755758,
              22.460829493087545
            ],
            [
              7.806451612903231,
              23.290322580645153
            ],
            [
              7.806451612903231,
              24.94930875576037
            ]
          ],
          [
            [
              9.188940092165893,
              16.10138248847926
            ],
            [
              9.46543778801842,
              15.271889400921651
            ],
            [
              9.46543778801842,
              14.165898617511516
            ],
            [
              9.741935483870975,
              13.336405529953907
            ],
            [
              10.018433179723502,
              12.506912442396299
            ],
            [
              10.018433179723502,
              14.165898617511516
            ],
            [
              10.018433179723502,
              15.271889400921651
            ],
            [
              10.018433179723502,
              16.377880184331786
            ],
            [
              10.018433179723502,
              17.48387096774195
            ],
            [
              9.741935483870975,
              18.589861751152057
            ],
            [
              9.188940092165893,
              19.419354838709694
            ],
            [
              8.912442396313338,
              20.248847926267274
            ],
            [
              8.635944700460811,
              21.078341013824883
            ],
            [
              8.635944700460811,
              22.184331797235018
            ],
            [
              8.359447004608285,
              23.013824884792626
            ],
            [
              7.529953917050676,
              23.566820276497708
            ],
            [
              6.423963133640541,
              23.566820276497708
            ]
          ],
          [
            [
              7.2534562211981495,
              24.672811059907815
            ],
            [
              7.2534562211981495,
              23.566820276497708
            ]
          ],
          [
            [
              10.571428571428555,
              12.230414746543772
            ],
            [
              11.67741935483869,
              12.230414746543772
            ],
            [
              12.783410138248826,
              12.230414746543772
            ],
            [
              13.88940092165899,
              12.230414746543772
            ],
            [
              14.995391705069125,
              12.230414746543772
            ],
            [
              16.10138248847926,
              12.230414746543772
            ],
            [
              16.93087557603684,
              11.677419354838719
            ],
            [
              16.377880184331786,
              12.506912442396299
            ],
            [
              15.548387096774178,
              13.05990783410138
            ],
            [
              15.271889400921651,
              13.88940092165899
            ],
            [
              15.271889400921651,
              14.995391705069125
            ],
            [
              15.271889400921651,
              16.377880184331786
            ],
            [
              15.548387096774178,
              17.207373271889395
            ]
          ],
          [
            [
              12.230414746543772,
              8.635944700460811
            ],
            [
              13.05990783410138,
              7.529953917050705
            ],
            [
              13.336405529953907,
              6.700460829493068
            ],
            [
              14.165898617511516,
              6.147465437788014
            ],
            [
              15.271889400921651,
              6.147465437788014
            ],
            [
              16.10138248847926,
              6.976958525345623
            ],
            [
              16.377880184331786,
              7.806451612903231
            ],
            [
              15.548387096774178,
              8.359447004608285
            ],
            [
              14.442396313364043,
              8.359447004608285
            ],
            [
              13.612903225806434,
              8.082949308755758
            ],
            [
              12.506912442396299,
              8.082949308755758
            ]
          ],
          [
            [
              17.207373271889395,
              15.548387096774206
            ],
            [
              16.10138248847926,
              15.548387096774206
            ],
            [
              14.995391705069125,
              15.548387096774206
            ],
            [
              15.824884792626733,
              16.10138248847926
            ],
            [
              16.654377880184313,
              16.377880184331786
            ],
            [
              17.48387096774192,
              16.93087557603687
            ],
            [
              18.589861751152057,
              16.654377880184313
            ],
            [
              19.419354838709666,
              16.377880184331786
            ],
            [
              20.248847926267274,
              15.824884792626733
            ],
            [
              20.5253456221198,
              14.995391705069125
            ],
            [
              20.801843317972327,
              14.165898617511516
            ],
            [
              20.801843317972327,
              13.05990783410138
            ],
            [
              19.972350230414747,
              12.506912442396299
            ]
          ],
          [
            [
              20.801843317972327,
              11.677419354838719
            ],
            [
              20.801843317972327,
              10.571428571428555
            ],
            [
              21.078341013824883,
              9.741935483870975
            ],
            [
              21.35483870967741,
              8.912442396313367
            ],
            [
              21.90783410138249,
              8.082949308755758
            ],
            [
              22.73732718894007,
              7.806451612903231
            ],
            [
              23.843317972350235,
              7.806451612903231
            ],
            [
              24.672811059907815,
              7.529953917050705
            ],
            [
              25.502304147465424,
              7.2534562211981495
            ],
            [
              26.60829493087556,
              7.2534562211981495
            ],
            [
              27.714285714285722,
              7.2534562211981495
            ],
            [
              28.82027649769583,
              7.2534562211981495
            ],
            [
              29.926267281105993,
              7.2534562211981495
            ]
          ],
          [
            [
              31.58525345622121,
              5.594470046082961
            ],
            [
              32.41474654377879,
              5.8709677419354875
            ],
            [
              33.2442396313364,
              6.147465437788014
            ],
            [
              33.2442396313364,
              7.2534562211981495
            ],
            [
              32.41474654377879,
              7.529953917050705
            ],
            [
              31.308755760368655,
              7.529953917050705
            ],
            [
              30.20276497695852,
              7.529953917050705
            ],
            [
              29.37327188940091,
              7.2534562211981495
            ],
            [
              30.20276497695852,
              7.529953917050705
            ],
            [
              31.308755760368655,
              7.529953917050705
            ],
            [
              32.41474654377879,
              7.529953917050705
            ],
            [
              33.2442396313364,
              7.2534562211981495
            ],
            [
              34.350230414746534,
              7.2534562211981495
            ],
            [
              35.17972350230414,
              7.529953917050705
            ],
            [
              36.00921658986175,
              8.359447004608285
            ],
            [
              36.562211981566804,
              9.188940092165893
            ],
            [
              37.39170506912441,
              9.465437788018448
            ],
            [
              38.22119815668202,
              10.018433179723502
            ],
            [
              39.32718894009216,
              10.018433179723502
            ],
            [
              40.156682027649765,
              10.294930875576028
            ],
            [
              40.986175115207345,
              10.847926267281082
            ],
            [
              41.81566820276498,
              11.124423963133637
            ],
            [
              42.64516129032256,
              11.400921658986192
            ],
            [
              43.198156682027644,
              12.230414746543772
            ],
            [
              42.92165898617509,
              13.05990783410138
            ],
            [
              42.64516129032256,
              13.88940092165899
            ],
            [
              42.09216589861751,
              14.71889400921657
            ],
            [
              41.81566820276498,
              15.548387096774206
            ]
          ],
          [
            [
              43.47465437788017,
              13.88940092165899
            ],
            [
              42.92165898617509,
              14.71889400921657
            ],
            [
              42.64516129032256,
              15.824884792626733
            ],
            [
              42.368663594470036,
              16.654377880184313
            ],
            [
              42.368663594470036,
              17.760368663594477
            ],
            [
              42.64516129032256,
              19.14285714285714
            ],
            [
              42.92165898617509,
              20.248847926267274
            ],
            [
              43.47465437788017,
              21.078341013824883
            ],
            [
              43.751152073732726,
              21.90783410138249
            ],
            [
              44.85714285714283,
              22.184331797235018
            ],
            [
              45.963133640552996,
              21.90783410138249
            ],
            [
              46.79262672811058,
              21.354838709677438
            ],
            [
              47.62211981566821,
              21.078341013824883
            ],
            [
              48.451612903225794,
              20.801843317972327
            ],
            [
              49.2811059907834,
              21.631336405529964
            ],
            [
              49.2811059907834,
              22.73732718894007
            ],
            [
              49.2811059907834,
              23.843317972350235
            ],
            [
              50.11059907834101,
              23.566820276497708
            ],
            [
              50.94009216589859,
              23.290322580645153
            ]
          ],
          [
            [
              52.046082949308754,
              24.672811059907815
            ],
            [
              53.15207373271892,
              24.672811059907815
            ],
            [
              53.9815668202765,
              24.39631336405529
            ],
            [
              54.81105990783408,
              24.11981566820276
            ],
            [
              55.91705069124424,
              24.11981566820276
            ],
            [
              55.087557603686605,
              23.843317972350235
            ],
            [
              53.9815668202765,
              23.843317972350235
            ],
            [
              53.15207373271892,
              24.11981566820276
            ],
            [
              52.046082949308754,
              24.11981566820276
            ],
            [
              50.94009216589859,
              24.11981566820276
            ],
            [
              52.046082949308754,
              24.11981566820276
            ],
            [
              52.875576036866335,
              23.013824884792626
            ],
            [
              53.9815668202765,
              23.013824884792626
            ],
            [
              54.81105990783408,
              23.290322580645153
            ],
            [
              55.91705069124424,
              23.290322580645153
            ],
            [
              57.023041474654406,
              23.290322580645153
            ],
            [
              57.852534562211986,
              23.566820276497708
            ],
            [
              58.682027649769566,
              24.39631336405529
            ],
            [
              58.95852534562209,
              25.225806451612897
            ],
            [
              59.5115207373272,
              26.055299539170505
            ],
            [
              59.78801843317973,
              27.16129032258064
            ],
            [
              59.78801843317973,
              28.267281105990776
            ],
            [
              60.064516129032256,
              29.37327188940091
            ],
            [
              60.064516129032256,
              30.479262672811046
            ],
            [
              60.34101382488478,
              31.308755760368655
            ],
            [
              60.894009216589836,
              32.41474654377879
            ],
            [
              60.894009216589836,
              33.520737327188954
            ],
            [
              60.61751152073731,
              34.350230414746534
            ],
            [
              60.34101382488478,
              35.17972350230414
            ],
            [
              60.34101382488478,
              36.562211981566804
            ],
            [
              60.34101382488478,
              37.66820276497697
            ],
            [
              60.34101382488478,
              38.7741935483871
            ],
            [
              60.34101382488478,
              39.88018433179724
            ],
            [
              60.34101382488478,
              40.986175115207374
            ],
            [
              60.34101382488478,
              42.64516129032256
            ],
            [
              60.61751152073731,
              44.02764976958525
            ],
            [
              60.61751152073731,
              45.41013824884794
            ],
            [
              60.894009216589836,
              46.51612903225805
            ],
            [
              60.894009216589836,
              47.62211981566821
            ],
            [
              60.894009216589836,
              49.004608294930875
            ],
            [
              60.894009216589836,
              50.11059907834101
            ],
            [
              60.894009216589836,
              51.4930875576037
            ],
            [
              61.17050691244242,
              52.32258064516128
            ]
          ],
          [
            [
              62.0,
              52.046082949308754
            ],
            [
              61.72350230414747,
              52.87557603686636
            ],
            [
              61.17050691244242,
              53.70506912442397
            ],
            [
              60.61751152073731,
              54.53456221198155
            ],
            [
              60.34101382488478,
              55.36405529953916
            ],
            [
              59.78801843317973,
              56.19354838709677
            ],
            [
              59.5115207373272,
              57.02304147465438
            ],
            [
              58.682027649769566,
              57.57603686635946
            ],
            [
              58.12903225806451,
              58.40552995391704
            ],
            [
              57.29953917050693,
              57.02304147465438
            ],
            [
              57.023041474654406,
              56.19354838709677
            ],
            [
              56.74654377880182,
              55.08755760368663
            ],
            [
              55.91705069124424,
              55.640552995391715
            ],
            [
              55.087557603686605,
              55.91705069124424
            ],
            [
              54.258064516129025,
              55.640552995391715
            ],
            [
              53.70506912442397,
              54.81105990783411
            ],
            [
              53.428571428571445,
              53.9815668202765
            ],
            [
              52.59907834101381,
              54.258064516129025
            ],
            [
              51.76958525345623,
              54.81105990783411
            ],
            [
              50.94009216589859,
              55.08755760368663
            ],
            [
              50.11059907834101,
              54.81105990783411
            ],
            [
              49.2811059907834,
              54.53456221198155
            ]
          ],
          [
            [
              50.663594470046064,
              54.258064516129025
            ],
            [
              50.11059907834101,
              55.08755760368663
            ],
            [
              49.834101382488484,
              55.91705069124424
            ],
            [
              49.2811059907834,
              56.74654377880185
            ],
            [
              48.451612903225794,
              57.02304147465438
            ],
            [
              47.62211981566821,
              57.299539170506904
            ],
            [
              46.51612903225805,
              57.299539170506904
            ],
            [
              46.23963133640552,
              56.470046082949295
            ],
            [
              46.79262672811058,
              55.640552995391715
            ],
            [
              47.34562211981566,
              54.81105990783411
            ],
            [
              47.62211981566821,
              53.9815668202765
            ],
            [
              47.89861751152074,
              53.15207373271889
            ],
            [
              47.89861751152074,
              52.046082949308754
            ],
            [
              48.17511520737327,
              51.216589861751146
            ],
            [
              47.89861751152074,
              50.38709677419354
            ],
            [
              47.06912442396313,
              50.11059907834101
            ],
            [
              45.963133640552996,
              50.11059907834101
            ],
            [
              45.13364055299539,
              50.38709677419354
            ],
            [
              44.580645161290306,
              51.216589861751146
            ],
            [
              44.02764976958525,
              52.046082949308754
            ],
            [
              43.47465437788017,
              52.87557603686636
            ],
            [
              42.64516129032256,
              53.428571428571445
            ]
          ]
        ]
      }
    }
  ]
}