{
  "type": "FeatureCollection",
  "crs": {
    "type": "name",
    "properties": {
      "name": "urn:ogc:def:crs:OGC:1.3:CRS84"
    }
  },
  "features": [
    {
      "type": "Feature",
      "properties": {
        "timestamp": "2026-05-24T17:11:13.018738",
        "country_name": "Cameroon",
        "author": "",
        "author_id": "9c2b197a-7df9-493a-96c1-53f33d9a21b9",
        "validated": false,
        "ranking": [
          [
            "Cameroon",
            0.29832661151885986
          ],
          [
            "Oman",
            0.2712750732898712
          ],
          [
            "Palau",
            0.08121326565742493
          ],
          [
            "Isle of Man",
            0.06317384541034698
          ],
          [
            "Congo",
            0.04384864121675491
          ],
          [
            "Pakistan",
            0.04280642792582512
          ],
          [
            "Japan",
            0.021175606176257133
          ],
          [
            "New Zealand",
            0.02113414742052555
          ],
          [
            "Trinidad and Tobago",
            0.014889027923345566
          ],
          [
            "Madagascar",
            0.009941346943378448
          ],
          [
            "French Guiana",
            0.006607338320463896
          ],
          [
            "Finland",
            0.006333390716463327
          ],
          [
            "Israel",
            0.004858211614191532
          ],
          [
            "Timor-Leste",
            0.004637259524315596
          ],
          [
            "United Arab Emirates",
            0.004592553246766329
          ],
          [
            "Saint Lucia",
            0.003930984530597925
          ],
          [
            "West Bank",
            0.0038522181566804647
          ],
          [
            "Chad",
            0.0037922782357782125
          ],
          [
            "Morocco",
            0.003475327044725418
          ],
          [
            "Guam",
            0.0033605860080569983
          ],
          [
            "Portugal",
            0.003155124606564641
          ],
          [
            "Lebanon",
            0.0030744445975869894
          ],
          [
            "Belize",
            0.0028272103518247604
          ],
          [
            "Mali",
            0.0027198458556085825
          ],
          [
            "Sweden",
            0.0026920787058770657
          ],
          [
            "North Korea",
            0.002671067835763097
          ],
          [
            "Yemen",
            0.002448721555992961
          ],
          [
            "Qatar",
            0.002081705955788493
          ],
          [
            "Philippines",
            0.0019585383124649525
          ],
          [
            "Spain",
            0.0019298259867355227
          ],
          [
            "Burundi",
            0.0019057354656979442
          ],
          [
            "Chile",
            0.0018690854776650667
          ],
          [
            "Somalia",
            0.0017654309049248695
          ],
          [
            "Central African Republic",
            0.0017279195599257946
          ],
          [
            "Austria",
            0.0016035449225455523
          ],
          [
            "Thailand",
            0.0015769958263263106
          ],
          [
            "Slovenia",
            0.001575128990225494
          ],
          [
            "Sao Tome and Principe",
            0.0015131321270018816
          ],
          [
            "South Sudan",
            0.0014805325772613287
          ],
          [
            "Albania",
            0.0014563589356839657
          ],
          [
            "Ghana",
            0.0014465671265497804
          ],
          [
            "Niger",
            0.0013454097788780928
          ],
          [
            "Ecuador",
            0.0013086054241284728
          ],
          [
            "Moldova",
            0.001244163024239242
          ],
          [
            "Mayotte",
            0.0011716957669705153
          ],
          [
            "Togo",
            0.0010439840843901038
          ],
          [
            "Malawi",
            0.0010193062480539083
          ],
          [
            "Brunei",
            0.0010127213317900896
          ],
          [
            "Mozambique",
            0.0009649088024161756
          ],
          [
            "Argentina",
            0.0008987576584331691
          ],
          [
            "Benin",
            0.0008801158983260393
          ],
          [
            "Hungary",
            0.0008290932746604085
          ],
          [
            "Botswana",
            0.00078685546759516
          ],
          [
            "Ireland",
            0.0007374192937277257
          ],
          [
            "Puerto Rico",
            0.0007273809751495719
          ],
          [
            "Equatorial Guinea",
            0.0007062400691211224
          ],
          [
            "Kazakhstan",
            0.0006957418518140912
          ],
          [
            "Netherlands",
            0.0006944200140424073
          ],
          [
            "Namibia",
            0.0006905461195856333
          ],
          [
            "Vietnam",
            0.0006544347270391881
          ],
          [
            "Cyprus",
            0.0006490310770459473
          ],
          [
            "South Africa",
            0.0006476633134298027
          ],
          [
            "Norway",
            0.0006305917631834745
          ],
          [
            "Fiji",
            0.0006107476656325161
          ],
          [
            "Taiwan",
            0.0005883773555979133
          ],
          [
            "Greenland",
            0.0005719087785109878
          ],
          [
            "Indonesia",
            0.0005651132669299841
          ],
          [
            "Guatemala",
            0.0005561482976190746
          ],
          [
            "Canada",
            0.0005531047936528921
          ],
          [
            "Zambia",
            0.0005485985311679542
          ],
          [
            "South Korea",
            0.0005464524729177356
          ],
          [
            "Antigua & Barbuda",
            0.0005162165034562349
          ],
          [
            "Dominica",
            0.0005145316245034337
          ],
          [
            "Guadeloupe",
            0.00047674975940026343
          ],
          [
            "Hong Kong",
            0.00046466864296235144
          ],
          [
            "Panama",
            0.00045393750770017505
          ],
          [
            "United Kingdom",
            0.00045102645526640117
          ],
          [
            "Tunisia",
            0.00043650830048136413
          ],
          [
            "Myanmar",
            0.00043465642374940217
          ],
          [
            "Rwanda",
            0.0004289849894121289
          ],
          [
            "Heard and McDonald Islands",
            0.0004208264872431755
          ],
          [
            "Slovakia",
            0.0004066276305820793
          ],
          [
            "China",
            0.0003642957308329642
          ],
          [
            "Mauritania",
            0.0003614221350289881
          ],
          [
            "Switzerland",
            0.00035197872784920037
          ],
          [
            "Turkey",
            0.0003489419468678534
          ],
          [
            "Paraguay",
            0.0003428474301472306
          ],
          [
            "Bolivia",
            0.0003163595392834395
          ],
          [
            "Saudi Arabia",
            0.00031221495009958744
          ],
          [
            "Jordan",
            0.00030925573082640767
          ],
          [
            "Cape Verde",
            0.0003001465229317546
          ],
          [
            "Colombia",
            0.0002946079766843468
          ],
          [
            "Serbia",
            0.00028809369541704655
          ],
          [
            "Papua New Guinea",
            0.00028577595367096364
          ],
          [
            "New Caledonia",
            0.00026790410629473627
          ],
          [
            "Burkina Faso",
            0.00026381152565591037
          ],
          [
            "Angola",
            0.0002564940368756652
          ],
          [
            "Turkmenistan",
            0.000249814591370523
          ],
          [
            "Bulgaria",
            0.00024757522623986006
          ],
          [
            "Nigeria",
            0.0002465794386807829
          ],
          [
            "Gambia",
            0.00024385038705077022
          ],
          [
            "Honduras",
            0.00022608463768847287
          ],
          [
            "Kyrgyzstan",
            0.00022564736718777567
          ],
          [
            "Egypt",
            0.00021899212151765823
          ],
          [
            "Romania",
            0.00021421843848656863
          ],
          [
            "Georgia",
            0.00021264019596856087
          ],
          [
            "Latvia",
            0.0002114886447088793
          ],
          [
            "Malaysia",
            0.00021136000577826053
          ],
          [
            "Mongolia",
            0.00020309550745878369
          ],
          [
            "Vanuatu",
            0.00020145198504906148
          ],
          [
            "Afghanistan",
            0.00019514003361109644
          ],
          [
            "Lithuania",
            0.00019152819004375488
          ],
          [
            "India",
            0.0001881575008155778
          ],
          [
            "Syria",
            0.00018322307732887566
          ],
          [
            "Guyana",
            0.0001687588810455054
          ],
          [
            "United States Virgin Islands",
            0.00016638987290207297
          ],
          [
            "Barbados",
            0.00016584269178565592
          ],
          [
            "Russia",
            0.0001617178349988535
          ],
          [
            "Bahrain",
            0.0001608126040082425
          ],
          [
            "Sri Lanka",
            0.0001599100069142878
          ],
          [
            "Uzbekistan",
            0.00015850375348236412
          ],
          [
            "Faroe Islands",
            0.00014525216829497367
          ],
          [
            "Dominican Republic",
            0.00012987035734113306
          ],
          [
            "Bangladesh",
            0.00012756726937368512
          ],
          [
            "Martinique",
            0.00012725328269880265
          ],
          [
            "Solomon Islands",
            0.00012485150364227593
          ],
          [
            "Cambodia",
            0.00012272517778910697
          ],
          [
            "Netherlands Antilles",
            0.00012213950685691088
          ],
          [
            "Bhutan",
            0.00011904737039003521
          ],
          [
            "Reunion",
            0.000113284433609806
          ],
          [
            "Czech Republic",
            0.0001119270600611344
          ],
          [
            "Madeira Islands",
            0.00010870628466363996
          ],
          [
            "Ukraine",
            0.00010855028085643426
          ],
          [
            "Italy",
            0.00010806934005813673
          ],
          [
            "Iceland",
            0.00010804482008097693
          ],
          [
            "Montenegro",
            0.000104537233710289
          ],
          [
            "Cuba",
            0.00010051693971036002
          ],
          [
            "Azerbaijan",
            0.00010001340706367046
          ],
          [
            "Luxembourg",
            9.990092075895518e-05
          ],
          [
            "North Macedonia",
            9.67885134741664e-05
          ],
          [
            "Libya",
            9.2040587333031e-05
          ],
          [
            "Senegal",
            9.002172737382352e-05
          ],
          [
            "Peru",
            8.663813059683889e-05
          ],
          [
            "Kenya",
            8.637610881123692e-05
          ],
          [
            "Sudan",
            8.486035949317738e-05
          ],
          [
            "Guinea-Bissau",
            8.173652895493433e-05
          ],
          [
            "Armenia",
            8.126381726469845e-05
          ],
          [
            "Jamaica",
            7.877725875005126e-05
          ],
          [
            "Eswatini",
            7.727494084974751e-05
          ],
          [
            "Suriname",
            7.725194882368669e-05
          ],
          [
            "Iran",
            7.549407746409997e-05
          ],
          [
            "Falkland Islands",
            7.217352685984224e-05
          ],
          [
            "Bosnia & Herzegovina",
            7.097966590663418e-05
          ],
          [
            "France",
            7.056997128529474e-05
          ],
          [
            "Germany",
            7.012196147115901e-05
          ],
          [
            "Sierra Leone",
            6.937789294170216e-05
          ],
          [
            "Brazil",
            6.725939601892605e-05
          ],
          [
            "Uruguay",
            6.659470818703994e-05
          ],
          [
            "Tajikistan",
            6.36124168522656e-05
          ],
          [
            "Iraq",
            6.230866711121053e-05
          ],
          [
            "Gabon",
            5.979265188216232e-05
          ],
          [
            "Ethiopia",
            5.85535672144033e-05
          ],
          [
            "Comoros",
            5.5928710935404524e-05
          ],
          [
            "Tanzania",
            5.406939089880325e-05
          ],
          [
            "Poland",
            5.3012470743851736e-05
          ],
          [
            "Svalbard",
            5.2583374781534076e-05
          ],
          [
            "Western Sahara",
            5.205627530813217e-05
          ],
          [
            "Haiti",
            5.15399660798721e-05
          ],
          [
            "Lesotho",
            5.118366971146315e-05
          ],
          [
            "Venezuela",
            4.716717739938758e-05
          ],
          [
            "Uganda",
            4.677406104747206e-05
          ],
          [
            "Belarus",
            4.434065704117529e-05
          ],
          [
            "South Georgia Islands",
            3.716053470270708e-05
          ],
          [
            "Liberia",
            3.6481702409219e-05
          ],
          [
            "Estonia",
            3.596251190174371e-05
          ],
          [
            "Côte d'Ivoire",
            3.4596621844684705e-05
          ],
          [
            "El Salvador",
            3.16133773594629e-05
          ],
          [
            "Guinea",
            2.9445727705024183e-05
          ],
          [
            "Belgium",
            2.881363980122842e-05
          ],
          [
            "Croatia",
            2.8570224458235316e-05
          ],
          [
            "Australia",
            2.637178113218397e-05
          ],
          [
            "Eritrea",
            2.6138020984944887e-05
          ],
          [
            "Bahamas",
            2.600638981675729e-05
          ],
          [
            "Costa Rica",
            2.4580967874499038e-05
          ],
          [
            "Laos",
            2.4509759896318428e-05
          ],
          [
            "Samoa",
            2.3881151719251648e-05
          ],
          [
            "Djibouti",
            2.2510990675073117e-05
          ],
          [
            "Turks and Caicos Islands",
            2.201877759944182e-05
          ],
          [
            "Nicaragua",
            2.1875863239984028e-05
          ],
          [
            "Kuwait",
            2.0599212803062983e-05
          ],
          [
            "United States of America",
            2.0378027329570614e-05
          ],
          [
            "Mexico",
            1.6976378901745193e-05
          ],
          [
            "Algeria",
            1.671595782681834e-05
          ],
          [
            "Nepal",
            1.4624647519667633e-05
          ],
          [
            "Greece",
            1.3136382222000975e-05
          ],
          [
            "Zimbabwe",
            9.654011591919698e-06
          ],
          [
            "Denmark",
            6.1297250795178115e-06
          ],
          [
            "DR Congo",
            5.497742677107453e-06
          ],
          [
            "Kiribati",
            6.47238778128667e-07
          ]
        ]
      },
      "geometry": {
        "type": "MultiLineString",
        "coordinates": [
          [
            [
              49.30337078651684,
              49.191011235955045
            ],
            [
              48.40449438202245,
              49.191011235955045
            ],
            [
              44.35955056179773,
              48.966292134831434
            ],
            [
              40.08988764044943,
              46.2696629213483
            ],
            [
              31.550561797752806,
              38.179775280898866
            ],
            [
              24.13483146067415,
              27.39325842696627
            ],
            [
              16.943820224719104,
              17.730337078651672
            ],
            [
              13.573033707865164,
              9.865168539325822
            ],
            [
              12.674157303370777,
              6.269662921348299
            ],
            [
              13.348314606741582,
              5.3707865168539115
            ],
            [
              14.247191011235941,
              4.921348314606746
            ],
            [
              17.168539325842687,
              4.247191011235941
            ],
            [
              21.213483146067404,
              2.8988764044943593
            ],
            [
              29.97752808988764,
              2.0
            ],
            [
              33.34831460674155,
              2.6741573033707766
            ],
            [
              36.49438202247191,
              4.471910112359524
            ],
            [
              38.067415730337075,
              7.6179775280898525
            ],
            [
              40.53932584269663,
              12.561797752808957
            ],
            [
              43.23595505617976,
              20.202247191011224
            ],
            [
              49.52808988764045,
              31.438202247190986
            ],
            [
              51.325842696629195,
              34.584269662921315
            ],
            [
              51.325842696629195,
              35.4831460674157
            ],
            [
              51.325842696629195,
              37.056179775280896
            ],
            [
              51.325842696629195,
              37.955056179775255
            ],
            [
              50.65168539325842,
              40.202247191011224
            ],
            [
              49.30337078651684,
              41.325842696629195
            ],
            [
              48.62921348314606,
              42.0
            ]
          ],
          [
            [
              48.179775280898866,
              47.16853932584269
            ],
            [
              48.179775280898866,
              50.98876404494379
            ],
            [
              48.179775280898866,
              57.28089887640448
            ],
            [
              48.179775280898866,
              61.10112359550561
            ],
            [
              48.179775280898866,
              61.99999999999997
            ]
          ]
        ]
      }
    }
  ]
}