{
  "type": "FeatureCollection",
  "crs": {
    "type": "name",
    "properties": {
      "name": "urn:ogc:def:crs:OGC:1.3:CRS84"
    }
  },
  "features": [
    {
      "type": "Feature",
      "properties": {
        "timestamp": "2026-06-25T12:49:09.259781",
        "country_name": "Cameroon",
        "author": "",
        "author_id": "9f719b72-4a51-4664-94be-d4c8e9b95823",
        "validated": false,
        "ranking": [
          [
            "Cameroon",
            0.05832327529788017
          ],
          [
            "West Bank",
            0.05597197636961937
          ],
          [
            "New Zealand",
            0.055471133440732956
          ],
          [
            "Chile",
            0.04032571613788605
          ],
          [
            "Dominica",
            0.038269076496362686
          ],
          [
            "Sao Tome and Principe",
            0.03722259774804115
          ],
          [
            "Bahrain",
            0.03286677971482277
          ],
          [
            "Malawi",
            0.0328538715839386
          ],
          [
            "Israel",
            0.029861286282539368
          ],
          [
            "United Kingdom",
            0.029431769624352455
          ],
          [
            "Antigua & Barbuda",
            0.026890091598033905
          ],
          [
            "United States Virgin Islands",
            0.02586744725704193
          ],
          [
            "Finland",
            0.02502739615738392
          ],
          [
            "Togo",
            0.020960167050361633
          ],
          [
            "Equatorial Guinea",
            0.01778649166226387
          ],
          [
            "Argentina",
            0.014796005561947823
          ],
          [
            "Japan",
            0.014242049306631088
          ],
          [
            "Portugal",
            0.01399332843720913
          ],
          [
            "Mali",
            0.01344419363886118
          ],
          [
            "Albania",
            0.01243126206099987
          ],
          [
            "Oman",
            0.012137618847191334
          ],
          [
            "Vanuatu",
            0.011604417115449905
          ],
          [
            "Guyana",
            0.011575347743928432
          ],
          [
            "Martinique",
            0.010061153210699558
          ],
          [
            "Saint Lucia",
            0.00944532547146082
          ],
          [
            "Philippines",
            0.008889475837349892
          ],
          [
            "Namibia",
            0.008503099903464317
          ],
          [
            "Thailand",
            0.008466056548058987
          ],
          [
            "Turkmenistan",
            0.0082017183303833
          ],
          [
            "Kenya",
            0.007857049815356731
          ],
          [
            "Vietnam",
            0.007661790121346712
          ],
          [
            "Latvia",
            0.007657436653971672
          ],
          [
            "Comoros",
            0.0074696303345263
          ],
          [
            "Solomon Islands",
            0.006988018285483122
          ],
          [
            "Paraguay",
            0.006828029174357653
          ],
          [
            "Australia",
            0.006690498907119036
          ],
          [
            "Qatar",
            0.006657415069639683
          ],
          [
            "Sweden",
            0.006240549962967634
          ],
          [
            "Moldova",
            0.005979266948997974
          ],
          [
            "Timor-Leste",
            0.005887554958462715
          ],
          [
            "Libya",
            0.0054248422384262085
          ],
          [
            "Belize",
            0.005421883892267942
          ],
          [
            "Myanmar",
            0.005405919626355171
          ],
          [
            "Serbia",
            0.005112767685204744
          ],
          [
            "Mozambique",
            0.005015331786125898
          ],
          [
            "South Korea",
            0.004952582530677319
          ],
          [
            "Benin",
            0.004777190741151571
          ],
          [
            "Palau",
            0.004693439695984125
          ],
          [
            "Cape Verde",
            0.004630768205970526
          ],
          [
            "Ghana",
            0.004623108077794313
          ],
          [
            "Lithuania",
            0.0044644479639828205
          ],
          [
            "Niger",
            0.00427259411662817
          ],
          [
            "Trinidad and Tobago",
            0.004212664905935526
          ],
          [
            "Colombia",
            0.004078306723386049
          ],
          [
            "Tunisia",
            0.0038982334081083536
          ],
          [
            "Somalia",
            0.003592440625652671
          ],
          [
            "Sri Lanka",
            0.0034853213001042604
          ],
          [
            "French Guiana",
            0.0034136546310037374
          ],
          [
            "Chad",
            0.0032769739627838135
          ],
          [
            "Spain",
            0.003268684260547161
          ],
          [
            "United Arab Emirates",
            0.0032476112246513367
          ],
          [
            "Ecuador",
            0.003208581591024995
          ],
          [
            "Bosnia & Herzegovina",
            0.003192234318703413
          ],
          [
            "Reunion",
            0.0030150115489959717
          ],
          [
            "Mayotte",
            0.002981682075187564
          ],
          [
            "Canada",
            0.0029011843726038933
          ],
          [
            "Armenia",
            0.0028992649167776108
          ],
          [
            "Isle of Man",
            0.0028748430777341127
          ],
          [
            "Norway",
            0.0028715769294649363
          ],
          [
            "Fiji",
            0.002722096163779497
          ],
          [
            "Netherlands Antilles",
            0.002681658137589693
          ],
          [
            "Senegal",
            0.002581686479970813
          ],
          [
            "Eswatini",
            0.0024947980418801308
          ],
          [
            "Guadeloupe",
            0.00245001376606524
          ],
          [
            "Ukraine",
            0.0023376010358333588
          ],
          [
            "Italy",
            0.002252323552966118
          ],
          [
            "Greenland",
            0.0022204562555998564
          ],
          [
            "Mauritania",
            0.002161754295229912
          ],
          [
            "New Caledonia",
            0.0021562157198786736
          ],
          [
            "Barbados",
            0.0021543288603425026
          ],
          [
            "Kazakhstan",
            0.0021216615568846464
          ],
          [
            "Guam",
            0.002097135176882148
          ],
          [
            "Eritrea",
            0.002071856986731291
          ],
          [
            "Yemen",
            0.0020123610738664865
          ],
          [
            "Belgium",
            0.002012211363762617
          ],
          [
            "Congo",
            0.0020021770615130663
          ],
          [
            "Burkina Faso",
            0.001962369540706277
          ],
          [
            "Madagascar",
            0.0019513402367010713
          ],
          [
            "Austria",
            0.0019215457141399384
          ],
          [
            "Romania",
            0.0018436372047290206
          ],
          [
            "Faroe Islands",
            0.0018274381291121244
          ],
          [
            "Suriname",
            0.001823208061978221
          ],
          [
            "Papua New Guinea",
            0.001818693010136485
          ],
          [
            "Hong Kong",
            0.0018114298582077026
          ],
          [
            "Saudi Arabia",
            0.00172925996594131
          ],
          [
            "Puerto Rico",
            0.0017277236329391599
          ],
          [
            "Malaysia",
            0.001727634691633284
          ],
          [
            "Peru",
            0.001717439852654934
          ],
          [
            "Costa Rica",
            0.001694946433417499
          ],
          [
            "Bahamas",
            0.0016775049734860659
          ],
          [
            "Poland",
            0.00159223354421556
          ],
          [
            "Egypt",
            0.0015689900610595942
          ],
          [
            "Central African Republic",
            0.0015478621935471892
          ],
          [
            "Georgia",
            0.0015313118929043412
          ],
          [
            "Azerbaijan",
            0.0014809493441134691
          ],
          [
            "Indonesia",
            0.00147289561573416
          ],
          [
            "Iran",
            0.0014581757131963968
          ],
          [
            "Estonia",
            0.0013942754594609141
          ],
          [
            "Taiwan",
            0.0013318995479494333
          ],
          [
            "Laos",
            0.0013308330671861768
          ],
          [
            "Heard and McDonald Islands",
            0.0013223944697529078
          ],
          [
            "Turkey",
            0.0011420906521379948
          ],
          [
            "Brazil",
            0.001101881847716868
          ],
          [
            "Switzerland",
            0.0010842257179319859
          ],
          [
            "El Salvador",
            0.0010477135656401515
          ],
          [
            "Ireland",
            0.0010437223827466369
          ],
          [
            "Germany",
            0.0009914180263876915
          ],
          [
            "Sierra Leone",
            0.0009613681468181312
          ],
          [
            "Guinea",
            0.0009184100781567395
          ],
          [
            "Svalbard",
            0.0008965876768343151
          ],
          [
            "Tanzania",
            0.0008848349098116159
          ],
          [
            "Czech Republic",
            0.0008798316121101379
          ],
          [
            "North Macedonia",
            0.0008653984405100346
          ],
          [
            "Samoa",
            0.0008552346262149513
          ],
          [
            "Rwanda",
            0.0008522059069946408
          ],
          [
            "DR Congo",
            0.0008398438803851604
          ],
          [
            "Bangladesh",
            0.0008290103869512677
          ],
          [
            "South Sudan",
            0.0008046607836149633
          ],
          [
            "Uganda",
            0.0008039505337364972
          ],
          [
            "Botswana",
            0.0007590469322167337
          ],
          [
            "Iraq",
            0.0007538068457506597
          ],
          [
            "Venezuela",
            0.000708119769115001
          ],
          [
            "Guatemala",
            0.0006847745389677584
          ],
          [
            "Belarus",
            0.0006471960805356503
          ],
          [
            "Croatia",
            0.0006304685957729816
          ],
          [
            "United States of America",
            0.000619906117208302
          ],
          [
            "Burundi",
            0.0006175199523568153
          ],
          [
            "Nepal",
            0.0006125799845904112
          ],
          [
            "Côte d'Ivoire",
            0.0006015870021656156
          ],
          [
            "India",
            0.0006008439231663942
          ],
          [
            "Lebanon",
            0.000600665167439729
          ],
          [
            "Zimbabwe",
            0.0005974749801680446
          ],
          [
            "Slovakia",
            0.0005830669542774558
          ],
          [
            "Nicaragua",
            0.0005540514830499887
          ],
          [
            "Turks and Caicos Islands",
            0.0005534642259590328
          ],
          [
            "Mexico",
            0.0005383711541071534
          ],
          [
            "Algeria",
            0.0005234969430603087
          ],
          [
            "Uruguay",
            0.0005083185969851911
          ],
          [
            "Uzbekistan",
            0.0004904534434899688
          ],
          [
            "Madeira Islands",
            0.0004898476763628423
          ],
          [
            "Angola",
            0.00048745141248218715
          ],
          [
            "Sudan",
            0.0004747213388327509
          ],
          [
            "Cyprus",
            0.0004716140974778682
          ],
          [
            "Luxembourg",
            0.0004580465902108699
          ],
          [
            "Liberia",
            0.0004568452131934464
          ],
          [
            "Pakistan",
            0.0004454876179806888
          ],
          [
            "Dominican Republic",
            0.00044326105853542686
          ],
          [
            "Mongolia",
            0.000442684831796214
          ],
          [
            "Netherlands",
            0.00044253875967115164
          ],
          [
            "Haiti",
            0.0004419289471115917
          ],
          [
            "Morocco",
            0.00044060751679353416
          ],
          [
            "France",
            0.0004363955813460052
          ],
          [
            "Cambodia",
            0.0004181617987342179
          ],
          [
            "Russia",
            0.0003993728896602988
          ],
          [
            "Cuba",
            0.0003949814126826823
          ],
          [
            "Kyrgyzstan",
            0.0003860282013192773
          ],
          [
            "Tajikistan",
            0.0003840804856736213
          ],
          [
            "Ethiopia",
            0.0003833412774838507
          ],
          [
            "Panama",
            0.00037854802212677896
          ],
          [
            "Gambia",
            0.00035739789018407464
          ],
          [
            "Jamaica",
            0.00034397508716210723
          ],
          [
            "Djibouti",
            0.0003351402992848307
          ],
          [
            "North Korea",
            0.00033469568006694317
          ],
          [
            "Gabon",
            0.00033411270123906434
          ],
          [
            "Syria",
            0.000300890882499516
          ],
          [
            "Brunei",
            0.00029730884125456214
          ],
          [
            "Honduras",
            0.00028974501765333116
          ],
          [
            "Kuwait",
            0.0002737005124799907
          ],
          [
            "Nigeria",
            0.0002684763167053461
          ],
          [
            "Lesotho",
            0.0002684476494323462
          ],
          [
            "Montenegro",
            0.0002669846871867776
          ],
          [
            "Bhutan",
            0.0002644188643898815
          ],
          [
            "Guinea-Bissau",
            0.00026005739346146584
          ],
          [
            "Zambia",
            0.00025198800722137094
          ],
          [
            "Hungary",
            0.00025028275558725
          ],
          [
            "Greece",
            0.0001958169596036896
          ],
          [
            "Bolivia",
            0.0001887540565803647
          ],
          [
            "South Georgia Islands",
            0.00018660839123185724
          ],
          [
            "Falkland Islands",
            0.00016648972814437002
          ],
          [
            "Jordan",
            0.0001552159956190735
          ],
          [
            "China",
            0.00013401781325228512
          ],
          [
            "Western Sahara",
            0.00013062496145721525
          ],
          [
            "South Africa",
            0.0001305721525568515
          ],
          [
            "Iceland",
            0.00012968880764674395
          ],
          [
            "Slovenia",
            0.00010153446055483073
          ],
          [
            "Denmark",
            0.00010101561929332092
          ],
          [
            "Bulgaria",
            6.649223360000178e-05
          ],
          [
            "Kiribati",
            5.8462235756451264e-05
          ],
          [
            "Afghanistan",
            4.65728371636942e-05
          ]
        ]
      },
      "geometry": {
        "type": "MultiLineString",
        "coordinates": [
          [
            [
              22.877192982456137,
              27.964912280701753
            ],
            [
              20.42105263157896,
              26.912280701754383
            ],
            [
              19.017543859649123,
              26.21052631578948
            ],
            [
              17.964912280701753,
              25.859649122807014
            ],
            [
              16.912280701754383,
              25.508771929824547
            ],
            [
              15.508771929824547,
              24.456140350877206
            ],
            [
              15.508771929824547,
              23.05263157894737
            ],
            [
              15.859649122807014,
              21.649122807017534
            ],
            [
              17.26315789473685,
              19.89473684210526
            ],
            [
              17.614035087719287,
              18.84210526315792
            ],
            [
              19.017543859649123,
              17.78947368421052
            ],
            [
              19.719298245614027,
              16.736842105263122
            ],
            [
              20.42105263157896,
              15.68421052631578
            ],
            [
              20.771929824561397,
              13.228070175438575
            ],
            [
              20.771929824561397,
              11.4736842105263
            ],
            [
              21.122807017543863,
              9.719298245614027
            ],
            [
              21.824561403508767,
              7.263157894736821
            ],
            [
              22.877192982456137,
              4.456140350877206
            ],
            [
              23.228070175438603,
              3.4035087719298076
            ],
            [
              24.63157894736841,
              2.7017543859649322
            ],
            [
              25.68421052631578,
              2.0
            ],
            [
              27.087719298245617,
              2.350877192982466
            ],
            [
              28.140350877192986,
              2.7017543859649322
            ],
            [
              29.89473684210526,
              3.0526315789473983
            ],
            [
              31.649122807017534,
              3.0526315789473983
            ],
            [
              34.456140350877206,
              3.0526315789473983
            ],
            [
              36.21052631578948,
              3.0526315789473983
            ],
            [
              37.96491228070175,
              3.0526315789473983
            ],
            [
              39.36842105263156,
              3.0526315789473983
            ],
            [
              41.82456140350877,
              3.4035087719298076
            ],
            [
              42.87719298245614,
              4.456140350877206
            ],
            [
              44.28070175438597,
              6.21052631578948
            ],
            [
              44.98245614035088,
              7.263157894736821
            ],
            [
              45.68421052631578,
              8.666666666666686
            ],
            [
              46.73684210526315,
              10.070175438596493
            ],
            [
              47.438596491228054,
              11.122807017543892
            ],
            [
              48.140350877192986,
              12.175438596491233
            ],
            [
              48.49122807017545,
              13.228070175438575
            ],
            [
              48.49122807017545,
              14.631578947368439
            ],
            [
              48.49122807017545,
              16.385964912280713
            ],
            [
              47.438596491228054,
              17.438596491228054
            ],
            [
              43.92982456140351,
              19.192982456140385
            ],
            [
              41.4736842105263,
              19.89473684210526
            ],
            [
              38.666666666666686,
              20.596491228070192
            ],
            [
              36.21052631578948,
              21.298245614035068
            ],
            [
              33.05263157894737,
              22.701754385964932
            ],
            [
              31.649122807017534,
              23.403508771929808
            ],
            [
              30.596491228070192,
              23.754385964912274
            ],
            [
              29.543859649122794,
              24.456140350877206
            ],
            [
              28.140350877192986,
              25.508771929824547
            ],
            [
              26.385964912280713,
              26.561403508771946
            ],
            [
              25.333333333333314,
              27.26315789473682
            ],
            [
              23.929824561403507,
              27.964912280701753
            ],
            [
              22.5263157894737,
              27.964912280701753
            ],
            [
              20.771929824561397,
              27.964912280701753
            ],
            [
              19.719298245614027,
              26.912280701754383
            ]
          ],
          [
            [
              39.36842105263156,
              62.0
            ],
            [
              37.96491228070175,
              60.94736842105263
            ],
            [
              35.859649122807014,
              59.543859649122794
            ],
            [
              34.807017543859644,
              58.49122807017545
            ],
            [
              33.754385964912274,
              57.78947368421052
            ],
            [
              33.40350877192981,
              56.73684210526315
            ],
            [
              35.50877192982455,
              55.333333333333314
            ],
            [
              36.91228070175438,
              54.98245614035088
            ],
            [
              38.31578947368422,
              54.63157894736841
            ],
            [
              40.07017543859649,
              53.92982456140351
            ],
            [
              41.12280701754386,
              53.57894736842104
            ],
            [
              42.5263157894737,
              53.57894736842104
            ],
            [
              43.57894736842104,
              54.28070175438597
            ],
            [
              43.92982456140351,
              55.68421052631578
            ],
            [
              44.63157894736844,
              56.73684210526315
            ],
            [
              44.98245614035088,
              58.140350877192986
            ],
            [
              44.98245614035088,
              59.543859649122794
            ],
            [
              43.57894736842104,
              60.596491228070164
            ],
            [
              42.17543859649123,
              61.29824561403507
            ],
            [
              40.7719298245614,
              62.0
            ],
            [
              39.36842105263156,
              62.0
            ],
            [
              36.561403508771946,
              59.543859649122794
            ],
            [
              35.859649122807014,
              57.78947368421052
            ]
          ]
        ]
      }
    }
  ]
}