{
  "type": "FeatureCollection",
  "crs": {
    "type": "name",
    "properties": {
      "name": "urn:ogc:def:crs:OGC:1.3:CRS84"
    }
  },
  "features": [
    {
      "type": "Feature",
      "properties": {
        "timestamp": "2026-04-14T23:08:24.069227",
        "country_name": "Canada",
        "author": "",
        "author_id": "155c1f40-e4bf-45b2-871e-903e54200006",
        "validated": false,
        "ranking": [
          [
            "Canada",
            0.06037252023816109
          ],
          [
            "Ireland",
            0.03214455395936966
          ],
          [
            "Mauritania",
            0.03201691433787346
          ],
          [
            "Guadeloupe",
            0.03140639513731003
          ],
          [
            "Burkina Faso",
            0.02681092359125614
          ],
          [
            "Central African Republic",
            0.021331891417503357
          ],
          [
            "Hong Kong",
            0.021030131727457047
          ],
          [
            "Switzerland",
            0.02056533470749855
          ],
          [
            "Guyana",
            0.018946288153529167
          ],
          [
            "Myanmar",
            0.017509138211607933
          ],
          [
            "Azerbaijan",
            0.017333131283521652
          ],
          [
            "Senegal",
            0.016574284061789513
          ],
          [
            "Belarus",
            0.016291899606585503
          ],
          [
            "United Kingdom",
            0.01566752977669239
          ],
          [
            "Romania",
            0.01391095481812954
          ],
          [
            "Mozambique",
            0.013713765889406204
          ],
          [
            "Malawi",
            0.013508752919733524
          ],
          [
            "Tajikistan",
            0.013339687138795853
          ],
          [
            "North Korea",
            0.013264005072414875
          ],
          [
            "Papua New Guinea",
            0.012992529198527336
          ],
          [
            "Peru",
            0.012964259833097458
          ],
          [
            "Kazakhstan",
            0.01281383354216814
          ],
          [
            "Estonia",
            0.012805818580091
          ],
          [
            "Philippines",
            0.012532290071249008
          ],
          [
            "Somalia",
            0.012004762887954712
          ],
          [
            "Sweden",
            0.011936699040234089
          ],
          [
            "Bangladesh",
            0.01166717242449522
          ],
          [
            "Saint Lucia",
            0.011277345009148121
          ],
          [
            "South Korea",
            0.011154360137879848
          ],
          [
            "Colombia",
            0.011027458123862743
          ],
          [
            "Latvia",
            0.010922937653958797
          ],
          [
            "Turkmenistan",
            0.010211928747594357
          ],
          [
            "Togo",
            0.009428075514733791
          ],
          [
            "Benin",
            0.00893744733184576
          ],
          [
            "Qatar",
            0.008790229447185993
          ],
          [
            "Tunisia",
            0.008653982542455196
          ],
          [
            "Rwanda",
            0.00845915824174881
          ],
          [
            "Finland",
            0.008409818634390831
          ],
          [
            "Thailand",
            0.008060707710683346
          ],
          [
            "Fiji",
            0.00799062941223383
          ],
          [
            "Yemen",
            0.007968317717313766
          ],
          [
            "Denmark",
            0.00745847774669528
          ],
          [
            "Russia",
            0.007195960730314255
          ],
          [
            "Oman",
            0.0070735556073486805
          ],
          [
            "Niger",
            0.0068425871431827545
          ],
          [
            "Argentina",
            0.006755274720489979
          ],
          [
            "South Sudan",
            0.006736258044838905
          ],
          [
            "Greece",
            0.006552084349095821
          ],
          [
            "Congo",
            0.0062223016284406185
          ],
          [
            "Greenland",
            0.0060881986282765865
          ],
          [
            "Belize",
            0.005964955314993858
          ],
          [
            "Serbia",
            0.00593058206140995
          ],
          [
            "Brunei",
            0.00591706857085228
          ],
          [
            "Albania",
            0.00553542235866189
          ],
          [
            "France",
            0.00548052042722702
          ],
          [
            "Taiwan",
            0.005469524301588535
          ],
          [
            "Netherlands",
            0.005408814176917076
          ],
          [
            "Ukraine",
            0.00516721373423934
          ],
          [
            "Portugal",
            0.004977541975677013
          ],
          [
            "West Bank",
            0.004893171135336161
          ],
          [
            "Slovakia",
            0.004449593368917704
          ],
          [
            "Italy",
            0.0043802158907055855
          ],
          [
            "Guam",
            0.004370593931525946
          ],
          [
            "Norway",
            0.004218322224915028
          ],
          [
            "Iraq",
            0.004080630838871002
          ],
          [
            "Nicaragua",
            0.004068902228027582
          ],
          [
            "Cameroon",
            0.0039695934392511845
          ],
          [
            "Czech Republic",
            0.0039674281142652035
          ],
          [
            "Israel",
            0.003869732143357396
          ],
          [
            "Saudi Arabia",
            0.0036554750986397266
          ],
          [
            "Spain",
            0.00363235198892653
          ],
          [
            "Vietnam",
            0.003600113559514284
          ],
          [
            "Croatia",
            0.0035804875660687685
          ],
          [
            "Martinique",
            0.003564202692359686
          ],
          [
            "Falkland Islands",
            0.003470400348305702
          ],
          [
            "Kyrgyzstan",
            0.0034432029351592064
          ],
          [
            "Svalbard",
            0.003391450736671686
          ],
          [
            "Bahamas",
            0.0032771029509603977
          ],
          [
            "Laos",
            0.0031815036199986935
          ],
          [
            "Mali",
            0.003146291943266988
          ],
          [
            "Algeria",
            0.003118968103080988
          ],
          [
            "Guinea-Bissau",
            0.0029316600412130356
          ],
          [
            "South Africa",
            0.002683032304048538
          ],
          [
            "Djibouti",
            0.0026604675222188234
          ],
          [
            "El Salvador",
            0.00264145084656775
          ],
          [
            "Heard and McDonald Islands",
            0.0026052650064229965
          ],
          [
            "Lithuania",
            0.00256308913230896
          ],
          [
            "Zambia",
            0.0025609047152101994
          ],
          [
            "Cuba",
            0.002558849286288023
          ],
          [
            "Indonesia",
            0.0025522687938064337
          ],
          [
            "Madagascar",
            0.0025112286675721407
          ],
          [
            "Costa Rica",
            0.0024779939558357
          ],
          [
            "Trinidad and Tobago",
            0.00246859691105783
          ],
          [
            "Armenia",
            0.0024648234248161316
          ],
          [
            "Georgia",
            0.002354433061555028
          ],
          [
            "Turkey",
            0.0023488891310989857
          ],
          [
            "Bhutan",
            0.0023366319946944714
          ],
          [
            "Iran",
            0.0023217627312988043
          ],
          [
            "Moldova",
            0.0023034135811030865
          ],
          [
            "Honduras",
            0.0022951073478907347
          ],
          [
            "North Macedonia",
            0.0022448550444096327
          ],
          [
            "Bahrain",
            0.0022262006532400846
          ],
          [
            "Western Sahara",
            0.0022058491595089436
          ],
          [
            "New Zealand",
            0.002180603565648198
          ],
          [
            "Isle of Man",
            0.002169034443795681
          ],
          [
            "Sri Lanka",
            0.0021645543165504932
          ],
          [
            "Guatemala",
            0.002164017641916871
          ],
          [
            "India",
            0.0020281041506677866
          ],
          [
            "Syria",
            0.001995983300730586
          ],
          [
            "Chad",
            0.0019346141489222646
          ],
          [
            "Gabon",
            0.001925873919390142
          ],
          [
            "Faroe Islands",
            0.0019230952020734549
          ],
          [
            "Mexico",
            0.0019115391187369823
          ],
          [
            "Belgium",
            0.0018799769459292293
          ],
          [
            "Zimbabwe",
            0.0018759758677333593
          ],
          [
            "Angola",
            0.001868530292995274
          ],
          [
            "Lebanon",
            0.0018518863944336772
          ],
          [
            "Ghana",
            0.0018280016956850886
          ],
          [
            "Australia",
            0.001796972006559372
          ],
          [
            "Mongolia",
            0.0017427584389224648
          ],
          [
            "Uzbekistan",
            0.001734127290546894
          ],
          [
            "Ethiopia",
            0.0017204286996275187
          ],
          [
            "Slovenia",
            0.0016780798323452473
          ],
          [
            "South Georgia Islands",
            0.0016764834290370345
          ],
          [
            "Jamaica",
            0.0016308712074533105
          ],
          [
            "Haiti",
            0.0016279187984764576
          ],
          [
            "United States of America",
            0.0015915887197479606
          ],
          [
            "Paraguay",
            0.0015729201259091496
          ],
          [
            "Dominica",
            0.0015588440001010895
          ],
          [
            "Antigua & Barbuda",
            0.0015549894887953997
          ],
          [
            "Germany",
            0.0015428148908540606
          ],
          [
            "Puerto Rico",
            0.0015072710812091827
          ],
          [
            "Vanuatu",
            0.001467031892389059
          ],
          [
            "Afghanistan",
            0.0014629188226535916
          ],
          [
            "Timor-Leste",
            0.00145129079464823
          ],
          [
            "Chile",
            0.0013304513413459063
          ],
          [
            "Palau",
            0.0013218034291639924
          ],
          [
            "Jordan",
            0.0012652057921513915
          ],
          [
            "Burundi",
            0.0012014033272862434
          ],
          [
            "Luxembourg",
            0.001189138158224523
          ],
          [
            "Mayotte",
            0.0011836574412882328
          ],
          [
            "Guinea",
            0.0011668679071590304
          ],
          [
            "Dominican Republic",
            0.0011310792760923505
          ],
          [
            "Liberia",
            0.0011263495543971658
          ],
          [
            "Kenya",
            0.0011068100575357676
          ],
          [
            "Samoa",
            0.0010999891674146056
          ],
          [
            "Iceland",
            0.0010806863429024816
          ],
          [
            "Namibia",
            0.001074229134246707
          ],
          [
            "French Guiana",
            0.001046079327352345
          ],
          [
            "Solomon Islands",
            0.001042595598846674
          ],
          [
            "Kuwait",
            0.0010417726589366794
          ],
          [
            "Morocco",
            0.0010048674885183573
          ],
          [
            "Panama",
            0.0009607882238924503
          ],
          [
            "Reunion",
            0.0009600737248547375
          ],
          [
            "Hungary",
            0.0009453190141357481
          ],
          [
            "Libya",
            0.0009386210585944355
          ],
          [
            "New Caledonia",
            0.0009088460355997086
          ],
          [
            "DR Congo",
            0.0009062426397576928
          ],
          [
            "Eritrea",
            0.0008958025136962533
          ],
          [
            "Uganda",
            0.0008785682148300111
          ],
          [
            "Bolivia",
            0.0008574030944146216
          ],
          [
            "Montenegro",
            0.0008496782975271344
          ],
          [
            "Uruguay",
            0.0008388219284825027
          ],
          [
            "Barbados",
            0.0008372937445528805
          ],
          [
            "Lesotho",
            0.0008338783518411219
          ],
          [
            "Cyprus",
            0.0008111754432320595
          ],
          [
            "Nepal",
            0.0008076416561380029
          ],
          [
            "Comoros",
            0.0007750247605144978
          ],
          [
            "Venezuela",
            0.0007506913389079273
          ],
          [
            "Eswatini",
            0.0007339956355281174
          ],
          [
            "Japan",
            0.0007336513372138143
          ],
          [
            "United Arab Emirates",
            0.0006631679716520011
          ],
          [
            "Cambodia",
            0.0006426615291275084
          ],
          [
            "Ecuador",
            0.0006137198070064187
          ],
          [
            "China",
            0.0006074635894037783
          ],
          [
            "Brazil",
            0.0005881150136701763
          ],
          [
            "Turks and Caicos Islands",
            0.0005647557554766536
          ],
          [
            "Cape Verde",
            0.0005116693209856749
          ],
          [
            "Equatorial Guinea",
            0.0004934717435389757
          ],
          [
            "Pakistan",
            0.0004919061902910471
          ],
          [
            "Sierra Leone",
            0.0004776018613483757
          ],
          [
            "Suriname",
            0.000473933934699744
          ],
          [
            "Egypt",
            0.0004660766280721873
          ],
          [
            "Kiribati",
            0.0004301707667764276
          ],
          [
            "Poland",
            0.0004117460339330137
          ],
          [
            "Malaysia",
            0.0004087576817255467
          ],
          [
            "Côte d'Ivoire",
            0.00040574229205958545
          ],
          [
            "Sudan",
            0.0004048556147608906
          ],
          [
            "Austria",
            0.00039575330447405577
          ],
          [
            "Gambia",
            0.00038965416024439037
          ],
          [
            "Botswana",
            0.00038829570985399187
          ],
          [
            "Bulgaria",
            0.0003795613592956215
          ],
          [
            "United States Virgin Islands",
            0.0003613182052504271
          ],
          [
            "Bosnia & Herzegovina",
            0.0003528338565956801
          ],
          [
            "Netherlands Antilles",
            0.00029387796530500054
          ],
          [
            "Sao Tome and Principe",
            0.0002497270470485091
          ],
          [
            "Nigeria",
            0.00024736716295592487
          ],
          [
            "Tanzania",
            0.00023162503202911466
          ],
          [
            "Madeira Islands",
            0.00022779015125706792
          ]
        ]
      },
      "geometry": {
        "type": "MultiLineString",
        "coordinates": [
          [
            [
              26.968152866242008,
              9.324840764331213
            ],
            [
              26.458598726114644,
              9.324840764331213
            ],
            [
              26.07643312101908,
              9.452229299363069
            ],
            [
              25.69426751592357,
              9.579617834394924
            ],
            [
              24.929936305732497,
              9.579617834394924
            ],
            [
              24.54777070063693,
              9.707006369426722
            ],
            [
              24.038216560509568,
              9.707006369426722
            ],
            [
              23.401273885350292,
              9.707006369426722
            ],
            [
              23.14649681528664,
              10.089171974522287
            ],
            [
              22.63694267515922,
              10.216560509554142
            ],
            [
              22.25477707006371,
              10.343949044585997
            ],
            [
              21.49044585987258,
              10.726114649681506
            ],
            [
              21.36305732484078,
              11.235668789808926
            ],
            [
              21.235668789808926,
              11.872611464968145
            ],
            [
              20.980891719745216,
              12.636942675159219
            ],
            [
              20.85350318471336,
              13.146496815286639
            ],
            [
              20.598726114649708,
              13.528662420382148
            ],
            [
              20.598726114649708,
              14.165605095541423
            ],
            [
              20.598726114649708,
              14.675159235668787
            ],
            [
              20.726114649681506,
              15.18471337579615
            ],
            [
              21.235668789808926,
              15.312101910828005
            ],
            [
              21.617834394904435,
              15.43949044585986
            ],
            [
              22.25477707006371,
              15.43949044585986
            ],
            [
              23.019108280254784,
              15.43949044585986
            ],
            [
              23.656050955414003,
              15.43949044585986
            ],
            [
              24.54777070063693,
              15.43949044585986
            ],
            [
              26.5859872611465,
              14.929936305732497
            ],
            [
              29.13375796178343,
              14.165605095541423
            ],
            [
              32.06369426751593,
              13.273885350318437
            ],
            [
              34.61146496815286,
              12.50955414012742
            ],
            [
              35.50318471337579,
              12.127388535031855
            ],
            [
              34.86624203821657,
              13.146496815286639
            ],
            [
              34.61146496815286,
              13.528662420382148
            ],
            [
              34.61146496815286,
              14.420382165605076
            ],
            [
              34.61146496815286,
              15.312101910828005
            ],
            [
              34.484076433121004,
              15.821656050955426
            ],
            [
              34.484076433121004,
              16.33121019108279
            ],
            [
              34.484076433121004,
              16.84076433121021
            ],
            [
              34.484076433121004,
              17.605095541401283
            ],
            [
              34.738853503184714,
              18.369426751592357
            ],
            [
              34.738853503184714,
              19.13375796178343
            ],
            [
              34.738853503184714,
              20.02547770700636
            ],
            [
              34.738853503184714,
              20.53503184713378
            ],
            [
              34.738853503184714,
              21.299363057324854
            ],
            [
              34.484076433121004,
              22.063694267515928
            ],
            [
              34.101910828025495,
              22.955414012738856
            ],
            [
              33.71974522292993,
              23.210191082802567
            ],
            [
              32.955414012738856,
              23.71974522292993
            ],
            [
              32.57324840764329,
              23.847133757961785
            ],
            [
              32.06369426751593,
              24.35668789808915
            ],
            [
              31.42675159235671,
              25.375796178343933
            ],
            [
              31.044585987261144,
              26.26751592356686
            ],
            [
              30.66242038216558,
              27.15923566878979
            ],
            [
              30.535031847133723,
              27.66878980891721
            ],
            [
              30.152866242038215,
              28.178343949044574
            ],
            [
              29.77070063694265,
              28.942675159235648
            ],
            [
              29.515923566878996,
              29.834394904458577
            ],
            [
              29.13375796178343,
              30.471337579617852
            ],
            [
              28.87898089171972,
              30.85350318471336
            ],
            [
              28.624203821656067,
              31.617834394904435
            ],
            [
              28.242038216560502,
              32.382165605095565
            ],
            [
              28.114649681528647,
              32.764331210191074
            ],
            [
              27.98726114649679,
              33.273885350318494
            ],
            [
              27.98726114649679,
              34.16560509554142
            ],
            [
              27.98726114649679,
              34.80254777070064
            ],
            [
              27.98726114649679,
              35.312101910828005
            ],
            [
              27.98726114649679,
              35.94904458598728
            ],
            [
              27.98726114649679,
              36.5859872611465
            ],
            [
              27.98726114649679,
              37.35031847133757
            ],
            [
              28.114649681528647,
              38.2420382165605
            ],
            [
              28.114649681528647,
              38.751592356687866
            ],
            [
              27.859872611464993,
              39.77070063694265
            ],
            [
              27.859872611464993,
              40.28025477707007
            ],
            [
              27.73248407643314,
              40.66242038216558
            ],
            [
              27.73248407643314,
              41.171974522293
            ],
            [
              27.73248407643314,
              41.80891719745222
            ],
            [
              27.095541401273863,
              41.80891719745222
            ],
            [
              25.566878980891715,
              41.171974522293
            ],
            [
              24.675159235668787,
              40.91719745222929
            ],
            [
              23.910828025477713,
              40.78980891719743
            ],
            [
              23.656050955414003,
              41.171974522293
            ],
            [
              23.656050955414003,
              41.80891719745222
            ],
            [
              23.528662420382148,
              42.19108280254778
            ],
            [
              23.273885350318494,
              43.08280254777071
            ],
            [
              23.273885350318494,
              43.847133757961785
            ],
            [
              23.273885350318494,
              44.35668789808915
            ],
            [
              23.783439490445858,
              45.12101910828028
            ],
            [
              24.165605095541423,
              45.63057324840764
            ],
            [
              24.54777070063693,
              46.26751592356686
            ],
            [
              25.057324840764352,
              47.541401273885356
            ],
            [
              25.312101910828005,
              48.05095541401272
            ],
            [
              25.43949044585986,
              48.56050955414014
            ],
            [
              25.821656050955426,
              48.81528662420385
            ],
            [
              25.94904458598728,
              49.19745222929936
            ],
            [
              26.968152866242008,
              49.96178343949043
            ],
            [
              27.859872611464993,
              50.726114649681506
            ],
            [
              29.38853503184714,
              51.74522292993629
            ],
            [
              31.681528662420362,
              53.14649681528664
            ],
            [
              32.955414012738856,
              54.16560509554142
            ],
            [
              34.35668789808915,
              54.9299363057325
            ],
            [
              34.738853503184714,
              55.43949044585986
            ],
            [
              35.12101910828028,
              55.69426751592357
            ],
            [
              36.26751592356686,
              55.69426751592357
            ],
            [
              37.15923566878979,
              56.076433121019136
            ],
            [
              37.796178343949066,
              56.203821656050934
            ],
            [
              38.178343949044574,
              56.458598726114644
            ],
            [
              38.687898089171995,
              55.05732484076435
            ],
            [
              38.81528662420385,
              54.03821656050957
            ],
            [
              38.81528662420385,
              53.14649681528664
            ],
            [
              39.0700636942675,
              52.509554140127364
            ],
            [
              39.0700636942675,
              52.0
            ],
            [
              38.56050955414014,
              51.235668789808926
            ],
            [
              37.15923566878979,
              50.47133757961785
            ],
            [
              36.90445859872614,
              49.579617834394924
            ],
            [
              37.66878980891721,
              48.94267515923565
            ],
            [
              39.83439490445858,
              48.178343949044574
            ],
            [
              40.47133757961785,
              48.05095541401272
            ],
            [
              41.235668789808926,
              48.05095541401272
            ],
            [
              42.25477707006371,
              48.05095541401272
            ],
            [
              43.40127388535029,
              48.05095541401272
            ],
            [
              44.03821656050957,
              48.05095541401272
            ],
            [
              45.69426751592357,
              47.66878980891721
            ],
            [
              46.84076433121021,
              47.286624203821646
            ],
            [
              47.09554140127386,
              46.52229299363057
            ],
            [
              46.5859872611465,
              45.12101910828028
            ],
            [
              46.5859872611465,
              43.847133757961785
            ],
            [
              46.5859872611465,
              42.31847133757964
            ],
            [
              46.5859872611465,
              40.91719745222929
            ],
            [
              46.713375796178354,
              39.898089171974505
            ],
            [
              46.84076433121021,
              39.515923566878996
            ],
            [
              46.84076433121021,
              38.87898089171972
            ],
            [
              46.84076433121021,
              38.36942675159236
            ],
            [
              45.94904458598728,
              36.713375796178354
            ],
            [
              45.312101910828005,
              35.821656050955426
            ],
            [
              44.54777070063693,
              35.05732484076435
            ],
            [
              44.16560509554142,
              34.420382165605076
            ],
            [
              44.16560509554142,
              33.14649681528664
            ],
            [
              44.16560509554142,
              32.63694267515922
            ],
            [
              44.80254777070064,
              31.617834394904435
            ],
            [
              46.96815286624201,
              30.471337579617852
            ],
            [
              47.22292993630572,
              30.089171974522287
            ],
            [
              47.60509554140128,
              29.579617834394924
            ],
            [
              47.73248407643314,
              29.070063694267503
            ],
            [
              47.73248407643314,
              28.433121019108285
            ],
            [
              47.73248407643314,
              27.796178343949066
            ],
            [
              47.85987261146499,
              27.286624203821646
            ],
            [
              47.85987261146499,
              26.777070063694282
            ],
            [
              47.85987261146499,
              26.140127388535007
            ],
            [
              47.85987261146499,
              25.503184713375788
            ],
            [
              47.85987261146499,
              24.61146496815286
            ],
            [
              47.85987261146499,
              23.71974522292993
            ],
            [
              47.85987261146499,
              23.08280254777071
            ],
            [
              48.49681528662421,
              22.191082802547783
            ],
            [
              49.261146496815286,
              20.53503184713378
            ],
            [
              49.898089171974505,
              19.13375796178343
            ],
            [
              50.66242038216558,
              18.242038216560502
            ],
            [
              50.78980891719743,
              17.859872611464993
            ],
            [
              50.78980891719743,
              16.84076433121021
            ],
            [
              49.77070063694265,
              15.43949044585986
            ],
            [
              49.261146496815286,
              14.675159235668787
            ],
            [
              49.13375796178343,
              13.910828025477713
            ],
            [
              48.49681528662421,
              13.273885350318437
            ],
            [
              48.49681528662421,
              12.764331210191074
            ],
            [
              49.13375796178343,
              12.764331210191074
            ],
            [
              52.445859872611436,
              12.764331210191074
            ],
            [
              56.90445859872614,
              12.764331210191074
            ],
            [
              60.726114649681506,
              12.764331210191074
            ],
            [
              61.872611464968145,
              12.764331210191074
            ],
            [
              62.0,
              12.25477707006371
            ],
            [
              61.617834394904435,
              11.49044585987258
            ],
            [
              61.36305732484078,
              11.108280254777071
            ],
            [
              60.85350318471336,
              10.726114649681506
            ],
            [
              60.47133757961785,
              10.598726114649708
            ],
            [
              59.96178343949043,
              10.089171974522287
            ],
            [
              59.45222929936307,
              9.834394904458577
            ],
            [
              59.0700636942675,
              9.707006369426722
            ],
            [
              58.687898089171995,
              9.579617834394924
            ],
            [
              57.4140127388535,
              9.197452229299358
            ],
            [
              53.33757961783442,
              8.687898089171995
            ],
            [
              51.044585987261144,
              8.56050955414014
            ],
            [
              50.02547770700636,
              8.56050955414014
            ],
            [
              46.84076433121021,
              8.56050955414014
            ],
            [
              45.18471337579615,
              8.56050955414014
            ],
            [
              44.03821656050957,
              8.56050955414014
            ],
            [
              43.40127388535029,
              8.56050955414014
            ],
            [
              42.89171974522293,
              8.433121019108285
            ],
            [
              42.509554140127364,
              8.30573248407643
            ],
            [
              41.36305732484078,
              8.05095541401272
            ],
            [
              39.83439490445858,
              7.668789808917211
            ],
            [
              38.687898089171995,
              7.668789808917211
            ],
            [
              37.4140127388535,
              7.668789808917211
            ],
            [
              36.52229299363057,
              7.668789808917211
            ],
            [
              36.01273885350315,
              7.668789808917211
            ],
            [
              35.24840764331208,
              7.668789808917211
            ],
            [
              33.71974522292993,
              7.668789808917211
            ],
            [
              31.936305732484072,
              7.668789808917211
            ],
            [
              30.152866242038215,
              7.668789808917211
            ],
            [
              29.261146496815286,
              7.668789808917211
            ],
            [
              28.751592356687866,
              7.668789808917211
            ]
          ],
          [
            [
              18.942675159235648,
              34.54777070063693
            ],
            [
              18.942675159235648,
              35.69426751592357
            ],
            [
              19.070063694267503,
              36.076433121019136
            ],
            [
              16.777070063694282,
              36.458598726114644
            ],
            [
              13.847133757961785,
              37.09554140127386
            ],
            [
              11.044585987261144,
              37.35031847133757
            ],
            [
              9.77070063694265,
              37.60509554140128
            ],
            [
              9.13375796178343,
              37.60509554140128
            ],
            [
              8.496815286624212,
              37.60509554140128
            ],
            [
              7.350318471337573,
              36.96815286624201
            ],
            [
              5.949044585987281,
              36.33121019108279
            ],
            [
              4.165605095541423,
              34.80254777070064
            ],
            [
              3.5286624203821475,
              34.54777070063693
            ],
            [
              2.6369426751592187,
              33.656050955414
            ],
            [
              2.3821656050955653,
              33.273885350318494
            ],
            [
              2.25477707006371,
              32.382165605095565
            ],
            [
              2.25477707006371,
              31.36305732484078
            ],
            [
              2.0,
              30.471337579617852
            ],
            [
              2.0,
              29.579617834394924
            ],
            [
              2.0,
              28.687898089171995
            ],
            [
              2.0,
              28.05095541401272
            ],
            [
              2.127388535031855,
              27.15923566878979
            ],
            [
              2.5095541401273636,
              26.01273885350315
            ],
            [
              2.7643312101910738,
              24.61146496815286
            ],
            [
              3.019108280254784,
              23.46496815286622
            ],
            [
              3.273885350318494,
              22.955414012738856
            ],
            [
              3.4012738853502924,
              21.808917197452217
            ],
            [
              3.6560509554140026,
              21.044585987261144
            ],
            [
              4.5477707006369315,
              19.006369426751576
            ],
            [
              4.5477707006369315,
              17.73248407643314
            ],
            [
              4.5477707006369315,
              16.458598726114644
            ],
            [
              4.929936305732497,
              15.566878980891715
            ],
            [
              5.43949044585986,
              14.675159235668787
            ],
            [
              5.6942675159235705,
              14.292993630573278
            ],
            [
              6.203821656050934,
              13.401273885350292
            ],
            [
              6.203821656050934,
              12.891719745222929
            ],
            [
              6.331210191082789,
              11.872611464968145
            ],
            [
              6.331210191082789,
              11.108280254777071
            ],
            [
              6.585987261146499,
              10.726114649681506
            ],
            [
              6.585987261146499,
              10.216560509554142
            ],
            [
              6.7133757961783544,
              9.452229299363069
            ],
            [
              6.7133757961783544,
              8.942675159235648
            ],
            [
              7.222929936305718,
              8.05095541401272
            ],
            [
              7.8598726114649935,
              7.541401273885356
            ],
            [
              8.751592356687866,
              7.541401273885356
            ],
            [
              9.898089171974505,
              7.541401273885356
            ],
            [
              10.789808917197433,
              7.796178343949009
            ],
            [
              11.171974522292999,
              7.923566878980864
            ],
            [
              11.681528662420362,
              8.433121019108285
            ],
            [
              12.191082802547783,
              8.687898089171995
            ],
            [
              12.445859872611436,
              9.070063694267503
            ],
            [
              12.573248407643291,
              10.089171974522287
            ],
            [
              12.955414012738856,
              10.598726114649708
            ],
            [
              13.210191082802567,
              11.108280254777071
            ],
            [
              13.337579617834422,
              11.49044585987258
            ],
            [
              13.71974522292993,
              11.872611464968145
            ],
            [
              14.611464968152859,
              12.0
            ],
            [
              15.375796178343933,
              12.50955414012742
            ],
            [
              16.01273885350315,
              13.146496815286639
            ],
            [
              16.777070063694282,
              13.656050955414003
            ],
            [
              17.031847133757935,
              14.038216560509568
            ],
            [
              17.286624203821646,
              14.420382165605076
            ],
            [
              17.541401273885356,
              14.802547770700642
            ],
            [
              17.796178343949066,
              15.566878980891715
            ],
            [
              18.30573248407643,
              16.076433121019136
            ],
            [
              18.942675159235648,
              16.84076433121021
            ],
            [
              19.324840764331213,
              17.350318471337573
            ],
            [
              19.834394904458577,
              18.114649681528647
            ],
            [
              19.961783439490432,
              18.751592356687866
            ],
            [
              20.089171974522287,
              19.38853503184714
            ],
            [
              20.089171974522287,
              20.28025477707007
            ],
            [
              20.089171974522287,
              21.171974522293
            ],
            [
              20.343949044585997,
              22.063694267515928
            ],
            [
              20.343949044585997,
              22.828025477707
            ],
            [
              20.343949044585997,
              23.71974522292993
            ],
            [
              20.343949044585997,
              24.61146496815286
            ],
            [
              20.343949044585997,
              25.757961783439498
            ],
            [
              20.343949044585997,
              26.26751592356686
            ],
            [
              20.343949044585997,
              26.777070063694282
            ],
            [
              20.089171974522287,
              27.15923566878979
            ],
            [
              19.707006369426722,
              27.66878980891721
            ],
            [
              19.579617834394924,
              28.433121019108285
            ],
            [
              19.579617834394924,
              29.324840764331213
            ],
            [
              19.579617834394924,
              30.471337579617852
            ],
            [
              19.19745222929936,
              31.10828025477707
            ],
            [
              19.19745222929936,
              32.0
            ],
            [
              19.19745222929936,
              32.63694267515922
            ],
            [
              19.19745222929936,
              33.273885350318494
            ]
          ],
          [
            [
              12.318471337579638,
              37.22292993630572
            ],
            [
              11.936305732484072,
              36.5859872611465
            ],
            [
              11.936305732484072,
              35.94904458598728
            ],
            [
              11.808917197452217,
              35.566878980891715
            ],
            [
              11.808917197452217,
              34.54777070063693
            ],
            [
              11.808917197452217,
              33.656050955414
            ],
            [
              11.808917197452217,
              32.509554140127364
            ],
            [
              11.808917197452217,
              31.872611464968145
            ],
            [
              12.063694267515928,
              30.726114649681506
            ],
            [
              12.573248407643291,
              29.45222929936307
            ],
            [
              13.337579617834422,
              28.56050955414014
            ],
            [
              13.847133757961785,
              27.66878980891721
            ],
            [
              14.738853503184714,
              26.904458598726137
            ],
            [
              15.885350318471353,
              26.394904458598717
            ],
            [
              16.649681528662427,
              26.01273885350315
            ],
            [
              17.541401273885356,
              25.503184713375788
            ],
            [
              18.178343949044574,
              25.12101910828028
            ]
          ]
        ]
      }
    }
  ]
}