{
  "type": "FeatureCollection",
  "crs": {
    "type": "name",
    "properties": {
      "name": "urn:ogc:def:crs:OGC:1.3:CRS84"
    }
  },
  "features": [
    {
      "type": "Feature",
      "properties": {
        "timestamp": "2026-06-08T07:37:03.519267",
        "country_name": "Chile",
        "author": "",
        "author_id": "8a0c41f1-ddfd-4b8c-8521-0b2a4ecd1d72",
        "validated": false,
        "ranking": [
          [
            "Chile",
            0.9604108929634094
          ],
          [
            "Israel",
            0.011276539415121078
          ],
          [
            "Antigua & Barbuda",
            0.008315416984260082
          ],
          [
            "Sao Tome and Principe",
            0.0033662011846899986
          ],
          [
            "Togo",
            0.0024889004416763783
          ],
          [
            "New Zealand",
            0.0016239028191193938
          ],
          [
            "United States Virgin Islands",
            0.001322634518146515
          ],
          [
            "Vanuatu",
            0.0010106851113960147
          ],
          [
            "Bahrain",
            0.0007994429324753582
          ],
          [
            "Malawi",
            0.0007553513860329986
          ],
          [
            "Solomon Islands",
            0.0006437981501221657
          ],
          [
            "Equatorial Guinea",
            0.000588154885917902
          ],
          [
            "Argentina",
            0.0005873735644854605
          ],
          [
            "Palau",
            0.0004940180224366486
          ],
          [
            "Spain",
            0.00048439117381349206
          ],
          [
            "Sweden",
            0.0004410688707139343
          ],
          [
            "Dominica",
            0.00036578276194632053
          ],
          [
            "Belize",
            0.00034211957245133817
          ],
          [
            "Vietnam",
            0.0002676137664820999
          ],
          [
            "Guam",
            0.0002504202420823276
          ],
          [
            "Benin",
            0.0002279902109876275
          ],
          [
            "Oman",
            0.0001943764800671488
          ],
          [
            "Cape Verde",
            0.0001884511293610558
          ],
          [
            "Thailand",
            0.00018154617282561958
          ],
          [
            "Myanmar",
            0.00016989457071758807
          ],
          [
            "Ecuador",
            0.00016729251365177333
          ],
          [
            "Finland",
            0.00015486111806239933
          ],
          [
            "Faroe Islands",
            0.00014904270938131958
          ],
          [
            "Timor-Leste",
            0.0001252050424227491
          ],
          [
            "Namibia",
            0.00012237561168149114
          ],
          [
            "Comoros",
            0.00011079357500420883
          ],
          [
            "Martinique",
            0.00010513421148061752
          ],
          [
            "Mozambique",
            9.961731848306954e-05
          ],
          [
            "Japan",
            9.69186658039689e-05
          ],
          [
            "Moldova",
            8.833958418108523e-05
          ],
          [
            "Somalia",
            8.132823859341443e-05
          ],
          [
            "United Kingdom",
            7.412693958031014e-05
          ],
          [
            "West Bank",
            7.137561624404043e-05
          ],
          [
            "Albania",
            7.089423161232844e-05
          ],
          [
            "Portugal",
            6.735046918038279e-05
          ],
          [
            "Netherlands Antilles",
            6.535967258969322e-05
          ],
          [
            "Saint Lucia",
            6.402500730473548e-05
          ],
          [
            "Qatar",
            5.895627327845432e-05
          ],
          [
            "Guadeloupe",
            4.345762499724515e-05
          ],
          [
            "Fiji",
            4.2058112740051e-05
          ],
          [
            "Heard and McDonald Islands",
            3.9714694139547646e-05
          ],
          [
            "Paraguay",
            3.7287798477336764e-05
          ],
          [
            "Tunisia",
            3.672076854854822e-05
          ],
          [
            "Norway",
            3.282431134721264e-05
          ],
          [
            "Cameroon",
            3.2760824979050085e-05
          ],
          [
            "Saudi Arabia",
            2.993588350364007e-05
          ],
          [
            "Indonesia",
            2.983112062793225e-05
          ],
          [
            "Czech Republic",
            2.965559542644769e-05
          ],
          [
            "Egypt",
            2.958858931378927e-05
          ],
          [
            "Turkey",
            2.8051981644239277e-05
          ],
          [
            "Puerto Rico",
            2.749513805611059e-05
          ],
          [
            "Guyana",
            2.7147820219397545e-05
          ],
          [
            "Mali",
            2.6934345441986807e-05
          ],
          [
            "Yemen",
            2.685432082216721e-05
          ],
          [
            "Taiwan",
            2.5822839234024286e-05
          ],
          [
            "Latvia",
            2.3222311938297935e-05
          ],
          [
            "South Korea",
            2.0886820493615232e-05
          ],
          [
            "Reunion",
            2.0832430891459808e-05
          ],
          [
            "Lithuania",
            1.9931141650886275e-05
          ],
          [
            "Turkmenistan",
            1.9464832803350873e-05
          ],
          [
            "Isle of Man",
            1.8667020412976854e-05
          ],
          [
            "Malaysia",
            1.787103246897459e-05
          ],
          [
            "Libya",
            1.7303764252574183e-05
          ],
          [
            "Philippines",
            1.677144791756291e-05
          ],
          [
            "Barbados",
            1.5853707736823708e-05
          ],
          [
            "Bahamas",
            1.5775733118061908e-05
          ],
          [
            "Suriname",
            1.560702730785124e-05
          ],
          [
            "Azerbaijan",
            1.5112746950762812e-05
          ],
          [
            "Slovakia",
            1.4816340808465611e-05
          ],
          [
            "Mauritania",
            1.4550650121236686e-05
          ],
          [
            "Madagascar",
            1.4256484064389952e-05
          ],
          [
            "Uzbekistan",
            1.3417324225883931e-05
          ],
          [
            "Mayotte",
            1.334059106739005e-05
          ],
          [
            "Serbia",
            1.2505557606345974e-05
          ],
          [
            "Kazakhstan",
            1.2087441973562818e-05
          ],
          [
            "Bosnia & Herzegovina",
            1.2024802344967611e-05
          ],
          [
            "Peru",
            1.1166802323714364e-05
          ],
          [
            "Poland",
            1.0888334145420231e-05
          ],
          [
            "Rwanda",
            1.0741036930994596e-05
          ],
          [
            "Congo",
            1.0718423254729714e-05
          ],
          [
            "Greenland",
            1.0555550943536218e-05
          ],
          [
            "New Caledonia",
            1.055520806403365e-05
          ],
          [
            "Trinidad and Tobago",
            1.0217178896709811e-05
          ],
          [
            "Georgia",
            1.006002366921166e-05
          ],
          [
            "Niger",
            9.863111699814908e-06
          ],
          [
            "Sri Lanka",
            9.599652003089432e-06
          ],
          [
            "India",
            9.323043741460424e-06
          ],
          [
            "Iran",
            9.31584418140119e-06
          ],
          [
            "North Macedonia",
            9.280995072913356e-06
          ],
          [
            "Honduras",
            9.068369763554074e-06
          ],
          [
            "Central African Republic",
            8.322318535647355e-06
          ],
          [
            "Cyprus",
            8.289177458209451e-06
          ],
          [
            "Kenya",
            8.166831321432255e-06
          ],
          [
            "Svalbard",
            8.088914910331368e-06
          ],
          [
            "Brazil",
            8.067852832027711e-06
          ],
          [
            "Romania",
            8.055013495322783e-06
          ],
          [
            "South Sudan",
            8.010229976207484e-06
          ],
          [
            "Eritrea",
            7.851913323975168e-06
          ],
          [
            "Jamaica",
            7.696709872107022e-06
          ],
          [
            "Uruguay",
            7.60988541514962e-06
          ],
          [
            "Burkina Faso",
            7.594964245072333e-06
          ],
          [
            "Ukraine",
            7.551053386123385e-06
          ],
          [
            "United Arab Emirates",
            7.505778739869129e-06
          ],
          [
            "Tanzania",
            7.490333700843621e-06
          ],
          [
            "Jordan",
            7.436310625053011e-06
          ],
          [
            "Cuba",
            7.302807716769166e-06
          ],
          [
            "Colombia",
            7.300634933926631e-06
          ],
          [
            "Panama",
            6.948744157853071e-06
          ],
          [
            "Syria",
            6.885732545924839e-06
          ],
          [
            "Mongolia",
            6.8764929892495275e-06
          ],
          [
            "Switzerland",
            6.521195700770477e-06
          ],
          [
            "Botswana",
            6.3310444602393545e-06
          ],
          [
            "Austria",
            5.859415068698581e-06
          ],
          [
            "El Salvador",
            5.781030722573632e-06
          ],
          [
            "Zimbabwe",
            5.549307843466522e-06
          ],
          [
            "Hungary",
            5.532429895538371e-06
          ],
          [
            "Eswatini",
            5.489962404681137e-06
          ],
          [
            "Nicaragua",
            5.272128419164801e-06
          ],
          [
            "Ethiopia",
            5.151316145202145e-06
          ],
          [
            "Brunei",
            5.062831405666657e-06
          ],
          [
            "Kyrgyzstan",
            5.049204901297344e-06
          ],
          [
            "Algeria",
            5.035970843891846e-06
          ],
          [
            "Western Sahara",
            5.0285989345866255e-06
          ],
          [
            "Bhutan",
            5.007227173337014e-06
          ],
          [
            "Venezuela",
            4.544875991996378e-06
          ],
          [
            "Lebanon",
            4.530284059001133e-06
          ],
          [
            "Angola",
            4.510049620876089e-06
          ],
          [
            "Liberia",
            4.4893313315697014e-06
          ],
          [
            "Papua New Guinea",
            4.447289484232897e-06
          ],
          [
            "Armenia",
            4.385361535241827e-06
          ],
          [
            "Samoa",
            4.2579999899317045e-06
          ],
          [
            "South Georgia Islands",
            4.210649422020651e-06
          ],
          [
            "Turks and Caicos Islands",
            4.113831437280169e-06
          ],
          [
            "Burundi",
            3.956353793910239e-06
          ],
          [
            "Dominican Republic",
            3.835631559923058e-06
          ],
          [
            "Mexico",
            3.821844074991532e-06
          ],
          [
            "Slovenia",
            3.7740128391305916e-06
          ],
          [
            "North Korea",
            3.7298095776350237e-06
          ],
          [
            "Gambia",
            3.681620000861585e-06
          ],
          [
            "Madeira Islands",
            3.525054353303858e-06
          ],
          [
            "Montenegro",
            3.445065203777631e-06
          ],
          [
            "Nigeria",
            3.413050080780522e-06
          ],
          [
            "Laos",
            3.398447233848856e-06
          ],
          [
            "Estonia",
            3.215259994249209e-06
          ],
          [
            "Croatia",
            3.212673163943691e-06
          ],
          [
            "United States of America",
            3.182817636115942e-06
          ],
          [
            "Sierra Leone",
            3.097344688285375e-06
          ],
          [
            "Zambia",
            3.0250637337303488e-06
          ],
          [
            "Belgium",
            2.9942666515125893e-06
          ],
          [
            "Nepal",
            2.959585344797233e-06
          ],
          [
            "Iraq",
            2.7780204163718736e-06
          ],
          [
            "Hong Kong",
            2.6593031634547515e-06
          ],
          [
            "Australia",
            2.650026999617694e-06
          ],
          [
            "French Guiana",
            2.6388902369944844e-06
          ],
          [
            "Guatemala",
            2.3813481675460935e-06
          ],
          [
            "DR Congo",
            2.3140237317420542e-06
          ],
          [
            "Morocco",
            2.3003203750704415e-06
          ],
          [
            "Lesotho",
            2.265867124151555e-06
          ],
          [
            "Bolivia",
            2.240686626464594e-06
          ],
          [
            "Tajikistan",
            2.1931773517280817e-06
          ],
          [
            "Russia",
            2.166877948184265e-06
          ],
          [
            "Guinea",
            2.118285465257941e-06
          ],
          [
            "Afghanistan",
            2.11124688576092e-06
          ],
          [
            "Gabon",
            2.083329491142649e-06
          ],
          [
            "Costa Rica",
            2.0628197034966433e-06
          ],
          [
            "Côte d'Ivoire",
            2.0020936517539667e-06
          ],
          [
            "Bangladesh",
            1.9938240711780963e-06
          ],
          [
            "Italy",
            1.988044459722005e-06
          ],
          [
            "Canada",
            1.8366987433182658e-06
          ],
          [
            "Senegal",
            1.809679361031158e-06
          ],
          [
            "Bulgaria",
            1.759372480591992e-06
          ],
          [
            "Luxembourg",
            1.7347375660392572e-06
          ],
          [
            "Cambodia",
            1.7010905821734923e-06
          ],
          [
            "Ghana",
            1.668923687248025e-06
          ],
          [
            "Pakistan",
            1.6654862520226743e-06
          ],
          [
            "Guinea-Bissau",
            1.6399842479586368e-06
          ],
          [
            "Falkland Islands",
            1.5969968671925017e-06
          ],
          [
            "Sudan",
            1.5226912637444912e-06
          ],
          [
            "Uganda",
            1.5205088175207493e-06
          ],
          [
            "Chad",
            1.369435153719678e-06
          ],
          [
            "Ireland",
            1.282887751585804e-06
          ],
          [
            "Belarus",
            1.2661654409384937e-06
          ],
          [
            "Iceland",
            1.2511563909356482e-06
          ],
          [
            "South Africa",
            1.1156193977512885e-06
          ],
          [
            "Kuwait",
            1.1043080121453386e-06
          ],
          [
            "China",
            8.17589807411423e-07
          ],
          [
            "France",
            6.601700306418934e-07
          ],
          [
            "Djibouti",
            5.82795792070101e-07
          ],
          [
            "Netherlands",
            5.439127903628105e-07
          ],
          [
            "Germany",
            4.808343305739982e-07
          ],
          [
            "Haiti",
            3.0737024303562066e-07
          ],
          [
            "Greece",
            1.9454643052085885e-07
          ],
          [
            "Denmark",
            1.2748935773743142e-07
          ],
          [
            "Kiribati",
            6.470144597869876e-08
          ]
        ]
      },
      "geometry": {
        "type": "MultiLineString",
        "coordinates": [
          [
            [
              36.15929203539824,
              61.99999999999997
            ],
            [
              36.15929203539824,
              61.29203539823007
            ],
            [
              35.98230088495575,
              60.40707964601768
            ],
            [
              35.80530973451329,
              59.522123893805286
            ],
            [
              35.6283185840708,
              58.46017699115043
            ],
            [
              35.451327433628336,
              57.92920353982299
            ],
            [
              35.274336283185846,
              57.39823008849555
            ],
            [
              35.097345132743385,
              56.69026548672565
            ],
            [
              34.920353982300895,
              56.15929203539821
            ],
            [
              34.566371681415944,
              54.92035398230087
            ],
            [
              34.389380530973455,
              54.035398230088475
            ],
            [
              34.212389380530965,
              53.32743362831857
            ],
            [
              34.035398230088504,
              52.79646017699113
            ],
            [
              33.858407079646014,
              51.73451327433628
            ],
            [
              33.68141592920355,
              51.02654867256635
            ],
            [
              33.68141592920355,
              50.31858407079645
            ],
            [
              33.50442477876106,
              49.610619469026545
            ],
            [
              33.3274336283186,
              48.725663716814154
            ],
            [
              33.15044247787611,
              48.19469026548671
            ],
            [
              32.97345132743362,
              47.48672566371681
            ],
            [
              32.97345132743362,
              46.77876106194688
            ],
            [
              32.79646017699116,
              46.07079646017698
            ],
            [
              32.61946902654867,
              45.53982300884954
            ],
            [
              32.44247787610621,
              44.65486725663715
            ],
            [
              32.26548672566372,
              43.415929203539804
            ],
            [
              32.08849557522126,
              42.88495575221236
            ],
            [
              31.91150442477877,
              41.46902654867256
            ],
            [
              31.55752212389382,
              40.76106194690263
            ],
            [
              31.55752212389382,
              39.87610619469024
            ],
            [
              31.38053097345133,
              39.345132743362825
            ],
            [
              31.203539823008867,
              38.637168141592895
            ],
            [
              31.026548672566378,
              38.10619469026548
            ],
            [
              30.849557522123916,
              37.57522123893804
            ],
            [
              30.849557522123916,
              36.86725663716811
            ],
            [
              30.672566371681427,
              36.15929203539821
            ],
            [
              30.495575221238937,
              35.27433628318582
            ],
            [
              30.318584070796476,
              34.389380530973426
            ],
            [
              30.318584070796476,
              33.50442477876106
            ],
            [
              29.964601769911496,
              32.61946902654864
            ],
            [
              29.787610619469035,
              31.91150442477874
            ],
            [
              29.610619469026545,
              30.849557522123888
            ],
            [
              29.433628318584084,
              30.318584070796447
            ],
            [
              29.433628318584084,
              29.433628318584056
            ],
            [
              29.079646017699133,
              28.548672566371664
            ],
            [
              28.902654867256643,
              27.663716814159272
            ],
            [
              28.725663716814154,
              26.24778761061947
            ],
            [
              28.548672566371692,
              25.185840707964587
            ],
            [
              28.371681415929203,
              24.123893805309706
            ],
            [
              28.19469026548674,
              23.592920353982294
            ],
            [
              28.017699115044252,
              22.884955752212363
            ],
            [
              27.84070796460179,
              22.17699115044246
            ],
            [
              27.6637168141593,
              21.29203539823007
            ],
            [
              27.30973451327435,
              20.584070796460168
            ],
            [
              27.30973451327435,
              19.522123893805286
            ],
            [
              27.13274336283186,
              18.460176991150433
            ],
            [
              26.9557522123894,
              17.398230088495552
            ],
            [
              26.77876106194691,
              16.51327433628319
            ],
            [
              26.60176991150442,
              15.628318584070769
            ],
            [
              26.424778761061958,
              14.566371681415916
            ],
            [
              26.24778761061947,
              13.504424778761063
            ],
            [
              26.070796460177007,
              12.619469026548643
            ],
            [
              26.070796460177007,
              11.3805309734513
            ],
            [
              26.070796460177007,
              10.672566371681398
            ],
            [
              26.24778761061947,
              9.610619469026517
            ],
            [
              26.60176991150442,
              8.725663716814154
            ],
            [
              26.9557522123894,
              7.840707964601762
            ],
            [
              27.48672566371681,
              7.132743362831832
            ],
            [
              28.017699115044252,
              6.42477876106193
            ],
            [
              28.725663716814154,
              5.716814159292028
            ],
            [
              29.964601769911496,
              4.831858407079636
            ],
            [
              31.203539823008867,
              3.9469026548672446
            ],
            [
              32.44247787610621,
              3.5929203539822936
            ],
            [
              33.68141592920355,
              2.8849557522123632
            ],
            [
              34.743362831858406,
              2.5309734513274407
            ],
            [
              35.80530973451329,
              2.1769911504424613
            ],
            [
              36.51327433628319,
              2.1769911504424613
            ],
            [
              37.22123893805309,
              2.0
            ],
            [
              37.92920353982302,
              2.0
            ]
          ]
        ]
      }
    }
  ]
}