{
  "type": "FeatureCollection",
  "crs": {
    "type": "name",
    "properties": {
      "name": "urn:ogc:def:crs:OGC:1.3:CRS84"
    }
  },
  "features": [
    {
      "type": "Feature",
      "properties": {
        "timestamp": "2026-05-31T01:36:46.530532",
        "country_name": "Chile",
        "author": "00",
        "author_id": "031ce661-41af-4d7e-b9da-987558739903",
        "validated": false,
        "ranking": [
          [
            "Chile",
            0.7440247535705566
          ],
          [
            "Sao Tome and Principe",
            0.10540375113487244
          ],
          [
            "Antigua & Barbuda",
            0.0345393531024456
          ],
          [
            "Israel",
            0.016473883762955666
          ],
          [
            "United States Virgin Islands",
            0.016069676727056503
          ],
          [
            "Vanuatu",
            0.01096313539892435
          ],
          [
            "Solomon Islands",
            0.00838894210755825
          ],
          [
            "New Zealand",
            0.006600349210202694
          ],
          [
            "Togo",
            0.006343638990074396
          ],
          [
            "Bahrain",
            0.004675574600696564
          ],
          [
            "Spain",
            0.004195565357804298
          ],
          [
            "Ecuador",
            0.0040014972910285
          ],
          [
            "Belize",
            0.003096886444836855
          ],
          [
            "Equatorial Guinea",
            0.0028157352935522795
          ],
          [
            "Dominica",
            0.002677063923329115
          ],
          [
            "Cape Verde",
            0.002209255238994956
          ],
          [
            "Malawi",
            0.0017652915557846427
          ],
          [
            "Comoros",
            0.00156300887465477
          ],
          [
            "Namibia",
            0.0014644457260146737
          ],
          [
            "Argentina",
            0.0013586068525910378
          ],
          [
            "Vietnam",
            0.0013111954322084785
          ],
          [
            "Faroe Islands",
            0.0013098743511363864
          ],
          [
            "Benin",
            0.0011920436518266797
          ],
          [
            "Martinique",
            0.0008786125108599663
          ],
          [
            "Netherlands Antilles",
            0.000775390537455678
          ],
          [
            "Guam",
            0.0007593104965053499
          ],
          [
            "Palau",
            0.0006904126494191587
          ],
          [
            "Sweden",
            0.0006684654508717358
          ],
          [
            "Myanmar",
            0.0006485084304586053
          ],
          [
            "Timor-Leste",
            0.0006128722452558577
          ],
          [
            "Japan",
            0.0006028356146998703
          ],
          [
            "Thailand",
            0.000525475712493062
          ],
          [
            "Moldova",
            0.0005036072689108551
          ],
          [
            "Egypt",
            0.0004621237167157233
          ],
          [
            "Oman",
            0.00030955710099078715
          ],
          [
            "Mozambique",
            0.00029921066015958786
          ],
          [
            "Somalia",
            0.0002944415027741343
          ],
          [
            "Heard and McDonald Islands",
            0.00027537986170500517
          ],
          [
            "Turkey",
            0.0002742591896094382
          ],
          [
            "Malaysia",
            0.0002546259493101388
          ],
          [
            "Puerto Rico",
            0.0002467712329234928
          ],
          [
            "Finland",
            0.00022934889420866966
          ],
          [
            "Portugal",
            0.0002181369491154328
          ],
          [
            "Paraguay",
            0.00021304440451785922
          ],
          [
            "Czech Republic",
            0.00020383857190608978
          ],
          [
            "Albania",
            0.00019522888760548085
          ],
          [
            "Indonesia",
            0.00019261280249338597
          ],
          [
            "Bahamas",
            0.00017926660075318068
          ],
          [
            "Guadeloupe",
            0.0001738930441206321
          ],
          [
            "Yemen",
            0.0001659371773712337
          ],
          [
            "Lithuania",
            0.00016172885079868138
          ],
          [
            "Saudi Arabia",
            0.00015738750516902655
          ],
          [
            "Reunion",
            0.0001436187158105895
          ],
          [
            "Mali",
            0.00014074097271077335
          ],
          [
            "Qatar",
            0.00013995423796586692
          ],
          [
            "Suriname",
            0.00013869833492208272
          ],
          [
            "Barbados",
            0.00013162939285393804
          ],
          [
            "Fiji",
            0.0001315006666118279
          ],
          [
            "Libya",
            0.0001310254738200456
          ],
          [
            "Bosnia & Herzegovina",
            0.00013011795817874372
          ],
          [
            "Turkmenistan",
            0.00012762656842824072
          ],
          [
            "West Bank",
            0.00012341780529823154
          ],
          [
            "North Macedonia",
            0.00012012066872557625
          ],
          [
            "United Kingdom",
            0.00011593721137614921
          ],
          [
            "Tunisia",
            0.0001125948183471337
          ],
          [
            "Latvia",
            0.00010926268441835418
          ],
          [
            "Norway",
            0.00010348631622036919
          ],
          [
            "Taiwan",
            0.00010309820208931342
          ],
          [
            "Cameroon",
            0.00010005341755459085
          ],
          [
            "Saint Lucia",
            9.588387911207974e-05
          ],
          [
            "Rwanda",
            9.58747259574011e-05
          ],
          [
            "South Korea",
            9.467014024266973e-05
          ],
          [
            "Mayotte",
            9.45598803809844e-05
          ],
          [
            "Guyana",
            9.23024708754383e-05
          ],
          [
            "Poland",
            9.180068445857614e-05
          ],
          [
            "Uzbekistan",
            8.668567897984758e-05
          ],
          [
            "Slovakia",
            8.365198300452903e-05
          ],
          [
            "Georgia",
            8.302016067318618e-05
          ],
          [
            "Cyprus",
            6.869746721349657e-05
          ],
          [
            "Serbia",
            6.840314745204523e-05
          ],
          [
            "Peru",
            6.789581675548106e-05
          ],
          [
            "Iran",
            6.654451135545969e-05
          ],
          [
            "Azerbaijan",
            6.639731145696715e-05
          ],
          [
            "Svalbard",
            6.603799556614831e-05
          ],
          [
            "Botswana",
            6.565768853761256e-05
          ],
          [
            "Cuba",
            6.420833960874006e-05
          ],
          [
            "New Caledonia",
            6.255059270188212e-05
          ],
          [
            "Romania",
            6.153797585284337e-05
          ],
          [
            "Uruguay",
            6.142188794910908e-05
          ],
          [
            "Kenya",
            6.001564543112181e-05
          ],
          [
            "Kazakhstan",
            5.880243770661764e-05
          ],
          [
            "India",
            5.7944474974647164e-05
          ],
          [
            "Tanzania",
            5.7004148402484134e-05
          ],
          [
            "Honduras",
            5.696056177839637e-05
          ],
          [
            "Eritrea",
            5.587984196608886e-05
          ],
          [
            "Turks and Caicos Islands",
            5.428190706879832e-05
          ],
          [
            "Syria",
            5.125524694449268e-05
          ],
          [
            "Mongolia",
            4.9248548748437315e-05
          ],
          [
            "Ethiopia",
            4.903279113932513e-05
          ],
          [
            "Jamaica",
            4.8470137699041516e-05
          ],
          [
            "Jordan",
            4.836135485675186e-05
          ],
          [
            "United Arab Emirates",
            4.7985187848098576e-05
          ],
          [
            "Niger",
            4.5557804696727544e-05
          ],
          [
            "Madagascar",
            4.5153035898692906e-05
          ],
          [
            "Eswatini",
            4.290458309696987e-05
          ],
          [
            "Trinidad and Tobago",
            4.282731970306486e-05
          ],
          [
            "South Sudan",
            4.253823135513812e-05
          ],
          [
            "Mauritania",
            4.252622238709591e-05
          ],
          [
            "Sri Lanka",
            4.036875179735944e-05
          ],
          [
            "Brazil",
            4.0212366002378985e-05
          ],
          [
            "Philippines",
            3.937971996492706e-05
          ],
          [
            "El Salvador",
            3.9248046959983185e-05
          ],
          [
            "Panama",
            3.7907168007222936e-05
          ],
          [
            "Isle of Man",
            3.774001379497349e-05
          ],
          [
            "Greenland",
            3.7543293728958815e-05
          ],
          [
            "Ukraine",
            3.705632116179913e-05
          ],
          [
            "Burkina Faso",
            3.674123945529573e-05
          ],
          [
            "South Georgia Islands",
            3.663648385554552e-05
          ],
          [
            "Hungary",
            3.61121965397615e-05
          ],
          [
            "Armenia",
            3.589094922062941e-05
          ],
          [
            "Switzerland",
            3.57712124241516e-05
          ],
          [
            "United States of America",
            3.558353637345135e-05
          ],
          [
            "Sierra Leone",
            3.392763392184861e-05
          ],
          [
            "Samoa",
            3.34934338752646e-05
          ],
          [
            "Western Sahara",
            3.2382991776103154e-05
          ],
          [
            "Mexico",
            3.1744653824716806e-05
          ],
          [
            "Burundi",
            3.122122143395245e-05
          ],
          [
            "Angola",
            3.0760347726754844e-05
          ],
          [
            "Bhutan",
            2.987571497214958e-05
          ],
          [
            "Madeira Islands",
            2.964502891700249e-05
          ],
          [
            "Algeria",
            2.904210123233497e-05
          ],
          [
            "Zimbabwe",
            2.842925096047111e-05
          ],
          [
            "Liberia",
            2.8224536436027847e-05
          ],
          [
            "Nigeria",
            2.781394505291246e-05
          ],
          [
            "Kyrgyzstan",
            2.7023272195947357e-05
          ],
          [
            "Colombia",
            2.6834666641661897e-05
          ],
          [
            "Montenegro",
            2.668115121196024e-05
          ],
          [
            "Dominican Republic",
            2.6644331228453666e-05
          ],
          [
            "Central African Republic",
            2.6216343030682765e-05
          ],
          [
            "Nepal",
            2.6080935640493408e-05
          ],
          [
            "Lesotho",
            2.5055825972231105e-05
          ],
          [
            "Congo",
            2.2896239897818305e-05
          ],
          [
            "Nicaragua",
            2.2868569431011565e-05
          ],
          [
            "Australia",
            2.2459853425971232e-05
          ],
          [
            "Austria",
            2.2106290998635814e-05
          ],
          [
            "Slovenia",
            2.188069083786104e-05
          ],
          [
            "Belgium",
            2.1809191821375862e-05
          ],
          [
            "Gambia",
            2.039718492596876e-05
          ],
          [
            "Papua New Guinea",
            2.020959982473869e-05
          ],
          [
            "Zambia",
            1.953394166775979e-05
          ],
          [
            "Brunei",
            1.9368733774172142e-05
          ],
          [
            "Venezuela",
            1.9348388377693482e-05
          ],
          [
            "Côte d'Ivoire",
            1.9014116332982667e-05
          ],
          [
            "Iraq",
            1.7948239474208094e-05
          ],
          [
            "Sudan",
            1.7615831893635914e-05
          ],
          [
            "Guinea",
            1.7300006220466457e-05
          ],
          [
            "Laos",
            1.7135838788817637e-05
          ],
          [
            "DR Congo",
            1.7003685570671223e-05
          ],
          [
            "Costa Rica",
            1.6956108083832078e-05
          ],
          [
            "Croatia",
            1.6505577150383033e-05
          ],
          [
            "Gabon",
            1.648682518862188e-05
          ],
          [
            "Cambodia",
            1.562892612128053e-05
          ],
          [
            "French Guiana",
            1.5511470337514766e-05
          ],
          [
            "Estonia",
            1.486197106714826e-05
          ],
          [
            "Ghana",
            1.4841405572951771e-05
          ],
          [
            "Russia",
            1.4682800610898994e-05
          ],
          [
            "Uganda",
            1.4261220712796785e-05
          ],
          [
            "Afghanistan",
            1.4178659512253944e-05
          ],
          [
            "North Korea",
            1.37715796881821e-05
          ],
          [
            "Guatemala",
            1.3522922017727979e-05
          ],
          [
            "Lebanon",
            1.3500912245945074e-05
          ],
          [
            "Bulgaria",
            1.329657061432954e-05
          ],
          [
            "Hong Kong",
            1.2838801012549084e-05
          ],
          [
            "Bolivia",
            1.2699200851784553e-05
          ],
          [
            "Bangladesh",
            1.2028614037262741e-05
          ],
          [
            "Italy",
            1.0975179975503124e-05
          ],
          [
            "Falkland Islands",
            9.534892342344392e-06
          ],
          [
            "Senegal",
            9.327457519248128e-06
          ],
          [
            "Tajikistan",
            8.890956451068632e-06
          ],
          [
            "Guinea-Bissau",
            8.835826520225964e-06
          ],
          [
            "Iceland",
            8.828162208374124e-06
          ],
          [
            "Morocco",
            7.4360436883580405e-06
          ],
          [
            "Luxembourg",
            7.369076229224447e-06
          ],
          [
            "Belarus",
            7.001002813922241e-06
          ],
          [
            "South Africa",
            5.898010840610368e-06
          ],
          [
            "Kuwait",
            5.761020474892575e-06
          ],
          [
            "Canada",
            5.718423835787689e-06
          ],
          [
            "Pakistan",
            4.8636438805260696e-06
          ],
          [
            "China",
            4.8122556108864956e-06
          ],
          [
            "Chad",
            3.91976800528937e-06
          ],
          [
            "France",
            3.837008534901543e-06
          ],
          [
            "Djibouti",
            3.4070283163600834e-06
          ],
          [
            "Ireland",
            2.740523541433504e-06
          ],
          [
            "Germany",
            2.139983962479164e-06
          ],
          [
            "Netherlands",
            1.305887394664751e-06
          ],
          [
            "Haiti",
            1.088378553504299e-06
          ],
          [
            "Greece",
            5.953967843197461e-07
          ],
          [
            "Denmark",
            3.5449235724627215e-07
          ],
          [
            "Kiribati",
            2.7321453899276094e-07
          ]
        ]
      },
      "geometry": {
        "type": "MultiLineString",
        "coordinates": [
          [
            [
              35.144475920679895,
              62.0
            ],
            [
              35.144475920679895,
              60.130311614730886
            ],
            [
              35.144475920679895,
              57.07082152974505
            ],
            [
              35.144475920679895,
              52.311614730878205
            ],
            [
              34.29461756373939,
              44.662889518413635
            ],
            [
              32.42492917847025,
              27.83569405099155
            ],
            [
              31.065155807365443,
              17.63739376770542
            ],
            [
              30.04532577903683,
              9.818696883852738
            ],
            [
              29.36543909348441,
              5.739376770538286
            ],
            [
              29.025495750708217,
              3.3597733711048363
            ],
            [
              29.025495750708217,
              2.509915014164335
            ],
            [
              28.855524079320105,
              2.0
            ]
          ]
        ]
      }
    }
  ]
}