{
  "type": "FeatureCollection",
  "crs": {
    "type": "name",
    "properties": {
      "name": "urn:ogc:def:crs:OGC:1.3:CRS84"
    }
  },
  "features": [
    {
      "type": "Feature",
      "properties": {
        "timestamp": "2026-05-16T20:55:26.197798",
        "country_name": "Chile",
        "author": "",
        "author_id": "997f215f-4413-4dbd-8d83-af59b55c5da9",
        "validated": false,
        "ranking": [
          [
            "Chile",
            0.8811662197113037
          ],
          [
            "Israel",
            0.02546905167400837
          ],
          [
            "Antigua & Barbuda",
            0.01835658773779869
          ],
          [
            "Vanuatu",
            0.014275334775447845
          ],
          [
            "Togo",
            0.008659196086227894
          ],
          [
            "Sao Tome and Principe",
            0.00815453939139843
          ],
          [
            "Bahrain",
            0.006093656178563833
          ],
          [
            "United States Virgin Islands",
            0.0057928659953176975
          ],
          [
            "Solomon Islands",
            0.003936236724257469
          ],
          [
            "New Zealand",
            0.003632665378972888
          ],
          [
            "Malawi",
            0.0035553101915866137
          ],
          [
            "Dominica",
            0.002172809559851885
          ],
          [
            "Spain",
            0.0011510237818583846
          ],
          [
            "Cape Verde",
            0.0010361027671024203
          ],
          [
            "Equatorial Guinea",
            0.000965187675319612
          ],
          [
            "Myanmar",
            0.0009084366611205041
          ],
          [
            "Belize",
            0.0008846878772601485
          ],
          [
            "Ecuador",
            0.0008727555978111923
          ],
          [
            "Palau",
            0.0007344868499785662
          ],
          [
            "Vietnam",
            0.0007062561344355345
          ],
          [
            "Faroe Islands",
            0.0005992872174829245
          ],
          [
            "Benin",
            0.0005860862438566983
          ],
          [
            "Timor-Leste",
            0.0005228322697803378
          ],
          [
            "Argentina",
            0.000511507096234709
          ],
          [
            "Martinique",
            0.0004849691758863628
          ],
          [
            "Sweden",
            0.0004677444521803409
          ],
          [
            "Namibia",
            0.0003820087877102196
          ],
          [
            "Moldova",
            0.00035227154148742557
          ],
          [
            "Thailand",
            0.0003180062922183424
          ],
          [
            "Comoros",
            0.00030944100581109524
          ],
          [
            "Oman",
            0.0002832931058946997
          ],
          [
            "Finland",
            0.000283160712569952
          ],
          [
            "Netherlands Antilles",
            0.0002666281652636826
          ],
          [
            "Japan",
            0.00022786045155953616
          ],
          [
            "Guam",
            0.0002070123446173966
          ],
          [
            "Albania",
            0.00020656429114751518
          ],
          [
            "Heard and McDonald Islands",
            0.0001869658735813573
          ],
          [
            "Portugal",
            0.00018652668222784996
          ],
          [
            "West Bank",
            0.00018549778906162828
          ],
          [
            "Paraguay",
            0.0001804715720936656
          ],
          [
            "Somalia",
            0.00017061890684999526
          ],
          [
            "Puerto Rico",
            0.00015486626944039017
          ],
          [
            "Mozambique",
            0.00013381894677877426
          ],
          [
            "Turkey",
            0.00012672285083681345
          ],
          [
            "Tunisia",
            0.00011568170884856954
          ],
          [
            "United Kingdom",
            0.00011253412958467379
          ],
          [
            "Indonesia",
            0.00011202380119357258
          ],
          [
            "Qatar",
            0.00010739413846749812
          ],
          [
            "Bahamas",
            0.00010730588837759569
          ],
          [
            "Egypt",
            0.00010500424104975536
          ],
          [
            "Saint Lucia",
            0.00010020129411714152
          ],
          [
            "Turkmenistan",
            9.336278162663803e-05
          ],
          [
            "Malaysia",
            8.739862096263096e-05
          ],
          [
            "Saudi Arabia",
            8.548287587473169e-05
          ],
          [
            "Czech Republic",
            8.033206540858373e-05
          ],
          [
            "Latvia",
            7.888054824434221e-05
          ],
          [
            "Cameroon",
            7.822326733730733e-05
          ],
          [
            "Uzbekistan",
            7.553052273578942e-05
          ],
          [
            "Guadeloupe",
            7.434293365804479e-05
          ],
          [
            "Yemen",
            6.776751979487017e-05
          ],
          [
            "Mali",
            6.491805106634274e-05
          ],
          [
            "Libya",
            6.229666905710474e-05
          ],
          [
            "South Korea",
            6.047508941264823e-05
          ],
          [
            "Guyana",
            5.9392215916886926e-05
          ],
          [
            "Lithuania",
            5.9205256548011675e-05
          ],
          [
            "Fiji",
            5.907981903874315e-05
          ],
          [
            "Bosnia & Herzegovina",
            5.894700007047504e-05
          ],
          [
            "New Caledonia",
            5.698570384993218e-05
          ],
          [
            "Barbados",
            5.4690466640749946e-05
          ],
          [
            "Norway",
            5.463010529638268e-05
          ],
          [
            "Eritrea",
            4.93095867568627e-05
          ],
          [
            "Suriname",
            4.775193883688189e-05
          ],
          [
            "Georgia",
            4.6808778279228136e-05
          ],
          [
            "Peru",
            4.619977335096337e-05
          ],
          [
            "Philippines",
            4.063126471010037e-05
          ],
          [
            "Isle of Man",
            3.946810102206655e-05
          ],
          [
            "Mayotte",
            3.845086393994279e-05
          ],
          [
            "Reunion",
            3.741978434845805e-05
          ],
          [
            "Kazakhstan",
            3.6876903322990984e-05
          ],
          [
            "Cuba",
            3.6737477785209194e-05
          ],
          [
            "Slovakia",
            3.5140903491992503e-05
          ],
          [
            "Serbia",
            3.476861456874758e-05
          ],
          [
            "Taiwan",
            3.434408790781163e-05
          ],
          [
            "Svalbard",
            3.234807081753388e-05
          ],
          [
            "Trinidad and Tobago",
            3.208752241334878e-05
          ],
          [
            "Madagascar",
            3.1564937671646476e-05
          ],
          [
            "Niger",
            2.9664730391232297e-05
          ],
          [
            "Brazil",
            2.9271912353578955e-05
          ],
          [
            "Azerbaijan",
            2.9223490855656564e-05
          ],
          [
            "Rwanda",
            2.8810671210521832e-05
          ],
          [
            "Samoa",
            2.8758460757671855e-05
          ],
          [
            "El Salvador",
            2.8704207579721697e-05
          ],
          [
            "Iran",
            2.8047996238456108e-05
          ],
          [
            "Greenland",
            2.7152558686793782e-05
          ],
          [
            "Turks and Caicos Islands",
            2.687735468498431e-05
          ],
          [
            "Jamaica",
            2.6151834390475415e-05
          ],
          [
            "Kenya",
            2.5828379875747487e-05
          ],
          [
            "Mongolia",
            2.5710858608363196e-05
          ],
          [
            "South Sudan",
            2.5164032194879837e-05
          ],
          [
            "North Macedonia",
            2.4635086447233334e-05
          ],
          [
            "Poland",
            2.4590159227955155e-05
          ],
          [
            "Congo",
            2.458570452290587e-05
          ],
          [
            "Mexico",
            2.4000379198696464e-05
          ],
          [
            "Sri Lanka",
            2.3727914594928734e-05
          ],
          [
            "Romania",
            2.312531250936445e-05
          ],
          [
            "Cyprus",
            2.2881979020894505e-05
          ],
          [
            "United Arab Emirates",
            2.2261465346673504e-05
          ],
          [
            "Mauritania",
            2.180005503760185e-05
          ],
          [
            "United States of America",
            2.1294083126122132e-05
          ],
          [
            "Honduras",
            2.0966708689229563e-05
          ],
          [
            "Austria",
            2.062791281787213e-05
          ],
          [
            "South Georgia Islands",
            2.041954212472774e-05
          ],
          [
            "Panama",
            1.96651690202998e-05
          ],
          [
            "Laos",
            1.9321663785376586e-05
          ],
          [
            "Colombia",
            1.910242463054601e-05
          ],
          [
            "Madeira Islands",
            1.8823997379513457e-05
          ],
          [
            "Botswana",
            1.8585255020298064e-05
          ],
          [
            "Papua New Guinea",
            1.8288081264472567e-05
          ],
          [
            "Armenia",
            1.8275737602380104e-05
          ],
          [
            "Liberia",
            1.8132823242922314e-05
          ],
          [
            "Kyrgyzstan",
            1.7912103430717252e-05
          ],
          [
            "Nepal",
            1.7289165043621324e-05
          ],
          [
            "Ethiopia",
            1.7147389371530153e-05
          ],
          [
            "Switzerland",
            1.7027519788825884e-05
          ],
          [
            "Central African Republic",
            1.6821984900161624e-05
          ],
          [
            "Uruguay",
            1.637961031519808e-05
          ],
          [
            "Jordan",
            1.634805266803596e-05
          ],
          [
            "Tanzania",
            1.5843444998608902e-05
          ],
          [
            "Ukraine",
            1.5195222658803686e-05
          ],
          [
            "Bhutan",
            1.4659751286671963e-05
          ],
          [
            "Burundi",
            1.4323109098768327e-05
          ],
          [
            "Syria",
            1.401543431711616e-05
          ],
          [
            "Venezuela",
            1.3529664101952221e-05
          ],
          [
            "Gambia",
            1.3379539268498775e-05
          ],
          [
            "India",
            1.3013783245696686e-05
          ],
          [
            "Guatemala",
            1.2787902051059064e-05
          ],
          [
            "Croatia",
            1.2708149370155297e-05
          ],
          [
            "Hungary",
            1.2508311556302942e-05
          ],
          [
            "Costa Rica",
            1.1753094440791756e-05
          ],
          [
            "Angola",
            1.1612134585448075e-05
          ],
          [
            "Eswatini",
            1.1331399036862422e-05
          ],
          [
            "Belgium",
            1.1251154319324996e-05
          ],
          [
            "Dominican Republic",
            1.1079763680754695e-05
          ],
          [
            "Australia",
            1.082816015696153e-05
          ],
          [
            "Slovenia",
            1.0406549336039461e-05
          ],
          [
            "Burkina Faso",
            1.0387690053903498e-05
          ],
          [
            "Algeria",
            1.0076797479996458e-05
          ],
          [
            "Guinea",
            1.0029474651673809e-05
          ],
          [
            "Sierra Leone",
            9.604441402188968e-06
          ],
          [
            "DR Congo",
            9.11528604774503e-06
          ],
          [
            "French Guiana",
            8.949540642788634e-06
          ],
          [
            "Estonia",
            8.889520358934533e-06
          ],
          [
            "Brunei",
            8.855370651872363e-06
          ],
          [
            "Zimbabwe",
            8.726366104383487e-06
          ],
          [
            "Nigeria",
            8.5666788436356e-06
          ],
          [
            "Hong Kong",
            8.311951205541845e-06
          ],
          [
            "Russia",
            8.216931746574119e-06
          ],
          [
            "Bolivia",
            8.07668129709782e-06
          ],
          [
            "Ghana",
            7.989912774064578e-06
          ],
          [
            "Italy",
            7.965460099512711e-06
          ],
          [
            "Nicaragua",
            7.882757017796393e-06
          ],
          [
            "North Korea",
            7.864870894991327e-06
          ],
          [
            "Tajikistan",
            7.319715678022476e-06
          ],
          [
            "Iraq",
            6.9160255407041404e-06
          ],
          [
            "Côte d'Ivoire",
            6.766248134226771e-06
          ],
          [
            "Western Sahara",
            6.6396942202118225e-06
          ],
          [
            "Lesotho",
            6.589330951101147e-06
          ],
          [
            "Lebanon",
            6.465666501753731e-06
          ],
          [
            "Zambia",
            6.460846179834334e-06
          ],
          [
            "Cambodia",
            5.807726211060071e-06
          ],
          [
            "Sudan",
            5.788030648545828e-06
          ],
          [
            "Gabon",
            5.680173671862576e-06
          ],
          [
            "Montenegro",
            5.281563971948344e-06
          ],
          [
            "Uganda",
            5.215961209614761e-06
          ],
          [
            "Bangladesh",
            5.1206293392169755e-06
          ],
          [
            "Senegal",
            4.920743322145427e-06
          ],
          [
            "Falkland Islands",
            4.9075742936111055e-06
          ],
          [
            "Luxembourg",
            4.904767138214083e-06
          ],
          [
            "Guinea-Bissau",
            4.8021265683928505e-06
          ],
          [
            "Bulgaria",
            4.706731033365941e-06
          ],
          [
            "Pakistan",
            4.301471562939696e-06
          ],
          [
            "Canada",
            4.293766778573627e-06
          ],
          [
            "Iceland",
            4.178300059720641e-06
          ],
          [
            "Afghanistan",
            3.6840749544353457e-06
          ],
          [
            "Morocco",
            3.4435768156981794e-06
          ],
          [
            "South Africa",
            3.3042799714166904e-06
          ],
          [
            "Kuwait",
            2.9316372547327774e-06
          ],
          [
            "Belarus",
            2.796587750708568e-06
          ],
          [
            "China",
            2.740269110290683e-06
          ],
          [
            "Chad",
            2.678552846191451e-06
          ],
          [
            "Ireland",
            1.9336400782776764e-06
          ],
          [
            "France",
            1.7146434174719616e-06
          ],
          [
            "Djibouti",
            1.3409935490926728e-06
          ],
          [
            "Netherlands",
            1.2938240843141102e-06
          ],
          [
            "Germany",
            8.981874088931363e-07
          ],
          [
            "Haiti",
            7.696639841014985e-07
          ],
          [
            "Greece",
            3.992172139533068e-07
          ],
          [
            "Kiribati",
            2.610625529086974e-07
          ],
          [
            "Denmark",
            2.3638676793780178e-07
          ]
        ]
      },
      "geometry": {
        "type": "MultiLineString",
        "coordinates": [
          [
            [
              33.82320441988952,
              2.0
            ],
            [
              34.486187845303874,
              3.3259668508287348
            ],
            [
              34.817679558011065,
              4.98342541436466
            ],
            [
              35.14917127071823,
              6.6408839779005575
            ],
            [
              35.14917127071823,
              8.298342541436455
            ],
            [
              35.48066298342542,
              10.618784530386733
            ],
            [
              35.48066298342542,
              12.607734806629821
            ],
            [
              34.817679558011065,
              14.265193370165747
            ],
            [
              34.15469613259668,
              15.259668508287291
            ],
            [
              33.82320441988952,
              16.585635359116026
            ],
            [
              33.16022099447514,
              17.58011049723757
            ],
            [
              32.497237569060786,
              18.574585635359142
            ],
            [
              31.502762430939242,
              19.90055248618785
            ],
            [
              30.50828729281767,
              21.558011049723746
            ],
            [
              29.845303867403317,
              22.88397790055251
            ],
            [
              29.182320441988963,
              24.541436464088406
            ],
            [
              28.850828729281773,
              26.530386740331494
            ],
            [
              28.519337016574582,
              28.519337016574582
            ],
            [
              28.519337016574582,
              30.50828729281767
            ],
            [
              28.850828729281773,
              31.834254143646405
            ],
            [
              29.182320441988963,
              33.82320441988952
            ],
            [
              29.845303867403317,
              35.14917127071823
            ],
            [
              30.50828729281767,
              36.47513812154696
            ],
            [
              31.502762430939242,
              37.8011049723757
            ],
            [
              32.165745856353595,
              39.12707182320443
            ],
            [
              33.16022099447514,
              40.453038674033166
            ],
            [
              33.49171270718233,
              41.77900552486187
            ],
            [
              33.49171270718233,
              43.4364640883978
            ],
            [
              32.82872928176795,
              44.76243093922653
            ],
            [
              32.497237569060786,
              46.08839779005524
            ],
            [
              31.502762430939242,
              48.077348066298356
            ],
            [
              31.502762430939242,
              49.40331491712709
            ],
            [
              31.17127071823205,
              50.7292817679558
            ],
            [
              30.83977900552486,
              52.05524861878453
            ],
            [
              30.83977900552486,
              53.71270718232046
            ],
            [
              30.83977900552486,
              55.701657458563545
            ],
            [
              30.50828729281767,
              57.69060773480663
            ],
            [
              30.176795580110507,
              59.01657458563537
            ],
            [
              30.176795580110507,
              60.34254143646409
            ],
            [
              30.176795580110507,
              62.0
            ]
          ]
        ]
      }
    }
  ]
}