{
  "type": "FeatureCollection",
  "crs": {
    "type": "name",
    "properties": {
      "name": "urn:ogc:def:crs:OGC:1.3:CRS84"
    }
  },
  "features": [
    {
      "type": "Feature",
      "properties": {
        "timestamp": "2026-07-11T02:01:36.974928",
        "country_name": "Croatia",
        "author": "",
        "author_id": "2b0501f4-1b4c-43a7-b6bf-17f644ca7ebc",
        "validated": false,
        "ranking": [
          [
            "Croatia",
            0.08199621737003326
          ],
          [
            "Svalbard",
            0.07375287264585495
          ],
          [
            "Mozambique",
            0.05350928753614426
          ],
          [
            "Namibia",
            0.04361677169799805
          ],
          [
            "Faroe Islands",
            0.027513189241290092
          ],
          [
            "Greenland",
            0.02747325599193573
          ],
          [
            "Sweden",
            0.027041520923376083
          ],
          [
            "Fiji",
            0.023945603519678116
          ],
          [
            "Thailand",
            0.022457001730799675
          ],
          [
            "Somalia",
            0.021319404244422913
          ],
          [
            "Argentina",
            0.019846076145768166
          ],
          [
            "Peru",
            0.016444440931081772
          ],
          [
            "Norway",
            0.01619770936667919
          ],
          [
            "Brazil",
            0.015982914716005325
          ],
          [
            "Togo",
            0.015637168660759926
          ],
          [
            "Malawi",
            0.015575224533677101
          ],
          [
            "United Kingdom",
            0.015006398782134056
          ],
          [
            "Venezuela",
            0.013461119495332241
          ],
          [
            "Spain",
            0.013439159840345383
          ],
          [
            "Azerbaijan",
            0.011640522629022598
          ],
          [
            "Greece",
            0.011281626299023628
          ],
          [
            "Benin",
            0.010912609286606312
          ],
          [
            "Myanmar",
            0.00962351355701685
          ],
          [
            "Bahrain",
            0.00961243361234665
          ],
          [
            "Israel",
            0.00901625957340002
          ],
          [
            "Vanuatu",
            0.008885165676474571
          ],
          [
            "Canada",
            0.008842511102557182
          ],
          [
            "Belize",
            0.008615707978606224
          ],
          [
            "Portugal",
            0.008364737965166569
          ],
          [
            "Guyana",
            0.008030692115426064
          ],
          [
            "Congo",
            0.007652394473552704
          ],
          [
            "Rwanda",
            0.007618331350386143
          ],
          [
            "Mauritania",
            0.007451354991644621
          ],
          [
            "Australia",
            0.007413942366838455
          ],
          [
            "South Korea",
            0.007246233057230711
          ],
          [
            "Taiwan",
            0.007177524734288454
          ],
          [
            "Libya",
            0.006857403554022312
          ],
          [
            "Albania",
            0.006738649215549231
          ],
          [
            "Gabon",
            0.006540672387927771
          ],
          [
            "Bangladesh",
            0.006131246220320463
          ],
          [
            "Jordan",
            0.006100567057728767
          ],
          [
            "Vietnam",
            0.006013609003275633
          ],
          [
            "New Zealand",
            0.006007200572639704
          ],
          [
            "Qatar",
            0.005815519951283932
          ],
          [
            "Iran",
            0.005793709307909012
          ],
          [
            "Guadeloupe",
            0.005640810821205378
          ],
          [
            "Estonia",
            0.005562453530728817
          ],
          [
            "Syria",
            0.005553802940994501
          ],
          [
            "Lithuania",
            0.0055319503881037235
          ],
          [
            "Mayotte",
            0.005480029620230198
          ],
          [
            "Dominica",
            0.005432781297713518
          ],
          [
            "Kenya",
            0.005345830228179693
          ],
          [
            "Belgium",
            0.005292485933750868
          ],
          [
            "Tunisia",
            0.0051529728807508945
          ],
          [
            "Saint Lucia",
            0.005142094101756811
          ],
          [
            "Antigua & Barbuda",
            0.004931399133056402
          ],
          [
            "Burundi",
            0.004915538243949413
          ],
          [
            "North Macedonia",
            0.004498756490647793
          ],
          [
            "France",
            0.004496920388191938
          ],
          [
            "Bosnia & Herzegovina",
            0.004263628739863634
          ],
          [
            "Moldova",
            0.004206310957670212
          ],
          [
            "West Bank",
            0.003850964130833745
          ],
          [
            "Ukraine",
            0.0038329591043293476
          ],
          [
            "Guam",
            0.0036729269195348024
          ],
          [
            "Ireland",
            0.0035413058940321207
          ],
          [
            "Chile",
            0.0035162479616701603
          ],
          [
            "Saudi Arabia",
            0.0034015376586467028
          ],
          [
            "Guinea",
            0.0033835230860859156
          ],
          [
            "Cambodia",
            0.0033709811978042126
          ],
          [
            "Italy",
            0.0030615665018558502
          ],
          [
            "Iceland",
            0.0030431461054831743
          ],
          [
            "Finland",
            0.003013911424204707
          ],
          [
            "Romania",
            0.002983586397022009
          ],
          [
            "North Korea",
            0.0029276255518198013
          ],
          [
            "Western Sahara",
            0.0029255100525915623
          ],
          [
            "Costa Rica",
            0.0029043052345514297
          ],
          [
            "Papua New Guinea",
            0.0028483590576797724
          ],
          [
            "Burkina Faso",
            0.002693014685064554
          ],
          [
            "India",
            0.0026393409352749586
          ],
          [
            "Latvia",
            0.002631524344906211
          ],
          [
            "Serbia",
            0.0026147286407649517
          ],
          [
            "Zimbabwe",
            0.002614120254293084
          ],
          [
            "Reunion",
            0.002461755648255348
          ],
          [
            "Poland",
            0.0023139070253819227
          ],
          [
            "Martinique",
            0.002309171948581934
          ],
          [
            "Niger",
            0.0022013771813362837
          ],
          [
            "Suriname",
            0.002152126282453537
          ],
          [
            "Mali",
            0.002073828596621752
          ],
          [
            "Solomon Islands",
            0.00205816887319088
          ],
          [
            "Belarus",
            0.0020504773128777742
          ],
          [
            "Laos",
            0.0020494137424975634
          ],
          [
            "Netherlands",
            0.001949438126757741
          ],
          [
            "Sri Lanka",
            0.0018248630221933126
          ],
          [
            "Brunei",
            0.0017855812329798937
          ],
          [
            "Switzerland",
            0.001763197360560298
          ],
          [
            "Senegal",
            0.0017538059037178755
          ],
          [
            "Cape Verde",
            0.0017094711074605584
          ],
          [
            "Guinea-Bissau",
            0.001649780897423625
          ],
          [
            "Colombia",
            0.0016137136844918132
          ],
          [
            "Sudan",
            0.0016097419429570436
          ],
          [
            "Bahamas",
            0.0015755295753479004
          ],
          [
            "Turkmenistan",
            0.001559382420964539
          ],
          [
            "Nigeria",
            0.0015497960848733783
          ],
          [
            "Madagascar",
            0.0015225011156871915
          ],
          [
            "Algeria",
            0.0014835663605481386
          ],
          [
            "Uganda",
            0.0014510583132505417
          ],
          [
            "Trinidad and Tobago",
            0.0014438526704907417
          ],
          [
            "Heard and McDonald Islands",
            0.001423983252607286
          ],
          [
            "Lesotho",
            0.0013942877994850278
          ],
          [
            "Nicaragua",
            0.00137855124194175
          ],
          [
            "Philippines",
            0.0013651881599798799
          ],
          [
            "Japan",
            0.0013630781322717667
          ],
          [
            "Egypt",
            0.0013504341477528214
          ],
          [
            "Chad",
            0.0013457135064527392
          ],
          [
            "Yemen",
            0.0013205561554059386
          ],
          [
            "Angola",
            0.0012857774272561073
          ],
          [
            "French Guiana",
            0.0012812482891604304
          ],
          [
            "Oman",
            0.0012773418566212058
          ],
          [
            "Afghanistan",
            0.0012039336143061519
          ],
          [
            "Eswatini",
            0.0011850943556055427
          ],
          [
            "Côte d'Ivoire",
            0.0011807375121861696
          ],
          [
            "Tajikistan",
            0.0011562117142602801
          ],
          [
            "South Sudan",
            0.001116159139201045
          ],
          [
            "United States Virgin Islands",
            0.0011158803245052695
          ],
          [
            "Montenegro",
            0.0011104259174317122
          ],
          [
            "South Africa",
            0.00111038563773036
          ],
          [
            "Palau",
            0.0011085974983870983
          ],
          [
            "Germany",
            0.0010036377934738994
          ],
          [
            "Isle of Man",
            0.0009907010244205594
          ],
          [
            "Cameroon",
            0.0009462787420488894
          ],
          [
            "Falkland Islands",
            0.000940330617595464
          ],
          [
            "Mexico",
            0.0009392103529535234
          ],
          [
            "Hong Kong",
            0.0009215715108439326
          ],
          [
            "China",
            0.0009005651227198541
          ],
          [
            "Kuwait",
            0.0008811242296360433
          ],
          [
            "South Georgia Islands",
            0.0008271777187474072
          ],
          [
            "Denmark",
            0.0007765444461256266
          ],
          [
            "Sierra Leone",
            0.0007365424535237253
          ],
          [
            "Uzbekistan",
            0.0007155936909839511
          ],
          [
            "Iraq",
            0.0006991690024733543
          ],
          [
            "Tanzania",
            0.000684751954395324
          ],
          [
            "Lebanon",
            0.0006667243433184922
          ],
          [
            "Central African Republic",
            0.0006444745813496411
          ],
          [
            "Kazakhstan",
            0.0006365022854879498
          ],
          [
            "Sao Tome and Principe",
            0.0006277814973145723
          ],
          [
            "Paraguay",
            0.0006226988625712693
          ],
          [
            "United States of America",
            0.0006224387907423079
          ],
          [
            "Zambia",
            0.000591266667470336
          ],
          [
            "Hungary",
            0.0005741255590692163
          ],
          [
            "New Caledonia",
            0.0005553111550398171
          ],
          [
            "Armenia",
            0.0005543418228626251
          ],
          [
            "DR Congo",
            0.0005514933727681637
          ],
          [
            "Morocco",
            0.0005504403379745781
          ],
          [
            "Slovenia",
            0.0005436768988147378
          ],
          [
            "Bulgaria",
            0.0005328907864168286
          ],
          [
            "Guatemala",
            0.0005114820087328553
          ],
          [
            "Czech Republic",
            0.0005060700350441039
          ],
          [
            "Slovakia",
            0.00048313403385691345
          ],
          [
            "Haiti",
            0.0004831017868127674
          ],
          [
            "Turkey",
            0.0004700305580627173
          ],
          [
            "Ghana",
            0.0004614029312506318
          ],
          [
            "Pakistan",
            0.0004501715593505651
          ],
          [
            "Liberia",
            0.00044856962631456554
          ],
          [
            "Botswana",
            0.0004474194720387459
          ],
          [
            "Eritrea",
            0.00043609077692963183
          ],
          [
            "Comoros",
            0.0004241362039465457
          ],
          [
            "El Salvador",
            0.00040637122583575547
          ],
          [
            "Kyrgyzstan",
            0.00036852824268862605
          ],
          [
            "Russia",
            0.0003645927063189447
          ],
          [
            "Equatorial Guinea",
            0.00036415140493772924
          ],
          [
            "Georgia",
            0.0003444909234531224
          ],
          [
            "Bhutan",
            0.00033430434996262193
          ],
          [
            "Djibouti",
            0.0003338487586006522
          ],
          [
            "Ethiopia",
            0.0003144874644931406
          ],
          [
            "Ecuador",
            0.00030697628972120583
          ],
          [
            "Honduras",
            0.0002996319381054491
          ],
          [
            "Luxembourg",
            0.00025925441877916455
          ],
          [
            "Indonesia",
            0.0002564931637607515
          ],
          [
            "United Arab Emirates",
            0.00023683448671363294
          ],
          [
            "Uruguay",
            0.0002267735981149599
          ],
          [
            "Timor-Leste",
            0.00022638204973191023
          ],
          [
            "Bolivia",
            0.00022552873997483402
          ],
          [
            "Mongolia",
            0.00022501785133499652
          ],
          [
            "Turks and Caicos Islands",
            0.0002055688382824883
          ],
          [
            "Puerto Rico",
            0.00017963783466257155
          ],
          [
            "Panama",
            0.00016585826233495027
          ],
          [
            "Austria",
            0.0001518289791420102
          ],
          [
            "Dominican Republic",
            0.00014675546844955534
          ],
          [
            "Cuba",
            0.00014162926527205855
          ],
          [
            "Jamaica",
            0.00013382335600908846
          ],
          [
            "Cyprus",
            0.0001331646490143612
          ],
          [
            "Samoa",
            0.00012693942699115723
          ],
          [
            "Netherlands Antilles",
            0.00012545741628855467
          ],
          [
            "Barbados",
            0.00012208669795654714
          ],
          [
            "Nepal",
            0.00011904061830136925
          ],
          [
            "Madeira Islands",
            0.00010279318667016923
          ],
          [
            "Malaysia",
            8.688441448612139e-05
          ],
          [
            "Kiribati",
            6.707328429911286e-05
          ],
          [
            "Gambia",
            3.13197924697306e-05
          ]
        ]
      },
      "geometry": {
        "type": "MultiLineString",
        "coordinates": [
          [
            [
              46.0515222482436,
              6.355971896955509
            ],
            [
              45.489461358313804,
              7.199063231850118
            ],
            [
              44.927400468384064,
              7.480093676814988
            ],
            [
              44.22482435597192,
              8.323185011709597
            ],
            [
              44.084309133489455,
              8.74473067915693
            ],
            [
              43.38173302107731,
              10.290398126463742
            ],
            [
              42.67915690866511,
              11.695550351288091
            ],
            [
              42.25761124121783,
              12.679156908665107
            ],
            [
              41.97658079625296,
              13.241217798594903
            ],
            [
              41.55503512880563,
              13.522248243559716
            ],
            [
              40.99297423887589,
              13.522248243559716
            ],
            [
              39.728337236533946,
              13.522248243559716
            ],
            [
              38.60421545667447,
              13.803278688524642
            ],
            [
              37.62060889929745,
              14.224824355971919
            ],
            [
              37.05854800936771,
              14.365339578454382
            ],
            [
              36.49648711943797,
              14.505854800936788
            ],
            [
              35.934426229508176,
              14.505854800936788
            ],
            [
              35.091334894613624,
              15.348946135831397
            ],
            [
              34.66978922716629,
              15.911007025761137
            ],
            [
              33.96721311475409,
              17.035128805620616
            ],
            [
              33.68618266978922,
              17.45667447306795
            ],
            [
              33.26463700234194,
              18.01873536299769
            ],
            [
              32.56206088992974,
              18.580796252927428
            ],
            [
              32.14051522248246,
              19.142857142857167
            ],
            [
              31.71896955503513,
              19.704918032786907
            ],
            [
              31.297423887587854,
              20.266978922716646
            ],
            [
              31.016393442622984,
              20.68852459016398
            ],
            [
              30.735362997658115,
              21.110070257611255
            ],
            [
              30.735362997658115,
              21.672131147540995
            ],
            [
              30.735362997658115,
              22.374707259953198
            ],
            [
              30.454332552693245,
              22.936768149882937
            ],
            [
              30.17330210772832,
              23.498829039812676
            ],
            [
              30.032786885245912,
              23.920374707259953
            ],
            [
              29.892271662763505,
              24.341920374707286
            ],
            [
              29.751756440281042,
              24.763466042154562
            ],
            [
              29.470725995316172,
              25.185011709601895
            ],
            [
              29.330210772833766,
              25.747072599531634
            ],
            [
              29.189695550351303,
              26.16861826697891
            ],
            [
              28.908665105386433,
              26.730679156908707
            ],
            [
              28.627634660421563,
              27.152224824355983
            ],
            [
              28.4871194379391,
              27.573770491803316
            ],
            [
              28.20608899297423,
              28.135831381733055
            ],
            [
              28.20608899297423,
              28.8384074941452
            ],
            [
              28.065573770491824,
              29.259953161592534
            ],
            [
              27.92505854800936,
              29.822014051522274
            ],
            [
              27.784543325526954,
              30.24355971896955
            ],
            [
              28.065573770491824,
              31.086651053864216
            ],
            [
              28.346604215456694,
              31.508196721311492
            ],
            [
              28.4871194379391,
              32.07025761124123
            ],
            [
              28.4871194379391,
              32.63231850117097
            ],
            [
              28.20608899297423,
              33.053864168618304
            ],
            [
              28.065573770491824,
              33.615925058548044
            ],
            [
              27.92505854800936,
              34.03747072599532
            ],
            [
              27.784543325526954,
              34.45901639344265
            ],
            [
              27.92505854800936,
              35.02107728337239
            ],
            [
              28.20608899297423,
              35.44262295081967
            ],
            [
              28.346604215456694,
              36.00468384074941
            ],
            [
              28.346604215456694,
              36.70725995316161
            ],
            [
              28.346604215456694,
              37.26932084309135
            ],
            [
              28.627634660421563,
              37.69086651053868
            ],
            [
              28.908665105386433,
              38.11241217798596
            ],
            [
              29.04918032786884,
              38.6744730679157
            ],
            [
              29.189695550351303,
              39.23653395784544
            ],
            [
              29.189695550351303,
              39.79859484777518
            ],
            [
              29.189695550351303,
              40.36065573770492
            ],
            [
              29.330210772833766,
              41.06323185011712
            ],
            [
              29.470725995316172,
              41.62529274004686
            ],
            [
              29.470725995316172,
              42.327868852459005
            ],
            [
              29.470725995316172,
              43.17096018735367
            ],
            [
              29.61124121779858,
              43.59250585480095
            ],
            [
              29.61124121779858,
              44.29508196721315
            ],
            [
              29.892271662763505,
              44.716627634660426
            ],
            [
              30.31381733021078,
              44.997658079625296
            ],
            [
              30.735362997658115,
              45.278688524590166
            ],
            [
              31.15690866510539,
              45.41920374707263
            ],
            [
              31.859484777517594,
              45.840749414519905
            ],
            [
              32.42154566744733,
              46.26229508196724
            ],
            [
              32.7025761124122,
              46.683840749414514
            ],
            [
              33.12412177985948,
              46.82435597189698
            ],
            [
              33.54566744730681,
              47.10538641686185
            ],
            [
              33.96721311475409,
              47.66744730679159
            ],
            [
              34.10772833723655,
              48.229508196721326
            ],
            [
              34.52927400468383,
              48.791569086651066
            ],
            [
              34.95081967213116,
              49.353629976580805
            ],
            [
              35.5128805620609,
              49.77517564402814
            ],
            [
              35.934426229508176,
              50.196721311475414
            ],
            [
              36.35597189695551,
              50.758782201405154
            ],
            [
              36.77751756440284,
              51.32084309133489
            ],
            [
              37.19906323185012,
              51.742388758782226
            ],
            [
              37.62060889929745,
              52.023419203747096
            ],
            [
              38.04215456674473,
              52.304449648711966
            ],
            [
              38.46370023419206,
              52.44496487119437
            ],
            [
              38.88524590163934,
              52.585480093676836
            ],
            [
              39.447306791569076,
              52.585480093676836
            ],
            [
              40.009367681498816,
              52.72599531615924
            ],
            [
              40.43091334894615,
              52.585480093676836
            ],
            [
              40.99297423887589,
              52.44496487119437
            ],
            [
              41.41451990632322,
              52.304449648711966
            ],
            [
              42.11709601873537,
              52.1639344262295
            ],
            [
              42.67915690866511,
              52.1639344262295
            ],
            [
              43.10070257611244,
              52.023419203747096
            ],
            [
              43.66276346604218,
              51.88290398126463
            ],
            [
              44.22482435597192,
              51.742388758782226
            ],
            [
              45.06791569086653,
              51.742388758782226
            ],
            [
              45.770491803278674,
              51.742388758782226
            ],
            [
              46.19203747072601,
              51.60187353629976
            ],
            [
              47.035128805620616,
              51.60187353629976
            ],
            [
              47.73770491803282,
              51.60187353629976
            ],
            [
              48.29976580796256,
              51.60187353629976
            ],
            [
              49.002341920374704,
              51.60187353629976
            ],
            [
              50.12646370023418,
              51.60187353629976
            ],
            [
              50.829039812646386,
              51.60187353629976
            ],
            [
              51.53161592505853,
              51.60187353629976
            ],
            [
              51.953161592505865,
              51.46135831381736
            ],
            [
              52.234192037470734,
              50.89929742388762
            ],
            [
              53.07728337236534,
              50.61826697892275
            ],
            [
              53.779859484777546,
              50.33723653395788
            ],
            [
              54.20140515222482,
              50.196721311475414
            ],
            [
              55.04449648711943,
              49.77517564402814
            ],
            [
              55.88758782201404,
              49.634660421545675
            ],
            [
              56.44964871194384,
              49.634660421545675
            ],
            [
              57.01170960187358,
              49.634660421545675
            ],
            [
              57.573770491803316,
              49.49414519906327
            ],
            [
              58.27634660421546,
              49.49414519906327
            ],
            [
              58.697892271662795,
              49.634660421545675
            ],
            [
              58.8384074941452,
              50.05620608899301
            ],
            [
              58.8384074941452,
              50.61826697892275
            ],
            [
              59.40046838407494,
              51.60187353629976
            ],
            [
              59.68149882903981,
              52.023419203747096
            ],
            [
              59.540983606557404,
              52.44496487119437
            ],
            [
              59.11943793911007,
              52.585480093676836
            ],
            [
              58.697892271662795,
              52.866510538641705
            ],
            [
              58.55737704918033,
              53.428571428571445
            ],
            [
              57.85480093676813,
              53.56908665105391
            ],
            [
              57.29274004683839,
              53.85011709601878
            ],
            [
              56.73067915690865,
              53.85011709601878
            ],
            [
              57.71428571428572,
              54.69320843091339
            ],
            [
              58.27634660421546,
              54.97423887587826
            ],
            [
              57.71428571428572,
              55.39578454332553
            ],
            [
              56.87119437939111,
              55.6768149882904
            ],
            [
              56.16861826697891,
              55.817330210772866
            ],
            [
              55.747072599531634,
              56.098360655737736
            ],
            [
              55.04449648711943,
              56.51990632318501
            ],
            [
              54.903981264637025,
              57.222482435597215
            ],
            [
              54.903981264637025,
              57.784543325526954
            ],
            [
              54.341920374707286,
              57.92505854800936
            ],
            [
              53.49882903981268,
              57.92505854800936
            ],
            [
              52.3747072599532,
              57.92505854800936
            ],
            [
              50.96955503512879,
              57.92505854800936
            ],
            [
              49.42388758782204,
              57.92505854800936
            ],
            [
              48.8618266978923,
              57.92505854800936
            ],
            [
              46.89461358313815,
              57.92505854800936
            ],
            [
              44.78688524590166,
              57.92505854800936
            ],
            [
              42.81967213114757,
              57.92505854800936
            ],
            [
              41.55503512880563,
              57.92505854800936
            ],
            [
              41.97658079625296,
              58.4871194379391
            ],
            [
              40.71194379391102,
              58.34660421545669
            ],
            [
              39.0257611241218,
              57.92505854800936
            ],
            [
              36.49648711943797,
              57.503512880562084
            ],
            [
              35.37236533957844,
              57.36299765807962
            ],
            [
              33.68618266978922,
              56.941451990632345
            ],
            [
              34.24824355971896,
              56.941451990632345
            ],
            [
              35.37236533957844,
              57.222482435597215
            ],
            [
              37.19906323185012,
              57.784543325526954
            ],
            [
              38.60421545667447,
              58.20608899297423
            ],
            [
              37.62060889929745,
              58.34660421545669
            ],
            [
              37.19906323185012,
              58.4871194379391
            ],
            [
              39.728337236533946,
              58.62763466042156
            ],
            [
              40.85245901639348,
              58.62763466042156
            ],
            [
              40.43091334894615,
              58.76814988290403
            ],
            [
              36.35597189695551,
              59.049180327868896
            ],
            [
              34.8103044496487,
              59.049180327868896
            ],
            [
              34.10772833723655,
              58.76814988290403
            ],
            [
              34.8103044496487,
              58.62763466042156
            ],
            [
              35.37236533957844,
              58.62763466042156
            ],
            [
              35.934426229508176,
              58.76814988290403
            ],
            [
              36.35597189695551,
              58.90866510538643
            ],
            [
              35.934426229508176,
              59.1896955503513
            ],
            [
              35.37236533957844,
              59.330210772833766
            ],
            [
              34.66978922716629,
              59.330210772833766
            ],
            [
              33.96721311475409,
              59.330210772833766
            ],
            [
              33.40515222482435,
              59.330210772833766
            ],
            [
              32.98360655737707,
              59.47072599531617
            ],
            [
              32.56206088992974,
              59.892271662763505
            ],
            [
              31.71896955503513,
              60.03278688524591
            ],
            [
              31.016393442622984,
              60.03278688524591
            ],
            [
              30.454332552693245,
              59.611241217798636
            ],
            [
              30.31381733021078,
              59.1896955503513
            ],
            [
              31.016393442622984,
              58.62763466042156
            ],
            [
              31.43793911007026,
              58.20608899297423
            ],
            [
              32.0,
              58.065573770491824
            ],
            [
              32.56206088992974,
              57.92505854800936
            ],
            [
              32.14051522248246,
              58.20608899297423
            ],
            [
              30.87587822014052,
              58.34660421545669
            ],
            [
              30.17330210772832,
              58.34660421545669
            ],
            [
              30.735362997658115,
              58.4871194379391
            ],
            [
              31.15690866510539,
              58.62763466042156
            ],
            [
              30.31381733021078,
              59.330210772833766
            ],
            [
              29.04918032786884,
              59.611241217798636
            ],
            [
              28.065573770491824,
              59.611241217798636
            ],
            [
              27.222482435597215,
              59.611241217798636
            ],
            [
              26.519906323185012,
              59.47072599531617
            ],
            [
              26.098360655737736,
              59.330210772833766
            ],
            [
              25.676814988290403,
              59.049180327868896
            ],
            [
              26.098360655737736,
              58.90866510538643
            ],
            [
              26.379391100702605,
              59.611241217798636
            ],
            [
              25.395784543325533,
              60.31381733021078
            ],
            [
              24.41217798594846,
              60.87587822014052
            ],
            [
              23.147540983606575,
              61.297423887587854
            ],
            [
              22.023419203747096,
              61.71896955503513
            ],
            [
              21.601873536299763,
              61.859484777517594
            ],
            [
              22.023419203747096,
              61.71896955503513
            ],
            [
              23.007025761124112,
              60.87587822014052
            ],
            [
              23.990632318501184,
              60.454332552693245
            ],
            [
              24.41217798594846,
              60.31381733021078
            ],
            [
              24.9742388758782,
              60.173302107728375
            ],
            [
              24.41217798594846,
              60.173302107728375
            ],
            [
              23.56908665105385,
              60.173302107728375
            ],
            [
              23.007025761124112,
              60.173302107728375
            ],
            [
              22.444964871194372,
              59.892271662763505
            ],
            [
              22.304449648711966,
              59.47072599531617
            ],
            [
              22.304449648711966,
              58.90866510538643
            ],
            [
              22.725995316159242,
              58.4871194379391
            ],
            [
              23.28805620608898,
              58.065573770491824
            ],
            [
              23.85011709601872,
              57.784543325526954
            ],
            [
              24.271662763466054,
              57.503512880562084
            ],
            [
              23.85011709601872,
              57.64402810304449
            ],
            [
              23.28805620608898,
              57.92505854800936
            ],
            [
              22.725995316159242,
              57.92505854800936
            ],
            [
              21.882903981264633,
              57.92505854800936
            ],
            [
              21.320843091334893,
              57.64402810304449
            ],
            [
              20.899297423887617,
              57.503512880562084
            ],
            [
              20.618266978922748,
              56.51990632318501
            ],
            [
              20.618266978922748,
              55.817330210772866
            ],
            [
              21.180327868852487,
              55.6768149882904
            ],
            [
              20.477751756440284,
              55.39578454332553
            ],
            [
              19.77517564402814,
              54.97423887587826
            ],
            [
              19.072599531615936,
              53.990632318501184
            ],
            [
              18.93208430913353,
              53.28805620608898
            ],
            [
              18.791569086651066,
              52.72599531615924
            ],
            [
              19.072599531615936,
              52.304449648711966
            ],
            [
              20.056206088993008,
              51.742388758782226
            ],
            [
              20.899297423887617,
              51.742388758782226
            ],
            [
              20.477751756440284,
              51.46135831381736
            ],
            [
              20.337236533957878,
              50.89929742388762
            ],
            [
              20.337236533957878,
              50.05620608899301
            ],
            [
              20.196721311475414,
              49.634660421545675
            ],
            [
              19.915690866510545,
              49.072599531615936
            ],
            [
              19.49414519906327,
              48.93208430913353
            ],
            [
              19.353629976580805,
              48.229508196721326
            ],
            [
              19.77517564402814,
              47.80796252927405
            ],
            [
              20.337236533957878,
              47.38641686182672
            ],
            [
              20.758782201405154,
              47.10538641686185
            ],
            [
              21.039812646370024,
              46.683840749414514
            ],
            [
              20.899297423887617,
              46.26229508196724
            ],
            [
              20.337236533957878,
              46.121779859484775
            ],
            [
              18.93208430913353,
              45.7002341920375
            ],
            [
              18.229508196721326,
              45.278688524590166
            ],
            [
              17.526932084309124,
              44.85714285714289
            ],
            [
              17.105386416861847,
              44.29508196721315
            ],
            [
              16.683840749414514,
              44.716627634660426
            ],
            [
              16.26229508196724,
              45.13817330210776
            ],
            [
              15.700234192037499,
              45.278688524590166
            ],
            [
              15.13817330210776,
              45.278688524590166
            ],
            [
              14.85714285714289,
              44.57611241217802
            ],
            [
              14.85714285714289,
              44.01405152224828
            ],
            [
              14.85714285714289,
              43.03044496487121
            ],
            [
              14.85714285714289,
              42.46838407494147
            ],
            [
              15.278688524590166,
              42.327868852459005
            ],
            [
              16.121779859484775,
              42.327868852459005
            ],
            [
              16.543325526932108,
              41.90632318501173
            ],
            [
              16.824355971896978,
              41.06323185011712
            ],
            [
              16.964871194379384,
              40.36065573770492
            ],
            [
              17.245901639344254,
              39.65807962529277
            ],
            [
              17.526932084309124,
              38.95550351288057
            ],
            [
              17.807962529273993,
              38.39344262295083
            ],
            [
              18.229508196721326,
              38.25292740046842
            ],
            [
              17.807962529273993,
              38.81498829039816
            ],
            [
              17.386416861826717,
              38.95550351288057
            ],
            [
              17.245901639344254,
              37.97189695550355
            ],
            [
              17.386416861826717,
              37.55035128805622
            ],
            [
              17.807962529273993,
              36.98829039812648
            ],
            [
              18.370023419203733,
              36.56674473067915
            ],
            [
              18.088992974238863,
              36.14519906323187
            ],
            [
              17.667447306791587,
              36.00468384074941
            ],
            [
              17.526932084309124,
              35.58313817330213
            ],
            [
              17.948477751756457,
              35.02107728337239
            ],
            [
              18.510538641686196,
              34.59953161592506
            ],
            [
              19.072599531615936,
              34.17798594847778
            ],
            [
              19.213114754098342,
              33.75644028103045
            ],
            [
              18.791569086651066,
              33.47540983606558
            ],
            [
              18.088992974238863,
              33.19437939110071
            ],
            [
              18.370023419203733,
              32.63231850117097
            ],
            [
              19.213114754098342,
              32.3512880562061
            ],
            [
              19.77517564402814,
              31.929742388758825
            ],
            [
              19.49414519906327,
              31.508196721311492
            ],
            [
              19.072599531615936,
              31.36768149882903
            ],
            [
              18.651053864168603,
              30.524590163934477
            ],
            [
              18.651053864168603,
              29.822014051522274
            ],
            [
              19.213114754098342,
              28.55737704918033
            ],
            [
              19.915690866510545,
              27.854800936768186
            ],
            [
              20.618266978922748,
              27.292740046838446
            ],
            [
              21.180327868852487,
              26.871194379391113
            ],
            [
              20.758782201405154,
              27.011709601873577
            ],
            [
              20.196721311475414,
              27.714285714285722
            ],
            [
              19.634660421545675,
              28.135831381733055
            ],
            [
              19.072599531615936,
              28.135831381733055
            ],
            [
              18.370023419203733,
              27.152224824355983
            ],
            [
              17.807962529273993,
              23.779859484777546
            ],
            [
              17.948477751756457,
              21.672131147540995
            ],
            [
              18.93208430913353,
              19.985948477751776
            ],
            [
              20.056206088993008,
              18.721311475409834
            ],
            [
              20.618266978922748,
              18.159250585480095
            ],
            [
              21.320843091334893,
              18.159250585480095
            ],
            [
              22.023419203747096,
              18.159250585480095
            ],
            [
              22.866510538641705,
              18.159250585480095
            ],
            [
              23.428571428571445,
              18.159250585480095
            ],
            [
              24.131147540983648,
              18.159250585480095
            ],
            [
              24.271662763466054,
              19.142857142857167
            ],
            [
              24.271662763466054,
              19.845433255269313
            ],
            [
              24.131147540983648,
              20.266978922716646
            ],
            [
              23.56908665105385,
              19.283372365339574
            ],
            [
              23.428571428571445,
              18.721311475409834
            ],
            [
              23.428571428571445,
              17.878220140515225
            ],
            [
              23.428571428571445,
              17.17564402810308
            ],
            [
              23.56908665105385,
              16.61358313817334
            ],
            [
              23.990632318501184,
              15.911007025761137
            ],
            [
              24.552693208430924,
              15.208430913348934
            ],
            [
              25.114754098360663,
              14.927400468384121
            ],
            [
              25.536299765807996,
              14.786885245901658
            ],
            [
              26.098360655737736,
              14.786885245901658
            ],
            [
              26.519906323185012,
              14.927400468384121
            ],
            [
              27.36299765807962,
              15.067915690866528
            ],
            [
              28.065573770491824,
              15.067915690866528
            ],
            [
              29.04918032786884,
              14.786885245901658
            ],
            [
              29.470725995316172,
              14.646370023419195
            ],
            [
              29.04918032786884,
              14.505854800936788
            ],
            [
              28.4871194379391,
              14.365339578454382
            ],
            [
              27.503512880562084,
              14.224824355971919
            ],
            [
              26.660421545667475,
              13.943793911007049
            ],
            [
              26.238875878220142,
              13.522248243559716
            ],
            [
              25.957845433255272,
              13.10070257611244
            ],
            [
              26.80093676814988,
              12.5386416861827
            ],
            [
              27.784543325526954,
              12.25761124121783
            ],
            [
              28.76814988290397,
              11.97658079625296
            ],
            [
              29.470725995316172,
              11.836065573770497
            ],
            [
              29.04918032786884,
              11.695550351288091
            ],
            [
              28.4871194379391,
              11.274004683840758
            ],
            [
              28.20608899297423,
              10.852459016393482
            ],
            [
              29.470725995316172,
              10.290398126463742
            ],
            [
              30.87587822014052,
              10.149882903981279
            ],
            [
              31.859484777517594,
              9.86885245901641
            ],
            [
              32.42154566744733,
              9.86885245901641
            ],
            [
              32.0,
              8.74473067915693
            ],
            [
              31.859484777517594,
              8.042154566744784
            ],
            [
              31.859484777517594,
              7.058548009367712
            ],
            [
              32.0,
              6.355971896955509
            ],
            [
              32.42154566744733,
              5.79391100702577
            ],
            [
              32.98360655737707,
              5.23185011709603
            ],
            [
              33.40515222482435,
              4.669789227166291
            ],
            [
              34.10772833723655,
              4.107728337236551
            ],
            [
              35.37236533957844,
              3.124121779859479
            ],
            [
              36.07494145199064,
              2.9836065573770725
            ],
            [
              36.77751756440284,
              2.9836065573770725
            ],
            [
              36.91803278688525,
              3.545667447306812
            ],
            [
              37.05854800936771,
              4.388758782201421
            ],
            [
              36.91803278688525,
              4.810304449648754
            ],
            [
              36.77751756440284,
              5.23185011709603
            ],
            [
              37.62060889929745,
              4.388758782201421
            ],
            [
              38.60421545667447,
              3.545667447306812
            ],
            [
              40.290398126463685,
              2.7025761124122027
            ],
            [
              41.55503512880563,
              2.0
            ],
            [
              42.11709601873537,
              2.0
            ],
            [
              42.39812646370024,
              2.843091334894666
            ],
            [
              42.25761124121783,
              3.6861826697892184
            ],
            [
              41.97658079625296,
              4.107728337236551
            ],
            [
              42.25761124121783,
              4.950819672131161
            ],
            [
              42.67915690866511,
              5.5128805620609
            ],
            [
              43.241217798594846,
              5.934426229508233
            ],
            [
              43.803278688524586,
              5.934426229508233
            ],
            [
              44.22482435597192,
              5.653395784543363
            ],
            [
              44.927400468384064,
              5.372365339578494
            ],
            [
              44.50585480093679,
              5.653395784543363
            ],
            [
              45.3489461358314,
              5.5128805620609
            ],
            [
              45.91100702576114,
              5.5128805620609
            ],
            [
              46.0515222482436,
              5.934426229508233
            ],
            [
              45.62997658079627,
              6.215456674473103
            ]
          ],
          [
            [
              28.908665105386433,
              5.5128805620609
            ],
            [
              27.64402810304449,
              5.372365339578494
            ],
            [
              25.536299765807996,
              5.653395784543363
            ]
          ],
          [
            [
              17.948477751756457,
              8.46370023419206
            ],
            [
              14.997658079625296,
              10.149882903981279
            ]
          ],
          [
            [
              5.021077283372392,
              19.845433255269313
            ],
            [
              5.021077283372392,
              19.142857142857167
            ]
          ],
          [
            [
              8.11241217798596,
              22.515222482435604
            ],
            [
              8.674473067915699,
              22.093676814988328
            ],
            [
              9.096018735363032,
              21.672131147540995
            ]
          ],
          [
            [
              11.06323185011712,
              16.89461358313821
            ],
            [
              11.765807962529266,
              15.770491803278674
            ],
            [
              13.451990632318484,
              12.81967213114757
            ],
            [
              14.435597189695557,
              11.274004683840758
            ]
          ],
          [
            [
              16.402810304449645,
              10.992974238875888
            ],
            [
              16.543325526932108,
              10.430913348946149
            ],
            [
              17.105386416861847,
              9.86885245901641
            ],
            [
              17.526932084309124,
              9.447306791569076
            ],
            [
              18.229508196721326,
              9.0257611241218
            ],
            [
              19.213114754098342,
              9.0257611241218
            ],
            [
              20.196721311475414,
              9.0257611241218
            ]
          ],
          [
            [
              21.882903981264633,
              9.447306791569076
            ],
            [
              21.882903981264633,
              10.149882903981279
            ]
          ],
          [
            [
              18.370023419203733,
              16.0515222482436
            ],
            [
              18.088992974238863,
              16.754098360655746
            ],
            [
              17.526932084309124,
              17.45667447306795
            ]
          ],
          [
            [
              15.981264637002369,
              19.423887587822037
            ],
            [
              15.840749414519905,
              19.985948477751776
            ]
          ],
          [
            [
              13.873536299765817,
              27.292740046838446
            ],
            [
              13.873536299765817,
              28.978922716627665
            ]
          ],
          [
            [
              13.170960187353671,
              35.1615925058548
            ],
            [
              13.311475409836078,
              35.58313817330213
            ],
            [
              13.451990632318484,
              36.14519906323187
            ],
            [
              13.873536299765817,
              37.26932084309135
            ],
            [
              14.01405152224828,
              38.11241217798596
            ],
            [
              14.01405152224828,
              38.6744730679157
            ]
          ],
          [
            [
              11.765807962529266,
              42.74941451990634
            ],
            [
              10.922716627634657,
              43.17096018735367
            ]
          ],
          [
            [
              7.8313817330210895,
              49.353629976580805
            ],
            [
              8.252927400468423,
              50.477751756440284
            ],
            [
              8.674473067915699,
              52.44496487119437
            ],
            [
              9.236533957845438,
              54.271662763466054
            ],
            [
              9.517564402810308,
              55.39578454332553
            ]
          ],
          [
            [
              12.046838407494135,
              56.379391100702605
            ],
            [
              12.608899297423875,
              56.660421545667475
            ],
            [
              13.73302107728341,
              57.08196721311475
            ],
            [
              14.85714285714289,
              57.503512880562084
            ],
            [
              15.700234192037499,
              57.784543325526954
            ],
            [
              16.824355971896978,
              58.065573770491824
            ],
            [
              17.526932084309124,
              58.4871194379391
            ],
            [
              18.229508196721326,
              58.76814988290403
            ]
          ],
          [
            [
              18.510538641686196,
              58.90866510538643
            ],
            [
              18.370023419203733,
              59.611241217798636
            ],
            [
              17.948477751756457,
              60.03278688524591
            ]
          ],
          [
            [
              11.34426229508199,
              62.0
            ],
            [
              9.517564402810308,
              61.71896955503513
            ],
            [
              8.11241217798596,
              61.71896955503513
            ]
          ],
          [
            [
              4.7400468384075225,
              59.892271662763505
            ],
            [
              4.7400468384075225,
              59.049180327868896
            ],
            [
              4.7400468384075225,
              58.20608899297423
            ],
            [
              4.599531615925059,
              57.503512880562084
            ],
            [
              4.459016393442653,
              56.379391100702605
            ],
            [
              4.459016393442653,
              55.11475409836066
            ],
            [
              4.3185011709601895,
              54.69320843091339
            ]
          ],
          [
            [
              8.533957845433292,
              46.402810304449645
            ],
            [
              8.533957845433292,
              45.7002341920375
            ],
            [
              8.955503512880568,
              45.278688524590166
            ],
            [
              9.377049180327901,
              44.997658079625296
            ]
          ],
          [
            [
              11.484777517564396,
              42.04683840749419
            ],
            [
              11.06323185011712,
              41.48477751756445
            ],
            [
              10.079625292740047,
              40.92271662763466
            ],
            [
              9.096018735363032,
              39.93911007025764
            ]
          ]
        ]
      }
    }
  ]
}