{
  "type": "FeatureCollection",
  "crs": {
    "type": "name",
    "properties": {
      "name": "urn:ogc:def:crs:OGC:1.3:CRS84"
    }
  },
  "features": [
    {
      "type": "Feature",
      "properties": {
        "timestamp": "2026-05-03T14:41:58.247210",
        "country_name": "Cuba",
        "author": "",
        "author_id": "617f305b-de16-4976-91a6-ee57f5787684",
        "validated": true,
        "ranking": [
          [
            "Cuba",
            0.7819040417671204
          ],
          [
            "Samoa",
            0.04191707447171211
          ],
          [
            "Nepal",
            0.018301216885447502
          ],
          [
            "Bahamas",
            0.018062936142086983
          ],
          [
            "Turks and Caicos Islands",
            0.01262094546109438
          ],
          [
            "South Georgia Islands",
            0.012607520446181297
          ],
          [
            "Mexico",
            0.012127134948968887
          ],
          [
            "United States of America",
            0.010189201682806015
          ],
          [
            "Georgia",
            0.009872774593532085
          ],
          [
            "Jamaica",
            0.00980891939252615
          ],
          [
            "Tajikistan",
            0.00686264131218195
          ],
          [
            "Uzbekistan",
            0.006574096158146858
          ],
          [
            "Indonesia",
            0.0059089637361466885
          ],
          [
            "Italy",
            0.0034110317938029766
          ],
          [
            "Laos",
            0.0033841384574770927
          ],
          [
            "Puerto Rico",
            0.002784555312246084
          ],
          [
            "Turkmenistan",
            0.0026602894067764282
          ],
          [
            "El Salvador",
            0.002510241698473692
          ],
          [
            "Russia",
            0.0024587232619524
          ],
          [
            "Eritrea",
            0.002350136637687683
          ],
          [
            "Turkey",
            0.0018800016259774566
          ],
          [
            "Falkland Islands",
            0.0018370242323726416
          ],
          [
            "Solomon Islands",
            0.0018301170784980059
          ],
          [
            "Heard and McDonald Islands",
            0.0015835671219974756
          ],
          [
            "Mongolia",
            0.0015160805778577924
          ],
          [
            "Czech Republic",
            0.0009649182320572436
          ],
          [
            "Papua New Guinea",
            0.0009601101046428084
          ],
          [
            "Latvia",
            0.0009073319961316884
          ],
          [
            "Kyrgyzstan",
            0.0008913998026400805
          ],
          [
            "Gambia",
            0.0008539623813703656
          ],
          [
            "Guinea-Bissau",
            0.000786971184425056
          ],
          [
            "Slovakia",
            0.0006893539684824646
          ],
          [
            "New Caledonia",
            0.0006828110781498253
          ],
          [
            "Peru",
            0.0006671642186120152
          ],
          [
            "Panama",
            0.0005747323157265782
          ],
          [
            "Kazakhstan",
            0.0005261340411379933
          ],
          [
            "Bangladesh",
            0.0005193076212890446
          ],
          [
            "Costa Rica",
            0.00048682375927455723
          ],
          [
            "Svalbard",
            0.000467707053758204
          ],
          [
            "Ethiopia",
            0.0004562369140330702
          ],
          [
            "Saudi Arabia",
            0.0004458790645003319
          ],
          [
            "Guadeloupe",
            0.00044156707008369267
          ],
          [
            "Ecuador",
            0.0003863791935145855
          ],
          [
            "Armenia",
            0.00038324808701872826
          ],
          [
            "Malawi",
            0.00037177716149017215
          ],
          [
            "Guyana",
            0.00036246326635591686
          ],
          [
            "Barbados",
            0.0003593442670535296
          ],
          [
            "Vanuatu",
            0.0003579023468773812
          ],
          [
            "Dominican Republic",
            0.00033283900120295584
          ],
          [
            "Estonia",
            0.00033256487222388387
          ],
          [
            "Guinea",
            0.0003314187051728368
          ],
          [
            "Honduras",
            0.000316091813147068
          ],
          [
            "Timor-Leste",
            0.00028165901312604547
          ],
          [
            "Hong Kong",
            0.00026019851793535054
          ],
          [
            "Comoros",
            0.0002548968477640301
          ],
          [
            "Guatemala",
            0.00024694897001609206
          ],
          [
            "Luxembourg",
            0.0002447982842568308
          ],
          [
            "Ukraine",
            0.0002374794421484694
          ],
          [
            "Sri Lanka",
            0.00023735626018606126
          ],
          [
            "Switzerland",
            0.00023051125754136592
          ],
          [
            "Malaysia",
            0.000229608645895496
          ],
          [
            "Zambia",
            0.00022557124611921608
          ],
          [
            "Kiribati",
            0.00021212294814176857
          ],
          [
            "Yemen",
            0.00020080678223166615
          ],
          [
            "Bhutan",
            0.0001967613643500954
          ],
          [
            "Philippines",
            0.00019241908739786595
          ],
          [
            "Serbia",
            0.00018536060815677047
          ],
          [
            "Romania",
            0.00018247292609885335
          ],
          [
            "South Korea",
            0.00016971469449345022
          ],
          [
            "Rwanda",
            0.00015713176981080323
          ],
          [
            "Denmark",
            0.00015564334171358496
          ],
          [
            "Cyprus",
            0.0001527674903627485
          ],
          [
            "Azerbaijan",
            0.00015224215167108923
          ],
          [
            "Madeira Islands",
            0.000148176375660114
          ],
          [
            "Central African Republic",
            0.0001391308760503307
          ],
          [
            "South Africa",
            0.00013759310240857303
          ],
          [
            "Vietnam",
            0.00013099161151330918
          ],
          [
            "Myanmar",
            0.00012835414963774383
          ],
          [
            "Canada",
            0.0001282217854168266
          ],
          [
            "France",
            0.0001266047329409048
          ],
          [
            "Iraq",
            0.00012128893285989761
          ],
          [
            "Albania",
            0.00012126324872951955
          ],
          [
            "Netherlands Antilles",
            0.00011977805115748197
          ],
          [
            "Faroe Islands",
            0.00011596495460253209
          ],
          [
            "Gabon",
            0.00011058236850658432
          ],
          [
            "Iceland",
            0.00010541865776758641
          ],
          [
            "Djibouti",
            0.00010047019168268889
          ],
          [
            "Burkina Faso",
            0.000100272438430693
          ],
          [
            "United Kingdom",
            9.876437252387404e-05
          ],
          [
            "Bolivia",
            9.83763238764368e-05
          ],
          [
            "South Sudan",
            9.628530824556947e-05
          ],
          [
            "Mozambique",
            9.622472862247378e-05
          ],
          [
            "China",
            9.545477951178327e-05
          ],
          [
            "Martinique",
            9.128150122705847e-05
          ],
          [
            "Bahrain",
            9.038700954988599e-05
          ],
          [
            "Spain",
            8.907245501177385e-05
          ],
          [
            "Tunisia",
            8.730267290957272e-05
          ],
          [
            "Togo",
            8.60119762364775e-05
          ],
          [
            "Greece",
            8.599016291555017e-05
          ],
          [
            "Fiji",
            8.295675070257857e-05
          ],
          [
            "Somalia",
            7.870142871979624e-05
          ],
          [
            "Croatia",
            7.827312947483733e-05
          ],
          [
            "North Macedonia",
            7.629881292814389e-05
          ],
          [
            "Belgium",
            6.971882248762995e-05
          ],
          [
            "Angola",
            6.833722727606073e-05
          ],
          [
            "Benin",
            6.730277527822182e-05
          ],
          [
            "Nicaragua",
            6.223361560842022e-05
          ],
          [
            "Cape Verde",
            6.18204940110445e-05
          ],
          [
            "Burundi",
            6.17721671005711e-05
          ],
          [
            "Australia",
            6.039821164449677e-05
          ],
          [
            "Algeria",
            5.602043165708892e-05
          ],
          [
            "Lithuania",
            5.466565926326439e-05
          ],
          [
            "New Zealand",
            5.2751747716683894e-05
          ],
          [
            "Bulgaria",
            5.244375643087551e-05
          ],
          [
            "Belize",
            5.139302447787486e-05
          ],
          [
            "India",
            5.097304892842658e-05
          ],
          [
            "Senegal",
            4.960324440617114e-05
          ],
          [
            "Qatar",
            4.798898225999437e-05
          ],
          [
            "Thailand",
            4.698652628576383e-05
          ],
          [
            "Hungary",
            4.671959322877228e-05
          ],
          [
            "Slovenia",
            4.595362042891793e-05
          ],
          [
            "Lesotho",
            4.542760143522173e-05
          ],
          [
            "Syria",
            4.5053366193315014e-05
          ],
          [
            "Belarus",
            4.456960232346319e-05
          ],
          [
            "Moldova",
            4.29523570346646e-05
          ],
          [
            "Liberia",
            4.226975215715356e-05
          ],
          [
            "Eswatini",
            4.113673639949411e-05
          ],
          [
            "Uganda",
            4.0975890442496166e-05
          ],
          [
            "Equatorial Guinea",
            4.092519884579815e-05
          ],
          [
            "Paraguay",
            4.0678263758309186e-05
          ],
          [
            "Greenland",
            3.944658601540141e-05
          ],
          [
            "Namibia",
            3.936721259378828e-05
          ],
          [
            "Brunei",
            3.910453597200103e-05
          ],
          [
            "Israel",
            3.8886537367943674e-05
          ],
          [
            "Ireland",
            3.7201036320766434e-05
          ],
          [
            "Uruguay",
            3.53853938577231e-05
          ],
          [
            "Mauritania",
            3.5257460694992915e-05
          ],
          [
            "Colombia",
            3.4354510717093945e-05
          ],
          [
            "Ghana",
            3.3028456527972594e-05
          ],
          [
            "Brazil",
            3.0447963581536897e-05
          ],
          [
            "Venezuela",
            3.0294224416138604e-05
          ],
          [
            "Zimbabwe",
            2.845878952939529e-05
          ],
          [
            "Saint Lucia",
            2.7834399588755332e-05
          ],
          [
            "Trinidad and Tobago",
            2.745324673014693e-05
          ],
          [
            "Montenegro",
            2.697169838938862e-05
          ],
          [
            "Finland",
            2.6916553906630725e-05
          ],
          [
            "Sierra Leone",
            2.5852141334326006e-05
          ],
          [
            "Niger",
            2.500819755368866e-05
          ],
          [
            "Chile",
            2.494536056474317e-05
          ],
          [
            "Argentina",
            2.373647475906182e-05
          ],
          [
            "Iran",
            2.3551576305180788e-05
          ],
          [
            "Sudan",
            2.3158643671195023e-05
          ],
          [
            "Jordan",
            2.260543806187343e-05
          ],
          [
            "Kuwait",
            2.247765769425314e-05
          ],
          [
            "Guam",
            2.2419342712964863e-05
          ],
          [
            "Austria",
            2.2216803699848242e-05
          ],
          [
            "Dominica",
            2.133221823896747e-05
          ],
          [
            "Portugal",
            2.0946565200574696e-05
          ],
          [
            "Afghanistan",
            1.954405706783291e-05
          ],
          [
            "Suriname",
            1.9104469174635597e-05
          ],
          [
            "Côte d'Ivoire",
            1.8609380276757292e-05
          ],
          [
            "Sweden",
            1.784234154911246e-05
          ],
          [
            "Cambodia",
            1.7582682630745694e-05
          ],
          [
            "Taiwan",
            1.6515637980774045e-05
          ],
          [
            "Germany",
            1.6130437870742753e-05
          ],
          [
            "Egypt",
            1.5117175280465744e-05
          ],
          [
            "Congo",
            1.4538128198182676e-05
          ],
          [
            "Kenya",
            1.2982126463612076e-05
          ],
          [
            "DR Congo",
            1.2806503946194425e-05
          ],
          [
            "United Arab Emirates",
            1.2610939847945701e-05
          ],
          [
            "Mali",
            1.235860418091761e-05
          ],
          [
            "Cameroon",
            1.2267411875654943e-05
          ],
          [
            "Norway",
            1.1166581316501833e-05
          ],
          [
            "Bosnia & Herzegovina",
            1.0963682143483311e-05
          ],
          [
            "North Korea",
            1.083080678654369e-05
          ],
          [
            "Netherlands",
            1.0768988431664184e-05
          ],
          [
            "Nigeria",
            1.0274390660924837e-05
          ],
          [
            "Reunion",
            1.0214423127763439e-05
          ],
          [
            "French Guiana",
            9.932728971762117e-06
          ],
          [
            "Western Sahara",
            9.480623702984303e-06
          ],
          [
            "Antigua & Barbuda",
            9.08016681933077e-06
          ],
          [
            "Japan",
            8.85407098394353e-06
          ],
          [
            "Oman",
            8.107227586151566e-06
          ],
          [
            "Sao Tome and Principe",
            7.766810995235574e-06
          ],
          [
            "Botswana",
            7.640815056220163e-06
          ],
          [
            "Isle of Man",
            7.34797322365921e-06
          ],
          [
            "United States Virgin Islands",
            7.033398105704691e-06
          ],
          [
            "West Bank",
            6.8400045165617485e-06
          ],
          [
            "Libya",
            5.5249383876798674e-06
          ],
          [
            "Chad",
            5.375369255489204e-06
          ],
          [
            "Mayotte",
            5.249977675703121e-06
          ],
          [
            "Poland",
            4.701742909674067e-06
          ],
          [
            "Haiti",
            4.2029510041174944e-06
          ],
          [
            "Tanzania",
            4.139227257837774e-06
          ],
          [
            "Pakistan",
            3.8560501707252115e-06
          ],
          [
            "Morocco",
            2.9910047487646807e-06
          ],
          [
            "Lebanon",
            2.974336211991613e-06
          ],
          [
            "Madagascar",
            2.7717992452380713e-06
          ],
          [
            "Palau",
            2.3236505057866452e-06
          ]
        ]
      },
      "geometry": {
        "type": "MultiLineString",
        "coordinates": [
          [
            [
              3.5151515151515014,
              39.424242424242436
            ],
            [
              9.272727272727252,
              42.45454545454547
            ],
            [
              11.696969696969688,
              43.666666666666686
            ],
            [
              12.606060606060595,
              43.969696969697
            ],
            [
              14.121212121212125,
              44.27272727272728
            ],
            [
              15.030303030303031,
              44.57575757575759
            ],
            [
              16.24242424242425,
              44.57575757575759
            ],
            [
              18.060606060606062,
              44.57575757575759
            ],
            [
              19.575757575757564,
              44.57575757575759
            ],
            [
              21.69696969696969,
              44.57575757575759
            ],
            [
              22.909090909090907,
              44.57575757575759
            ],
            [
              24.424242424242436,
              44.57575757575759
            ],
            [
              25.636363636363626,
              44.27272727272728
            ],
            [
              27.151515151515156,
              43.969696969697
            ],
            [
              28.363636363636374,
              43.666666666666686
            ],
            [
              29.878787878787875,
              43.363636363636374
            ],
            [
              31.090909090909093,
              42.75757575757578
            ],
            [
              32.30303030303031,
              42.45454545454547
            ],
            [
              33.21212121212122,
              41.84848484848487
            ],
            [
              34.72727272727272,
              41.54545454545456
            ],
            [
              35.93939393939394,
              40.939393939393966
            ],
            [
              37.151515151515156,
              40.33333333333334
            ],
            [
              38.363636363636374,
              39.424242424242436
            ],
            [
              39.27272727272725,
              38.51515151515153
            ],
            [
              40.18181818181819,
              37.909090909090935
            ],
            [
              42.0,
              35.4848484848485
            ],
            [
              42.90909090909091,
              34.27272727272728
            ],
            [
              43.81818181818181,
              33.969696969697
            ],
            [
              45.333333333333314,
              33.363636363636374
            ],
            [
              46.24242424242425,
              33.06060606060609
            ],
            [
              47.15151515151513,
              32.45454545454547
            ],
            [
              48.363636363636374,
              31.54545454545456
            ],
            [
              49.27272727272725,
              30.333333333333343
            ],
            [
              51.09090909090909,
              29.121212121212153
            ],
            [
              52.30303030303031,
              28.212121212121218
            ],
            [
              53.21212121212119,
              27.30303030303031
            ],
            [
              54.121212121212125,
              26.696969696969717
            ],
            [
              55.333333333333314,
              25.4848484848485
            ],
            [
              56.54545454545456,
              24.575757575757592
            ],
            [
              57.45454545454544,
              23.96969696969697
            ],
            [
              58.363636363636374,
              23.06060606060609
            ],
            [
              59.27272727272725,
              22.75757575757578
            ],
            [
              60.18181818181819,
              22.151515151515156
            ],
            [
              61.09090909090909,
              21.848484848484873
            ],
            [
              62.0,
              20.939393939393966
            ],
            [
              61.09090909090909,
              20.636363636363654
            ],
            [
              59.878787878787875,
              20.03030303030303
            ],
            [
              58.96969696969697,
              19.727272727272748
            ],
            [
              58.06060606060606,
              19.424242424242436
            ],
            [
              56.848484848484844,
              19.424242424242436
            ],
            [
              55.636363636363626,
              19.424242424242436
            ],
            [
              54.121212121212125,
              19.424242424242436
            ],
            [
              52.60606060606062,
              19.424242424242436
            ],
            [
              51.39393939393938,
              19.424242424242436
            ],
            [
              49.878787878787875,
              19.424242424242436
            ],
            [
              48.06060606060606,
              19.424242424242436
            ],
            [
              46.848484848484844,
              19.424242424242436
            ],
            [
              45.333333333333314,
              19.424242424242436
            ],
            [
              44.72727272727272,
              20.636363636363654
            ],
            [
              45.03030303030303,
              21.54545454545456
            ],
            [
              45.93939393939394,
              22.454545454545467
            ],
            [
              46.848484848484844,
              23.363636363636402
            ],
            [
              47.15151515151513,
              24.27272727272728
            ],
            [
              46.24242424242425,
              24.575757575757592
            ],
            [
              45.03030303030303,
              25.181818181818215
            ],
            [
              44.121212121212125,
              25.78787878787881
            ],
            [
              42.90909090909091,
              26.090909090909093
            ],
            [
              41.69696969696969,
              26.696969696969717
            ],
            [
              40.78787878787878,
              27.30303030303031
            ],
            [
              39.575757575757564,
              27.909090909090935
            ],
            [
              38.66666666666666,
              28.81818181818184
            ],
            [
              37.75757575757575,
              29.727272727272748
            ],
            [
              36.54545454545453,
              30.939393939393966
            ],
            [
              35.636363636363626,
              31.848484848484873
            ],
            [
              34.72727272727272,
              32.75757575757578
            ],
            [
              33.81818181818181,
              33.666666666666686
            ],
            [
              32.606060606060595,
              34.57575757575759
            ],
            [
              31.393939393939377,
              35.181818181818215
            ],
            [
              30.181818181818187,
              35.78787878787881
            ],
            [
              28.666666666666657,
              36.09090909090909
            ],
            [
              27.45454545454544,
              36.393939393939405
            ],
            [
              26.24242424242425,
              36.393939393939405
            ],
            [
              25.03030303030303,
              36.393939393939405
            ],
            [
              23.818181818181813,
              36.393939393939405
            ],
            [
              22.606060606060595,
              36.393939393939405
            ],
            [
              21.090909090909093,
              36.393939393939405
            ],
            [
              19.575757575757564,
              36.393939393939405
            ],
            [
              18.363636363636374,
              37.00000000000003
            ],
            [
              16.848484848484844,
              37.00000000000003
            ],
            [
              15.636363636363626,
              36.393939393939405
            ],
            [
              16.545454545454533,
              36.69696969696972
            ],
            [
              17.75757575757575,
              37.909090909090935
            ],
            [
              17.75757575757575,
              39.12121212121215
            ],
            [
              16.848484848484844,
              39.424242424242436
            ],
            [
              15.333333333333314,
              39.12121212121215
            ],
            [
              14.424242424242436,
              38.51515151515153
            ],
            [
              13.21212121212119,
              38.51515151515153
            ],
            [
              12.303030303030312,
              38.21212121212122
            ],
            [
              11.393939393939377,
              37.909090909090935
            ],
            [
              9.878787878787875,
              37.909090909090935
            ],
            [
              8.666666666666657,
              37.909090909090935
            ],
            [
              7.454545454545439,
              37.909090909090935
            ],
            [
              6.242424242424249,
              37.60606060606062
            ],
            [
              5.333333333333314,
              37.30303030303031
            ],
            [
              4.424242424242408,
              36.69696969696972
            ],
            [
              3.5151515151515014,
              36.393939393939405
            ],
            [
              2.3030303030303116,
              37.00000000000003
            ],
            [
              2.0,
              37.909090909090935
            ],
            [
              2.0,
              39.12121212121215
            ],
            [
              2.0,
              40.33333333333334
            ],
            [
              2.606060606060595,
              41.24242424242428
            ],
            [
              3.818181818181813,
              41.24242424242428
            ],
            [
              5.030303030303031,
              41.24242424242428
            ],
            [
              6.242424242424249,
              40.939393939393966
            ],
            [
              7.151515151515156,
              40.636363636363654
            ]
          ],
          [
            [
              9.878787878787875,
              27.00000000000003
            ],
            [
              8.969696969696969,
              26.696969696969717
            ],
            [
              8.363636363636374,
              27.606060606060623
            ],
            [
              8.666666666666657,
              28.51515151515153
            ],
            [
              9.575757575757564,
              28.81818181818184
            ],
            [
              10.48484848484847,
              29.121212121212153
            ],
            [
              11.393939393939377,
              28.81818181818184
            ],
            [
              10.48484848484847,
              27.909090909090935
            ],
            [
              9.575757575757564,
              27.606060606060623
            ],
            [
              9.272727272727252,
              26.696969696969717
            ],
            [
              10.181818181818187,
              26.393939393939405
            ]
          ]
        ]
      }
    }
  ]
}