{
  "type": "FeatureCollection",
  "crs": {
    "type": "name",
    "properties": {
      "name": "urn:ogc:def:crs:OGC:1.3:CRS84"
    }
  },
  "features": [
    {
      "type": "Feature",
      "properties": {
        "timestamp": "2026-06-02T14:14:46.066941",
        "country_name": "Cuba",
        "author": "",
        "author_id": "01365b30-5a38-40c0-849f-265290e1b119",
        "validated": false,
        "ranking": [
          [
            "South Georgia Islands",
            0.10039029270410538
          ],
          [
            "Mexico",
            0.08780137449502945
          ],
          [
            "Georgia",
            0.06693611294031143
          ],
          [
            "Turkmenistan",
            0.0668853223323822
          ],
          [
            "Heard and McDonald Islands",
            0.05518973246216774
          ],
          [
            "New Caledonia",
            0.04466482251882553
          ],
          [
            "Uzbekistan",
            0.04378626495599747
          ],
          [
            "Turks and Caicos Islands",
            0.039736438542604446
          ],
          [
            "Costa Rica",
            0.0219583623111248
          ],
          [
            "United States of America",
            0.020449962466955185
          ],
          [
            "Jamaica",
            0.018359588459134102
          ],
          [
            "Turkey",
            0.018357032909989357
          ],
          [
            "Bahamas",
            0.015834849327802658
          ],
          [
            "El Salvador",
            0.015303291380405426
          ],
          [
            "Latvia",
            0.014116765931248665
          ],
          [
            "Czech Republic",
            0.014096801169216633
          ],
          [
            "Cuba",
            0.013384146615862846
          ],
          [
            "Tajikistan",
            0.013237718492746353
          ],
          [
            "Indonesia",
            0.012919850647449493
          ],
          [
            "Samoa",
            0.012729521840810776
          ],
          [
            "Saudi Arabia",
            0.0123070627450943
          ],
          [
            "Papua New Guinea",
            0.012148135341703892
          ],
          [
            "Nepal",
            0.011861519888043404
          ],
          [
            "Solomon Islands",
            0.010892747901380062
          ],
          [
            "Ukraine",
            0.010001612827181816
          ],
          [
            "Russia",
            0.009686464443802834
          ],
          [
            "Dominican Republic",
            0.009633263573050499
          ],
          [
            "Kazakhstan",
            0.008754613809287548
          ],
          [
            "Puerto Rico",
            0.007586442865431309
          ],
          [
            "Mongolia",
            0.006605840753763914
          ],
          [
            "Vanuatu",
            0.006557503715157509
          ],
          [
            "Bangladesh",
            0.006295467261224985
          ],
          [
            "Guinea",
            0.006124706007540226
          ],
          [
            "Moldova",
            0.005979746580123901
          ],
          [
            "Madeira Islands",
            0.005556016694754362
          ],
          [
            "Falkland Islands",
            0.005281422752887011
          ],
          [
            "Belgium",
            0.005247433669865131
          ],
          [
            "Svalbard",
            0.004978775978088379
          ],
          [
            "Laos",
            0.0046693990007042885
          ],
          [
            "Bhutan",
            0.004419662989675999
          ],
          [
            "Eritrea",
            0.004296031314879656
          ],
          [
            "Ecuador",
            0.003956908360123634
          ],
          [
            "Italy",
            0.003864649683237076
          ],
          [
            "Guadeloupe",
            0.0037898137234151363
          ],
          [
            "Armenia",
            0.0035605195444077253
          ],
          [
            "Brazil",
            0.0033205230720341206
          ],
          [
            "Cape Verde",
            0.0032271267846226692
          ],
          [
            "Peru",
            0.002978701377287507
          ],
          [
            "Venezuela",
            0.002977570751681924
          ],
          [
            "Panama",
            0.002869680291041732
          ],
          [
            "Malawi",
            0.002823789371177554
          ],
          [
            "Martinique",
            0.0028048513922840357
          ],
          [
            "Kyrgyzstan",
            0.0027943693567067385
          ],
          [
            "Croatia",
            0.002605647314339876
          ],
          [
            "Central African Republic",
            0.0025564683601260185
          ],
          [
            "South Korea",
            0.0025269833859056234
          ],
          [
            "Guinea-Bissau",
            0.0025161043740808964
          ],
          [
            "Slovakia",
            0.0024735925253480673
          ],
          [
            "Paraguay",
            0.002440627897158265
          ],
          [
            "Myanmar",
            0.0024048297200351954
          ],
          [
            "Estonia",
            0.0023836952168494463
          ],
          [
            "Lithuania",
            0.002335549099370837
          ],
          [
            "Switzerland",
            0.002318496583029628
          ],
          [
            "Spain",
            0.0022271135821938515
          ],
          [
            "Thailand",
            0.0021100370213389397
          ],
          [
            "Bahrain",
            0.00208998192101717
          ],
          [
            "Guyana",
            0.001981323352083564
          ],
          [
            "Yemen",
            0.0018770602764561772
          ],
          [
            "Burundi",
            0.0018562854966148734
          ],
          [
            "Iceland",
            0.0018516709096729755
          ],
          [
            "Angola",
            0.001782620558515191
          ],
          [
            "Burkina Faso",
            0.0016995645128190517
          ],
          [
            "Timor-Leste",
            0.001679446897469461
          ],
          [
            "Guatemala",
            0.0016680787084624171
          ],
          [
            "Serbia",
            0.001662390073761344
          ],
          [
            "Romania",
            0.0016539994394406676
          ],
          [
            "Mozambique",
            0.0015659005148336291
          ],
          [
            "Rwanda",
            0.0015634204028174281
          ],
          [
            "Togo",
            0.0015498136635869741
          ],
          [
            "Bolivia",
            0.0015371604822576046
          ],
          [
            "Hong Kong",
            0.0014226854545995593
          ],
          [
            "Somalia",
            0.0014192567905411124
          ],
          [
            "Ethiopia",
            0.0014002894749864936
          ],
          [
            "Benin",
            0.0013708658516407013
          ],
          [
            "Netherlands Antilles",
            0.0013690341729670763
          ],
          [
            "Honduras",
            0.001328975078649819
          ],
          [
            "Dominica",
            0.0013056141324341297
          ],
          [
            "North Macedonia",
            0.0012767204316332936
          ],
          [
            "Comoros",
            0.0012424205197021365
          ],
          [
            "Liberia",
            0.0012218084884807467
          ],
          [
            "Iran",
            0.0012158039025962353
          ],
          [
            "France",
            0.0010960203362628818
          ],
          [
            "Faroe Islands",
            0.0010456363670527935
          ],
          [
            "Australia",
            0.0010006234515458345
          ],
          [
            "Bulgaria",
            0.000969678396359086
          ],
          [
            "Senegal",
            0.0009681759402155876
          ],
          [
            "Gabon",
            0.0008977762772701681
          ],
          [
            "Uruguay",
            0.0008617394487373531
          ],
          [
            "Malaysia",
            0.0008481998811475933
          ],
          [
            "Vietnam",
            0.0008350210846401751
          ],
          [
            "India",
            0.0008306732634082437
          ],
          [
            "Syria",
            0.0008177355630323291
          ],
          [
            "Egypt",
            0.0008174096583388746
          ],
          [
            "Mali",
            0.0008078789105638862
          ],
          [
            "Tunisia",
            0.000741522409953177
          ],
          [
            "Belize",
            0.000718416238669306
          ],
          [
            "South Sudan",
            0.0006402047583833337
          ],
          [
            "New Zealand",
            0.0006369333132170141
          ],
          [
            "Sri Lanka",
            0.000631533213891089
          ],
          [
            "Philippines",
            0.0006072121323086321
          ],
          [
            "Namibia",
            0.0006022466695867479
          ],
          [
            "Equatorial Guinea",
            0.0005631851963698864
          ],
          [
            "Israel",
            0.000554257130715996
          ],
          [
            "Azerbaijan",
            0.0005436768406070769
          ],
          [
            "Bosnia & Herzegovina",
            0.0005305459490045905
          ],
          [
            "Colombia",
            0.0005257549346424639
          ],
          [
            "Greece",
            0.0005172258825041354
          ],
          [
            "Chile",
            0.0005100429989397526
          ],
          [
            "Montenegro",
            0.00046797748655080795
          ],
          [
            "Gambia",
            0.0004663824802264571
          ],
          [
            "Albania",
            0.0004265512980055064
          ],
          [
            "Greenland",
            0.00040720519609749317
          ],
          [
            "Barbados",
            0.0003948161320295185
          ],
          [
            "Iraq",
            0.0003733127668965608
          ],
          [
            "Argentina",
            0.0003681158123072237
          ],
          [
            "Mayotte",
            0.0003652253362815827
          ],
          [
            "Suriname",
            0.0003642034134827554
          ],
          [
            "Nigeria",
            0.0003556886513251811
          ],
          [
            "United Kingdom",
            0.00034722982672974467
          ],
          [
            "Cambodia",
            0.00033146367059089243
          ],
          [
            "Reunion",
            0.00032536208163946867
          ],
          [
            "Austria",
            0.0003237964410800487
          ],
          [
            "Antigua & Barbuda",
            0.0003121221670880914
          ],
          [
            "Sudan",
            0.0003105023643001914
          ],
          [
            "Sierra Leone",
            0.00030798555235378444
          ],
          [
            "Lesotho",
            0.00028740009292960167
          ],
          [
            "Zambia",
            0.0002857809595298022
          ],
          [
            "Uganda",
            0.00028403985197655857
          ],
          [
            "Finland",
            0.00027718234923668206
          ],
          [
            "China",
            0.00027585591305978596
          ],
          [
            "Ireland",
            0.0002700471377465874
          ],
          [
            "Sweden",
            0.0002675043942872435
          ],
          [
            "South Africa",
            0.00026205385802313685
          ],
          [
            "Qatar",
            0.00026092317420989275
          ],
          [
            "Hungary",
            0.00026064066332764924
          ],
          [
            "Fiji",
            0.00025586425908841193
          ],
          [
            "Canada",
            0.00025378208374604583
          ],
          [
            "Jordan",
            0.0002472907362971455
          ],
          [
            "Cyprus",
            0.0002457756781950593
          ],
          [
            "Botswana",
            0.00024442694848403335
          ],
          [
            "Belarus",
            0.00023698355653323233
          ],
          [
            "Algeria",
            0.00023329834220930934
          ],
          [
            "Eswatini",
            0.00022866640938445926
          ],
          [
            "Luxembourg",
            0.00022625554993283004
          ],
          [
            "Oman",
            0.0002183540491387248
          ],
          [
            "French Guiana",
            0.00021785235730931163
          ],
          [
            "Kuwait",
            0.000211752689210698
          ],
          [
            "Congo",
            0.00020240568846929818
          ],
          [
            "Portugal",
            0.00020061730174347758
          ],
          [
            "West Bank",
            0.00019974028691649437
          ],
          [
            "Brunei",
            0.00018634539446793497
          ],
          [
            "Niger",
            0.00017638957069721073
          ],
          [
            "Djibouti",
            0.00016747598419897258
          ],
          [
            "Japan",
            0.0001668653858359903
          ],
          [
            "Guam",
            0.0001627855672268197
          ],
          [
            "Ghana",
            0.00015787262236699462
          ],
          [
            "Mauritania",
            0.00015540812455583364
          ],
          [
            "Kiribati",
            0.0001496373733971268
          ],
          [
            "Libya",
            0.0001461771607864648
          ],
          [
            "United States Virgin Islands",
            0.00014525996812153608
          ],
          [
            "Slovenia",
            0.0001452220167266205
          ],
          [
            "Tanzania",
            0.000142100325319916
          ],
          [
            "Saint Lucia",
            0.00013474153820425272
          ],
          [
            "Côte d'Ivoire",
            0.0001341412280453369
          ],
          [
            "Norway",
            0.00013166695134714246
          ],
          [
            "Sao Tome and Principe",
            0.00012164295912953094
          ],
          [
            "Nicaragua",
            0.00011104483564849943
          ],
          [
            "DR Congo",
            0.00010273084626533091
          ],
          [
            "Denmark",
            0.00010239418043056503
          ],
          [
            "Poland",
            9.99407930066809e-05
          ],
          [
            "Afghanistan",
            9.486509225098416e-05
          ],
          [
            "Kenya",
            9.402994328411296e-05
          ],
          [
            "Taiwan",
            9.317282820120454e-05
          ],
          [
            "Zimbabwe",
            8.973735384643078e-05
          ],
          [
            "Cameroon",
            8.771277498453856e-05
          ],
          [
            "Trinidad and Tobago",
            7.489817653549835e-05
          ],
          [
            "United Arab Emirates",
            6.890829536132514e-05
          ],
          [
            "Germany",
            6.83135149301961e-05
          ],
          [
            "Isle of Man",
            6.600179040106013e-05
          ],
          [
            "Netherlands",
            6.37566190562211e-05
          ],
          [
            "Haiti",
            5.6331275118282065e-05
          ],
          [
            "North Korea",
            5.4065803851699457e-05
          ],
          [
            "Western Sahara",
            4.923197775497101e-05
          ],
          [
            "Palau",
            4.374375203042291e-05
          ],
          [
            "Lebanon",
            3.613717490225099e-05
          ],
          [
            "Chad",
            3.3800810342654586e-05
          ],
          [
            "Morocco",
            2.847117320925463e-05
          ],
          [
            "Pakistan",
            2.6602665457176045e-05
          ],
          [
            "Madagascar",
            2.6567982786218636e-05
          ]
        ]
      },
      "geometry": {
        "type": "MultiLineString",
        "coordinates": [
          [
            [
              38.11842105263156,
              20.05921052631578
            ],
            [
              39.30263157894737,
              20.25657894736841
            ],
            [
              40.68421052631578,
              20.65131578947367
            ],
            [
              42.65789473684208,
              21.04605263157893
            ],
            [
              44.43421052631578,
              21.44078947368419
            ],
            [
              45.2236842105263,
              21.44078947368419
            ],
            [
              46.01315789473682,
              21.44078947368419
            ],
            [
              47.39473684210526,
              21.44078947368419
            ],
            [
              48.38157894736841,
              21.44078947368419
            ],
            [
              49.17105263157893,
              21.44078947368419
            ],
            [
              49.56578947368422,
              20.8486842105263
            ],
            [
              50.75,
              20.65131578947367
            ],
            [
              52.52631578947367,
              20.65131578947367
            ],
            [
              54.5,
              20.05921052631578
            ],
            [
              56.07894736842104,
              19.86184210526315
            ],
            [
              57.65789473684208,
              19.46710526315789
            ],
            [
              58.44736842105263,
              19.46710526315789
            ],
            [
              59.03947368421052,
              19.26973684210526
            ],
            [
              60.2236842105263,
              19.46710526315789
            ],
            [
              60.61842105263156,
              20.25657894736841
            ]
          ],
          [
            [
              59.82894736842104,
              22.625
            ],
            [
              59.43421052631578,
              23.80921052631578
            ],
            [
              59.03947368421052,
              24.5986842105263
            ],
            [
              59.03947368421052,
              25.38815789473682
            ],
            [
              59.03947368421052,
              26.5723684210526
            ],
            [
              59.03947368421052,
              27.36184210526315
            ],
            [
              59.03947368421052,
              28.15131578947367
            ],
            [
              59.03947368421052,
              29.33552631578945
            ],
            [
              58.64473684210526,
              30.125
            ],
            [
              58.25,
              30.71710526315789
            ],
            [
              57.85526315789474,
              31.30921052631578
            ],
            [
              57.26315789473682,
              31.70394736842104
            ],
            [
              56.67105263157893,
              32.0986842105263
            ],
            [
              56.07894736842104,
              32.69078947368419
            ],
            [
              55.88157894736841,
              33.28289473684208
            ],
            [
              55.28947368421052,
              34.66447368421052
            ],
            [
              54.69736842105263,
              35.65131578947367
            ],
            [
              54.5,
              36.24342105263156
            ],
            [
              53.90789473684208,
              36.44078947368419
            ],
            [
              53.11842105263156,
              37.03289473684208
            ],
            [
              52.52631578947367,
              37.23026315789474
            ],
            [
              51.93421052631578,
              37.42763157894734
            ],
            [
              51.53947368421052,
              38.01973684210526
            ],
            [
              50.75,
              38.21710526315789
            ],
            [
              50.15789473684208,
              39.20394736842104
            ],
            [
              49.56578947368422,
              39.99342105263156
            ],
            [
              48.77631578947367,
              40.19078947368419
            ],
            [
              47.98684210526315,
              40.78289473684208
            ],
            [
              47.39473684210526,
              41.375
            ],
            [
              46.80263157894737,
              42.55921052631578
            ],
            [
              46.01315789473682,
              43.15131578947367
            ],
            [
              45.42105263157893,
              43.54605263157893
            ],
            [
              44.43421052631578,
              43.94078947368419
            ],
            [
              43.05263157894737,
              44.13815789473682
            ],
            [
              40.48684210526315,
              44.33552631578945
            ],
            [
              37.7236842105263,
              44.33552631578945
            ],
            [
              32.98684210526315,
              44.33552631578945
            ],
            [
              31.80263157894737,
              44.33552631578945
            ],
            [
              31.21052631578948,
              44.53289473684208
            ],
            [
              30.61842105263156,
              44.92763157894734
            ],
            [
              29.82894736842104,
              45.51973684210526
            ],
            [
              29.03947368421052,
              45.91447368421052
            ],
            [
              27.85526315789474,
              46.70394736842104
            ],
            [
              27.26315789473682,
              47.29605263157893
            ],
            [
              26.4736842105263,
              47.88815789473682
            ],
            [
              25.88157894736841,
              48.28289473684208
            ],
            [
              24.5,
              48.48026315789474
            ],
            [
              23.90789473684208,
              48.67763157894734
            ],
            [
              23.31578947368419,
              49.07236842105263
            ],
            [
              23.11842105263156,
              49.66447368421052
            ],
            [
              22.32894736842104,
              50.25657894736841
            ],
            [
              21.73684210526315,
              50.45394736842104
            ],
            [
              20.94736842105263,
              50.65131578947367
            ],
            [
              19.17105263157893,
              50.65131578947367
            ],
            [
              18.38157894736841,
              50.65131578947367
            ],
            [
              17.39473684210526,
              50.65131578947367
            ],
            [
              16.80263157894737,
              51.04605263157893
            ],
            [
              16.01315789473682,
              51.24342105263156
            ],
            [
              15.2236842105263,
              51.24342105263156
            ],
            [
              14.43421052631578,
              51.24342105263156
            ],
            [
              13.44736842105263,
              51.24342105263156
            ],
            [
              12.46052631578948,
              51.24342105263156
            ],
            [
              10.48684210526315,
              51.24342105263156
            ],
            [
              8.315789473684191,
              50.8486842105263
            ],
            [
              6.73684210526315,
              50.8486842105263
            ],
            [
              5.75,
              50.8486842105263
            ],
            [
              4.96052631578948,
              50.65131578947367
            ],
            [
              3.973684210526301,
              50.25657894736841
            ],
            [
              2.9868421052631504,
              49.86184210526315
            ],
            [
              2.19736842105263,
              49.66447368421052
            ],
            [
              2.0,
              49.07236842105263
            ],
            [
              2.5921052631578902,
              48.875
            ],
            [
              4.171052631578931,
              48.08552631578945
            ],
            [
              5.55263157894737,
              47.0986842105263
            ],
            [
              6.53947368421052,
              46.50657894736841
            ],
            [
              7.131578947368411,
              45.91447368421052
            ],
            [
              7.723684210526301,
              45.125
            ],
            [
              8.315789473684191,
              44.73026315789474
            ],
            [
              8.90789473684211,
              44.33552631578945
            ],
            [
              9.69736842105263,
              43.74342105263156
            ],
            [
              10.48684210526315,
              43.3486842105263
            ],
            [
              11.868421052631561,
              43.3486842105263
            ],
            [
              12.85526315789474,
              43.3486842105263
            ],
            [
              13.44736842105263,
              43.15131578947367
            ],
            [
              13.44736842105263,
              42.36184210526315
            ],
            [
              13.25,
              40.58552631578945
            ],
            [
              13.25,
              39.40131578947367
            ],
            [
              13.64473684210526,
              38.01973684210526
            ],
            [
              14.43421052631578,
              37.82236842105263
            ],
            [
              16.01315789473682,
              37.82236842105263
            ],
            [
              18.38157894736841,
              38.21710526315789
            ],
            [
              20.94736842105263,
              38.80921052631578
            ],
            [
              22.52631578947367,
              39.20394736842104
            ],
            [
              23.71052631578948,
              39.20394736842104
            ],
            [
              25.09210526315789,
              38.80921052631578
            ],
            [
              25.88157894736841,
              38.41447368421052
            ],
            [
              26.4736842105263,
              37.82236842105263
            ],
            [
              27.06578947368419,
              37.625
            ],
            [
              27.85526315789474,
              37.03289473684208
            ],
            [
              28.64473684210526,
              36.44078947368419
            ],
            [
              28.84210526315789,
              35.65131578947367
            ],
            [
              28.84210526315789,
              34.86184210526315
            ],
            [
              28.84210526315789,
              34.0723684210526
            ],
            [
              28.84210526315789,
              33.08552631578945
            ],
            [
              28.84210526315789,
              32.29605263157893
            ],
            [
              27.85526315789474,
              32.29605263157893
            ],
            [
              26.67105263157893,
              31.90131578947367
            ],
            [
              26.07894736842104,
              31.70394736842104
            ],
            [
              26.67105263157893,
              31.30921052631578
            ],
            [
              26.86842105263156,
              30.71710526315789
            ],
            [
              26.86842105263156,
              29.92763157894734
            ],
            [
              27.65789473684208,
              29.33552631578945
            ],
            [
              28.25,
              28.74342105263156
            ],
            [
              29.43421052631578,
              28.15131578947367
            ],
            [
              30.42105263157893,
              27.55921052631578
            ],
            [
              31.60526315789474,
              26.5723684210526
            ],
            [
              32.0,
              25.78289473684208
            ],
            [
              32.59210526315789,
              25.19078947368419
            ],
            [
              32.78947368421052,
              24.5986842105263
            ],
            [
              32.98684210526315,
              23.80921052631578
            ],
            [
              33.38157894736841,
              22.625
            ],
            [
              33.77631578947367,
              21.83552631578945
            ],
            [
              34.17105263157893,
              21.24342105263156
            ],
            [
              34.76315789473682,
              20.65131578947367
            ],
            [
              35.94736842105263,
              20.45394736842104
            ],
            [
              36.53947368421052,
              20.05921052631578
            ],
            [
              37.32894736842104,
              19.86184210526315
            ],
            [
              37.92105263157893,
              19.46710526315789
            ],
            [
              38.71052631578948,
              18.875
            ],
            [
              39.69736842105263,
              18.28289473684208
            ],
            [
              40.48684210526315,
              18.08552631578945
            ]
          ],
          [
            [
              60.61842105263156,
              22.23026315789474
            ],
            [
              60.02631578947367,
              20.8486842105263
            ],
            [
              59.43421052631578,
              20.05921052631578
            ],
            [
              59.03947368421052,
              19.0723684210526
            ],
            [
              59.03947368421052,
              18.28289473684208
            ],
            [
              59.03947368421052,
              17.49342105263156
            ],
            [
              59.43421052631578,
              16.70394736842104
            ],
            [
              60.02631578947367,
              15.91447368421052
            ],
            [
              60.42105263157896,
              15.125
            ],
            [
              61.40789473684208,
              13.940789473684191
            ],
            [
              61.80263157894734,
              13.3486842105263
            ],
            [
              62.0,
              12.75657894736841
            ]
          ]
        ]
      }
    }
  ]
}