{
  "type": "FeatureCollection",
  "crs": {
    "type": "name",
    "properties": {
      "name": "urn:ogc:def:crs:OGC:1.3:CRS84"
    }
  },
  "features": [
    {
      "type": "Feature",
      "properties": {
        "timestamp": "2026-05-24T11:46:26.501181",
        "country_name": "Czech Republic",
        "author": "",
        "author_id": "46c9350f-f639-4f02-bc7b-e956b264c25f",
        "validated": false,
        "ranking": [
          [
            "Czech Republic",
            0.48120036721229553
          ],
          [
            "Bhutan",
            0.12050551176071167
          ],
          [
            "Romania",
            0.07045601308345795
          ],
          [
            "El Salvador",
            0.020102648064494133
          ],
          [
            "Saudi Arabia",
            0.01930837146937847
          ],
          [
            "Turkmenistan",
            0.01820426806807518
          ],
          [
            "Ethiopia",
            0.014237956143915653
          ],
          [
            "Switzerland",
            0.012282539159059525
          ],
          [
            "Heard and McDonald Islands",
            0.011498118750751019
          ],
          [
            "Turkey",
            0.009733723476529121
          ],
          [
            "Madeira Islands",
            0.009579052217304707
          ],
          [
            "Algeria",
            0.009162204340100288
          ],
          [
            "Latvia",
            0.00828478578478098
          ],
          [
            "Kazakhstan",
            0.00823174323886633
          ],
          [
            "Mongolia",
            0.007460877299308777
          ],
          [
            "Lithuania",
            0.006950629409402609
          ],
          [
            "South Sudan",
            0.006358305457979441
          ],
          [
            "Honduras",
            0.00626434525474906
          ],
          [
            "Ukraine",
            0.006263969000428915
          ],
          [
            "Gabon",
            0.0057078213430941105
          ],
          [
            "North Macedonia",
            0.005093658808618784
          ],
          [
            "Azerbaijan",
            0.004926727619022131
          ],
          [
            "Zimbabwe",
            0.004690126981586218
          ],
          [
            "Nicaragua",
            0.0044445861130952835
          ],
          [
            "Iran",
            0.004234005697071552
          ],
          [
            "Burkina Faso",
            0.003748853923752904
          ],
          [
            "Colombia",
            0.0036543156020343304
          ],
          [
            "Rwanda",
            0.0034863704349845648
          ],
          [
            "Uruguay",
            0.0034815429244190454
          ],
          [
            "Tajikistan",
            0.003466650377959013
          ],
          [
            "Senegal",
            0.003299576696008444
          ],
          [
            "Guadeloupe",
            0.0032344891224056482
          ],
          [
            "Estonia",
            0.0031786873005330563
          ],
          [
            "Suriname",
            0.0030806513968855143
          ],
          [
            "Iraq",
            0.0028577956836670637
          ],
          [
            "Belarus",
            0.0027618599124252796
          ],
          [
            "Reunion",
            0.0026875375770032406
          ],
          [
            "Sierra Leone",
            0.002501369919627905
          ],
          [
            "Slovakia",
            0.0024483941961079836
          ],
          [
            "Puerto Rico",
            0.0023141391575336456
          ],
          [
            "Dominican Republic",
            0.002150992164388299
          ],
          [
            "Iceland",
            0.00213503441773355
          ],
          [
            "Yemen",
            0.0021086479537189007
          ],
          [
            "Ecuador",
            0.002061086241155863
          ],
          [
            "Australia",
            0.0020549744367599487
          ],
          [
            "Belgium",
            0.001974245300516486
          ],
          [
            "Russia",
            0.0019260967383161187
          ],
          [
            "Georgia",
            0.0018538644071668386
          ],
          [
            "Lesotho",
            0.0016790424706414342
          ],
          [
            "Serbia",
            0.0016534244641661644
          ],
          [
            "Montenegro",
            0.0016206465661525726
          ],
          [
            "Kenya",
            0.0015533373225480318
          ],
          [
            "Tanzania",
            0.0015369984321296215
          ],
          [
            "Poland",
            0.001370232435874641
          ],
          [
            "Comoros",
            0.0013181091053411365
          ],
          [
            "Cape Verde",
            0.0012911978410556912
          ],
          [
            "Martinique",
            0.0012849306222051382
          ],
          [
            "Liberia",
            0.0012680484214797616
          ],
          [
            "Papua New Guinea",
            0.001245715655386448
          ],
          [
            "Jamaica",
            0.0012346996227279305
          ],
          [
            "Angola",
            0.0011502258712425828
          ],
          [
            "France",
            0.0010974317556247115
          ],
          [
            "Netherlands Antilles",
            0.0009952400578185916
          ],
          [
            "Eswatini",
            0.0009916966082528234
          ],
          [
            "Burundi",
            0.0009443885064683855
          ],
          [
            "Bangladesh",
            0.0009403944713994861
          ],
          [
            "DR Congo",
            0.0009388854377903044
          ],
          [
            "Bolivia",
            0.0008953355718404055
          ],
          [
            "Kyrgyzstan",
            0.0008483643759973347
          ],
          [
            "Central African Republic",
            0.0008217832073569298
          ],
          [
            "Croatia",
            0.0007753229001536965
          ],
          [
            "Peru",
            0.0007679552072659135
          ],
          [
            "Bosnia & Herzegovina",
            0.0007554437033832073
          ],
          [
            "Niger",
            0.0007289766799658537
          ],
          [
            "Cambodia",
            0.0007275473326444626
          ],
          [
            "United States of America",
            0.0007122746901586652
          ],
          [
            "Hungary",
            0.0006867107003927231
          ],
          [
            "Côte d'Ivoire",
            0.0006705395062454045
          ],
          [
            "Bulgaria",
            0.0006682362873107195
          ],
          [
            "China",
            0.0006575337611138821
          ],
          [
            "Mexico",
            0.00063946726731956
          ],
          [
            "Belize",
            0.0006342392298392951
          ],
          [
            "Paraguay",
            0.0006168034160509706
          ],
          [
            "Hong Kong",
            0.0006125008803792298
          ],
          [
            "Panama",
            0.0006123209604993463
          ],
          [
            "India",
            0.0005951663479208946
          ],
          [
            "Guinea",
            0.0005847903084941208
          ],
          [
            "Uzbekistan",
            0.0005825049011036754
          ],
          [
            "Guyana",
            0.0005813117022626102
          ],
          [
            "Libya",
            0.0005341471987776458
          ],
          [
            "Falkland Islands",
            0.0005311248241923749
          ],
          [
            "Syria",
            0.0005274692666716874
          ],
          [
            "Malaysia",
            0.0005124707822687924
          ],
          [
            "Germany",
            0.0005045064608566463
          ],
          [
            "Uganda",
            0.0004898843471892178
          ],
          [
            "Solomon Islands",
            0.0004877027531620115
          ],
          [
            "Sudan",
            0.0004800381720997393
          ],
          [
            "Kuwait",
            0.00046603454393334687
          ],
          [
            "Botswana",
            0.00044418126344680786
          ],
          [
            "South Georgia Islands",
            0.00043746421579271555
          ],
          [
            "Antigua & Barbuda",
            0.00043220847146585584
          ],
          [
            "Myanmar",
            0.0004307657654862851
          ],
          [
            "Sri Lanka",
            0.00042941138963215053
          ],
          [
            "Cuba",
            0.0004155715578235686
          ],
          [
            "Vanuatu",
            0.0004084215615876019
          ],
          [
            "Bahamas",
            0.0004074054304510355
          ],
          [
            "Indonesia",
            0.0003947496588807553
          ],
          [
            "Luxembourg",
            0.00039309595013037324
          ],
          [
            "Benin",
            0.0003887971688527614
          ],
          [
            "Venezuela",
            0.00038437164039351046
          ],
          [
            "Mali",
            0.00037189331487752497
          ],
          [
            "Barbados",
            0.0003645799297373742
          ],
          [
            "Mozambique",
            0.00035942569957114756
          ],
          [
            "Togo",
            0.00034474703716114163
          ],
          [
            "South Korea",
            0.0003331462503410876
          ],
          [
            "Guatemala",
            0.0003307794686406851
          ],
          [
            "Spain",
            0.0003271565947216004
          ],
          [
            "Egypt",
            0.00031542315264232457
          ],
          [
            "Qatar",
            0.0003093506384175271
          ],
          [
            "French Guiana",
            0.00030863104620948434
          ],
          [
            "Slovenia",
            0.0003039794974029064
          ],
          [
            "New Caledonia",
            0.000295067933620885
          ],
          [
            "Costa Rica",
            0.0002841691893991083
          ],
          [
            "Nigeria",
            0.0002833249163813889
          ],
          [
            "Namibia",
            0.0002686378138605505
          ],
          [
            "Ireland",
            0.0002636721474118531
          ],
          [
            "Mauritania",
            0.00026323343627154827
          ],
          [
            "Italy",
            0.00026291279937140644
          ],
          [
            "Guinea-Bissau",
            0.0002541224821470678
          ],
          [
            "Thailand",
            0.0002457924128975719
          ],
          [
            "Greenland",
            0.00023713806876912713
          ],
          [
            "Nepal",
            0.0002336883480893448
          ],
          [
            "Bahrain",
            0.00022812915267422795
          ],
          [
            "Dominica",
            0.00022666662698611617
          ],
          [
            "Moldova",
            0.00021949723304715008
          ],
          [
            "Malawi",
            0.00021441953140310943
          ],
          [
            "Faroe Islands",
            0.00021020692656747997
          ],
          [
            "Timor-Leste",
            0.00020883619436062872
          ],
          [
            "South Africa",
            0.0001995372149394825
          ],
          [
            "Armenia",
            0.00019516456814017147
          ],
          [
            "Vietnam",
            0.00017549247422721237
          ],
          [
            "United States Virgin Islands",
            0.0001738427090458572
          ],
          [
            "United Arab Emirates",
            0.0001697023253655061
          ],
          [
            "Zambia",
            0.00016755513206589967
          ],
          [
            "Austria",
            0.00016464591317344457
          ],
          [
            "Svalbard",
            0.00016003659402485937
          ],
          [
            "Turks and Caicos Islands",
            0.00015788065502420068
          ],
          [
            "Brunei",
            0.00015452220395673066
          ],
          [
            "Saint Lucia",
            0.00015415865345858037
          ],
          [
            "Samoa",
            0.00014851527521386743
          ],
          [
            "Brazil",
            0.0001453724253224209
          ],
          [
            "Albania",
            0.00013916398165747523
          ],
          [
            "Somalia",
            0.0001386378426104784
          ],
          [
            "Sao Tome and Principe",
            0.00013606892025563866
          ],
          [
            "Argentina",
            0.00012830051127821207
          ],
          [
            "Mayotte",
            0.00012793834321200848
          ],
          [
            "Fiji",
            0.00012467990745790303
          ],
          [
            "Denmark",
            0.00011899944365723059
          ],
          [
            "Laos",
            0.00011794261808972806
          ],
          [
            "Chile",
            0.00011663814802886918
          ],
          [
            "Jordan",
            0.0001097372587537393
          ],
          [
            "Equatorial Guinea",
            0.00010712672519730404
          ],
          [
            "Eritrea",
            0.00010290650243405253
          ],
          [
            "New Zealand",
            0.00010247754835290834
          ],
          [
            "Djibouti",
            9.949908417183906e-05
          ],
          [
            "Afghanistan",
            9.944463818101212e-05
          ],
          [
            "Ghana",
            9.90883054328151e-05
          ],
          [
            "Cyprus",
            9.780415712157264e-05
          ],
          [
            "Philippines",
            9.748512093210593e-05
          ],
          [
            "Tunisia",
            9.642770601203665e-05
          ],
          [
            "Sweden",
            9.393650543643162e-05
          ],
          [
            "Finland",
            8.945431181928143e-05
          ],
          [
            "United Kingdom",
            7.40735704312101e-05
          ],
          [
            "Israel",
            7.173200719989836e-05
          ],
          [
            "Portugal",
            7.14334164513275e-05
          ],
          [
            "Taiwan",
            6.831386417616159e-05
          ],
          [
            "Oman",
            6.814845983171836e-05
          ],
          [
            "Greece",
            6.230200233403593e-05
          ],
          [
            "West Bank",
            6.129166285973042e-05
          ],
          [
            "Congo",
            5.998454798827879e-05
          ],
          [
            "Canada",
            5.976903412374668e-05
          ],
          [
            "North Korea",
            5.953511208645068e-05
          ],
          [
            "Western Sahara",
            5.596380651695654e-05
          ],
          [
            "Gambia",
            5.574424358201213e-05
          ],
          [
            "Cameroon",
            5.381453229347244e-05
          ],
          [
            "Netherlands",
            4.878467007074505e-05
          ],
          [
            "Chad",
            4.691835420089774e-05
          ],
          [
            "Guam",
            4.037939652334899e-05
          ],
          [
            "Haiti",
            3.5484597901813686e-05
          ],
          [
            "Japan",
            2.972822039737366e-05
          ],
          [
            "Kiribati",
            2.7128635338158347e-05
          ],
          [
            "Norway",
            2.6907149731414393e-05
          ],
          [
            "Trinidad and Tobago",
            2.4240523998741992e-05
          ],
          [
            "Isle of Man",
            2.1289084543241188e-05
          ],
          [
            "Palau",
            1.582435470481869e-05
          ],
          [
            "Madagascar",
            1.3310455869941507e-05
          ],
          [
            "Pakistan",
            1.0325799848942552e-05
          ],
          [
            "Morocco",
            9.980886716220994e-06
          ],
          [
            "Lebanon",
            9.671501175034791e-06
          ]
        ]
      },
      "geometry": {
        "type": "MultiLineString",
        "coordinates": [
          [
            [
              2.0,
              39.694300518134696
            ],
            [
              2.310880829015531,
              38.761658031088075
            ],
            [
              2.6217616580310903,
              38.29533678756479
            ],
            [
              3.088082901554401,
              37.829015544041454
            ],
            [
              3.2435233160621806,
              37.362694300518115
            ]
          ],
          [
            [
              2.4663212435233106,
              39.53886010362692
            ],
            [
              3.088082901554401,
              39.53886010362692
            ],
            [
              3.709844559585491,
              39.53886010362692
            ],
            [
              4.176165803108802,
              39.227979274611414
            ],
            [
              4.3316062176165815,
              39.694300518134696
            ],
            [
              4.642487046632112,
              40.316062176165815
            ],
            [
              4.797927461139892,
              40.93782383419688
            ],
            [
              4.953367875647672,
              41.404145077720216
            ],
            [
              5.419689119170982,
              41.71502590673572
            ],
            [
              5.886010362694293,
              42.02590673575128
            ]
          ],
          [
            [
              6.352331606217604,
              41.404145077720216
            ],
            [
              6.818652849740914,
              41.71502590673572
            ],
            [
              7.129533678756474,
              42.18134715025906
            ],
            [
              7.595854922279784,
              42.33678756476684
            ],
            [
              8.062176165803095,
              42.49222797927462
            ],
            [
              8.683937823834185,
              42.49222797927462
            ],
            [
              9.305699481865275,
              42.49222797927462
            ],
            [
              9.927461139896366,
              42.49222797927462
            ],
            [
              10.549222797927456,
              42.647668393782396
            ],
            [
              11.170984455958546,
              42.647668393782396
            ],
            [
              11.637305699481857,
              42.803108808290176
            ],
            [
              12.103626943005168,
              42.9585492227979
            ],
            [
              12.414507772020727,
              43.42487046632124
            ],
            [
              12.880829015544037,
              43.58031088082902
            ],
            [
              13.502590673575128,
              43.58031088082902
            ],
            [
              14.124352331606218,
              43.58031088082902
            ],
            [
              14.590673575129529,
              43.7357512953368
            ],
            [
              15.05699481865284,
              44.0466321243523
            ],
            [
              15.52331606217615,
              44.20207253886008
            ],
            [
              15.989637305699489,
              44.35751295336786
            ],
            [
              16.4559585492228,
              44.51295336787564
            ],
            [
              16.92227979274611,
              44.8238341968912
            ],
            [
              17.23316062176164,
              45.29015544041448
            ],
            [
              17.5440414507772,
              45.75647668393782
            ],
            [
              17.69948186528495,
              46.22279792746116
            ],
            [
              18.16580310880829,
              46.53367875647669
            ],
            [
              18.6321243523316,
              46.68911917098444
            ],
            [
              19.25388601036269,
              46.68911917098444
            ],
            [
              19.875647668393782,
              46.68911917098444
            ],
            [
              20.652849740932623,
              46.68911917098444
            ],
            [
              21.430051813471493,
              46.68911917098444
            ],
            [
              22.051813471502584,
              46.68911917098444
            ],
            [
              22.673575129533674,
              46.68911917098444
            ],
            [
              23.139896373056985,
              47.0
            ],
            [
              23.606217616580295,
              47.31088082901553
            ],
            [
              23.761658031088075,
              47.77720207253884
            ],
            [
              24.227979274611386,
              48.0880829015544
            ],
            [
              24.538860103626945,
              48.55440414507771
            ],
            [
              24.849740932642476,
              49.02072538860102
            ],
            [
              24.849740932642476,
              49.64248704663211
            ],
            [
              24.694300518134696,
              50.10880829015542
            ],
            [
              24.227979274611386,
              50.41968911917098
            ],
            [
              24.227979274611386,
              51.04145077720207
            ],
            [
              24.694300518134696,
              51.19689119170985
            ],
            [
              25.160621761658035,
              51.352331606217604
            ],
            [
              25.782383419689097,
              51.352331606217604
            ],
            [
              26.404145077720216,
              51.352331606217604
            ],
            [
              26.870466321243498,
              51.19689119170985
            ],
            [
              27.336787564766837,
              51.04145077720207
            ],
            [
              27.803108808290148,
              50.57512953367876
            ],
            [
              28.26943005181346,
              50.41968911917098
            ],
            [
              28.73575129533677,
              50.2642487046632
            ],
            [
              28.89119170984455,
              49.79792746113989
            ],
            [
              29.35751295336786,
              49.64248704663211
            ],
            [
              29.66839378238342,
              49.1761658031088
            ],
            [
              29.823834196891198,
              48.70984455958549
            ],
            [
              30.13471502590673,
              48.24352331606218
            ],
            [
              30.44559585492226,
              47.77720207253884
            ],
            [
              30.9119170984456,
              47.46632124352331
            ],
            [
              31.53367875647666,
              47.46632124352331
            ],
            [
              31.84455958549222,
              47.93264248704662
            ],
            [
              32.31088082901553,
              48.24352331606218
            ],
            [
              32.62176165803106,
              48.70984455958549
            ],
            [
              32.93264248704662,
              49.1761658031088
            ],
            [
              33.24352331606218,
              49.64248704663211
            ],
            [
              33.70984455958549,
              49.79792746113989
            ],
            [
              34.33160621761658,
              49.79792746113989
            ],
            [
              34.79792746113989,
              49.64248704663211
            ],
            [
              34.95336787564764,
              49.1761658031088
            ],
            [
              35.41968911917098,
              48.86528497409327
            ],
            [
              35.88601036269429,
              48.70984455958549
            ],
            [
              36.352331606217604,
              48.55440414507771
            ],
            [
              36.974093264248694,
              48.55440414507771
            ],
            [
              37.440414507772005,
              48.39896373056996
            ],
            [
              37.906735751295344,
              48.0880829015544
            ],
            [
              38.528497409326405,
              48.0880829015544
            ],
            [
              38.994818652849744,
              47.93264248704662
            ],
            [
              39.150259067357496,
              47.46632124352331
            ],
            [
              39.305699481865275,
              47.0
            ],
            [
              39.772020725388586,
              46.68911917098444
            ],
            [
              40.393782383419676,
              46.68911917098444
            ],
            [
              41.01554404145077,
              46.68911917098444
            ],
            [
              41.79274611398964,
              46.68911917098444
            ],
            [
              42.10362694300517,
              47.15544041450778
            ],
            [
              42.72538860103623,
              47.0
            ],
            [
              43.03626943005179,
              46.53367875647669
            ],
            [
              43.34715025906735,
              46.06735751295338
            ],
            [
              43.50259067357513,
              45.60103626943004
            ],
            [
              43.50259067357513,
              44.97927461139898
            ],
            [
              43.50259067357513,
              44.35751295336786
            ],
            [
              43.34715025906735,
              43.89119170984458
            ],
            [
              43.19170984455957,
              43.42487046632124
            ],
            [
              43.03626943005179,
              42.9585492227979
            ],
            [
              43.50259067357513,
              42.803108808290176
            ],
            [
              43.96891191709847,
              42.49222797927462
            ],
            [
              44.12435233160619,
              42.02590673575128
            ],
            [
              44.12435233160619,
              41.404145077720216
            ],
            [
              44.43523316062175,
              40.93782383419688
            ],
            [
              44.43523316062175,
              40.316062176165815
            ],
            [
              44.43523316062175,
              39.694300518134696
            ],
            [
              44.43523316062175,
              38.917098445595855
            ],
            [
              44.43523316062175,
              38.29533678756479
            ],
            [
              44.90155440414509,
              37.98445595854923
            ],
            [
              45.52331606217615,
              37.98445595854923
            ],
            [
              46.14507772020727,
              37.98445595854923
            ],
            [
              46.61139896373055,
              38.13989637305701
            ],
            [
              46.92227979274611,
              38.606217616580295
            ],
            [
              47.23316062176167,
              39.072538860103634
            ],
            [
              47.38860103626939,
              39.53886010362692
            ],
            [
              47.54404145077717,
              40.005181347150256
            ],
            [
              47.69948186528495,
              40.471502590673595
            ],
            [
              48.16580310880829,
              40.626943005181374
            ],
            [
              48.63212435233157,
              40.471502590673595
            ],
            [
              49.09844559585491,
              40.316062176165815
            ],
            [
              49.56476683937825,
              40.005181347150256
            ],
            [
              50.18652849740931,
              39.694300518134696
            ],
            [
              50.80829015544043,
              39.38341968911914
            ],
            [
              51.58549222797927,
              39.227979274611414
            ],
            [
              52.362694300518115,
              39.072538860103634
            ],
            [
              52.98445595854923,
              38.917098445595855
            ],
            [
              53.450777202072516,
              38.761658031088075
            ],
            [
              54.38341968911914,
              38.450777202072516
            ],
            [
              55.005181347150256,
              38.29533678756479
            ],
            [
              55.7823834196891,
              38.13989637305701
            ],
            [
              56.248704663212436,
              37.98445595854923
            ],
            [
              55.93782383419688,
              37.518134715025894
            ],
            [
              55.7823834196891,
              37.05181347150261
            ],
            [
              55.7823834196891,
              36.43005181347149
            ],
            [
              56.404145077720216,
              36.119170984455934
            ],
            [
              56.8704663212435,
              35.96373056994821
            ],
            [
              57.49222797927462,
              35.80829015544043
            ],
            [
              58.42487046632124,
              35.80829015544043
            ],
            [
              59.0466321243523,
              35.49740932642487
            ],
            [
              59.51295336787564,
              35.34196891191709
            ],
            [
              59.51295336787564,
              34.72020725388603
            ],
            [
              59.51295336787564,
              34.09844559585491
            ],
            [
              59.97927461139898,
              33.63212435233163
            ],
            [
              60.29015544041448,
              33.16580310880829
            ],
            [
              60.75647668393782,
              33.01036269430051
            ],
            [
              61.37823834196888,
              32.54404145077717
            ],
            [
              62.0,
              32.38860103626945
            ]
          ],
          [
            [
              61.06735751295338,
              32.38860103626945
            ],
            [
              61.68911917098444,
              32.38860103626945
            ]
          ],
          [
            [
              3.709844559585491,
              37.05181347150261
            ],
            [
              4.176165803108802,
              36.74093264248705
            ],
            [
              4.3316062176165815,
              36.274611398963714
            ],
            [
              4.3316062176165815,
              35.65284974093265
            ],
            [
              4.3316062176165815,
              35.03108808290153
            ],
            [
              3.8652849740932425,
              34.56476683937825
            ],
            [
              3.398963730569932,
              34.09844559585491
            ],
            [
              3.398963730569932,
              33.47668393782385
            ],
            [
              3.398963730569932,
              32.85492227979273
            ],
            [
              3.088082901554401,
              32.38860103626945
            ],
            [
              2.7772020725388415,
              31.92227979274611
            ],
            [
              2.4663212435233106,
              31.45595854922277
            ],
            [
              2.4663212435233106,
              30.83419689119171
            ],
            [
              2.4663212435233106,
              30.21243523316059
            ],
            [
              2.4663212435233106,
              29.59067357512953
            ],
            [
              2.9326424870466212,
              29.124352331606246
            ],
            [
              3.2435233160621806,
              28.658031088082907
            ],
            [
              3.709844559585491,
              28.347150259067348
            ],
            [
              4.020725388601022,
              27.88082901554401
            ],
            [
              4.487046632124333,
              27.414507772020727
            ],
            [
              4.953367875647672,
              26.948186528497388
            ],
            [
              5.575129533678762,
              26.637305699481885
            ],
            [
              6.041450777202073,
              26.326424870466326
            ],
            [
              6.818652849740914,
              26.015544041450767
            ],
            [
              7.751295336787564,
              25.860103626942987
            ],
            [
              8.683937823834185,
              25.704663212435207
            ],
            [
              9.772020725388586,
              25.549222797927428
            ],
            [
              10.393782383419676,
              25.549222797927428
            ],
            [
              10.704663212435236,
              25.082901554404145
            ],
            [
              11.015544041450767,
              24.616580310880806
            ],
            [
              11.170984455958546,
              24.150259067357524
            ],
            [
              11.170984455958546,
              23.528497409326405
            ],
            [
              11.170984455958546,
              22.906735751295344
            ],
            [
              11.170984455958546,
              22.284974093264225
            ],
            [
              11.481865284974077,
              21.818652849740943
            ],
            [
              12.414507772020727,
              21.818652849740943
            ],
            [
              12.880829015544037,
              21.663212435233163
            ],
            [
              13.347150259067348,
              21.352331606217604
            ],
            [
              13.658031088082907,
              20.73056994818654
            ],
            [
              14.124352331606218,
              20.575129533678762
            ],
            [
              14.590673575129529,
              20.108808290155423
            ],
            [
              15.05699481865284,
              19.953367875647643
            ],
            [
              15.52331606217615,
              19.64248704663214
            ],
            [
              15.989637305699489,
              19.48704663212436
            ],
            [
              16.61139896373055,
              19.33160621761658
            ],
            [
              17.23316062176164,
              19.176165803108802
            ],
            [
              17.85492227979273,
              19.020725388601022
            ],
            [
              18.321243523316042,
              18.709844559585463
            ],
            [
              18.78756476683938,
              18.0880829015544
            ],
            [
              19.25388601036269,
              17.77720207253884
            ],
            [
              19.564766839378223,
              17.15544041450778
            ],
            [
              19.875647668393782,
              16.68911917098444
            ],
            [
              20.186528497409313,
              16.22279792746116
            ],
            [
              20.652849740932623,
              15.75647668393782
            ],
            [
              21.119170984455934,
              15.60103626943004
            ],
            [
              21.430051813471493,
              15.134715025906758
            ],
            [
              21.896373056994804,
              14.512953367875639
            ],
            [
              22.362694300518115,
              14.35751295336786
            ],
            [
              22.518134715025894,
              13.891191709844577
            ],
            [
              22.984455958549205,
              13.735751295336797
            ],
            [
              23.450777202072516,
              13.424870466321238
            ],
            [
              24.227979274611386,
              13.424870466321238
            ],
            [
              24.849740932642476,
              13.424870466321238
            ],
            [
              25.160621761658035,
              13.891191709844577
            ],
            [
              25.782383419689097,
              14.20207253886008
            ],
            [
              26.248704663212436,
              14.35751295336786
            ],
            [
              26.715025906735747,
              14.668393782383419
            ],
            [
              27.181347150259057,
              14.979274611398978
            ],
            [
              27.492227979274617,
              15.44559585492226
            ],
            [
              27.958549222797927,
              15.75647668393782
            ],
            [
              28.11398963730568,
              16.22279792746116
            ],
            [
              28.424870466321238,
              16.68911917098444
            ],
            [
              28.89119170984455,
              16.84455958549222
            ],
            [
              29.66839378238342,
              16.84455958549222
            ],
            [
              30.29015544041451,
              16.84455958549222
            ],
            [
              31.06735751295335,
              16.84455958549222
            ],
            [
              31.68911917098444,
              16.84455958549222
            ],
            [
              32.31088082901553,
              16.68911917098444
            ],
            [
              32.77720207253884,
              16.22279792746116
            ],
            [
              33.24352331606218,
              15.911917098445599
            ],
            [
              33.70984455958549,
              15.60103626943004
            ],
            [
              34.1761658031088,
              15.134715025906758
            ],
            [
              34.64248704663211,
              14.979274611398978
            ],
            [
              35.10880829015542,
              14.512953367875639
            ],
            [
              35.73056994818651,
              14.512953367875639
            ],
            [
              36.66321243523316,
              14.35751295336786
            ],
            [
              37.284974093264225,
              14.35751295336786
            ],
            [
              37.906735751295344,
              14.35751295336786
            ],
            [
              38.528497409326405,
              14.35751295336786
            ],
            [
              39.150259067357496,
              14.20207253886008
            ],
            [
              39.305699481865275,
              13.735751295336797
            ],
            [
              39.772020725388586,
              13.269430051813458
            ],
            [
              40.393782383419676,
              13.113989637305679
            ],
            [
              40.86010362694299,
              12.958549222797956
            ],
            [
              41.63730569948186,
              12.803108808290176
            ],
            [
              42.25906735751295,
              12.647668393782396
            ],
            [
              42.88082901554401,
              12.647668393782396
            ],
            [
              43.50259067357513,
              12.647668393782396
            ],
            [
              44.12435233160619,
              12.647668393782396
            ],
            [
              44.74611398963731,
              12.647668393782396
            ],
            [
              45.36787564766837,
              12.647668393782396
            ],
            [
              46.14507772020727,
              12.647668393782396
            ],
            [
              46.76683937823833,
              12.647668393782396
            ],
            [
              47.38860103626939,
              12.647668393782396
            ],
            [
              48.16580310880829,
              12.647668393782396
            ],
            [
              48.78756476683935,
              12.647668393782396
            ],
            [
              49.25388601036269,
              12.803108808290176
            ],
            [
              50.03108808290153,
              12.803108808290176
            ],
            [
              50.49740932642487,
              13.113989637305679
            ],
            [
              50.963730569948154,
              13.424870466321238
            ],
            [
              51.43005181347149,
              13.735751295336797
            ],
            [
              52.207253886010335,
              14.20207253886008
            ],
            [
              52.829015544041454,
              14.668393782383419
            ],
            [
              53.13989637305701,
              15.134715025906758
            ],
            [
              53.295336787564736,
              15.75647668393782
            ],
            [
              53.761658031088075,
              16.22279792746116
            ],
            [
              54.072538860103634,
              16.68911917098444
            ],
            [
              54.38341968911914,
              17.15544041450778
            ],
            [
              54.694300518134696,
              17.77720207253884
            ],
            [
              55.005181347150256,
              18.24352331606218
            ],
            [
              55.160621761658035,
              18.709844559585463
            ],
            [
              55.471502590673595,
              19.176165803108802
            ],
            [
              55.93782383419688,
              19.48704663212436
            ],
            [
              56.404145077720216,
              19.953367875647643
            ],
            [
              56.8704663212435,
              20.419689119170982
            ],
            [
              57.49222797927462,
              20.575129533678762
            ],
            [
              57.9585492227979,
              21.196891191709824
            ],
            [
              58.42487046632124,
              21.507772020725383
            ],
            [
              58.58031088082902,
              22.129533678756502
            ],
            [
              59.0466321243523,
              22.906735751295344
            ],
            [
              59.66839378238342,
              23.217616580310903
            ],
            [
              59.97927461139898,
              23.683937823834185
            ],
            [
              60.29015544041448,
              24.150259067357524
            ],
            [
              60.60103626943004,
              24.927461139896366
            ],
            [
              60.75647668393782,
              25.549222797927428
            ],
            [
              60.9119170984456,
              26.170984455958546
            ],
            [
              61.06735751295338,
              26.792746113989665
            ],
            [
              61.53367875647666,
              27.259067357512947
            ],
            [
              61.84455958549222,
              28.03626943005179
            ],
            [
              62.0,
              28.502590673575128
            ]
          ]
        ]
      }
    }
  ]
}