{
  "type": "FeatureCollection",
  "crs": {
    "type": "name",
    "properties": {
      "name": "urn:ogc:def:crs:OGC:1.3:CRS84"
    }
  },
  "features": [
    {
      "type": "Feature",
      "properties": {
        "timestamp": "2026-06-18T15:40:07.818333",
        "country_name": "Czech Republic",
        "author": "dummy",
        "author_id": "56bc3182-38fb-4e9f-b44d-cf3830fd0855",
        "validated": false,
        "ranking": [
          [
            "Czech Republic",
            0.16223953664302826
          ],
          [
            "Turkey",
            0.13547904789447784
          ],
          [
            "Madeira Islands",
            0.1171807199716568
          ],
          [
            "Bhutan",
            0.06968718022108078
          ],
          [
            "Latvia",
            0.06353294849395752
          ],
          [
            "El Salvador",
            0.05889677628874779
          ],
          [
            "Mongolia",
            0.034955937415361404
          ],
          [
            "Kazakhstan",
            0.033960066735744476
          ],
          [
            "Georgia",
            0.030538523569703102
          ],
          [
            "Ukraine",
            0.02368040196597576
          ],
          [
            "Puerto Rico",
            0.022793643176555634
          ],
          [
            "Turkmenistan",
            0.022778410464525223
          ],
          [
            "Heard and McDonald Islands",
            0.012499252334237099
          ],
          [
            "Honduras",
            0.011954769492149353
          ],
          [
            "Slovakia",
            0.008715646341443062
          ],
          [
            "Jamaica",
            0.008264109492301941
          ],
          [
            "Ecuador",
            0.006556241773068905
          ],
          [
            "Estonia",
            0.006495964713394642
          ],
          [
            "Switzerland",
            0.00617106631398201
          ],
          [
            "Austria",
            0.00565284164622426
          ],
          [
            "Nepal",
            0.005313367582857609
          ],
          [
            "Romania",
            0.005265130195766687
          ],
          [
            "New Caledonia",
            0.004890060517936945
          ],
          [
            "Iceland",
            0.00450842035934329
          ],
          [
            "Mexico",
            0.004391392692923546
          ],
          [
            "Yemen",
            0.00437505217269063
          ],
          [
            "Panama",
            0.003956961911171675
          ],
          [
            "Burkina Faso",
            0.0038808530662208796
          ],
          [
            "Papua New Guinea",
            0.0037128780968487263
          ],
          [
            "Uzbekistan",
            0.0036955189425498247
          ],
          [
            "Solomon Islands",
            0.0036567694041877985
          ],
          [
            "Indonesia",
            0.0035874813329428434
          ],
          [
            "Australia",
            0.003528573317453265
          ],
          [
            "Russia",
            0.003291564993560314
          ],
          [
            "Azerbaijan",
            0.0030579250305891037
          ],
          [
            "Central African Republic",
            0.003029074054211378
          ],
          [
            "Kyrgyzstan",
            0.003025433514267206
          ],
          [
            "Lithuania",
            0.0030000638216733932
          ],
          [
            "Netherlands Antilles",
            0.0029673692770302296
          ],
          [
            "North Macedonia",
            0.002856768202036619
          ],
          [
            "Belgium",
            0.0028521621134132147
          ],
          [
            "Comoros",
            0.0025541416835039854
          ],
          [
            "Hungary",
            0.0025372831150889397
          ],
          [
            "Dominican Republic",
            0.002461626660078764
          ],
          [
            "Saudi Arabia",
            0.002428742591291666
          ],
          [
            "China",
            0.002360258251428604
          ],
          [
            "Tajikistan",
            0.0022446520160883665
          ],
          [
            "Rwanda",
            0.002119530690833926
          ],
          [
            "Timor-Leste",
            0.0020611134823411703
          ],
          [
            "South Sudan",
            0.00206024874933064
          ],
          [
            "Falkland Islands",
            0.002054966287687421
          ],
          [
            "Malaysia",
            0.00182387325912714
          ],
          [
            "Senegal",
            0.00181159982457757
          ],
          [
            "Guadeloupe",
            0.0017880197847262025
          ],
          [
            "United States of America",
            0.001712595927529037
          ],
          [
            "Guinea",
            0.0016943232621997595
          ],
          [
            "Cuba",
            0.0016752610681578517
          ],
          [
            "Bulgaria",
            0.0015395184746012092
          ],
          [
            "Guinea-Bissau",
            0.0015012131771072745
          ],
          [
            "Niger",
            0.0014817975461483002
          ],
          [
            "Gabon",
            0.0014260421739891171
          ],
          [
            "Turks and Caicos Islands",
            0.001255646231584251
          ],
          [
            "Cape Verde",
            0.0011881804093718529
          ],
          [
            "Bahamas",
            0.0011561864521354437
          ],
          [
            "Samoa",
            0.0010347968200221658
          ],
          [
            "Iran",
            0.001020002062432468
          ],
          [
            "Ethiopia",
            0.0009651293512433767
          ],
          [
            "Hong Kong",
            0.0009062332101166248
          ],
          [
            "Cyprus",
            0.0008549186168238521
          ],
          [
            "Mali",
            0.000837984902318567
          ],
          [
            "Sierra Leone",
            0.0008073345525190234
          ],
          [
            "Algeria",
            0.0007697412511333823
          ],
          [
            "Paraguay",
            0.0007485217065550387
          ],
          [
            "Slovenia",
            0.0007002199999988079
          ],
          [
            "Colombia",
            0.0006758565432392061
          ],
          [
            "Bangladesh",
            0.000667036569211632
          ],
          [
            "Suriname",
            0.0006211135187186301
          ],
          [
            "Croatia",
            0.0005714331637136638
          ],
          [
            "Bosnia & Herzegovina",
            0.0005585633334703743
          ],
          [
            "New Zealand",
            0.0005323641235008836
          ],
          [
            "Kenya",
            0.00052787980530411
          ],
          [
            "Vanuatu",
            0.0004945662221871316
          ],
          [
            "Uruguay",
            0.00046718964586034417
          ],
          [
            "Eritrea",
            0.0004662371356971562
          ],
          [
            "Montenegro",
            0.000460546143585816
          ],
          [
            "Fiji",
            0.0004275357350707054
          ],
          [
            "Venezuela",
            0.00042418920202180743
          ],
          [
            "Nicaragua",
            0.0004199155082460493
          ],
          [
            "Zimbabwe",
            0.00040959788020700216
          ],
          [
            "Iraq",
            0.0004079029895365238
          ],
          [
            "Armenia",
            0.0004061321960762143
          ],
          [
            "Lesotho",
            0.0004021738423034549
          ],
          [
            "Reunion",
            0.00040097744204103947
          ],
          [
            "India",
            0.00039679830661043525
          ],
          [
            "South Korea",
            0.0003959863097406924
          ],
          [
            "Costa Rica",
            0.00038920665974728763
          ],
          [
            "Libya",
            0.00038782093906775117
          ],
          [
            "Liberia",
            0.00037637967034243047
          ],
          [
            "Peru",
            0.00037175140460021794
          ],
          [
            "Serbia",
            0.0003668692661449313
          ],
          [
            "Burundi",
            0.00036666920641437173
          ],
          [
            "Belize",
            0.00036565790651366115
          ],
          [
            "Martinique",
            0.00036459724651649594
          ],
          [
            "Tanzania",
            0.00035937762004323304
          ],
          [
            "Svalbard",
            0.000347142165992409
          ],
          [
            "Sao Tome and Principe",
            0.0003461114829406142
          ],
          [
            "Eswatini",
            0.00034157189656980336
          ],
          [
            "DR Congo",
            0.00033142673783004284
          ],
          [
            "Malawi",
            0.00030291854636743665
          ],
          [
            "South Georgia Islands",
            0.00030284051899798214
          ],
          [
            "Spain",
            0.0003012694651260972
          ],
          [
            "Syria",
            0.00030022545251995325
          ],
          [
            "Cambodia",
            0.0002972159709315747
          ],
          [
            "Poland",
            0.00029590821941383183
          ],
          [
            "Kuwait",
            0.0002800774236675352
          ],
          [
            "Mozambique",
            0.00028007529908791184
          ],
          [
            "Moldova",
            0.0002742880315054208
          ],
          [
            "Dominica",
            0.00026434179744683206
          ],
          [
            "Bahrain",
            0.0002584474568720907
          ],
          [
            "Thailand",
            0.00025278382236137986
          ],
          [
            "United Arab Emirates",
            0.00024396798107773066
          ],
          [
            "Angola",
            0.00023496162611991167
          ],
          [
            "Faroe Islands",
            0.0002344678359804675
          ],
          [
            "Brazil",
            0.0002317127655260265
          ],
          [
            "France",
            0.00022581951634492725
          ],
          [
            "Sudan",
            0.00022390963567886502
          ],
          [
            "Chile",
            0.00022237192024476826
          ],
          [
            "Somalia",
            0.00022215783246792853
          ],
          [
            "Togo",
            0.00021893397206440568
          ],
          [
            "Myanmar",
            0.00021622778149321675
          ],
          [
            "Botswana",
            0.00021488622587639838
          ],
          [
            "Gambia",
            0.00021417424432002008
          ],
          [
            "Zambia",
            0.00021034284145571291
          ],
          [
            "Benin",
            0.00020315393339842558
          ],
          [
            "Guyana",
            0.00020263265469111502
          ],
          [
            "Namibia",
            0.000198905254364945
          ],
          [
            "Italy",
            0.00019787072960752994
          ],
          [
            "Equatorial Guinea",
            0.0001957800704985857
          ],
          [
            "Nigeria",
            0.00018802075646817684
          ],
          [
            "Argentina",
            0.00018272882152814418
          ],
          [
            "Israel",
            0.00017478258814662695
          ],
          [
            "Brunei",
            0.0001742121239658445
          ],
          [
            "Antigua & Barbuda",
            0.00017216541164088994
          ],
          [
            "Egypt",
            0.00016439547471236438
          ],
          [
            "Uganda",
            0.00016184613923542202
          ],
          [
            "Côte d'Ivoire",
            0.00015626016829628497
          ],
          [
            "Laos",
            0.00015490816440433264
          ],
          [
            "Bolivia",
            0.00015240389620885253
          ],
          [
            "Belarus",
            0.00014985405141487718
          ],
          [
            "Guatemala",
            0.00014952284982427955
          ],
          [
            "Japan",
            0.00014822349476162344
          ],
          [
            "Barbados",
            0.00014102800923865288
          ],
          [
            "South Africa",
            0.00012960824824403971
          ],
          [
            "Qatar",
            0.00012169344699941576
          ],
          [
            "Guam",
            0.000119252763397526
          ],
          [
            "Vietnam",
            0.0001167861555586569
          ],
          [
            "French Guiana",
            0.00011144175368826836
          ],
          [
            "Mayotte",
            0.0001068269630195573
          ],
          [
            "Greenland",
            0.00010623790149111301
          ],
          [
            "Ireland",
            0.00010608279990265146
          ],
          [
            "Sri Lanka",
            0.00010389812086941674
          ],
          [
            "Albania",
            0.00010305182513548061
          ],
          [
            "Oman",
            0.000100878176453989
          ],
          [
            "Sweden",
            9.932102693710476e-05
          ],
          [
            "Jordan",
            9.836538811214268e-05
          ],
          [
            "Tunisia",
            9.179213520837948e-05
          ],
          [
            "Philippines",
            9.10976086743176e-05
          ],
          [
            "United Kingdom",
            9.069884254131466e-05
          ],
          [
            "United States Virgin Islands",
            8.860152593115345e-05
          ],
          [
            "Portugal",
            8.20781642687507e-05
          ],
          [
            "Luxembourg",
            6.651927105849609e-05
          ],
          [
            "West Bank",
            6.373833457473665e-05
          ],
          [
            "Afghanistan",
            6.268341530812904e-05
          ],
          [
            "Cameroon",
            5.930265615461394e-05
          ],
          [
            "Canada",
            5.762201180914417e-05
          ],
          [
            "Finland",
            5.739265543525107e-05
          ],
          [
            "Congo",
            5.719322507502511e-05
          ],
          [
            "Trinidad and Tobago",
            5.405812771641649e-05
          ],
          [
            "Haiti",
            5.380271977628581e-05
          ],
          [
            "Germany",
            5.377102206693962e-05
          ],
          [
            "North Korea",
            5.323455479810946e-05
          ],
          [
            "Saint Lucia",
            5.08242919750046e-05
          ],
          [
            "Mauritania",
            5.041069016442634e-05
          ],
          [
            "Ghana",
            5.0075381295755506e-05
          ],
          [
            "Taiwan",
            4.825052747037262e-05
          ],
          [
            "Kiribati",
            4.302391243982129e-05
          ],
          [
            "Norway",
            4.1801737097557634e-05
          ],
          [
            "Palau",
            4.089092180947773e-05
          ],
          [
            "Djibouti",
            3.4861037420341745e-05
          ],
          [
            "Greece",
            3.415977698750794e-05
          ],
          [
            "Pakistan",
            3.0981042073108256e-05
          ],
          [
            "Morocco",
            2.8041778932674788e-05
          ],
          [
            "Denmark",
            2.7100908482680097e-05
          ],
          [
            "Isle of Man",
            2.5233570340787992e-05
          ],
          [
            "Western Sahara",
            2.15889340324793e-05
          ],
          [
            "Netherlands",
            2.1284615286276676e-05
          ],
          [
            "Madagascar",
            1.8887863916461356e-05
          ],
          [
            "Chad",
            1.4426854249904864e-05
          ],
          [
            "Lebanon",
            1.1930184882658068e-05
          ]
        ]
      },
      "geometry": {
        "type": "MultiLineString",
        "coordinates": [
          [
            [
              15.864541832669318,
              23.15537848605578
            ],
            [
              18.01593625498009,
              22.677290836653412
            ],
            [
              19.21115537848607,
              22.199203187250987
            ],
            [
              22.557768924302792,
              20.286852589641455
            ],
            [
              23.992031872509983,
              19.569721115537845
            ],
            [
              24.709163346613536,
              19.33067729083666
            ],
            [
              26.382470119521912,
              20.047808764940243
            ],
            [
              27.57768924302789,
              20.047808764940243
            ],
            [
              28.533864541832685,
              20.047808764940243
            ],
            [
              30.20717131474106,
              19.569721115537845
            ],
            [
              31.880478087649408,
              19.569721115537845
            ],
            [
              33.31474103585657,
              19.569721115537845
            ],
            [
              34.98804780876495,
              19.091633466135477
            ],
            [
              36.42231075697211,
              19.091633466135477
            ],
            [
              37.13944223107569,
              18.852589641434264
            ],
            [
              37.8565737051793,
              18.374501992031867
            ],
            [
              39.290836653386464,
              18.374501992031867
            ],
            [
              40.24701195219126,
              18.374501992031867
            ],
            [
              41.68127490039842,
              18.374501992031867
            ],
            [
              42.63745019920319,
              18.135458167330682
            ],
            [
              43.832669322709165,
              17.657370517928285
            ],
            [
              46.22310756972112,
              17.17928286852589
            ],
            [
              47.8964143426295,
              17.17928286852589
            ],
            [
              49.09163346613548,
              17.17928286852589
            ],
            [
              50.04780876494024,
              17.17928286852589
            ],
            [
              51.00398406374504,
              17.17928286852589
            ],
            [
              52.199203187251015,
              17.17928286852589
            ],
            [
              53.15537848605578,
              17.4183266932271
            ],
            [
              54.111553784860575,
              17.657370517928285
            ],
            [
              55.306772908366554,
              19.091633466135477
            ],
            [
              55.54581673306774,
              20.047808764940243
            ],
            [
              56.26294820717132,
              21.003984063745037
            ],
            [
              56.74103585657372,
              21.72111553784862
            ],
            [
              57.936254980079696,
              22.4382470119522
            ],
            [
              58.65338645418328,
              22.916334661354597
            ],
            [
              59.60956175298804,
              23.15537848605578
            ],
            [
              59.60956175298804,
              24.111553784860575
            ],
            [
              59.848605577689256,
              24.828685258964157
            ],
            [
              59.848605577689256,
              25.784860557768923
            ],
            [
              60.08764940239047,
              26.501992031872533
            ],
            [
              61.28286852589642,
              29.37051792828686
            ],
            [
              62.0,
              31.28286852589642
            ],
            [
              61.52191235059763,
              32.23904382470121
            ],
            [
              60.80478087649402,
              32.4780876494024
            ],
            [
              60.56573705179284,
              33.43426294820716
            ],
            [
              60.08764940239047,
              35.34661354581675
            ],
            [
              59.848605577689256,
              36.780876494023914
            ],
            [
              59.60956175298804,
              37.498007968127496
            ],
            [
              59.131474103585674,
              38.21513944223108
            ],
            [
              58.414342629482064,
              38.93227091633469
            ],
            [
              57.69721115537851,
              40.12749003984064
            ],
            [
              57.219123505976086,
              41.322709163346616
            ],
            [
              56.9800796812749,
              42.99601593625499
            ],
            [
              56.74103585657372,
              43.71314741035857
            ],
            [
              56.023904382470135,
              43.952191235059786
            ],
            [
              55.06772908366534,
              43.952191235059786
            ],
            [
              54.111553784860575,
              43.952191235059786
            ],
            [
              53.15537848605578,
              43.952191235059786
            ],
            [
              52.199203187251015,
              43.47410358565739
            ],
            [
              50.286852589641455,
              42.75697211155381
            ],
            [
              48.37450199203187,
              42.27888446215141
            ],
            [
              47.4183266932271,
              42.27888446215141
            ],
            [
              46.462151394422335,
              42.75697211155381
            ],
            [
              45.50597609561754,
              42.99601593625499
            ],
            [
              44.54980079681275,
              43.952191235059786
            ],
            [
              43.35458167330677,
              44.19123505976097
            ],
            [
              42.15936254980079,
              44.430278884462155
            ],
            [
              41.203187250996024,
              44.66932270916337
            ],
            [
              40.007968127490045,
              44.90836653386455
            ],
            [
              38.33466135458167,
              45.38645418326695
            ],
            [
              37.378486055776904,
              45.38645418326695
            ],
            [
              35.94422310756971,
              45.38645418326695
            ],
            [
              35.22709163346616,
              44.90836653386455
            ],
            [
              32.358565737051805,
              43.952191235059786
            ],
            [
              29.49003984063745,
              42.99601593625499
            ],
            [
              28.294820717131472,
              42.75697211155381
            ],
            [
              27.338645418326706,
              43.71314741035857
            ],
            [
              26.382470119521912,
              44.19123505976097
            ],
            [
              25.187250996015962,
              44.90836653386455
            ],
            [
              24.231075697211168,
              44.90836653386455
            ],
            [
              22.557768924302792,
              44.90836653386455
            ],
            [
              21.601593625498026,
              44.90836653386455
            ],
            [
              20.167330677290835,
              44.90836653386455
            ],
            [
              18.733067729083672,
              44.90836653386455
            ],
            [
              17.776892430278906,
              44.90836653386455
            ],
            [
              16.82071713147411,
              45.147410358565736
            ],
            [
              15.625498007968133,
              45.38645418326695
            ],
            [
              14.669322709163339,
              45.62549800796813
            ],
            [
              13.474103585657389,
              46.342629482071715
            ],
            [
              12.756972111553807,
              46.82071713147411
            ],
            [
              11.800796812749013,
              46.58167330677293
            ],
            [
              11.083665338645432,
              45.38645418326695
            ],
            [
              10.605577689243034,
              44.430278884462155
            ],
            [
              10.127490039840637,
              43.47410358565739
            ],
            [
              7.2589641434263115,
              40.12749003984064
            ],
            [
              3.4342629482071914,
              35.585657370517936
            ],
            [
              2.0,
              33.91235059760956
            ],
            [
              2.9561752988047942,
              33.43426294820716
            ],
            [
              3.91235059760956,
              33.43426294820716
            ],
            [
              6.302788844621517,
              32.4780876494024
            ],
            [
              7.73705179282868,
              30.80478087649402
            ],
            [
              9.171314741035872,
              28.89243027888446
            ],
            [
              9.888446215139453,
              27.4581673306773
            ],
            [
              10.127490039840637,
              26.501992031872533
            ],
            [
              10.605577689243034,
              24.589641434262944
            ],
            [
              10.605577689243034,
              23.394422310756966
            ],
            [
              10.605577689243034,
              22.4382470119522
            ],
            [
              10.844621513944219,
              21.003984063745037
            ],
            [
              12.039840637450197,
              20.047808764940243
            ],
            [
              13.235059760956176,
              19.569721115537845
            ],
            [
              14.908366533864552,
              19.808764940239058
            ],
            [
              15.625498007968133,
              20.286852589641455
            ],
            [
              16.342629482071715,
              20.764940239043824
            ],
            [
              17.537848605577693,
              20.764940239043824
            ],
            [
              18.254980079681275,
              20.286852589641455
            ]
          ]
        ]
      }
    }
  ]
}