{
  "type": "FeatureCollection",
  "crs": {
    "type": "name",
    "properties": {
      "name": "urn:ogc:def:crs:OGC:1.3:CRS84"
    }
  },
  "features": [
    {
      "type": "Feature",
      "properties": {
        "timestamp": "2026-04-06T13:15:34.141915",
        "country_name": "Dominica",
        "author": "",
        "author_id": "4a761be3-468d-470c-b760-594edb09290b",
        "validated": false,
        "ranking": [
          [
            "Dominica",
            0.12408246845006943
          ],
          [
            "Serbia",
            0.059563133865594864
          ],
          [
            "Heard and McDonald Islands",
            0.047087185084819794
          ],
          [
            "Saudi Arabia",
            0.0444382019340992
          ],
          [
            "Martinique",
            0.03582320734858513
          ],
          [
            "Lithuania",
            0.032112110406160355
          ],
          [
            "Guyana",
            0.03136398643255234
          ],
          [
            "Sri Lanka",
            0.0244088564068079
          ],
          [
            "Qatar",
            0.02280695177614689
          ],
          [
            "Peru",
            0.019417520612478256
          ],
          [
            "Romania",
            0.018567170947790146
          ],
          [
            "Bahrain",
            0.017692891880869865
          ],
          [
            "Moldova",
            0.01674041710793972
          ],
          [
            "Angola",
            0.015365694649517536
          ],
          [
            "Belize",
            0.014862904325127602
          ],
          [
            "Greenland",
            0.014661838300526142
          ],
          [
            "Togo",
            0.014200377278029919
          ],
          [
            "Benin",
            0.013985008001327515
          ],
          [
            "French Guiana",
            0.013263728469610214
          ],
          [
            "Vanuatu",
            0.011131810955703259
          ],
          [
            "Albania",
            0.010964424349367619
          ],
          [
            "Saint Lucia",
            0.010508124716579914
          ],
          [
            "Iran",
            0.010307848453521729
          ],
          [
            "Burundi",
            0.010055353865027428
          ],
          [
            "Namibia",
            0.009844036772847176
          ],
          [
            "Antigua & Barbuda",
            0.0097208172082901
          ],
          [
            "Faroe Islands",
            0.009720531292259693
          ],
          [
            "Bangladesh",
            0.00957275740802288
          ],
          [
            "South Korea",
            0.009546264074742794
          ],
          [
            "Cape Verde",
            0.008833298459649086
          ],
          [
            "Malawi",
            0.007912848144769669
          ],
          [
            "Spain",
            0.007681803312152624
          ],
          [
            "Vietnam",
            0.007455484941601753
          ],
          [
            "Tunisia",
            0.007405893877148628
          ],
          [
            "United States Virgin Islands",
            0.006834253203123808
          ],
          [
            "Thailand",
            0.006781391799449921
          ],
          [
            "Turkmenistan",
            0.006456653121858835
          ],
          [
            "Ecuador",
            0.006431192625313997
          ],
          [
            "Myanmar",
            0.006191515829414129
          ],
          [
            "Switzerland",
            0.006050027906894684
          ],
          [
            "Colombia",
            0.005789864808320999
          ],
          [
            "Ghana",
            0.005545017775148153
          ],
          [
            "South Sudan",
            0.005278931464999914
          ],
          [
            "Kenya",
            0.005133680999279022
          ],
          [
            "Bosnia & Herzegovina",
            0.004804440774023533
          ],
          [
            "Reunion",
            0.004605217836797237
          ],
          [
            "Liberia",
            0.004123179707676172
          ],
          [
            "Iraq",
            0.0037644014228135347
          ],
          [
            "Rwanda",
            0.0037497684825211763
          ],
          [
            "Finland",
            0.003564662067219615
          ],
          [
            "West Bank",
            0.00354158622212708
          ],
          [
            "New Zealand",
            0.003510575508698821
          ],
          [
            "Chad",
            0.003413936123251915
          ],
          [
            "Bahamas",
            0.0034093030262738466
          ],
          [
            "Eswatini",
            0.0033957588020712137
          ],
          [
            "Yemen",
            0.003394994419068098
          ],
          [
            "Czech Republic",
            0.003368079662322998
          ],
          [
            "Mozambique",
            0.003261007135733962
          ],
          [
            "Chile",
            0.0032469804864376783
          ],
          [
            "South Georgia Islands",
            0.003212189534679055
          ],
          [
            "Portugal",
            0.0031821990851312876
          ],
          [
            "Mayotte",
            0.0029848869889974594
          ],
          [
            "Latvia",
            0.002958321711048484
          ],
          [
            "Sao Tome and Principe",
            0.0029030400328338146
          ],
          [
            "Svalbard",
            0.002898287493735552
          ],
          [
            "Guatemala",
            0.002765391021966934
          ],
          [
            "Egypt",
            0.0027609956450760365
          ],
          [
            "Venezuela",
            0.0027460174169391394
          ],
          [
            "Ukraine",
            0.0026294048875570297
          ],
          [
            "Guadeloupe",
            0.002623968990519643
          ],
          [
            "Luxembourg",
            0.0026090769097208977
          ],
          [
            "France",
            0.0024978462606668472
          ],
          [
            "Syria",
            0.002472618827596307
          ],
          [
            "Somalia",
            0.0024563362821936607
          ],
          [
            "Argentina",
            0.002352505223825574
          ],
          [
            "Israel",
            0.002252178266644478
          ],
          [
            "Ethiopia",
            0.0022168217692524195
          ],
          [
            "Croatia",
            0.0021546173375099897
          ],
          [
            "Comoros",
            0.002126682084053755
          ],
          [
            "Montenegro",
            0.0020631232764571905
          ],
          [
            "Solomon Islands",
            0.0020311102271080017
          ],
          [
            "Brazil",
            0.0020213094539940357
          ],
          [
            "Germany",
            0.0020053614862263203
          ],
          [
            "Kazakhstan",
            0.001985452603548765
          ],
          [
            "Georgia",
            0.0019819075241684914
          ],
          [
            "Libya",
            0.0019791272934526205
          ],
          [
            "Uzbekistan",
            0.0019334800308570266
          ],
          [
            "Botswana",
            0.0019286992028355598
          ],
          [
            "Turkey",
            0.001848944928497076
          ],
          [
            "Bolivia",
            0.001847006264142692
          ],
          [
            "Paraguay",
            0.001844014273956418
          ],
          [
            "Oman",
            0.0018433707300573587
          ],
          [
            "Azerbaijan",
            0.0018248893320560455
          ],
          [
            "Congo",
            0.0018174557480961084
          ],
          [
            "North Macedonia",
            0.001761619234457612
          ],
          [
            "Mongolia",
            0.0017320564948022366
          ],
          [
            "Suriname",
            0.0017240243032574654
          ],
          [
            "Italy",
            0.0017016425263136625
          ],
          [
            "Algeria",
            0.001598819624632597
          ],
          [
            "Belgium",
            0.0015364264836534858
          ],
          [
            "Puerto Rico",
            0.0015109831001609564
          ],
          [
            "New Caledonia",
            0.0015058303251862526
          ],
          [
            "United Kingdom",
            0.0014884201809763908
          ],
          [
            "Jordan",
            0.0014853402972221375
          ],
          [
            "Bhutan",
            0.0014817212941125035
          ],
          [
            "Uruguay",
            0.001452688011340797
          ],
          [
            "Iceland",
            0.0014327708631753922
          ],
          [
            "Burkina Faso",
            0.001425269991159439
          ],
          [
            "Armenia",
            0.001413207734003663
          ],
          [
            "Cameroon",
            0.001395377330482006
          ],
          [
            "Laos",
            0.0013627883745357394
          ],
          [
            "Sierra Leone",
            0.0013306355103850365
          ],
          [
            "Barbados",
            0.0013300596037879586
          ],
          [
            "Honduras",
            0.0013287130277603865
          ],
          [
            "Ireland",
            0.0013201066758483648
          ],
          [
            "Sweden",
            0.0012652771547436714
          ],
          [
            "Mali",
            0.0012354885693639517
          ],
          [
            "Uganda",
            0.0012006808537989855
          ],
          [
            "Estonia",
            0.0011538666440173984
          ],
          [
            "Papua New Guinea",
            0.0011303494684398174
          ],
          [
            "El Salvador",
            0.0011171825462952256
          ],
          [
            "Nigeria",
            0.001087732962332666
          ],
          [
            "Nicaragua",
            0.001049762242473662
          ],
          [
            "Australia",
            0.0010398162994533777
          ],
          [
            "Mexico",
            0.0010215927613899112
          ],
          [
            "Equatorial Guinea",
            0.0010042267385870218
          ],
          [
            "Gabon",
            0.0010024833027273417
          ],
          [
            "Taiwan",
            0.0009982188930734992
          ],
          [
            "Cambodia",
            0.0009789899922907352
          ],
          [
            "Hungary",
            0.0009572278358973563
          ],
          [
            "India",
            0.000951611902564764
          ],
          [
            "United States of America",
            0.0008964854059740901
          ],
          [
            "Poland",
            0.0008851643651723862
          ],
          [
            "Guinea",
            0.0008619442814961076
          ],
          [
            "Dominican Republic",
            0.000850851705763489
          ],
          [
            "Netherlands Antilles",
            0.0008342530927620828
          ],
          [
            "Sudan",
            0.0008126102620735765
          ],
          [
            "Slovakia",
            0.0008031063480302691
          ],
          [
            "Costa Rica",
            0.0007968413410708308
          ],
          [
            "Tanzania",
            0.0007895160815678537
          ],
          [
            "Madeira Islands",
            0.0007874842267483473
          ],
          [
            "Fiji",
            0.0007688534678891301
          ],
          [
            "Indonesia",
            0.0007498721242882311
          ],
          [
            "Mauritania",
            0.0007435897132381797
          ],
          [
            "Belarus",
            0.0007250453345477581
          ],
          [
            "Central African Republic",
            0.0007111342856660485
          ],
          [
            "Russia",
            0.000693809415679425
          ],
          [
            "Hong Kong",
            0.0006834151572547853
          ],
          [
            "Philippines",
            0.0006622421788051724
          ],
          [
            "Côte d'Ivoire",
            0.0006612059660255909
          ],
          [
            "Japan",
            0.0006603061337955296
          ],
          [
            "Timor-Leste",
            0.000657874858006835
          ],
          [
            "Kyrgyzstan",
            0.0006263958639465272
          ],
          [
            "Brunei",
            0.0006240573129616678
          ],
          [
            "Bulgaria",
            0.0006020923028700054
          ],
          [
            "Senegal",
            0.0005899919779039919
          ],
          [
            "Eritrea",
            0.000584227149374783
          ],
          [
            "Jamaica",
            0.0005793767049908638
          ],
          [
            "Zimbabwe",
            0.0005685922806151211
          ],
          [
            "Madagascar",
            0.0005680318572558463
          ],
          [
            "Lesotho",
            0.0005631772801280022
          ],
          [
            "Falkland Islands",
            0.0005509534385055304
          ],
          [
            "South Africa",
            0.0005383138195611537
          ],
          [
            "Kuwait",
            0.00053347711218521
          ],
          [
            "Turks and Caicos Islands",
            0.0005208071088418365
          ],
          [
            "Malaysia",
            0.0005036276415921748
          ],
          [
            "Niger",
            0.0005003635887987912
          ],
          [
            "Canada",
            0.000498371955472976
          ],
          [
            "Guam",
            0.0004910480347461998
          ],
          [
            "Palau",
            0.0004886300885118544
          ],
          [
            "Cuba",
            0.00048444943968206644
          ],
          [
            "China",
            0.00048174595576711
          ],
          [
            "Isle of Man",
            0.0004786300996784121
          ],
          [
            "Norway",
            0.0004344871558714658
          ],
          [
            "Slovenia",
            0.00043292040936648846
          ],
          [
            "North Korea",
            0.0004243801813572645
          ],
          [
            "Afghanistan",
            0.0003790676419157535
          ],
          [
            "Tajikistan",
            0.00036021278356201947
          ],
          [
            "Trinidad and Tobago",
            0.0003496833669487387
          ],
          [
            "DR Congo",
            0.00033321420778520405
          ],
          [
            "Nepal",
            0.0003315082867629826
          ],
          [
            "Panama",
            0.0003070005914196372
          ],
          [
            "Samoa",
            0.0002784815151244402
          ],
          [
            "United Arab Emirates",
            0.00024079614377114922
          ],
          [
            "Greece",
            0.0002238618180854246
          ],
          [
            "Guinea-Bissau",
            0.0002079216210404411
          ],
          [
            "Netherlands",
            0.0001786767679732293
          ],
          [
            "Djibouti",
            0.00016116260667331517
          ],
          [
            "Cyprus",
            0.0001595422363607213
          ],
          [
            "Western Sahara",
            0.00015845743473619223
          ],
          [
            "Zambia",
            0.0001581117685418576
          ],
          [
            "Austria",
            8.658407750772312e-05
          ],
          [
            "Pakistan",
            8.563118171878159e-05
          ],
          [
            "Lebanon",
            7.573013863293454e-05
          ],
          [
            "Gambia",
            6.288952135946602e-05
          ],
          [
            "Morocco",
            5.88660805078689e-05
          ],
          [
            "Denmark",
            3.243727405788377e-05
          ],
          [
            "Kiribati",
            2.506835517124273e-05
          ],
          [
            "Haiti",
            1.8265101971337572e-05
          ]
        ]
      },
      "geometry": {
        "type": "MultiLineString",
        "coordinates": [
          [
            [
              15.209876543209873,
              49.03703703703701
            ],
            [
              16.197530864197518,
              48.54320987654319
            ],
            [
              18.049382716049394,
              48.049382716049365
            ],
            [
              20.641975308641975,
              47.925925925925924
            ],
            [
              22.37037037037038,
              47.925925925925924
            ],
            [
              23.358024691358025,
              47.925925925925924
            ],
            [
              23.975308641975317,
              47.925925925925924
            ],
            [
              24.71604938271605,
              47.80246913580248
            ],
            [
              25.580246913580254,
              47.30864197530866
            ],
            [
              26.320987654320987,
              47.18518518518516
            ],
            [
              26.93827160493828,
              46.81481481481484
            ],
            [
              27.802469135802482,
              46.69135802469134
            ],
            [
              28.543209876543216,
              46.5679012345679
            ],
            [
              29.037037037037038,
              46.44444444444446
            ],
            [
              30.641975308641975,
              46.44444444444446
            ],
            [
              32.49382716049382,
              46.69135802469134
            ],
            [
              34.71604938271605,
              47.55555555555554
            ],
            [
              35.20987654320987,
              47.925925925925924
            ],
            [
              36.19753086419752,
              48.296296296296305
            ],
            [
              37.06172839506172,
              48.54320987654319
            ],
            [
              37.80246913580248,
              48.79012345679013
            ],
            [
              38.172839506172835,
              48.91358024691357
            ],
            [
              38.79012345679013,
              48.91358024691357
            ],
            [
              40.765432098765416,
              48.91358024691357
            ],
            [
              42.24691358024691,
              48.91358024691357
            ],
            [
              43.85185185185185,
              48.91358024691357
            ],
            [
              44.96296296296296,
              48.91358024691357
            ],
            [
              46.32098765432099,
              49.16049382716051
            ],
            [
              46.81481481481481,
              49.16049382716051
            ],
            [
              47.30864197530863,
              48.79012345679013
            ],
            [
              47.67901234567901,
              48.17283950617286
            ],
            [
              47.925925925925924,
              47.30864197530866
            ],
            [
              48.049382716049365,
              46.69135802469134
            ],
            [
              48.296296296296305,
              45.703703703703695
            ],
            [
              49.03703703703704,
              43.48148148148147
            ],
            [
              50.271604938271594,
              39.40740740740739
            ],
            [
              50.765432098765416,
              36.320987654321016
            ],
            [
              50.765432098765416,
              34.34567901234567
            ],
            [
              50.765432098765416,
              32.37037037037038
            ],
            [
              50.51851851851853,
              30.148148148148152
            ],
            [
              49.65432098765433,
              27.925925925925924
            ],
            [
              47.55555555555554,
              24.469135802469168
            ],
            [
              46.69135802469134,
              22.37037037037038
            ],
            [
              46.44444444444446,
              20.641975308641975
            ],
            [
              46.44444444444446,
              18.91358024691357
            ],
            [
              46.44444444444446,
              17.185185185185162
            ],
            [
              46.69135802469134,
              15.703703703703695
            ],
            [
              46.81481481481481,
              13.851851851851848
            ],
            [
              46.81481481481481,
              12.617283950617264
            ],
            [
              46.81481481481481,
              11.382716049382736
            ],
            [
              46.44444444444446,
              10.148148148148152
            ],
            [
              46.44444444444446,
              9.40740740740739
            ],
            [
              46.44444444444446,
              8.790123456790127
            ],
            [
              46.32098765432099,
              8.296296296296305
            ],
            [
              45.333333333333314,
              7.30864197530866
            ],
            [
              44.59259259259258,
              6.938271604938279
            ],
            [
              42.49382716049382,
              5.827160493827137
            ],
            [
              41.25925925925927,
              4.839506172839492
            ],
            [
              40.641975308641975,
              4.469135802469168
            ],
            [
              39.77777777777777,
              3.234567901234584
            ],
            [
              39.40740740740739,
              2.4938271604938222
            ],
            [
              39.40740740740739,
              2.0
            ],
            [
              39.16049382716051,
              2.370370370370381
            ],
            [
              38.543209876543216,
              2.6172839506173204
            ],
            [
              37.55555555555554,
              3.111111111111086
            ],
            [
              37.18518518518519,
              3.3580246913580254
            ],
            [
              36.44444444444446,
              3.3580246913580254
            ],
            [
              35.950617283950606,
              3.3580246913580254
            ],
            [
              35.580246913580254,
              3.234567901234584
            ],
            [
              35.08641975308643,
              3.234567901234584
            ],
            [
              34.59259259259258,
              3.4814814814814667
            ],
            [
              34.34567901234567,
              3.8518518518518476
            ],
            [
              33.85185185185185,
              3.975308641975289
            ],
            [
              33.358024691358025,
              4.469135802469168
            ],
            [
              32.987654320987644,
              4.716049382716051
            ],
            [
              32.61728395061729,
              5.703703703703695
            ],
            [
              32.12345679012344,
              6.814814814814838
            ],
            [
              31.506172839506178,
              7.679012345678984
            ],
            [
              31.382716049382708,
              8.172839506172863
            ],
            [
              31.135802469135797,
              8.666666666666686
            ],
            [
              31.012345679012356,
              9.28395061728395
            ],
            [
              30.765432098765416,
              9.901234567901213
            ],
            [
              30.518518518518505,
              10.765432098765416
            ],
            [
              30.395061728395063,
              11.506172839506178
            ],
            [
              30.148148148148152,
              12.0
            ],
            [
              29.90123456790124,
              12.493827160493822
            ],
            [
              28.790123456790127,
              13.358024691358025
            ],
            [
              27.308641975308632,
              15.580246913580254
            ],
            [
              25.827160493827165,
              17.555555555555543
            ],
            [
              24.09876543209876,
              20.271604938271594
            ],
            [
              20.641975308641975,
              23.358024691358025
            ],
            [
              18.91358024691357,
              24.469135802469168
            ],
            [
              18.666666666666657,
              24.839506172839492
            ],
            [
              18.666666666666657,
              25.333333333333314
            ],
            [
              18.91358024691357,
              26.5679012345679
            ],
            [
              18.91358024691357,
              28.049382716049365
            ],
            [
              19.037037037037038,
              28.419753086419746
            ],
            [
              19.160493827160508,
              29.037037037037067
            ],
            [
              19.40740740740742,
              29.65432098765433
            ],
            [
              19.40740740740742,
              30.518518518518533
            ],
            [
              19.40740740740742,
              31.62962962962962
            ],
            [
              19.40740740740742,
              32.49382716049382
            ],
            [
              19.40740740740742,
              33.604938271604965
            ],
            [
              19.40740740740742,
              34.34567901234567
            ],
            [
              19.037037037037038,
              35.82716049382714
            ],
            [
              17.4320987654321,
              37.80246913580248
            ],
            [
              15.950617283950606,
              39.77777777777777
            ],
            [
              14.962962962962962,
              41.50617283950618
            ],
            [
              14.222222222222229,
              42.987654320987644
            ],
            [
              13.358024691358025,
              46.19753086419752
            ],
            [
              13.234567901234556,
              47.80246913580248
            ],
            [
              13.358024691358025,
              53.48148148148147
            ],
            [
              14.592592592592581,
              58.419753086419746
            ],
            [
              15.209876543209873,
              61.25925925925924
            ],
            [
              15.333333333333343,
              61.87654320987656
            ],
            [
              15.827160493827165,
              62.0
            ],
            [
              16.5679012345679,
              61.382716049382736
            ],
            [
              16.93827160493828,
              60.51851851851853
            ],
            [
              17.06172839506172,
              59.65432098765433
            ],
            [
              17.308641975308632,
              58.666666666666686
            ],
            [
              17.308641975308632,
              58.049382716049365
            ],
            [
              16.81481481481481,
              57.679012345678984
            ],
            [
              16.444444444444457,
              56.93827160493828
            ],
            [
              16.074074074074076,
              56.44444444444446
            ],
            [
              15.827160493827165,
              56.074074074074076
            ],
            [
              15.827160493827165,
              55.45679012345681
            ],
            [
              15.703703703703695,
              54.83950617283949
            ],
            [
              15.580246913580254,
              54.34567901234567
            ],
            [
              15.580246913580254,
              53.85185185185185
            ],
            [
              15.580246913580254,
              53.358024691358025
            ],
            [
              15.580246913580254,
              52.8641975308642
            ],
            [
              15.456790123456784,
              52.37037037037038
            ],
            [
              15.333333333333343,
              51.87654320987656
            ],
            [
              15.333333333333343,
              51.382716049382736
            ],
            [
              15.333333333333343,
              50.765432098765416
            ],
            [
              15.086419753086432,
              50.271604938271594
            ],
            [
              14.962962962962962,
              49.77777777777777
            ],
            [
              14.962962962962962,
              49.28395061728395
            ],
            [
              15.333333333333343,
              49.16049382716051
            ],
            [
              15.703703703703695,
              49.40740740740739
            ]
          ]
        ]
      }
    }
  ]
}