{
  "type": "FeatureCollection",
  "crs": {
    "type": "name",
    "properties": {
      "name": "urn:ogc:def:crs:OGC:1.3:CRS84"
    }
  },
  "features": [
    {
      "type": "Feature",
      "properties": {
        "timestamp": "2026-04-27T16:31:02.760849",
        "country_name": "Egypt",
        "author": "",
        "author_id": "3d1ba4bd-e003-4c6c-b765-3d3f38a95e13",
        "validated": false,
        "ranking": [
          [
            "Egypt",
            0.7838557362556458
          ],
          [
            "Uruguay",
            0.02503288723528385
          ],
          [
            "Reunion",
            0.019526854157447815
          ],
          [
            "Namibia",
            0.010910743847489357
          ],
          [
            "Tanzania",
            0.010249548591673374
          ],
          [
            "Botswana",
            0.010018459521234035
          ],
          [
            "Angola",
            0.0100012868642807
          ],
          [
            "Côte d'Ivoire",
            0.00895702838897705
          ],
          [
            "Poland",
            0.008102325722575188
          ],
          [
            "Spain",
            0.00783987995237112
          ],
          [
            "Suriname",
            0.007718282286077738
          ],
          [
            "Iran",
            0.006208122707903385
          ],
          [
            "Ecuador",
            0.005446848925203085
          ],
          [
            "Cape Verde",
            0.003950023557990789
          ],
          [
            "Mauritania",
            0.003925688099116087
          ],
          [
            "Martinique",
            0.003767316695302725
          ],
          [
            "Eswatini",
            0.003582194447517395
          ],
          [
            "Guadeloupe",
            0.0032002117950469255
          ],
          [
            "United States Virgin Islands",
            0.002444629557430744
          ],
          [
            "French Guiana",
            0.002365162828937173
          ],
          [
            "Bosnia & Herzegovina",
            0.0023252456448972225
          ],
          [
            "Sierra Leone",
            0.002301502740010619
          ],
          [
            "Lithuania",
            0.0022526010870933533
          ],
          [
            "Bolivia",
            0.0022418638691306114
          ],
          [
            "Burundi",
            0.0021525525953620672
          ],
          [
            "Iraq",
            0.002139132237061858
          ],
          [
            "Sao Tome and Principe",
            0.002100135665386915
          ],
          [
            "North Macedonia",
            0.0019226658623665571
          ],
          [
            "Dominica",
            0.0017090337350964546
          ],
          [
            "Sudan",
            0.0016745784087106586
          ],
          [
            "Saudi Arabia",
            0.001438486622646451
          ],
          [
            "Libya",
            0.0014001637464389205
          ],
          [
            "Kenya",
            0.0013986690901219845
          ],
          [
            "Romania",
            0.0013964246027171612
          ],
          [
            "Moldova",
            0.0013154249172657728
          ],
          [
            "Cambodia",
            0.0012023292947560549
          ],
          [
            "Syria",
            0.0010609121527522802
          ],
          [
            "Ghana",
            0.0010493025183677673
          ],
          [
            "Algeria",
            0.0009792950004339218
          ],
          [
            "Belarus",
            0.0009632706642150879
          ],
          [
            "Belize",
            0.00092291523469612
          ],
          [
            "South Sudan",
            0.0009033845271915197
          ],
          [
            "Armenia",
            0.0008955528610385954
          ],
          [
            "Nigeria",
            0.0008949995972216129
          ],
          [
            "Barbados",
            0.0008397101773880422
          ],
          [
            "Paraguay",
            0.0007895422168076038
          ],
          [
            "Uganda",
            0.0007820990867912769
          ],
          [
            "Comoros",
            0.0007809720700606704
          ],
          [
            "Antigua & Barbuda",
            0.0007422553608193994
          ],
          [
            "Peru",
            0.0006421075668185949
          ],
          [
            "Rwanda",
            0.0006156976451165974
          ],
          [
            "Benin",
            0.000570654752664268
          ],
          [
            "Lesotho",
            0.0005574344540946186
          ],
          [
            "France",
            0.0005452833138406277
          ],
          [
            "Guatemala",
            0.0005444831331260502
          ],
          [
            "Ethiopia",
            0.0005073456559330225
          ],
          [
            "Equatorial Guinea",
            0.0004978269571438432
          ],
          [
            "Brazil",
            0.0004745670303236693
          ],
          [
            "Heard and McDonald Islands",
            0.00046663780813105404
          ],
          [
            "Liberia",
            0.00046252182801254094
          ],
          [
            "Costa Rica",
            0.00041648585465736687
          ],
          [
            "Yemen",
            0.0004128146101720631
          ],
          [
            "India",
            0.00040619904757477343
          ],
          [
            "Kuwait",
            0.0003829456109087914
          ],
          [
            "Mali",
            0.00038026782567612827
          ],
          [
            "Zimbabwe",
            0.0003650630242191255
          ],
          [
            "Somalia",
            0.00036039104452356696
          ],
          [
            "Gabon",
            0.00035452094743959606
          ],
          [
            "New Zealand",
            0.00034382325247861445
          ],
          [
            "Cameroon",
            0.0003332214255351573
          ],
          [
            "Qatar",
            0.00032665542676113546
          ],
          [
            "Serbia",
            0.0003199544735252857
          ],
          [
            "Belgium",
            0.0003115036233793944
          ],
          [
            "Jordan",
            0.0003082346811424941
          ],
          [
            "Japan",
            0.0002716625458560884
          ],
          [
            "Vanuatu",
            0.00026386644458398223
          ],
          [
            "Greenland",
            0.0002610371448099613
          ],
          [
            "Australia",
            0.0002597433631308377
          ],
          [
            "Nicaragua",
            0.0002570984943304211
          ],
          [
            "Solomon Islands",
            0.00024217947793658823
          ],
          [
            "South Georgia Islands",
            0.00023712868278380483
          ],
          [
            "Vietnam",
            0.00023516174405813217
          ],
          [
            "Mayotte",
            0.00021734432084485888
          ],
          [
            "Chile",
            0.00021584263595286757
          ],
          [
            "Guam",
            0.00021284801186993718
          ],
          [
            "United Arab Emirates",
            0.00020867303828708827
          ],
          [
            "Netherlands Antilles",
            0.0002084713487420231
          ],
          [
            "Guyana",
            0.00020476813369896263
          ],
          [
            "Togo",
            0.000198865556740202
          ],
          [
            "Chad",
            0.000195006126887165
          ],
          [
            "Mozambique",
            0.00018967018695548177
          ],
          [
            "Czech Republic",
            0.0001893329608719796
          ],
          [
            "Sri Lanka",
            0.00018454325618222356
          ],
          [
            "Faroe Islands",
            0.00018193740106653422
          ],
          [
            "Azerbaijan",
            0.00017765775555744767
          ],
          [
            "Montenegro",
            0.00017427804414182901
          ],
          [
            "Dominican Republic",
            0.00017227523494511843
          ],
          [
            "Thailand",
            0.00017030617163982242
          ],
          [
            "Germany",
            0.00016947953554335982
          ],
          [
            "Switzerland",
            0.00016068233526311815
          ],
          [
            "Bahrain",
            0.0001539815275464207
          ],
          [
            "Saint Lucia",
            0.00015304484986700118
          ],
          [
            "Venezuela",
            0.00014788527914788574
          ],
          [
            "Finland",
            0.00014784579980187118
          ],
          [
            "Turkmenistan",
            0.00014465308049693704
          ],
          [
            "Bangladesh",
            0.00014209706569090486
          ],
          [
            "Malaysia",
            0.0001371824910165742
          ],
          [
            "Bahamas",
            0.00013708493497688323
          ],
          [
            "Bulgaria",
            0.00013456378655973822
          ],
          [
            "Burkina Faso",
            0.00013153415056876838
          ],
          [
            "Guinea",
            0.00013134762411937118
          ],
          [
            "West Bank",
            0.00012840826821047813
          ],
          [
            "South Africa",
            0.00011216579878237098
          ],
          [
            "Zambia",
            0.00011195398838026449
          ],
          [
            "Oman",
            0.00010924195521511137
          ],
          [
            "Fiji",
            0.00010837694571819156
          ],
          [
            "South Korea",
            0.00010199360258411616
          ],
          [
            "Turkey",
            9.95534282992594e-05
          ],
          [
            "Ukraine",
            9.590481931809336e-05
          ],
          [
            "Croatia",
            9.465849143452942e-05
          ],
          [
            "Argentina",
            9.22286490094848e-05
          ],
          [
            "Latvia",
            9.003359446069226e-05
          ],
          [
            "Colombia",
            8.766125392867252e-05
          ],
          [
            "Puerto Rico",
            8.729784894967452e-05
          ],
          [
            "Afghanistan",
            8.598311251262203e-05
          ],
          [
            "Senegal",
            8.588378841523081e-05
          ],
          [
            "New Caledonia",
            8.261033508460969e-05
          ],
          [
            "Bhutan",
            8.204691403079778e-05
          ],
          [
            "Niger",
            8.190493826987222e-05
          ],
          [
            "Malawi",
            7.747226482024416e-05
          ],
          [
            "Israel",
            7.653581269551069e-05
          ],
          [
            "Svalbard",
            7.531791197834536e-05
          ],
          [
            "Portugal",
            7.458554318873212e-05
          ],
          [
            "Congo",
            7.312827801797539e-05
          ],
          [
            "Hungary",
            6.972387927817181e-05
          ],
          [
            "Myanmar",
            6.966140063013881e-05
          ],
          [
            "Honduras",
            6.308249430730939e-05
          ],
          [
            "Tunisia",
            6.241931259864941e-05
          ],
          [
            "Papua New Guinea",
            6.172894063638523e-05
          ],
          [
            "Trinidad and Tobago",
            6.0794765886384994e-05
          ],
          [
            "Indonesia",
            5.821605373057537e-05
          ],
          [
            "Slovenia",
            5.6900134950410575e-05
          ],
          [
            "Timor-Leste",
            5.575511750066653e-05
          ],
          [
            "Panama",
            5.508726098923944e-05
          ],
          [
            "Norway",
            5.4544638260267675e-05
          ],
          [
            "Brunei",
            5.402157694334164e-05
          ],
          [
            "Laos",
            5.255511132418178e-05
          ],
          [
            "Iceland",
            4.97878972964827e-05
          ],
          [
            "Uzbekistan",
            4.89273588755168e-05
          ],
          [
            "Slovakia",
            4.83547592011746e-05
          ],
          [
            "Italy",
            4.8240897740470245e-05
          ],
          [
            "Sweden",
            4.71373314212542e-05
          ],
          [
            "United States of America",
            4.635354707716033e-05
          ],
          [
            "Georgia",
            4.6342142013600096e-05
          ],
          [
            "Isle of Man",
            4.442744466359727e-05
          ],
          [
            "Djibouti",
            4.380828977446072e-05
          ],
          [
            "Eritrea",
            4.307986091589555e-05
          ],
          [
            "Western Sahara",
            4.1539398807799444e-05
          ],
          [
            "Albania",
            4.130089291720651e-05
          ],
          [
            "Luxembourg",
            4.065740358782932e-05
          ],
          [
            "North Korea",
            3.99688578909263e-05
          ],
          [
            "Palau",
            3.976052175858058e-05
          ],
          [
            "China",
            3.945335993194021e-05
          ],
          [
            "Cuba",
            3.927923535229638e-05
          ],
          [
            "Canada",
            3.904454570147209e-05
          ],
          [
            "DR Congo",
            3.845923492917791e-05
          ],
          [
            "Taiwan",
            3.6749472201336175e-05
          ],
          [
            "Kazakhstan",
            3.6588331568054855e-05
          ],
          [
            "Estonia",
            3.591591303120367e-05
          ],
          [
            "Central African Republic",
            3.59057703462895e-05
          ],
          [
            "Mongolia",
            3.506291250232607e-05
          ],
          [
            "Turks and Caicos Islands",
            3.4615837648743764e-05
          ],
          [
            "Cyprus",
            3.430003926041536e-05
          ],
          [
            "Hong Kong",
            3.160627238685265e-05
          ],
          [
            "Pakistan",
            3.1470081012230366e-05
          ],
          [
            "Russia",
            2.8972526706638746e-05
          ],
          [
            "Ireland",
            2.7757581847254187e-05
          ],
          [
            "Madeira Islands",
            2.3385196982417256e-05
          ],
          [
            "Jamaica",
            2.3248752768267877e-05
          ],
          [
            "Kyrgyzstan",
            2.2285303202806972e-05
          ],
          [
            "El Salvador",
            2.1682541046175174e-05
          ],
          [
            "Samoa",
            2.088612745865248e-05
          ],
          [
            "Tajikistan",
            1.9031187548534945e-05
          ],
          [
            "Falkland Islands",
            1.9024944776901975e-05
          ],
          [
            "Mexico",
            1.87913938134443e-05
          ],
          [
            "Philippines",
            1.775634882505983e-05
          ],
          [
            "Lebanon",
            1.751720810716506e-05
          ],
          [
            "Greece",
            1.5769976016599685e-05
          ],
          [
            "Madagascar",
            1.4308533536677714e-05
          ],
          [
            "Netherlands",
            1.266616800421616e-05
          ],
          [
            "United Kingdom",
            1.2377429811749607e-05
          ],
          [
            "Nepal",
            1.1797094884968828e-05
          ],
          [
            "Guinea-Bissau",
            1.1267737136222422e-05
          ],
          [
            "Austria",
            8.478818017465528e-06
          ],
          [
            "Gambia",
            7.721657311776653e-06
          ],
          [
            "Morocco",
            6.009596745570889e-06
          ],
          [
            "Haiti",
            2.765109229585505e-06
          ],
          [
            "Denmark",
            2.196298510170891e-06
          ],
          [
            "Kiribati",
            6.880813430143462e-07
          ]
        ]
      },
      "geometry": {
        "type": "MultiLineString",
        "coordinates": [
          [
            [
              2.0,
              57.02155172413791
            ],
            [
              2.0,
              56.375
            ],
            [
              2.0,
              55.46982758620686
            ],
            [
              2.0,
              54.306034482758605
            ],
            [
              2.2586206896551744,
              52.883620689655174
            ],
            [
              2.5172413793103487,
              51.33189655172413
            ],
            [
              2.9051724137931387,
              49.65086206896552
            ],
            [
              3.293103448275872,
              47.71120689655169
            ],
            [
              3.5517241379310462,
              44.995689655172384
            ],
            [
              4.198275862069011,
              41.89224137931035
            ],
            [
              4.586206896551744,
              38.6594827586207
            ],
            [
              5.4913793103448825,
              34.52155172413791
            ],
            [
              6.13793103448279,
              30.383620689655174
            ],
            [
              6.7844827586206975,
              25.98706896551721
            ],
            [
              7.431034482758662,
              21.978448275862036
            ],
            [
              7.818965517241395,
              18.616379310344826
            ],
            [
              7.948275862069011,
              15.642241379310349
            ],
            [
              8.07758620689657,
              13.831896551724128
            ],
            [
              8.07758620689657,
              12.021551724137908
            ],
            [
              8.07758620689657,
              10.857758620689651
            ],
            [
              8.206896551724185,
              9.823275862068954
            ],
            [
              8.206896551724185,
              8.918103448275815
            ],
            [
              8.206896551724185,
              8.271551724137908
            ],
            [
              8.206896551724185,
              7.495689655172384
            ],
            [
              8.206896551724185,
              6.978448275862036
            ],
            [
              8.206896551724185,
              6.461206896551687
            ],
            [
              8.206896551724185,
              5.943965517241395
            ],
            [
              8.206896551724185,
              5.426724137931046
            ],
            [
              9.241379310344882,
              5.426724137931046
            ],
            [
              11.181034482758662,
              5.426724137931046
            ],
            [
              14.543103448275872,
              5.426724137931046
            ],
            [
              19.068965517241395,
              5.426724137931046
            ],
            [
              24.758620689655174,
              5.426724137931046
            ],
            [
              30.96551724137936,
              5.426724137931046
            ],
            [
              37.301724137931046,
              5.426724137931046
            ],
            [
              43.63793103448279,
              5.426724137931046
            ],
            [
              49.974137931034534,
              5.426724137931046
            ],
            [
              54.88793103448279,
              5.426724137931046
            ],
            [
              58.379310344827616,
              5.426724137931046
            ],
            [
              60.189655172413836,
              5.426724137931046
            ],
            [
              61.48275862068965,
              5.426724137931046
            ],
            [
              62.0,
              5.814655172413779
            ],
            [
              62.0,
              6.331896551724128
            ],
            [
              62.0,
              7.107758620689651
            ],
            [
              61.61206896551727,
              8.400862068965466
            ],
            [
              61.224137931034534,
              9.823275862068954
            ],
            [
              60.57758620689657,
              11.375
            ],
            [
              59.67241379310349,
              13.831896551724128
            ],
            [
              58.50862068965523,
              16.418103448275815
            ],
            [
              57.34482758620692,
              19.00431034482756
            ],
            [
              56.31034482758622,
              21.590517241379303
            ],
            [
              55.27586206896558,
              23.659482758620697
            ],
            [
              54.5,
              25.46982758620686
            ],
            [
              53.59482758620692,
              27.150862068965523
            ],
            [
              52.818965517241395,
              28.443965517241338
            ],
            [
              52.301724137931046,
              29.60775862068965
            ],
            [
              51.91379310344831,
              30.64224137931035
            ],
            [
              51.52586206896558,
              31.418103448275815
            ],
            [
              51.13793103448279,
              32.19396551724134
            ],
            [
              50.75,
              32.8405172413793
            ],
            [
              50.49137931034488,
              33.35775862068965
            ],
            [
              50.36206896551727,
              33.745689655172384
            ],
            [
              50.10344827586209,
              34.26293103448273
            ],
            [
              49.71551724137936,
              34.78017241379308
            ],
            [
              49.456896551724185,
              35.168103448275815
            ],
            [
              49.068965517241395,
              35.685344827586164
            ],
            [
              48.81034482758622,
              36.073275862068954
            ],
            [
              48.551724137931046,
              36.46120689655169
            ],
            [
              48.16379310344831,
              36.978448275862036
            ],
            [
              47.646551724137964,
              37.75431034482756
            ],
            [
              47.25862068965523,
              38.14224137931035
            ],
            [
              47.0,
              38.6594827586207
            ],
            [
              46.61206896551727,
              39.04741379310343
            ],
            [
              46.224137931034534,
              39.56465517241378
            ],
            [
              46.09482758620692,
              40.08189655172413
            ],
            [
              45.706896551724185,
              40.46982758620686
            ],
            [
              45.44827586206901,
              40.98706896551721
            ],
            [
              45.189655172413836,
              41.375
            ],
            [
              44.93103448275866,
              41.89224137931035
            ],
            [
              44.54310344827587,
              42.4094827586207
            ],
            [
              44.2844827586207,
              43.056034482758605
            ],
            [
              44.02586206896552,
              43.44396551724134
            ],
            [
              43.76724137931035,
              44.0905172413793
            ],
            [
              43.63793103448279,
              44.478448275862036
            ],
            [
              43.50862068965523,
              45.25431034482756
            ],
            [
              43.379310344827616,
              45.90086206896552
            ],
            [
              43.379310344827616,
              46.54741379310343
            ],
            [
              43.379310344827616,
              47.06465517241378
            ],
            [
              43.379310344827616,
              47.71120689655169
            ],
            [
              43.63793103448279,
              48.09913793103448
            ],
            [
              44.54310344827587,
              48.09913793103448
            ],
            [
              45.189655172413836,
              47.96982758620686
            ],
            [
              45.96551724137936,
              47.71120689655169
            ],
            [
              46.87068965517244,
              47.323275862068954
            ],
            [
              47.646551724137964,
              47.06465517241378
            ],
            [
              48.29310344827587,
              46.806034482758605
            ],
            [
              48.81034482758622,
              46.41810344827587
            ],
            [
              49.32758620689657,
              46.03017241379308
            ],
            [
              49.71551724137936,
              45.90086206896552
            ],
            [
              49.974137931034534,
              45.51293103448273
            ],
            [
              50.36206896551727,
              45.383620689655174
            ],
            [
              50.879310344827616,
              44.866379310344826
            ],
            [
              51.396551724137964,
              44.60775862068965
            ],
            [
              51.7844827586207,
              44.34913793103448
            ],
            [
              52.17241379310349,
              44.0905172413793
            ],
            [
              52.56034482758622,
              43.96120689655169
            ],
            [
              52.94827586206901,
              43.70258620689651
            ],
            [
              53.46551724137936,
              43.44396551724134
            ],
            [
              53.724137931034534,
              43.96120689655169
            ],
            [
              53.724137931034534,
              44.866379310344826
            ],
            [
              53.724137931034534,
              45.383620689655174
            ],
            [
              53.85344827586209,
              46.03017241379308
            ],
            [
              53.85344827586209,
              46.935344827586164
            ],
            [
              53.85344827586209,
              47.8405172413793
            ],
            [
              53.85344827586209,
              48.745689655172384
            ],
            [
              53.85344827586209,
              49.52155172413791
            ],
            [
              53.85344827586209,
              50.426724137931046
            ],
            [
              53.85344827586209,
              51.33189655172413
            ],
            [
              53.85344827586209,
              52.10775862068965
            ],
            [
              53.85344827586209,
              52.883620689655174
            ],
            [
              53.98275862068965,
              53.53017241379308
            ],
            [
              53.98275862068965,
              54.176724137931046
            ],
            [
              53.98275862068965,
              54.95258620689651
            ],
            [
              53.98275862068965,
              55.46982758620686
            ],
            [
              53.724137931034534,
              55.98706896551721
            ],
            [
              52.94827586206901,
              56.116379310344826
            ],
            [
              51.7844827586207,
              56.245689655172384
            ],
            [
              50.49137931034488,
              56.375
            ],
            [
              48.68103448275866,
              56.50431034482756
            ],
            [
              46.87068965517244,
              56.633620689655174
            ],
            [
              44.41379310344831,
              57.02155172413791
            ],
            [
              41.439655172413836,
              57.15086206896552
            ],
            [
              38.85344827586209,
              57.538793103448256
            ],
            [
              36.26724137931035,
              57.66810344827587
            ],
            [
              34.32758620689657,
              57.79741379310343
            ],
            [
              32.646551724137964,
              57.926724137931046
            ],
            [
              31.224137931034534,
              58.056034482758605
            ],
            [
              30.06034482758622,
              58.185344827586164
            ],
            [
              29.025862068965523,
              58.31465517241378
            ],
            [
              28.25,
              58.31465517241378
            ],
            [
              27.73275862068965,
              58.44396551724134
            ],
            [
              26.956896551724185,
              58.44396551724134
            ],
            [
              26.568965517241395,
              58.573275862068954
            ],
            [
              25.663793103448313,
              58.573275862068954
            ],
            [
              25.146551724137964,
              58.573275862068954
            ],
            [
              24.37068965517244,
              58.573275862068954
            ],
            [
              23.724137931034534,
              58.573275862068954
            ],
            [
              22.818965517241395,
              58.573275862068954
            ],
            [
              21.784482758620697,
              58.573275862068954
            ],
            [
              20.75,
              58.573275862068954
            ],
            [
              19.71551724137936,
              58.573275862068954
            ],
            [
              18.81034482758622,
              58.573275862068954
            ],
            [
              17.775862068965523,
              58.573275862068954
            ],
            [
              16.612068965517267,
              58.573275862068954
            ],
            [
              15.57758620689657,
              58.573275862068954
            ],
            [
              14.413793103448313,
              58.573275862068954
            ],
            [
              13.379310344827616,
              58.573275862068954
            ],
            [
              12.344827586206918,
              58.573275862068954
            ],
            [
              11.439655172413836,
              58.573275862068954
            ],
            [
              10.534482758620697,
              58.573275862068954
            ],
            [
              9.629310344827616,
              58.573275862068954
            ],
            [
              8.982758620689651,
              58.573275862068954
            ],
            [
              8.336206896551744,
              58.573275862068954
            ],
            [
              7.560344827586221,
              58.573275862068954
            ],
            [
              7.043103448275872,
              58.573275862068954
            ],
            [
              6.267241379310349,
              58.573275862068954
            ],
            [
              5.620689655172441,
              58.573275862068954
            ],
            [
              4.715517241379359,
              58.44396551724134
            ],
            [
              4.198275862069011,
              58.44396551724134
            ],
            [
              3.681034482758662,
              58.31465517241378
            ],
            [
              3.293103448275872,
              58.056034482758605
            ]
          ]
        ]
      }
    }
  ]
}