{
  "type": "FeatureCollection",
  "crs": {
    "type": "name",
    "properties": {
      "name": "urn:ogc:def:crs:OGC:1.3:CRS84"
    }
  },
  "features": [
    {
      "type": "Feature",
      "properties": {
        "timestamp": "2026-06-14T12:14:45.800607",
        "country_name": "Eritrea",
        "author": "Hi",
        "author_id": "82eb82af-ba18-4f50-b91f-ad9a9585603c",
        "validated": false,
        "ranking": [
          [
            "Eritrea",
            0.805448055267334
          ],
          [
            "Bahamas",
            0.059507228434085846
          ],
          [
            "Laos",
            0.05381123721599579
          ],
          [
            "United States of America",
            0.00868457742035389
          ],
          [
            "Kiribati",
            0.008493510074913502
          ],
          [
            "Mexico",
            0.007743384223431349
          ],
          [
            "Nepal",
            0.006151202600449324
          ],
          [
            "Guinea",
            0.005133139435201883
          ],
          [
            "Australia",
            0.005069941282272339
          ],
          [
            "Turkmenistan",
            0.003163956105709076
          ],
          [
            "El Salvador",
            0.0030031963251531124
          ],
          [
            "Italy",
            0.0029706379864364862
          ],
          [
            "Turks and Caicos Islands",
            0.002720953430980444
          ],
          [
            "Samoa",
            0.0018412139033898711
          ],
          [
            "Armenia",
            0.001773987663909793
          ],
          [
            "Vanuatu",
            0.0017022502142935991
          ],
          [
            "Guyana",
            0.0016804748447611928
          ],
          [
            "South Georgia Islands",
            0.001345232711173594
          ],
          [
            "Bahrain",
            0.0011949649779126048
          ],
          [
            "Costa Rica",
            0.0010103288805112243
          ],
          [
            "Latvia",
            0.0008785310201346874
          ],
          [
            "Peru",
            0.0008763336227275431
          ],
          [
            "Solomon Islands",
            0.0008526016608811915
          ],
          [
            "Bangladesh",
            0.0006581335910595953
          ],
          [
            "Malawi",
            0.0005757668986916542
          ],
          [
            "Martinique",
            0.0005204716580919921
          ],
          [
            "Saudi Arabia",
            0.0005022742552682757
          ],
          [
            "Svalbard",
            0.0004993979237042367
          ],
          [
            "Cuba",
            0.0004979816148988903
          ],
          [
            "Uzbekistan",
            0.00046721744001843035
          ],
          [
            "Tajikistan",
            0.000449248356744647
          ],
          [
            "Sri Lanka",
            0.0003955335123464465
          ],
          [
            "Senegal",
            0.000334082986228168
          ],
          [
            "Comoros",
            0.0003308899758849293
          ],
          [
            "Guadeloupe",
            0.0003171237767674029
          ],
          [
            "Papua New Guinea",
            0.0003115861618425697
          ],
          [
            "Ukraine",
            0.00030781805980950594
          ],
          [
            "Dominican Republic",
            0.0003034303954336792
          ],
          [
            "Liberia",
            0.0002860093372873962
          ],
          [
            "Serbia",
            0.00027235664310865104
          ],
          [
            "Ethiopia",
            0.0002700114855542779
          ],
          [
            "New Caledonia",
            0.00025145814288407564
          ],
          [
            "Albania",
            0.00021887561888433993
          ],
          [
            "Barbados",
            0.00021770564489997923
          ],
          [
            "Togo",
            0.00021234512678347528
          ],
          [
            "Belgium",
            0.00019917906320188195
          ],
          [
            "Greece",
            0.00019144454563502222
          ],
          [
            "Iraq",
            0.00018576582078821957
          ],
          [
            "Georgia",
            0.00018435006495565176
          ],
          [
            "Indonesia",
            0.0001775293203536421
          ],
          [
            "Puerto Rico",
            0.00017643190221861005
          ],
          [
            "Vietnam",
            0.0001561669778311625
          ],
          [
            "Faroe Islands",
            0.00015592707495670766
          ],
          [
            "Czech Republic",
            0.00014916001236997545
          ],
          [
            "Luxembourg",
            0.00014009347069077194
          ],
          [
            "Romania",
            0.00013937943731434643
          ],
          [
            "Philippines",
            0.00012468278873711824
          ],
          [
            "Lithuania",
            0.00011689674283843488
          ],
          [
            "Turkey",
            0.00011545886081876233
          ],
          [
            "Paraguay",
            0.00011395907495170832
          ],
          [
            "Myanmar",
            0.00010972493328154087
          ],
          [
            "South Korea",
            0.00010835313878487796
          ],
          [
            "Jamaica",
            0.00010769690561573952
          ],
          [
            "Somalia",
            0.00010433922579977661
          ],
          [
            "Russia",
            0.00010225459118373692
          ],
          [
            "Croatia",
            9.916527778841555e-05
          ],
          [
            "Dominica",
            9.250345465261489e-05
          ],
          [
            "Heard and McDonald Islands",
            9.232207958120853e-05
          ],
          [
            "India",
            8.864093979354948e-05
          ],
          [
            "United Kingdom",
            8.79877115949057e-05
          ],
          [
            "Denmark",
            8.795532630756497e-05
          ],
          [
            "Estonia",
            8.781150972936302e-05
          ],
          [
            "Equatorial Guinea",
            8.579748100601137e-05
          ],
          [
            "Finland",
            8.520111441612244e-05
          ],
          [
            "Thailand",
            8.292192796943709e-05
          ],
          [
            "Libya",
            7.894798181951046e-05
          ],
          [
            "Azerbaijan",
            7.874030416132882e-05
          ],
          [
            "DR Congo",
            7.686232129344717e-05
          ],
          [
            "Falkland Islands",
            7.358928996836767e-05
          ],
          [
            "Kuwait",
            7.275859388755634e-05
          ],
          [
            "Iran",
            7.107001874828711e-05
          ],
          [
            "Suriname",
            7.062733493512496e-05
          ],
          [
            "Argentina",
            6.816277164034545e-05
          ],
          [
            "Tunisia",
            6.424218736356124e-05
          ],
          [
            "North Macedonia",
            5.933345164521597e-05
          ],
          [
            "Reunion",
            5.7845129049383104e-05
          ],
          [
            "France",
            5.4500531405210495e-05
          ],
          [
            "Timor-Leste",
            5.3476069297175854e-05
          ],
          [
            "Namibia",
            5.283753125695512e-05
          ],
          [
            "Gabon",
            5.06243304698728e-05
          ],
          [
            "Guinea-Bissau",
            5.049385435995646e-05
          ],
          [
            "Malaysia",
            4.873576108366251e-05
          ],
          [
            "Mozambique",
            4.6439814468612894e-05
          ],
          [
            "Netherlands Antilles",
            4.4633314246311784e-05
          ],
          [
            "Benin",
            4.134076152695343e-05
          ],
          [
            "Montenegro",
            4.0001337765716016e-05
          ],
          [
            "Israel",
            3.9832240872783586e-05
          ],
          [
            "United States Virgin Islands",
            3.9547674532514066e-05
          ],
          [
            "Chile",
            3.952512633986771e-05
          ],
          [
            "Mongolia",
            3.8719117583241314e-05
          ],
          [
            "Algeria",
            3.8698075513821095e-05
          ],
          [
            "Kyrgyzstan",
            3.844433740596287e-05
          ],
          [
            "Syria",
            3.817194374278188e-05
          ],
          [
            "Yemen",
            3.7841309676878154e-05
          ],
          [
            "Cape Verde",
            3.775796722038649e-05
          ],
          [
            "Gambia",
            3.7019468436483294e-05
          ],
          [
            "Guatemala",
            3.686248601297848e-05
          ],
          [
            "Spain",
            3.6543962778523564e-05
          ],
          [
            "Ecuador",
            3.614095476223156e-05
          ],
          [
            "Belize",
            3.5310011298861355e-05
          ],
          [
            "Sierra Leone",
            3.5273395042167976e-05
          ],
          [
            "Uruguay",
            3.345585355418734e-05
          ],
          [
            "Venezuela",
            3.317726805107668e-05
          ],
          [
            "Côte d'Ivoire",
            3.2127267331816256e-05
          ],
          [
            "Slovakia",
            3.1623207178199664e-05
          ],
          [
            "Zimbabwe",
            3.15799297823105e-05
          ],
          [
            "Kenya",
            3.1043102353578433e-05
          ],
          [
            "Kazakhstan",
            3.053187538171187e-05
          ],
          [
            "Angola",
            3.0355931812664494e-05
          ],
          [
            "Portugal",
            3.0024088118807413e-05
          ],
          [
            "Djibouti",
            2.957885226351209e-05
          ],
          [
            "Moldova",
            2.9421755243674852e-05
          ],
          [
            "New Zealand",
            2.8611775633180514e-05
          ],
          [
            "Bolivia",
            2.7487405532156117e-05
          ],
          [
            "Qatar",
            2.6946547222905792e-05
          ],
          [
            "Hong Kong",
            2.681411751837004e-05
          ],
          [
            "Poland",
            2.5921111955540255e-05
          ],
          [
            "Bhutan",
            2.501630297047086e-05
          ],
          [
            "Switzerland",
            2.3472912289435044e-05
          ],
          [
            "Eswatini",
            2.3353944925474934e-05
          ],
          [
            "Rwanda",
            2.3103930288925767e-05
          ],
          [
            "Honduras",
            2.230341124231927e-05
          ],
          [
            "Uganda",
            2.17669403355103e-05
          ],
          [
            "Sudan",
            2.145867983927019e-05
          ],
          [
            "Madeira Islands",
            2.11255501199048e-05
          ],
          [
            "Cambodia",
            2.0645902623073198e-05
          ],
          [
            "Ghana",
            2.0573101210175082e-05
          ],
          [
            "Germany",
            2.0469182345550507e-05
          ],
          [
            "Canada",
            2.003448571485933e-05
          ],
          [
            "Panama",
            1.9324721506563947e-05
          ],
          [
            "Antigua & Barbuda",
            1.8109421944245696e-05
          ],
          [
            "Greenland",
            1.7720616597216576e-05
          ],
          [
            "Fiji",
            1.7678787116892636e-05
          ],
          [
            "Burundi",
            1.6753239833633415e-05
          ],
          [
            "West Bank",
            1.6522881196578965e-05
          ],
          [
            "Mauritania",
            1.5277202692232095e-05
          ],
          [
            "Bosnia & Herzegovina",
            1.4940338587621227e-05
          ],
          [
            "Lesotho",
            1.4430272130994126e-05
          ],
          [
            "Burkina Faso",
            1.4375027603819035e-05
          ],
          [
            "Colombia",
            1.4021583410794847e-05
          ],
          [
            "Brazil",
            1.389337376167532e-05
          ],
          [
            "Egypt",
            1.2985244211449753e-05
          ],
          [
            "Nicaragua",
            1.2621333553397562e-05
          ],
          [
            "Mayotte",
            1.1984057891822886e-05
          ],
          [
            "Mali",
            1.135359525505919e-05
          ],
          [
            "Sweden",
            1.045940189214889e-05
          ],
          [
            "Cyprus",
            9.502274224360008e-06
          ],
          [
            "Iceland",
            8.904912647267338e-06
          ],
          [
            "Belarus",
            8.82670337887248e-06
          ],
          [
            "French Guiana",
            8.546685421606526e-06
          ],
          [
            "Sao Tome and Principe",
            8.467422958347015e-06
          ],
          [
            "Jordan",
            7.827083209122065e-06
          ],
          [
            "Nigeria",
            7.609383828821592e-06
          ],
          [
            "Tanzania",
            7.5249499786878005e-06
          ],
          [
            "South Sudan",
            7.316882147279102e-06
          ],
          [
            "Japan",
            7.110646492947126e-06
          ],
          [
            "Austria",
            6.523154752358096e-06
          ],
          [
            "Central African Republic",
            6.224496701179305e-06
          ],
          [
            "China",
            6.123648745415267e-06
          ],
          [
            "Saint Lucia",
            6.028986263117986e-06
          ],
          [
            "Cameroon",
            5.701579084416153e-06
          ],
          [
            "Guam",
            4.758834620588459e-06
          ],
          [
            "Norway",
            4.712093414127594e-06
          ],
          [
            "Taiwan",
            4.661488674173597e-06
          ],
          [
            "Ireland",
            4.269927103450755e-06
          ],
          [
            "Niger",
            4.147903837292688e-06
          ],
          [
            "United Arab Emirates",
            3.955150077672442e-06
          ],
          [
            "Congo",
            3.72539079762646e-06
          ],
          [
            "Trinidad and Tobago",
            3.2853513403097168e-06
          ],
          [
            "Haiti",
            3.051107796636643e-06
          ],
          [
            "Bulgaria",
            3.0281839826784562e-06
          ],
          [
            "Oman",
            2.9247564725665143e-06
          ],
          [
            "Western Sahara",
            2.8894141905766446e-06
          ],
          [
            "Zambia",
            2.6114637421414955e-06
          ],
          [
            "Botswana",
            2.3090392460289877e-06
          ],
          [
            "Afghanistan",
            1.9858671294059604e-06
          ],
          [
            "Slovenia",
            1.7410837926945533e-06
          ],
          [
            "South Africa",
            1.6551671251363587e-06
          ],
          [
            "Netherlands",
            1.5029189626147854e-06
          ],
          [
            "Hungary",
            1.4936827028577682e-06
          ],
          [
            "Chad",
            1.4912146752976696e-06
          ],
          [
            "Brunei",
            1.422888999513816e-06
          ],
          [
            "Isle of Man",
            1.0511474783925223e-06
          ],
          [
            "Palau",
            9.726384178065928e-07
          ],
          [
            "Lebanon",
            8.993256415124051e-07
          ],
          [
            "North Korea",
            7.710937097726855e-07
          ],
          [
            "Madagascar",
            5.148872332938481e-07
          ],
          [
            "Pakistan",
            3.734103302122094e-07
          ],
          [
            "Morocco",
            2.0867742023256142e-07
          ]
        ]
      },
      "geometry": {
        "type": "MultiLineString",
        "coordinates": [
          [
            [
              24.150109336839137,
              60.91369010972528
            ],
            [
              23.05476525267727,
              60.42672182869964
            ],
            [
              21.959432320120186,
              59.81801705322002
            ],
            [
              21.47262016156259,
              59.20930670193795
            ],
            [
              20.985802427202543,
              58.84408049116871
            ],
            [
              20.498984692842498,
              58.478854280399474
            ],
            [
              19.76876645500613,
              57.99189157517628
            ],
            [
              19.038548217169705,
              57.26143915363781
            ],
            [
              18.186615788089057,
              56.65272322655332
            ],
            [
              17.57809501408957,
              56.16575494552765
            ],
            [
              16.847871200450754,
              55.67879224030446
            ],
            [
              16.239350426451324,
              55.19182395927879
            ],
            [
              15.509129400713675,
              54.70485567825315
            ],
            [
              14.778908374976083,
              54.09615090277353
            ],
            [
              13.926975945895379,
              53.36569848123506
            ],
            [
              13.31846353559962,
              52.756993705755434
            ],
            [
              12.709942761600132,
              52.148277778670945
            ],
            [
              12.101421987600702,
              51.53957300319132
            ],
            [
              11.492901213601272,
              50.687378511396446
            ],
            [
              10.76268018786368,
              49.83518401960154
            ],
            [
              10.032456374224807,
              49.10473159806307
            ],
            [
              9.302235348487216,
              48.25253710626819
            ],
            [
              8.815414826225947,
              47.64383233078857
            ],
            [
              8.32860266766835,
              46.9133799092501
            ],
            [
              7.841787721209528,
              46.18292748771162
            ],
            [
              7.354972774750706,
              45.574222712232
            ],
            [
              6.868155040390661,
              44.96550399724629
            ],
            [
              6.503048709373672,
              44.35680479756911
            ],
            [
              6.016228187112404,
              43.74809444628704
            ],
            [
              5.77281931993241,
              43.13938409500497
            ],
            [
              5.286007161374755,
              42.53067374372293
            ],
            [
              4.920892466654152,
              41.800221322184456
            ],
            [
              4.555780559834716,
              41.191510970902414
            ],
            [
              4.312374480555945,
              40.58280061962034
            ],
            [
              3.947265361637733,
              40.09584349019957
            ],
            [
              3.5821534548182967,
              39.3653910686611
            ],
            [
              3.2170387600976937,
              38.51318542526133
            ],
            [
              2.9736326808188664,
              37.90448622558415
            ],
            [
              2.8519268532782576,
              37.29577587430208
            ],
            [
              2.8519268532782576,
              36.68706552302001
            ],
            [
              2.730226601540039,
              35.956613101481565
            ],
            [
              2.6085207739994303,
              35.347902750199495
            ],
            [
              2.4868205222612687,
              34.49570825840462
            ],
            [
              2.365111906819436,
              33.887009058727415
            ],
            [
              2.121705827540609,
              33.15655663718894
            ],
            [
              2.121705827540609,
              32.42610421565047
            ],
            [
              2.121705827540609,
              31.8173938643684
            ],
            [
              2.0,
              31.208683513086385
            ],
            [
              2.0,
              30.599973161804314
            ],
            [
              2.0,
              29.86952074026584
            ],
            [
              2.0,
              29.26081038898377
            ],
            [
              2.0,
              28.6521000377017
            ],
            [
              2.365111906819436,
              28.16513175667609
            ],
            [
              2.8519268532782576,
              27.799905545906824
            ],
            [
              3.460447627277688,
              27.678174627255316
            ],
            [
              4.0689656133758945,
              27.799905545906824
            ],
            [
              4.677486387375325,
              28.043389686419687
            ],
            [
              5.286007161374755,
              28.043389686419687
            ],
            [
              5.894527935374242,
              27.921658767768122
            ],
            [
              6.503048709373672,
              27.799905545906824
            ],
            [
              7.111561119669432,
              27.678174627255316
            ],
            [
              7.720081893668862,
              27.678174627255316
            ],
            [
              8.32860266766835,
              27.678174627255316
            ],
            [
              8.937120653766556,
              27.678174627255316
            ],
            [
              9.545641427765986,
              27.678174627255316
            ],
            [
              10.154159413864193,
              27.55642140539402
            ],
            [
              10.640974360323014,
              27.19120634622965
            ],
            [
              11.006089055043674,
              26.70423806520398
            ],
            [
              11.249495134322501,
              26.095516562317073
            ],
            [
              11.614609829043104,
              25.365075292383494
            ],
            [
              11.979716160060093,
              24.756364941101424
            ],
            [
              12.34482806687953,
              24.269396660075756
            ],
            [
              12.95334884087896,
              24.02591251956295
            ],
            [
              13.561866826977166,
              24.269396660075756
            ],
            [
              13.926975945895379,
              24.756364941101424
            ],
            [
              14.413796468156647,
              25.121591151870632
            ],
            [
              14.900608626714245,
              25.6085594328963
            ],
            [
              15.387423573173066,
              26.095516562317073
            ],
            [
              15.630838016155508,
              26.70423806520398
            ],
            [
              15.995944347172497,
              27.312937264881214
            ],
            [
              16.48276208153254,
              27.799905545906824
            ],
            [
              16.847871200450754,
              28.408615897188895
            ],
            [
              16.96957424009014,
              29.139068318727368
            ],
            [
              17.212985895171414,
              29.74777867000944
            ],
            [
              17.943204133007782,
              29.991262810522244
            ],
            [
              18.430027443170275,
              29.626036599753036
            ],
            [
              18.916839601727872,
              29.139068318727368
            ],
            [
              19.525360375727303,
              28.773842107958103
            ],
            [
              20.0121725342849,
              28.408615897188895
            ],
            [
              20.742401923726163,
              28.286873826932492
            ],
            [
              21.350911546120756,
              28.408615897188895
            ],
            [
              21.959432320120186,
              28.408615897188895
            ],
            [
              22.567953094119616,
              28.408615897188895
            ],
            [
              23.29817690775849,
              28.530357967445298
            ],
            [
              23.90669210595547,
              28.6521000377017
            ],
            [
              24.636921495396734,
              28.6521000377017
            ],
            [
              25.24544226939622,
              28.530357967445298
            ],
            [
              25.97566050723259,
              28.286873826932492
            ],
            [
              26.584181281232077,
              28.043389686419687
            ],
            [
              27.192702055231507,
              27.799905545906824
            ],
            [
              27.80121725342849,
              27.799905545906824
            ],
            [
              28.653149682509138,
              27.678174627255316
            ],
            [
              29.383367920345563,
              27.678174627255316
            ],
            [
              29.991888694344993,
              27.678174627255316
            ],
            [
              30.600409468344424,
              27.678174627255316
            ],
            [
              31.208924666541463,
              27.55642140539402
            ],
            [
              31.817445440540894,
              27.19120634622965
            ],
            [
              32.30425759909849,
              26.825968983855546
            ],
            [
              32.91277837309792,
              26.58248484334274
            ],
            [
              33.52129914709735,
              26.460753924691176
            ],
            [
              34.251522960736224,
              26.21726978417837
            ],
            [
              34.860043734735655,
              26.095516562317073
            ],
            [
              35.468564508735085,
              25.973785643665508
            ],
            [
              35.95538224309513,
              25.6085594328963
            ],
            [
              36.44219440165273,
              25.243333222127035
            ],
            [
              36.92900656021038,
              24.878107011357827
            ],
            [
              37.41581871876792,
              24.39113873033216
            ],
            [
              37.902636453128025,
              23.904170449306548
            ],
            [
              38.389448611685566,
              23.538944238537283
            ],
            [
              38.87627192184806,
              23.173718027768075
            ],
            [
              39.60649015968448,
              22.930233887255213
            ],
            [
              40.3367139733233,
              22.565007676486005
            ],
            [
              40.82352613188095,
              22.078039395460337
            ],
            [
              41.188651978206394,
              21.46934019578316
            ],
            [
              41.553755521322216,
              20.738887774244688
            ],
            [
              41.91886464024037,
              20.25191949321902
            ],
            [
              42.28397933496103,
              19.643197990332112
            ],
            [
              42.52737983843741,
              19.034498790654936
            ],
            [
              43.13590061243684,
              18.304046369116463
            ],
            [
              43.86612442607566,
              17.57359394757799
            ],
            [
              44.59635939131937,
              16.843141526039517
            ],
            [
              45.20486343791151,
              16.35617324501385
            ],
            [
              45.691686748074005,
              15.869204963988238
            ],
            [
              46.17850448243405,
              15.38223668296257
            ],
            [
              46.543608025549815,
              14.773537483285395
            ],
            [
              47.152128799549246,
              14.043085061746922
            ],
            [
              47.51723791846746,
              13.556116780721254
            ],
            [
              47.88235261318812,
              12.947406429439184
            ],
            [
              48.24746173210633,
              12.338696078157113
            ],
            [
              48.73427946646632,
              11.973469867387905
            ],
            [
              49.22109162502397,
              11.486501586362238
            ],
            [
              49.95131543866279,
              11.243017445849432
            ],
            [
              50.438133173022834,
              10.877791235080167
            ],
            [
              51.046653947022264,
              10.390822954054556
            ],
            [
              51.53346610557986,
              10.025596743285291
            ],
            [
              52.02027826413746,
              9.416886392003278
            ],
            [
              52.38539853466057,
              8.808187192326045
            ],
            [
              52.99391930866,
              8.199465689439137
            ],
            [
              53.480731467217595,
              7.712497408413469
            ],
            [
              53.96754362577519,
              7.225529127387858
            ],
            [
              54.57606439977462,
              6.616829927710683
            ],
            [
              55.18458517377405,
              6.251603716941418
            ],
            [
              55.79310594777348,
              5.886377506172153
            ],
            [
              56.27991810633114,
              5.5211512954029445
            ],
            [
              56.766730264888736,
              4.912440944120874
            ],
            [
              57.25354799924878,
              4.547214733351666
            ],
            [
              57.74036015780638,
              4.060246452325998
            ],
            [
              58.34888093180581,
              3.816762311813193
            ],
            [
              58.95740170580524,
              3.329794030787525
            ],
            [
              59.56592247980467,
              3.0863098902747197
            ],
            [
              60.17443767800171,
              3.0863098902747197
            ],
            [
              60.78295845200114,
              3.5732781713003305
            ],
            [
              61.026375682884805,
              4.181988522582401
            ],
            [
              61.39147922600057,
              4.912440944120874
            ],
            [
              61.513182265639955,
              5.5211512954029445
            ],
            [
              61.87829138455817,
              6.495087857454223
            ],
            [
              62.0,
              7.469013267900664
            ],
            [
              62.0,
              8.56470305181324
            ],
            [
              61.87829138455817,
              9.416886392003278
            ],
            [
              61.39147922600057,
              10.390822954054556
            ],
            [
              60.78295845200114,
              11.243017445849432
            ],
            [
              60.17443767800171,
              11.973469867387905
            ],
            [
              59.44421386436284,
              12.703922288926378
            ],
            [
              58.83569309036341,
              13.312632640208449
            ],
            [
              58.22718904377126,
              13.921331839885625
            ],
            [
              57.74036015780638,
              14.408300120911292
            ],
            [
              57.25354799924878,
              14.895268401936903
            ],
            [
              56.64502722524935,
              15.260505764311006
            ],
            [
              56.03650645124986,
              15.625720823475376
            ],
            [
              55.306288213413495,
              16.112689104501044
            ],
            [
              54.57606439977462,
              16.35617324501385
            ],
            [
              53.480731467217595,
              16.721399455783114
            ],
            [
              52.75050765357872,
              17.086625666552322
            ],
            [
              52.14198687957929,
              17.451851877321587
            ],
            [
              51.65516914521925,
              17.9388201583472
            ],
            [
              51.16835698666165,
              18.304046369116463
            ],
            [
              50.681539252301604,
              18.791014650142074
            ],
            [
              50.07302405410462,
              19.27798293116774
            ],
            [
              49.586211895547024,
              19.643197990332112
            ],
            [
              49.09939416118698,
              20.008435352706215
            ],
            [
              48.612570851024486,
              20.495403633731883
            ],
            [
              48.24746173210633,
              20.982371914757493
            ],
            [
              47.760649573548676,
              21.71281318469113
            ],
            [
              47.27383183918869,
              22.19978146571674
            ],
            [
              46.78702525643348,
              22.686749746742407
            ],
            [
              46.300207522073435,
              23.051975957511672
            ],
            [
              45.691686748074005,
              23.538944238537283
            ],
            [
              45.20486343791151,
              23.904170449306548
            ],
            [
              44.474645200075145,
              24.39113873033216
            ],
            [
              43.86612442607566,
              24.756364941101424
            ],
            [
              43.37931784332051,
              25.243333222127035
            ],
            [
              42.89250010896046,
              25.6085594328963
            ],
            [
              42.40567679879803,
              26.095516562317073
            ],
            [
              42.040567679879814,
              26.58248484334274
            ],
            [
              41.553755521322216,
              27.06945312436835
            ],
            [
              41.06693778696217,
              27.434690486742454
            ],
            [
              40.45841701296274,
              28.16513175667609
            ],
            [
              39.971610430207534,
              28.530357967445298
            ],
            [
              39.48479269584749,
              29.017326248470965
            ],
            [
              39.11967242532444,
              29.504294529496576
            ],
            [
              38.75456888220867,
              30.113004880778647
            ],
            [
              38.389448611685566,
              30.599973161804314
            ],
            [
              37.902636453128025,
              30.965199372573522
            ],
            [
              37.53752733420981,
              31.695651794111996
            ],
            [
              37.17242379109405,
              32.18262007513766
            ],
            [
              36.92900656021038,
              32.913072496676136
            ],
            [
              36.80730352057094,
              33.52177169635331
            ],
            [
              36.56390301709456,
              34.13049319924025
            ],
            [
              36.19878274657151,
              34.98267653943026
            ],
            [
              36.07707413112968,
              35.59138689071233
            ],
            [
              35.711965012211465,
              36.20009724199437
            ],
            [
              35.3468614690957,
              36.930549663532844
            ],
            [
              35.10344981401448,
              37.539260014814914
            ],
            [
              34.73834069509627,
              38.02622829584055
            ],
            [
              34.37322042457322,
              38.51318542526133
            ],
            [
              34.00811130565501,
              39.12190692814826
            ],
            [
              33.76471637798102,
              39.73060612782547
            ],
            [
              33.39959610745797,
              40.339327630712376
            ],
            [
              33.15619560398159,
              40.94802683038958
            ],
            [
              32.91277837309792,
              41.67847925192805
            ],
            [
              32.54767482998216,
              42.4089316734665
            ],
            [
              32.425966214540324,
              43.01764202474857
            ],
            [
              32.06085709562211,
              43.869836516543444
            ],
            [
              31.817445440540894,
              44.60028893808192
            ],
            [
              31.574033785459676,
              45.574222712232
            ],
            [
              31.45233632162268,
              46.30467513377047
            ],
            [
              31.208924666541463,
              47.15686404976293
            ],
            [
              31.08722162690208,
              47.76556882524255
            ],
            [
              30.72210693218142,
              48.73950538729383
            ],
            [
              30.357003389065653,
              49.83518401960154
            ],
            [
              29.991888694344993,
              50.687378511396446
            ],
            [
              29.62677399962439,
              51.53957300319132
            ],
            [
              29.261670456508625,
              52.39176191918375
            ],
            [
              28.896555761787965,
              53.12221434072222
            ],
            [
              28.653149682509138,
              53.8526667622607
            ],
            [
              28.40973802742792,
              54.58311918379917
            ],
            [
              28.166326372346703,
              55.19182395927879
            ],
            [
              27.922920293067875,
              55.80053431056086
            ],
            [
              27.679514213789105,
              56.409239086040486
            ],
            [
              27.55781674995211,
              57.017955013124975
            ],
            [
              27.314399519068445,
              57.6266597886046
            ],
            [
              26.827587360510847,
              57.26143915363781
            ],
            [
              26.584181281232077,
              56.65272322655332
            ],
            [
              26.09736354687203,
              56.2875025915865
            ],
            [
              25.610545812511987,
              55.922276380817266
            ],
            [
              25.002030614314947,
              55.80053431056086
            ],
            [
              24.515212879954902,
              54.70485567825315
            ],
            [
              23.90669210595547,
              53.60918262174789
            ],
            [
              23.541588562839706,
              52.635246059696584
            ],
            [
              23.29817690775849,
              52.02654128421696
            ],
            [
              22.68965613375906,
              52.148277778670945
            ],
            [
              22.08114093556202,
              52.270025424729795
            ],
            [
              21.350911546120756,
              52.5135095652426
            ],
            [
              20.498984692842498,
              52.635246059696584
            ],
            [
              19.76876645500613,
              52.5135095652426
            ],
            [
              19.038548217169705,
              52.270025424729795
            ],
            [
              18.551724907007213,
              51.661309497645306
            ],
            [
              18.186615788089057,
              50.93085707610683
            ],
            [
              17.943204133007782,
              50.32215230062718
            ],
            [
              17.821506669170844,
              49.71344194934514
            ],
            [
              17.699798053729012,
              49.10473159806307
            ],
            [
              17.456391974450185,
              48.49602124678103
            ],
            [
              17.091277279729525,
              48.00905296575536
            ],
            [
              16.604465121171927,
              47.64383233078857
            ],
            [
              15.995944347172497,
              47.400348190275736
            ],
            [
              15.387423573173066,
              47.400348190275736
            ],
            [
              14.778908374976083,
              47.400348190275736
            ],
            [
              14.170387600976596,
              47.278600544216914
            ],
            [
              13.44016378733778,
              47.15686404976293
            ],
            [
              12.83164301333835,
              47.03511640370408
            ],
            [
              12.101421987600702,
              47.03511640370408
            ],
            [
              11.492901213601272,
              47.03511640370408
            ],
            [
              10.76268018786368,
              46.791632263191275
            ]
          ]
        ]
      }
    }
  ]
}