{
  "type": "FeatureCollection",
  "crs": {
    "type": "name",
    "properties": {
      "name": "urn:ogc:def:crs:OGC:1.3:CRS84"
    }
  },
  "features": [
    {
      "type": "Feature",
      "properties": {
        "timestamp": "2026-05-01T07:44:06.920427",
        "country_name": "Ethiopia",
        "author": "Eason",
        "author_id": "e811a782-aa72-4a58-9f5e-d383726c1463",
        "validated": false,
        "ranking": [
          [
            "Ethiopia",
            0.0890781581401825
          ],
          [
            "Sri Lanka",
            0.07851701974868774
          ],
          [
            "Romania",
            0.06280648708343506
          ],
          [
            "Saudi Arabia",
            0.05199972540140152
          ],
          [
            "Guyana",
            0.04221790283918381
          ],
          [
            "Iraq",
            0.03678442910313606
          ],
          [
            "Peru",
            0.03115251660346985
          ],
          [
            "Luxembourg",
            0.028733795508742332
          ],
          [
            "Suriname",
            0.024793455377221107
          ],
          [
            "Martinique",
            0.022939886897802353
          ],
          [
            "Bolivia",
            0.02208382822573185
          ],
          [
            "Serbia",
            0.021593313664197922
          ],
          [
            "Barbados",
            0.019292393699288368
          ],
          [
            "Côte d'Ivoire",
            0.01768297515809536
          ],
          [
            "Eswatini",
            0.016544770449399948
          ],
          [
            "Uruguay",
            0.01615419238805771
          ],
          [
            "Germany",
            0.013703127391636372
          ],
          [
            "Reunion",
            0.011690140701830387
          ],
          [
            "Vietnam",
            0.01154387928545475
          ],
          [
            "Qatar",
            0.011540917679667473
          ],
          [
            "Angola",
            0.011521211825311184
          ],
          [
            "Lesotho",
            0.011047860607504845
          ],
          [
            "Gabon",
            0.010360614396631718
          ],
          [
            "Burundi",
            0.009881841018795967
          ],
          [
            "Bahamas",
            0.009809878654778004
          ],
          [
            "North Macedonia",
            0.009654548950493336
          ],
          [
            "Belize",
            0.009236987680196762
          ],
          [
            "Guadeloupe",
            0.009046915918588638
          ],
          [
            "Sierra Leone",
            0.008451854810118675
          ],
          [
            "Laos",
            0.007845784537494183
          ],
          [
            "France",
            0.007677380461245775
          ],
          [
            "Albania",
            0.007538340985774994
          ],
          [
            "Ghana",
            0.00742989731952548
          ],
          [
            "United States Virgin Islands",
            0.006866134237498045
          ],
          [
            "Finland",
            0.0067873322404921055
          ],
          [
            "Nicaragua",
            0.006509869825094938
          ],
          [
            "Togo",
            0.006288868375122547
          ],
          [
            "Algeria",
            0.00620172219350934
          ],
          [
            "Namibia",
            0.0061048283241689205
          ],
          [
            "Liberia",
            0.006017155479639769
          ],
          [
            "Vanuatu",
            0.005425791721791029
          ],
          [
            "Kenya",
            0.00525324372574687
          ],
          [
            "Czech Republic",
            0.004993489943444729
          ],
          [
            "French Guiana",
            0.004983100108802319
          ],
          [
            "Dominica",
            0.004785486962646246
          ],
          [
            "Guatemala",
            0.0047147017903625965
          ],
          [
            "Mauritania",
            0.004600876476615667
          ],
          [
            "Heard and McDonald Islands",
            0.004470265470445156
          ],
          [
            "Sudan",
            0.0044034370221197605
          ],
          [
            "Rwanda",
            0.004383660852909088
          ],
          [
            "Cambodia",
            0.0042278761975467205
          ],
          [
            "Iran",
            0.004155998583883047
          ],
          [
            "Italy",
            0.004152005538344383
          ],
          [
            "Cape Verde",
            0.0039586760103702545
          ],
          [
            "Lithuania",
            0.0037957977037876844
          ],
          [
            "Antigua & Barbuda",
            0.003654702100902796
          ],
          [
            "United States of America",
            0.003615535330027342
          ],
          [
            "Benin",
            0.003536655567586422
          ],
          [
            "Faroe Islands",
            0.0035156176891177893
          ],
          [
            "Uganda",
            0.0034308789763599634
          ],
          [
            "Egypt",
            0.003218675497919321
          ],
          [
            "Syria",
            0.003158576786518097
          ],
          [
            "Comoros",
            0.0031506705563515425
          ],
          [
            "Belarus",
            0.003036148613318801
          ],
          [
            "Bangladesh",
            0.0029829605482518673
          ],
          [
            "Zimbabwe",
            0.002868898445740342
          ],
          [
            "Bahrain",
            0.0028661913238465786
          ],
          [
            "Azerbaijan",
            0.0028045151848345995
          ],
          [
            "Saint Lucia",
            0.0026690016966313124
          ],
          [
            "Greenland",
            0.0026594281662255526
          ],
          [
            "India",
            0.0026155372615903616
          ],
          [
            "Turkmenistan",
            0.0024958390276879072
          ],
          [
            "Malawi",
            0.002437637187540531
          ],
          [
            "Moldova",
            0.0023872400633990765
          ],
          [
            "South Georgia Islands",
            0.002199060982093215
          ],
          [
            "Switzerland",
            0.002197463531047106
          ],
          [
            "Botswana",
            0.0021390391048043966
          ],
          [
            "Spain",
            0.0020919209346175194
          ],
          [
            "Ecuador",
            0.002086939290165901
          ],
          [
            "South Sudan",
            0.002086115535348654
          ],
          [
            "Poland",
            0.002048347145318985
          ],
          [
            "Montenegro",
            0.0019085702951997519
          ],
          [
            "Tunisia",
            0.001890823245048523
          ],
          [
            "Australia",
            0.0017334100557491183
          ],
          [
            "Colombia",
            0.0017257401486858726
          ],
          [
            "South Korea",
            0.001697368687018752
          ],
          [
            "Senegal",
            0.0016546498518437147
          ],
          [
            "Libya",
            0.0015761760296300054
          ],
          [
            "Jordan",
            0.0014743508072569966
          ],
          [
            "Nigeria",
            0.0014554907102137804
          ],
          [
            "Kuwait",
            0.0014097390230745077
          ],
          [
            "El Salvador",
            0.0013497030595317483
          ],
          [
            "Myanmar",
            0.0012427503243088722
          ],
          [
            "West Bank",
            0.0011985815363004804
          ],
          [
            "Armenia",
            0.0011858316138386726
          ],
          [
            "Eritrea",
            0.0011674091219902039
          ],
          [
            "Chad",
            0.00105582969263196
          ],
          [
            "Mozambique",
            0.0010384597117081285
          ],
          [
            "Thailand",
            0.0010167903965339065
          ],
          [
            "Svalbard",
            0.001014916691929102
          ],
          [
            "Somalia",
            0.0010137559147551656
          ],
          [
            "Portugal",
            0.0009622647194191813
          ],
          [
            "Tajikistan",
            0.0009601398487575352
          ],
          [
            "Mexico",
            0.0009478071006014943
          ],
          [
            "Djibouti",
            0.0008988251793198287
          ],
          [
            "Croatia",
            0.0008745742379687726
          ],
          [
            "Philippines",
            0.0008716349257156253
          ],
          [
            "Guinea",
            0.0008614192483946681
          ],
          [
            "Tanzania",
            0.0008586175390519202
          ],
          [
            "United Kingdom",
            0.0008372716256417334
          ],
          [
            "Canada",
            0.0008369314600713551
          ],
          [
            "Bhutan",
            0.0007677025278098881
          ],
          [
            "Ukraine",
            0.0007492724107578397
          ],
          [
            "Denmark",
            0.0007484540110453963
          ],
          [
            "Argentina",
            0.0007469437550753355
          ],
          [
            "South Africa",
            0.000736624002456665
          ],
          [
            "DR Congo",
            0.000698431977070868
          ],
          [
            "Ireland",
            0.0006872668745927513
          ],
          [
            "Dominican Republic",
            0.0006858552224002779
          ],
          [
            "Bosnia & Herzegovina",
            0.0006826863391324878
          ],
          [
            "Cuba",
            0.0006735665374435484
          ],
          [
            "Cameroon",
            0.0006690722075290978
          ],
          [
            "Greece",
            0.0006574252038262784
          ],
          [
            "Sao Tome and Principe",
            0.0006503636250272393
          ],
          [
            "Uzbekistan",
            0.0006246271659620106
          ],
          [
            "Solomon Islands",
            0.0006049281219020486
          ],
          [
            "Paraguay",
            0.0005715002189390361
          ],
          [
            "Chile",
            0.0005684801144525409
          ],
          [
            "Latvia",
            0.0005300040356814861
          ],
          [
            "Equatorial Guinea",
            0.0005244661006145179
          ],
          [
            "Zambia",
            0.0005165280890651047
          ],
          [
            "Costa Rica",
            0.00048851128667593
          ],
          [
            "Mongolia",
            0.0004671839124057442
          ],
          [
            "Burkina Faso",
            0.00044233177322894335
          ],
          [
            "Venezuela",
            0.00043628885759972036
          ],
          [
            "Honduras",
            0.00041943322867155075
          ],
          [
            "Brazil",
            0.0003934750857297331
          ],
          [
            "Belgium",
            0.00038693175883963704
          ],
          [
            "Mayotte",
            0.00038284645415842533
          ],
          [
            "Samoa",
            0.00038036226760596037
          ],
          [
            "Taiwan",
            0.0003710030869115144
          ],
          [
            "Turkey",
            0.00035917930654250085
          ],
          [
            "Yemen",
            0.00035424731322564185
          ],
          [
            "Iceland",
            0.00034422564203850925
          ],
          [
            "Russia",
            0.0003389955672901124
          ],
          [
            "Sweden",
            0.0003334071661811322
          ],
          [
            "Puerto Rico",
            0.0003249993606004864
          ],
          [
            "Bulgaria",
            0.00031599850626662374
          ],
          [
            "Afghanistan",
            0.0003066620556637645
          ],
          [
            "Georgia",
            0.00030283970409072936
          ],
          [
            "Fiji",
            0.0003024581237696111
          ],
          [
            "China",
            0.0002991408691741526
          ],
          [
            "Israel",
            0.0002957482647616416
          ],
          [
            "Slovakia",
            0.0002843288239091635
          ],
          [
            "Congo",
            0.00028424369520507753
          ],
          [
            "Nepal",
            0.00027252416475676
          ],
          [
            "Oman",
            0.000266135495621711
          ],
          [
            "Turks and Caicos Islands",
            0.00026400297065265477
          ],
          [
            "Papua New Guinea",
            0.0002521455753594637
          ],
          [
            "Slovenia",
            0.0002481000847183168
          ],
          [
            "Estonia",
            0.00024267341359518468
          ],
          [
            "Hungary",
            0.00023746142687741667
          ],
          [
            "Jamaica",
            0.00023492512991651893
          ],
          [
            "New Zealand",
            0.00022516728495247662
          ],
          [
            "Malaysia",
            0.0002242607733933255
          ],
          [
            "Kiribati",
            0.0002141344448318705
          ],
          [
            "Mali",
            0.00021372802439145744
          ],
          [
            "Guam",
            0.00019035270088352263
          ],
          [
            "Kazakhstan",
            0.00018765372806228697
          ],
          [
            "Brunei",
            0.00018058843852486461
          ],
          [
            "Hong Kong",
            0.00017393639427609742
          ],
          [
            "Netherlands Antilles",
            0.0001725653710309416
          ],
          [
            "Indonesia",
            0.00016100668290164322
          ],
          [
            "Western Sahara",
            0.00015629401605110615
          ],
          [
            "United Arab Emirates",
            0.00015262950910255313
          ],
          [
            "Kyrgyzstan",
            0.00015141660696826875
          ],
          [
            "Falkland Islands",
            0.0001407580857630819
          ],
          [
            "Trinidad and Tobago",
            0.00013729877537116408
          ],
          [
            "Madeira Islands",
            0.00012672510638367385
          ],
          [
            "North Korea",
            0.00012510307715274394
          ],
          [
            "New Caledonia",
            0.00012112299009459093
          ],
          [
            "Isle of Man",
            0.00011431705206632614
          ],
          [
            "Netherlands",
            0.00010734178067650646
          ],
          [
            "Niger",
            0.00010254880908178166
          ],
          [
            "Central African Republic",
            8.87755086296238e-05
          ],
          [
            "Madagascar",
            8.4594743384514e-05
          ],
          [
            "Timor-Leste",
            7.967718556756154e-05
          ],
          [
            "Palau",
            7.926957914605737e-05
          ],
          [
            "Panama",
            7.628095045220107e-05
          ],
          [
            "Guinea-Bissau",
            7.262526196427643e-05
          ],
          [
            "Norway",
            6.703045073663816e-05
          ],
          [
            "Cyprus",
            6.463380850618705e-05
          ],
          [
            "Japan",
            6.323514389805496e-05
          ],
          [
            "Gambia",
            3.4888744266936556e-05
          ],
          [
            "Pakistan",
            2.5093306248891167e-05
          ],
          [
            "Lebanon",
            2.115790448442567e-05
          ],
          [
            "Austria",
            1.0975676559610292e-05
          ],
          [
            "Haiti",
            9.594139555701986e-06
          ],
          [
            "Morocco",
            6.399540325219277e-06
          ]
        ]
      },
      "geometry": {
        "type": "MultiLineString",
        "coordinates": [
          [
            [
              6.319999999999993,
              40.400000000000006
            ],
            [
              6.319999999999993,
              38.0
            ],
            [
              6.800000000000011,
              34.16
            ],
            [
              8.719999999999999,
              29.840000000000003
            ],
            [
              10.159999999999997,
              25.519999999999982
            ],
            [
              12.079999999999984,
              21.19999999999999
            ],
            [
              14.0,
              16.879999999999995
            ],
            [
              14.95999999999998,
              13.519999999999982
            ],
            [
              16.399999999999977,
              10.159999999999997
            ],
            [
              17.360000000000014,
              8.719999999999999
            ],
            [
              17.840000000000003,
              7.280000000000001
            ],
            [
              18.80000000000001,
              5.360000000000014
            ],
            [
              19.28,
              3.4399999999999977
            ],
            [
              19.75999999999999,
              2.0
            ],
            [
              21.680000000000007,
              2.0
            ],
            [
              23.120000000000005,
              3.920000000000016
            ],
            [
              25.519999999999982,
              6.319999999999993
            ],
            [
              26.0,
              7.759999999999991
            ],
            [
              27.439999999999998,
              9.199999999999989
            ],
            [
              28.879999999999995,
              10.639999999999986
            ],
            [
              30.319999999999993,
              11.120000000000005
            ],
            [
              32.72,
              11.120000000000005
            ],
            [
              35.599999999999994,
              10.639999999999986
            ],
            [
              37.03999999999999,
              9.680000000000007
            ],
            [
              38.47999999999999,
              9.199999999999989
            ],
            [
              40.39999999999998,
              7.759999999999991
            ],
            [
              41.839999999999975,
              6.800000000000011
            ],
            [
              43.75999999999999,
              6.319999999999993
            ],
            [
              45.19999999999999,
              5.360000000000014
            ],
            [
              46.639999999999986,
              4.8799999999999955
            ],
            [
              48.079999999999984,
              4.399999999999977
            ],
            [
              49.51999999999998,
              3.920000000000016
            ],
            [
              51.44,
              3.920000000000016
            ],
            [
              53.360000000000014,
              3.920000000000016
            ],
            [
              55.75999999999999,
              3.920000000000016
            ],
            [
              57.68000000000001,
              3.920000000000016
            ],
            [
              57.68000000000001,
              5.840000000000003
            ],
            [
              56.72,
              7.759999999999991
            ],
            [
              55.28,
              10.639999999999986
            ],
            [
              53.839999999999975,
              13.519999999999982
            ],
            [
              51.44,
              16.400000000000006
            ],
            [
              50.47999999999999,
              19.28
            ],
            [
              49.03999999999999,
              21.680000000000007
            ],
            [
              47.599999999999994,
              24.560000000000002
            ],
            [
              47.120000000000005,
              27.439999999999998
            ],
            [
              46.16,
              29.360000000000014
            ],
            [
              45.19999999999999,
              32.72
            ],
            [
              45.19999999999999,
              35.120000000000005
            ],
            [
              44.24000000000001,
              37.51999999999998
            ],
            [
              43.28,
              41.360000000000014
            ],
            [
              42.31999999999999,
              46.16
            ],
            [
              41.360000000000014,
              49.51999999999998
            ],
            [
              39.920000000000016,
              51.920000000000016
            ],
            [
              39.44,
              54.31999999999999
            ],
            [
              38.47999999999999,
              56.24000000000001
            ],
            [
              38.0,
              57.68000000000001
            ],
            [
              36.079999999999984,
              58.16
            ],
            [
              34.639999999999986,
              56.24000000000001
            ],
            [
              33.68000000000001,
              54.31999999999999
            ],
            [
              33.19999999999999,
              52.879999999999995
            ],
            [
              32.24000000000001,
              51.44
            ],
            [
              31.28,
              49.04000000000002
            ],
            [
              29.360000000000014,
              47.120000000000005
            ],
            [
              28.399999999999977,
              45.68000000000001
            ],
            [
              26.0,
              46.639999999999986
            ],
            [
              24.560000000000002,
              49.04000000000002
            ],
            [
              24.079999999999984,
              50.48000000000002
            ],
            [
              22.159999999999997,
              52.400000000000006
            ],
            [
              21.680000000000007,
              54.80000000000001
            ],
            [
              21.19999999999999,
              56.72
            ],
            [
              20.72,
              58.639999999999986
            ],
            [
              20.24000000000001,
              60.079999999999984
            ],
            [
              19.75999999999999,
              62.0
            ],
            [
              17.840000000000003,
              60.56
            ],
            [
              16.879999999999995,
              58.639999999999986
            ],
            [
              15.920000000000016,
              57.19999999999999
            ],
            [
              15.439999999999998,
              55.75999999999999
            ],
            [
              14.95999999999998,
              53.360000000000014
            ],
            [
              14.480000000000018,
              50.48000000000002
            ],
            [
              14.0,
              49.04000000000002
            ],
            [
              14.0,
              47.120000000000005
            ],
            [
              14.480000000000018,
              45.19999999999999
            ],
            [
              15.439999999999998,
              43.75999999999999
            ],
            [
              14.0,
              44.24000000000001
            ],
            [
              11.599999999999994,
              44.24000000000001
            ],
            [
              9.680000000000007,
              43.75999999999999
            ],
            [
              8.240000000000009,
              42.31999999999999
            ],
            [
              7.759999999999991,
              40.400000000000006
            ]
          ]
        ]
      }
    }
  ]
}