{
  "type": "FeatureCollection",
  "crs": {
    "type": "name",
    "properties": {
      "name": "urn:ogc:def:crs:OGC:1.3:CRS84"
    }
  },
  "features": [
    {
      "type": "Feature",
      "properties": {
        "timestamp": "2026-03-28T12:46:28.683383",
        "country_name": "Falkland Islands",
        "author": "",
        "author_id": "2d77f0c8-b217-46b0-8a7c-12fd24a37ab5",
        "validated": false,
        "ranking": [
          [
            "Falkland Islands",
            0.16594409942626953
          ],
          [
            "Canada",
            0.16267843544483185
          ],
          [
            "Greece",
            0.10154490172863007
          ],
          [
            "Guinea-Bissau",
            0.09450287371873856
          ],
          [
            "Russia",
            0.03846476599574089
          ],
          [
            "Papua New Guinea",
            0.03789595514535904
          ],
          [
            "Denmark",
            0.034656822681427
          ],
          [
            "Hong Kong",
            0.02885381691157818
          ],
          [
            "Svalbard",
            0.026909491047263145
          ],
          [
            "Bangladesh",
            0.020597189664840698
          ],
          [
            "Tajikistan",
            0.012654006481170654
          ],
          [
            "Netherlands",
            0.01188724860548973
          ],
          [
            "Switzerland",
            0.010743146762251854
          ],
          [
            "Iceland",
            0.010560504160821438
          ],
          [
            "Croatia",
            0.01015334203839302
          ],
          [
            "Kyrgyzstan",
            0.0077238730154931545
          ],
          [
            "Ireland",
            0.007328132167458534
          ],
          [
            "Mozambique",
            0.006984608713537455
          ],
          [
            "Estonia",
            0.0060354238376021385
          ],
          [
            "Burkina Faso",
            0.0059049539268016815
          ],
          [
            "Somalia",
            0.005823260638862848
          ],
          [
            "Panama",
            0.00577957509085536
          ],
          [
            "Fiji",
            0.005711674690246582
          ],
          [
            "Ukraine",
            0.005597954150289297
          ],
          [
            "Senegal",
            0.005426954943686724
          ],
          [
            "Indonesia",
            0.005266660358756781
          ],
          [
            "Central African Republic",
            0.005062850657850504
          ],
          [
            "North Korea",
            0.0048850164748728275
          ],
          [
            "Brunei",
            0.0048280395567417145
          ],
          [
            "Kazakhstan",
            0.004740566480904818
          ],
          [
            "South Africa",
            0.004225597716867924
          ],
          [
            "Philippines",
            0.003942906856536865
          ],
          [
            "Thailand",
            0.003926448989659548
          ],
          [
            "Haiti",
            0.003864461788907647
          ],
          [
            "Congo",
            0.0034526102244853973
          ],
          [
            "China",
            0.0032022912055253983
          ],
          [
            "United Kingdom",
            0.0030039851553738117
          ],
          [
            "South Georgia Islands",
            0.00296903308480978
          ],
          [
            "Honduras",
            0.002938722027465701
          ],
          [
            "Italy",
            0.0028169925790280104
          ],
          [
            "Uzbekistan",
            0.00273845880292356
          ],
          [
            "India",
            0.00260842964053154
          ],
          [
            "Rwanda",
            0.0025756419636309147
          ],
          [
            "Guadeloupe",
            0.0023486448917537928
          ],
          [
            "Slovakia",
            0.002343382453545928
          ],
          [
            "Pakistan",
            0.002247350523248315
          ],
          [
            "Venezuela",
            0.0021581007167696953
          ],
          [
            "Greenland",
            0.002151418011635542
          ],
          [
            "France",
            0.002105793682858348
          ],
          [
            "Norway",
            0.001994033344089985
          ],
          [
            "Jordan",
            0.0019156142370775342
          ],
          [
            "Burundi",
            0.0017856101039797068
          ],
          [
            "South Korea",
            0.0017409857828170061
          ],
          [
            "Sweden",
            0.001700124004855752
          ],
          [
            "Azerbaijan",
            0.0016093411250039935
          ],
          [
            "Bulgaria",
            0.0015622505452483892
          ],
          [
            "Slovenia",
            0.0015410487540066242
          ],
          [
            "Cuba",
            0.0015067608328536153
          ],
          [
            "Montenegro",
            0.0014258869923651218
          ],
          [
            "Gabon",
            0.0014218810247257352
          ],
          [
            "Gambia",
            0.0013714426895603538
          ],
          [
            "Peru",
            0.001367683638818562
          ],
          [
            "Costa Rica",
            0.0013580811209976673
          ],
          [
            "Latvia",
            0.001341892872005701
          ],
          [
            "Turkmenistan",
            0.001339928712695837
          ],
          [
            "Belarus",
            0.0013386973878368735
          ],
          [
            "Turkey",
            0.0013094909954816103
          ],
          [
            "Jamaica",
            0.0012927399948239326
          ],
          [
            "Mali",
            0.0012417063117027283
          ],
          [
            "Syria",
            0.001239458448253572
          ],
          [
            "Faroe Islands",
            0.001222014892846346
          ],
          [
            "Zambia",
            0.0012162550119683146
          ],
          [
            "Belgium",
            0.0012141457991674542
          ],
          [
            "Dominican Republic",
            0.0011987332254648209
          ],
          [
            "Yemen",
            0.0011457761283963919
          ],
          [
            "Mexico",
            0.001100027933716774
          ],
          [
            "New Caledonia",
            0.001079809502698481
          ],
          [
            "Djibouti",
            0.0010549688013270497
          ],
          [
            "Bhutan",
            0.001044764299876988
          ],
          [
            "Spain",
            0.0010223626159131527
          ],
          [
            "Guam",
            0.0010171402245759964
          ],
          [
            "Romania",
            0.001014714245684445
          ],
          [
            "Western Sahara",
            0.000951334077399224
          ],
          [
            "Brazil",
            0.0009108131052926183
          ],
          [
            "Morocco",
            0.0008737195166759193
          ],
          [
            "Afghanistan",
            0.0008640708401799202
          ],
          [
            "El Salvador",
            0.0008631895761936903
          ],
          [
            "Myanmar",
            0.0008553196676075459
          ],
          [
            "Cyprus",
            0.0008505724836140871
          ],
          [
            "Benin",
            0.0008501345873810351
          ],
          [
            "Georgia",
            0.000822617148514837
          ],
          [
            "Tunisia",
            0.0008194882539100945
          ],
          [
            "Argentina",
            0.000789880461525172
          ],
          [
            "Timor-Leste",
            0.0007669185870327055
          ],
          [
            "Lithuania",
            0.0007663819706067443
          ],
          [
            "Guinea",
            0.0007612610352225602
          ],
          [
            "Angola",
            0.0007585984421893954
          ],
          [
            "Mongolia",
            0.0007491186261177063
          ],
          [
            "Mayotte",
            0.000740115880034864
          ],
          [
            "South Sudan",
            0.0007086792611517012
          ],
          [
            "Austria",
            0.0006856987602077425
          ],
          [
            "Japan",
            0.0006501954048871994
          ],
          [
            "Colombia",
            0.0006460602744482458
          ],
          [
            "Moldova",
            0.0006400601123459637
          ],
          [
            "New Zealand",
            0.0006122437189333141
          ],
          [
            "Cameroon",
            0.0006019670399837196
          ],
          [
            "Kuwait",
            0.0005980667774565518
          ],
          [
            "North Macedonia",
            0.0005958442343398929
          ],
          [
            "Mauritania",
            0.0005926208104938269
          ],
          [
            "Laos",
            0.0005783895030617714
          ],
          [
            "Niger",
            0.0005676710861735046
          ],
          [
            "Czech Republic",
            0.0005496340454556048
          ],
          [
            "Vietnam",
            0.0005491268821060658
          ],
          [
            "Serbia",
            0.0005424530245363712
          ],
          [
            "Malawi",
            0.0005232714465819299
          ],
          [
            "Australia",
            0.0005228284862823784
          ],
          [
            "Nigeria",
            0.0005180854350328445
          ],
          [
            "Isle of Man",
            0.0005169246578589082
          ],
          [
            "Oman",
            0.0005151568911969662
          ],
          [
            "Guyana",
            0.0005136478575877845
          ],
          [
            "Turks and Caicos Islands",
            0.0005054501816630363
          ],
          [
            "Cambodia",
            0.0005027589504607022
          ],
          [
            "Puerto Rico",
            0.0004985125851817429
          ],
          [
            "Germany",
            0.0004935616161674261
          ],
          [
            "Lebanon",
            0.0004903955268673599
          ],
          [
            "Armenia",
            0.0004901402280665934
          ],
          [
            "Belize",
            0.000481916795251891
          ],
          [
            "Heard and McDonald Islands",
            0.00048164205509237945
          ],
          [
            "Nepal",
            0.0004598640080075711
          ],
          [
            "Saudi Arabia",
            0.0004564524570014328
          ],
          [
            "Portugal",
            0.00045539502752944827
          ],
          [
            "Lesotho",
            0.00045184159534983337
          ],
          [
            "Guatemala",
            0.0004453092988114804
          ],
          [
            "Iran",
            0.0004380986501928419
          ],
          [
            "United States of America",
            0.0004309784562792629
          ],
          [
            "United Arab Emirates",
            0.00042922943248413503
          ],
          [
            "Hungary",
            0.0004220528935547918
          ],
          [
            "Taiwan",
            0.0004050521529279649
          ],
          [
            "French Guiana",
            0.0004024853406008333
          ],
          [
            "Bolivia",
            0.0003608357801567763
          ],
          [
            "Israel",
            0.0003394066297914833
          ],
          [
            "Nicaragua",
            0.00032143693533726037
          ],
          [
            "Namibia",
            0.00031482920167036355
          ],
          [
            "Madagascar",
            0.00030675352900289
          ],
          [
            "Finland",
            0.0002982756413985044
          ],
          [
            "Chad",
            0.00029734295094385743
          ],
          [
            "Uganda",
            0.0002934855583589524
          ],
          [
            "Sudan",
            0.00028473007841967046
          ],
          [
            "Trinidad and Tobago",
            0.00028087449027225375
          ],
          [
            "Kiribati",
            0.0002800223883241415
          ],
          [
            "Albania",
            0.0002695055736694485
          ],
          [
            "Botswana",
            0.0002559621352702379
          ],
          [
            "Paraguay",
            0.0002529313787817955
          ],
          [
            "Eritrea",
            0.0002493940992280841
          ],
          [
            "Togo",
            0.00024030472559388727
          ],
          [
            "Bahamas",
            0.00023116359079722315
          ],
          [
            "Ethiopia",
            0.00022781164443586022
          ],
          [
            "Samoa",
            0.00022746169997844845
          ],
          [
            "Malaysia",
            0.00022461582557298243
          ],
          [
            "Madeira Islands",
            0.00021850800840184093
          ],
          [
            "Qatar",
            0.00021821187692694366
          ],
          [
            "Iraq",
            0.00020709793898276985
          ],
          [
            "Ghana",
            0.00020353593572508544
          ],
          [
            "Algeria",
            0.00018515376723371446
          ],
          [
            "Saint Lucia",
            0.00017264977213926613
          ],
          [
            "Ecuador",
            0.00016694005171302706
          ],
          [
            "Solomon Islands",
            0.00016290780331473798
          ],
          [
            "Sri Lanka",
            0.00012103301560273394
          ],
          [
            "Bosnia & Herzegovina",
            0.00011956043454119936
          ],
          [
            "Palau",
            0.00011922386329388246
          ],
          [
            "West Bank",
            0.00011776902829296887
          ],
          [
            "Luxembourg",
            0.00011720902693923563
          ],
          [
            "Vanuatu",
            0.00011369131971150637
          ],
          [
            "Libya",
            0.0001093686223612167
          ],
          [
            "Sierra Leone",
            0.00010630011820467189
          ],
          [
            "Liberia",
            0.0001003427678369917
          ],
          [
            "Côte d'Ivoire",
            9.95072114164941e-05
          ],
          [
            "DR Congo",
            9.8723619885277e-05
          ],
          [
            "Kenya",
            9.421118011232466e-05
          ],
          [
            "Egypt",
            8.954099757829681e-05
          ],
          [
            "Eswatini",
            8.795376925263554e-05
          ],
          [
            "Netherlands Antilles",
            8.480287942802534e-05
          ],
          [
            "Uruguay",
            7.987078424775973e-05
          ],
          [
            "Reunion",
            7.73455249145627e-05
          ],
          [
            "Cape Verde",
            7.380854367511347e-05
          ],
          [
            "Martinique",
            7.110836304491386e-05
          ],
          [
            "Suriname",
            7.087262201821432e-05
          ],
          [
            "Bahrain",
            6.0105005104560405e-05
          ],
          [
            "Tanzania",
            5.554691961151548e-05
          ],
          [
            "Chile",
            5.174027683096938e-05
          ],
          [
            "Zimbabwe",
            4.9715261411620304e-05
          ],
          [
            "Dominica",
            4.754796827910468e-05
          ],
          [
            "Equatorial Guinea",
            4.612904376699589e-05
          ],
          [
            "Antigua & Barbuda",
            4.303679088479839e-05
          ],
          [
            "Poland",
            4.1074061300605536e-05
          ],
          [
            "Comoros",
            4.0245828131446615e-05
          ],
          [
            "Barbados",
            3.489362643449567e-05
          ],
          [
            "Sao Tome and Principe",
            1.1330829693179112e-05
          ],
          [
            "United States Virgin Islands",
            9.255206350644585e-06
          ]
        ]
      },
      "geometry": {
        "type": "MultiLineString",
        "coordinates": [
          [
            [
              19.31481481481478,
              44.31481481481484
            ],
            [
              19.03703703703701,
              44.22222222222223
            ],
            [
              18.296296296296305,
              43.48148148148147
            ],
            [
              15.981481481481467,
              39.59259259259261
            ],
            [
              15.703703703703695,
              38.111111111111086
            ],
            [
              15.518518518518476,
              34.12962962962962
            ],
            [
              16.81481481481478,
              29.12962962962962
            ],
            [
              17.462962962962933,
              27.833333333333314
            ],
            [
              18.944444444444457,
              25.888888888888914
            ],
            [
              20.796296296296305,
              25.055555555555543
            ],
            [
              22.27777777777777,
              25.796296296296305
            ],
            [
              25.425925925925924,
              31.259259259259238
            ],
            [
              26.351851851851848,
              34.12962962962962
            ],
            [
              27.185185185185162,
              38.574074074074076
            ],
            [
              26.53703703703701,
              41.25925925925924
            ],
            [
              24.685185185185162,
              42.74074074074076
            ],
            [
              21.444444444444457,
              43.01851851851853
            ],
            [
              16.72222222222223,
              41.25925925925924
            ],
            [
              12.925925925925924,
              38.111111111111086
            ],
            [
              10.425925925925924,
              34.12962962962962
            ],
            [
              9.222222222222229,
              29.685185185185162
            ],
            [
              9.129629629629619,
              25.796296296296305
            ],
            [
              10.055555555555543,
              23.296296296296305
            ],
            [
              12.092592592592553,
              21.90740740740739
            ],
            [
              15.611111111111086,
              22.740740740740762
            ],
            [
              20.611111111111086,
              25.796296296296305
            ],
            [
              25.796296296296305,
              30.425925925925924
            ],
            [
              29.685185185185162,
              35.24074074074076
            ],
            [
              31.53703703703701,
              38.666666666666686
            ],
            [
              31.81481481481478,
              40.703703703703695
            ],
            [
              30.981481481481467,
              41.62962962962962
            ],
            [
              28.759259259259238,
              41.44444444444446
            ],
            [
              24.87037037037038,
              39.40740740740739
            ],
            [
              21.72222222222223,
              35.888888888888914
            ],
            [
              20.240740740740705,
              31.074074074074076
            ],
            [
              20.240740740740705,
              27.09259259259261
            ],
            [
              21.16666666666663,
              23.388888888888914
            ],
            [
              22.648148148148152,
              20.888888888888914
            ],
            [
              24.685185185185162,
              19.685185185185162
            ],
            [
              28.018518518518476,
              20.148148148148152
            ],
            [
              33.574074074074076,
              23.018518518518533
            ],
            [
              39.12962962962962,
              27.37037037037038
            ],
            [
              43.574074074074076,
              32.925925925925924
            ],
            [
              45.240740740740705,
              37.27777777777777
            ],
            [
              44.96296296296293,
              40.51851851851853
            ],
            [
              42.833333333333314,
              42.27777777777777
            ],
            [
              38.203703703703695,
              42.833333333333314
            ],
            [
              31.53703703703701,
              42.18518518518516
            ],
            [
              24.40740740740739,
              39.68518518518516
            ],
            [
              18.111111111111086,
              35.703703703703695
            ],
            [
              14.314814814814781,
              30.796296296296305
            ],
            [
              12.648148148148152,
              26.074074074074076
            ],
            [
              13.018518518518476,
              21.72222222222223
            ],
            [
              15.148148148148152,
              18.759259259259238
            ],
            [
              18.481481481481467,
              17.648148148148152
            ],
            [
              23.759259259259238,
              18.481481481481467
            ],
            [
              29.59259259259261,
              21.259259259259238
            ],
            [
              34.40740740740739,
              25.148148148148152
            ],
            [
              37.64814814814815,
              29.685185185185162
            ],
            [
              38.296296296296305,
              33.574074074074076
            ],
            [
              37.833333333333314,
              35.24074074074076
            ],
            [
              32.370370370370324,
              39.68518518518516
            ],
            [
              26.259259259259238,
              39.87037037037038
            ],
            [
              19.12962962962962,
              37.64814814814815
            ],
            [
              14.129629629629619,
              33.388888888888914
            ],
            [
              12.740740740740705,
              30.888888888888914
            ],
            [
              11.90740740740739,
              25.425925925925924
            ],
            [
              14.314814814814781,
              19.685185185185162
            ],
            [
              15.796296296296305,
              18.851851851851848
            ],
            [
              22.555555555555543,
              20.888888888888914
            ],
            [
              25.148148148148152,
              23.111111111111086
            ],
            [
              29.962962962962933,
              28.481481481481467
            ],
            [
              33.48148148148147,
              34.68518518518516
            ],
            [
              34.5,
              39.5
            ],
            [
              33.66666666666663,
              43.666666666666686
            ],
            [
              30.888888888888857,
              46.81481481481484
            ],
            [
              25.333333333333314,
              48.75925925925924
            ],
            [
              18.203703703703695,
              48.388888888888914
            ],
            [
              12.370370370370381,
              45.611111111111086
            ],
            [
              9.685185185185162,
              41.074074074074076
            ],
            [
              9.314814814814781,
              35.24074074074076
            ],
            [
              10.518518518518476,
              29.87037037037038
            ],
            [
              13.018518518518476,
              24.77777777777777
            ],
            [
              16.444444444444457,
              21.351851851851848
            ],
            [
              22.0,
              20.240740740740762
            ],
            [
              29.22222222222223,
              23.018518518518533
            ],
            [
              36.81481481481478,
              29.12962962962962
            ],
            [
              44.03703703703701,
              37.55555555555554
            ],
            [
              47.833333333333314,
              45.51851851851853
            ],
            [
              47.833333333333314,
              52.74074074074076
            ],
            [
              43.574074074074076,
              58.388888888888914
            ],
            [
              34.31481481481478,
              62.0
            ],
            [
              21.444444444444457,
              62.0
            ],
            [
              11.722222222222229,
              58.574074074074076
            ],
            [
              8.388888888888857,
              53.203703703703695
            ],
            [
              7.740740740740705,
              46.35185185185185
            ],
            [
              8.481481481481467,
              39.40740740740739
            ],
            [
              10.703703703703695,
              31.62962962962962
            ],
            [
              14.685185185185162,
              24.314814814814838
            ],
            [
              21.16666666666663,
              19.037037037037067
            ],
            [
              30.333333333333314,
              17.648148148148152
            ],
            [
              39.96296296296293,
              20.148148148148152
            ],
            [
              49.68518518518516,
              26.166666666666686
            ],
            [
              55.796296296296305,
              32.46296296296293
            ],
            [
              57.18518518518516,
              38.296296296296305
            ],
            [
              54.68518518518516,
              42.833333333333314
            ],
            [
              48.296296296296305,
              45.425925925925924
            ],
            [
              35.98148148148147,
              45.425925925925924
            ],
            [
              22.27777777777777,
              42.46296296296293
            ],
            [
              12.833333333333314,
              37.0
            ],
            [
              8.018518518518476,
              29.77777777777777
            ],
            [
              6.907407407407391,
              22.0
            ],
            [
              10.611111111111086,
              13.944444444444457
            ],
            [
              18.574074074074076,
              8.944444444444457
            ],
            [
              29.962962962962933,
              9.222222222222229
            ],
            [
              42.64814814814815,
              13.759259259259238
            ],
            [
              55.05555555555554,
              20.796296296296305
            ]
          ],
          [
            [
              24.87037037037038,
              52.833333333333314
            ],
            [
              23.296296296296305,
              50.14814814814815
            ],
            [
              22.648148148148152,
              47.74074074074076
            ],
            [
              22.648148148148152,
              45.05555555555554
            ],
            [
              22.648148148148152,
              43.203703703703695
            ],
            [
              22.27777777777777,
              40.425925925925924
            ],
            [
              21.81481481481478,
              37.925925925925924
            ],
            [
              21.351851851851848,
              33.94444444444446
            ],
            [
              21.53703703703701,
              28.944444444444457
            ],
            [
              23.203703703703695,
              23.388888888888914
            ],
            [
              26.074074074074076,
              17.833333333333314
            ],
            [
              29.31481481481478,
              14.129629629629619
            ],
            [
              33.48148148148147,
              13.111111111111086
            ],
            [
              38.75925925925924,
              15.333333333333314
            ],
            [
              44.59259259259255,
              20.240740740740762
            ],
            [
              49.59259259259255,
              27.37037037037038
            ],
            [
              52.46296296296293,
              35.611111111111086
            ],
            [
              52.55555555555554,
              42.74074074074076
            ],
            [
              49.59259259259255,
              48.574074074074076
            ],
            [
              43.85185185185185,
              51.72222222222223
            ],
            [
              35.333333333333314,
              51.90740740740739
            ],
            [
              25.518518518518476,
              48.48148148148147
            ],
            [
              16.16666666666663,
              41.90740740740739
            ],
            [
              9.870370370370381,
              34.40740740740739
            ],
            [
              7.370370370370381,
              26.62962962962962
            ],
            [
              8.111111111111086,
              19.962962962962933
            ],
            [
              12.185185185185162,
              15.240740740740762
            ],
            [
              19.40740740740739,
              13.666666666666686
            ],
            [
              30.240740740740705,
              15.425925925925924
            ],
            [
              42.18518518518516,
              19.962962962962933
            ],
            [
              51.90740740740739,
              25.611111111111086
            ],
            [
              56.35185185185185,
              31.259259259259238
            ],
            [
              55.88888888888886,
              34.87037037037038
            ],
            [
              51.074074074074076,
              36.90740740740739
            ],
            [
              40.518518518518476,
              36.53703703703707
            ],
            [
              26.90740740740739,
              33.296296296296305
            ],
            [
              14.870370370370381,
              28.203703703703695
            ],
            [
              8.296296296296305,
              22.09259259259261
            ],
            [
              7.4629629629629335,
              16.814814814814838
            ],
            [
              10.333333333333314,
              12.833333333333314
            ],
            [
              16.62962962962962,
              11.722222222222229
            ],
            [
              24.962962962962933,
              14.870370370370381
            ],
            [
              33.94444444444446,
              21.351851851851848
            ],
            [
              39.59259259259261,
              27.462962962962933
            ],
            [
              40.333333333333314,
              30.333333333333314
            ],
            [
              38.111111111111086,
              32.09259259259261
            ],
            [
              32.0,
              31.72222222222223
            ],
            [
              22.925925925925924,
              28.851851851851848
            ],
            [
              18.66666666666663,
              26.814814814814838
            ],
            [
              10.055555555555543,
              18.944444444444457
            ],
            [
              7.555555555555543,
              13.296296296296305
            ],
            [
              6.814814814814781,
              8.296296296296305
            ],
            [
              7.370370370370381,
              4.314814814814838
            ],
            [
              8.296296296296305,
              2.0
            ]
          ]
        ]
      }
    }
  ]
}