{
  "type": "FeatureCollection",
  "crs": {
    "type": "name",
    "properties": {
      "name": "urn:ogc:def:crs:OGC:1.3:CRS84"
    }
  },
  "features": [
    {
      "type": "Feature",
      "properties": {
        "timestamp": "2026-04-02T13:15:04.433715",
        "country_name": "Finland",
        "author": "",
        "author_id": "ca111b46-117f-4e45-bde2-716438a2d018",
        "validated": false,
        "ranking": [
          [
            "Finland",
            0.03747819364070892
          ],
          [
            "Togo",
            0.03186604753136635
          ],
          [
            "Oman",
            0.031683504581451416
          ],
          [
            "Spain",
            0.030673261731863022
          ],
          [
            "Sao Tome and Principe",
            0.029262464493513107
          ],
          [
            "Chile",
            0.02811080403625965
          ],
          [
            "Egypt",
            0.02798479050397873
          ],
          [
            "Guadeloupe",
            0.025664253160357475
          ],
          [
            "Antigua & Barbuda",
            0.02494729496538639
          ],
          [
            "Cameroon",
            0.022720707580447197
          ],
          [
            "Poland",
            0.021758170798420906
          ],
          [
            "Reunion",
            0.02105209045112133
          ],
          [
            "Thailand",
            0.020600929856300354
          ],
          [
            "Somalia",
            0.020444434136152267
          ],
          [
            "Argentina",
            0.01968054287135601
          ],
          [
            "Equatorial Guinea",
            0.016235992312431335
          ],
          [
            "Mauritania",
            0.016037901863455772
          ],
          [
            "Congo",
            0.015511681325733662
          ],
          [
            "New Zealand",
            0.015006016939878464
          ],
          [
            "Japan",
            0.014432219788432121
          ],
          [
            "Mali",
            0.014173902571201324
          ],
          [
            "Dominica",
            0.01409951038658619
          ],
          [
            "United States Virgin Islands",
            0.013507327996194363
          ],
          [
            "Mozambique",
            0.013234127312898636
          ],
          [
            "Namibia",
            0.013027336448431015
          ],
          [
            "Belize",
            0.012375320307910442
          ],
          [
            "Israel",
            0.011317375116050243
          ],
          [
            "Martinique",
            0.010877586901187897
          ],
          [
            "Sweden",
            0.009895922616124153
          ],
          [
            "West Bank",
            0.009884566999971867
          ],
          [
            "Eswatini",
            0.008841256611049175
          ],
          [
            "Libya",
            0.008802388794720173
          ],
          [
            "Bahrain",
            0.008382844738662243
          ],
          [
            "Kenya",
            0.008233966305851936
          ],
          [
            "Cape Verde",
            0.008209768682718277
          ],
          [
            "Iran",
            0.007846901193261147
          ],
          [
            "Tanzania",
            0.00778365321457386
          ],
          [
            "Lithuania",
            0.007665610406547785
          ],
          [
            "Vietnam",
            0.0076018222607672215
          ],
          [
            "Romania",
            0.0075384220108389854
          ],
          [
            "Suriname",
            0.007353338412940502
          ],
          [
            "Sierra Leone",
            0.007011787965893745
          ],
          [
            "Benin",
            0.0066831824369728565
          ],
          [
            "Guam",
            0.006621454376727343
          ],
          [
            "Mayotte",
            0.006455263122916222
          ],
          [
            "Uruguay",
            0.0064333351328969
          ],
          [
            "Yemen",
            0.006414478644728661
          ],
          [
            "Barbados",
            0.006259281653910875
          ],
          [
            "Malawi",
            0.006138064432889223
          ],
          [
            "Palau",
            0.00610969215631485
          ],
          [
            "Algeria",
            0.005884886719286442
          ],
          [
            "Vanuatu",
            0.005670493468642235
          ],
          [
            "Syria",
            0.005074405577033758
          ],
          [
            "United Arab Emirates",
            0.004688146058470011
          ],
          [
            "Nigeria",
            0.004629260860383511
          ],
          [
            "Angola",
            0.004504076670855284
          ],
          [
            "Rwanda",
            0.004477088339626789
          ],
          [
            "Portugal",
            0.004452579189091921
          ],
          [
            "Fiji",
            0.004442297853529453
          ],
          [
            "Azerbaijan",
            0.004406836815178394
          ],
          [
            "India",
            0.00435023196041584
          ],
          [
            "Moldova",
            0.004339764825999737
          ],
          [
            "Australia",
            0.004325179848819971
          ],
          [
            "Faroe Islands",
            0.004291258752346039
          ],
          [
            "Guyana",
            0.004253367427736521
          ],
          [
            "Saudi Arabia",
            0.004242194350808859
          ],
          [
            "Ecuador",
            0.004228679463267326
          ],
          [
            "Norway",
            0.004158048890531063
          ],
          [
            "Niger",
            0.004086711443960667
          ],
          [
            "Qatar",
            0.004077422898262739
          ],
          [
            "Belarus",
            0.003867649007588625
          ],
          [
            "Albania",
            0.0038620687555521727
          ],
          [
            "Burkina Faso",
            0.0037984454538673162
          ],
          [
            "Saint Lucia",
            0.003728523850440979
          ],
          [
            "Iraq",
            0.0035358769819140434
          ],
          [
            "French Guiana",
            0.003521796315908432
          ],
          [
            "North Macedonia",
            0.003485257038846612
          ],
          [
            "Paraguay",
            0.0034636862110346556
          ],
          [
            "Philippines",
            0.0032997876405715942
          ],
          [
            "Trinidad and Tobago",
            0.0032895319163799286
          ],
          [
            "Bosnia & Herzegovina",
            0.0030329974833875895
          ],
          [
            "Cambodia",
            0.0030157670844346285
          ],
          [
            "Peru",
            0.0029961415566504
          ],
          [
            "Greenland",
            0.002919059246778488
          ],
          [
            "South Korea",
            0.002811953192576766
          ],
          [
            "Comoros",
            0.002797781489789486
          ],
          [
            "Serbia",
            0.002644231775775552
          ],
          [
            "Côte d'Ivoire",
            0.002640698803588748
          ],
          [
            "Timor-Leste",
            0.0026394599117338657
          ],
          [
            "Colombia",
            0.002509642392396927
          ],
          [
            "South Sudan",
            0.002435436937958002
          ],
          [
            "Sri Lanka",
            0.0024012397043406963
          ],
          [
            "Nicaragua",
            0.0022663173731416464
          ],
          [
            "Latvia",
            0.002176496898755431
          ],
          [
            "Myanmar",
            0.002130251144990325
          ],
          [
            "Germany",
            0.0020996620878577232
          ],
          [
            "Isle of Man",
            0.0020949658937752247
          ],
          [
            "Botswana",
            0.0020864559337496758
          ],
          [
            "Senegal",
            0.002008577575907111
          ],
          [
            "Slovakia",
            0.0019565518014132977
          ],
          [
            "Czech Republic",
            0.0019333772361278534
          ],
          [
            "Sudan",
            0.0019313207594677806
          ],
          [
            "Solomon Islands",
            0.0019197517540305853
          ],
          [
            "Chad",
            0.0018345112912356853
          ],
          [
            "Zimbabwe",
            0.0017725634388625622
          ],
          [
            "Turkmenistan",
            0.0017582158325240016
          ],
          [
            "Switzerland",
            0.0017465309938415885
          ],
          [
            "Ethiopia",
            0.0017042479012161493
          ],
          [
            "Burundi",
            0.0016803817125037313
          ],
          [
            "Ireland",
            0.0016690677730366588
          ],
          [
            "Brazil",
            0.0015809530159458518
          ],
          [
            "Tunisia",
            0.0014793014852330089
          ],
          [
            "Uganda",
            0.0014724303036928177
          ],
          [
            "United Kingdom",
            0.001449002418667078
          ],
          [
            "Central African Republic",
            0.001428563497029245
          ],
          [
            "Montenegro",
            0.0014060401590541005
          ],
          [
            "Canada",
            0.0014049625024199486
          ],
          [
            "Venezuela",
            0.0014000217197462916
          ],
          [
            "Bangladesh",
            0.0013017196906730533
          ],
          [
            "Bhutan",
            0.0012788304593414068
          ],
          [
            "Pakistan",
            0.0012133129639551044
          ],
          [
            "Lebanon",
            0.0012085158377885818
          ],
          [
            "Guatemala",
            0.001204966683872044
          ],
          [
            "Ghana",
            0.0011976916575804353
          ],
          [
            "Turkey",
            0.0011724982177838683
          ],
          [
            "Jordan",
            0.0011722142808139324
          ],
          [
            "Guinea",
            0.0011613585520535707
          ],
          [
            "Heard and McDonald Islands",
            0.0011589376954361796
          ],
          [
            "North Korea",
            0.0011543886503204703
          ],
          [
            "Hungary",
            0.001149541698396206
          ],
          [
            "Gabon",
            0.0011446101125329733
          ],
          [
            "Madagascar",
            0.0011104886652901769
          ],
          [
            "Taiwan",
            0.0010999779915437102
          ],
          [
            "Hong Kong",
            0.0010936037870123982
          ],
          [
            "Lesotho",
            0.0010881648631766438
          ],
          [
            "Belgium",
            0.0010837654117494822
          ],
          [
            "Netherlands Antilles",
            0.0010783548932522535
          ],
          [
            "Kuwait",
            0.0010325711918994784
          ],
          [
            "Kazakhstan",
            0.0009752368205226958
          ],
          [
            "DR Congo",
            0.0009728606091812253
          ],
          [
            "Netherlands",
            0.0009515577112324536
          ],
          [
            "Svalbard",
            0.0009461084846407175
          ],
          [
            "Ukraine",
            0.000902369967661798
          ],
          [
            "Puerto Rico",
            0.0008692966075614095
          ],
          [
            "Cyprus",
            0.0008660363964736462
          ],
          [
            "France",
            0.0008642592001706362
          ],
          [
            "Papua New Guinea",
            0.000802495633251965
          ],
          [
            "Estonia",
            0.0007998474175110459
          ],
          [
            "Afghanistan",
            0.000791225815191865
          ],
          [
            "Dominican Republic",
            0.0007825822103768587
          ],
          [
            "Bolivia",
            0.0007766209891997278
          ],
          [
            "Slovenia",
            0.0007461856002919376
          ],
          [
            "Western Sahara",
            0.0007356125861406326
          ],
          [
            "Haiti",
            0.0006977723678573966
          ],
          [
            "Honduras",
            0.0006803759024478495
          ],
          [
            "Armenia",
            0.000662917154841125
          ],
          [
            "Austria",
            0.0006571225821971893
          ],
          [
            "Morocco",
            0.0006325154099613428
          ],
          [
            "Malaysia",
            0.0006258873036131263
          ],
          [
            "Brunei",
            0.0006113512790761888
          ],
          [
            "Djibouti",
            0.0006100665195845068
          ],
          [
            "Luxembourg",
            0.0006057138671167195
          ],
          [
            "Costa Rica",
            0.0005964653682895005
          ],
          [
            "Bulgaria",
            0.0005752180004492402
          ],
          [
            "El Salvador",
            0.0005637028953060508
          ],
          [
            "Liberia",
            0.0005625998019240797
          ],
          [
            "Eritrea",
            0.0005566098261624575
          ],
          [
            "Bahamas",
            0.00054744235239923
          ],
          [
            "Zambia",
            0.0005272761336527765
          ],
          [
            "South Africa",
            0.0005269725224934518
          ],
          [
            "Indonesia",
            0.0005038746749050915
          ],
          [
            "Tajikistan",
            0.0004665610904339701
          ],
          [
            "Italy",
            0.00045402318937703967
          ],
          [
            "Croatia",
            0.00044018615153618157
          ],
          [
            "Kyrgyzstan",
            0.00043149766861461103
          ],
          [
            "New Caledonia",
            0.0004226008604746312
          ],
          [
            "Georgia",
            0.00040336931124329567
          ],
          [
            "South Georgia Islands",
            0.00039066895260475576
          ],
          [
            "Laos",
            0.0003900621668435633
          ],
          [
            "China",
            0.0003623442316893488
          ],
          [
            "Iceland",
            0.0003517800068948418
          ],
          [
            "Panama",
            0.0003445971815381199
          ],
          [
            "United States of America",
            0.0003308338054921478
          ],
          [
            "Mongolia",
            0.0003299250965937972
          ],
          [
            "Guinea-Bissau",
            0.0003183394146617502
          ],
          [
            "Russia",
            0.0002827392308972776
          ],
          [
            "Cuba",
            0.0002509727200958878
          ],
          [
            "Greece",
            0.0002191036328440532
          ],
          [
            "Uzbekistan",
            0.000203516217879951
          ],
          [
            "Turks and Caicos Islands",
            0.0002021806431002915
          ],
          [
            "Falkland Islands",
            0.00019078291370533407
          ],
          [
            "Jamaica",
            0.0001748576614772901
          ],
          [
            "Madeira Islands",
            0.0001636387751204893
          ],
          [
            "Samoa",
            0.00015829676704015583
          ],
          [
            "Nepal",
            0.00013361437595449388
          ],
          [
            "Mexico",
            0.000126725499285385
          ],
          [
            "Denmark",
            0.00010687732719816267
          ],
          [
            "Gambia",
            0.0001068377896444872
          ],
          [
            "Kiribati",
            1.0085199392051436e-05
          ]
        ]
      },
      "geometry": {
        "type": "MultiLineString",
        "coordinates": [
          [
            [
              31.296875,
              50.4375
            ],
            [
              31.296875,
              51.0625
            ],
            [
              30.984375,
              51.6875
            ],
            [
              30.671875,
              52.15625
            ],
            [
              30.203125,
              52.625
            ],
            [
              29.734375,
              52.9375
            ],
            [
              28.953125,
              53.40625
            ],
            [
              28.328125,
              53.5625
            ],
            [
              27.703125,
              53.71875
            ],
            [
              27.234375,
              53.875
            ],
            [
              26.765625,
              54.1875
            ],
            [
              26.296875,
              54.5
            ],
            [
              25.828125,
              54.8125
            ],
            [
              25.203125,
              55.125
            ],
            [
              24.734375,
              55.28125
            ],
            [
              24.265625,
              55.4375
            ],
            [
              23.796875,
              55.75
            ],
            [
              23.328125,
              56.0625
            ],
            [
              22.859375,
              56.375
            ],
            [
              22.703125,
              57.0
            ],
            [
              22.546875,
              57.46875
            ],
            [
              22.546875,
              58.25
            ],
            [
              22.390625,
              58.71875
            ],
            [
              22.234375,
              59.34375
            ],
            [
              22.078125,
              59.8125
            ],
            [
              21.921875,
              60.28125
            ],
            [
              21.765625,
              60.75
            ],
            [
              21.765625,
              61.375
            ],
            [
              22.390625,
              61.375
            ],
            [
              22.859375,
              61.53125
            ],
            [
              23.328125,
              61.6875
            ],
            [
              23.796875,
              61.84375
            ],
            [
              24.265625,
              62.0
            ],
            [
              24.890625,
              62.0
            ],
            [
              25.515625,
              62.0
            ],
            [
              26.140625,
              61.84375
            ],
            [
              26.609375,
              61.6875
            ],
            [
              27.078125,
              61.375
            ],
            [
              27.390625,
              60.90625
            ],
            [
              27.546875,
              60.4375
            ],
            [
              28.015625,
              60.125
            ],
            [
              28.328125,
              59.65625
            ],
            [
              28.796875,
              59.34375
            ],
            [
              29.265625,
              59.1875
            ],
            [
              29.734375,
              58.875
            ],
            [
              30.203125,
              58.71875
            ],
            [
              30.671875,
              58.25
            ],
            [
              30.984375,
              57.78125
            ],
            [
              31.453125,
              57.46875
            ],
            [
              31.765625,
              57.0
            ],
            [
              31.921875,
              56.53125
            ],
            [
              32.234375,
              56.0625
            ],
            [
              32.546875,
              55.59375
            ],
            [
              32.859375,
              55.125
            ],
            [
              33.171875,
              54.65625
            ],
            [
              33.484375,
              54.1875
            ],
            [
              33.796875,
              53.71875
            ],
            [
              34.109375,
              53.25
            ],
            [
              34.578125,
              53.09375
            ],
            [
              35.046875,
              52.78125
            ],
            [
              35.515625,
              52.625
            ],
            [
              35.984375,
              52.3125
            ],
            [
              36.140625,
              51.84375
            ],
            [
              36.296875,
              51.375
            ],
            [
              36.609375,
              50.90625
            ],
            [
              36.765625,
              50.4375
            ],
            [
              37.234375,
              50.125
            ],
            [
              37.703125,
              49.96875
            ],
            [
              38.171875,
              49.8125
            ],
            [
              38.640625,
              49.65625
            ],
            [
              39.109375,
              49.5
            ],
            [
              39.578125,
              49.34375
            ],
            [
              40.359375,
              49.34375
            ],
            [
              41.140625,
              49.34375
            ],
            [
              41.609375,
              49.5
            ],
            [
              42.234375,
              49.5
            ],
            [
              42.703125,
              49.8125
            ],
            [
              43.484375,
              50.125
            ],
            [
              43.953125,
              50.28125
            ],
            [
              44.421875,
              50.59375
            ],
            [
              44.890625,
              50.90625
            ],
            [
              45.046875,
              51.375
            ],
            [
              45.046875,
              52.0
            ],
            [
              45.203125,
              52.625
            ],
            [
              45.359375,
              53.09375
            ],
            [
              45.359375,
              53.71875
            ],
            [
              45.515625,
              54.1875
            ],
            [
              45.828125,
              54.65625
            ],
            [
              46.296875,
              55.125
            ],
            [
              46.765625,
              55.75
            ],
            [
              47.078125,
              56.21875
            ],
            [
              47.546875,
              56.375
            ],
            [
              47.703125,
              56.84375
            ],
            [
              48.015625,
              57.3125
            ],
            [
              48.328125,
              57.78125
            ],
            [
              48.328125,
              58.5625
            ],
            [
              48.484375,
              59.1875
            ],
            [
              48.640625,
              59.8125
            ],
            [
              49.265625,
              59.96875
            ],
            [
              49.734375,
              59.8125
            ],
            [
              50.203125,
              59.65625
            ],
            [
              50.671875,
              59.5
            ],
            [
              51.140625,
              59.1875
            ],
            [
              51.609375,
              59.03125
            ],
            [
              52.078125,
              58.875
            ],
            [
              52.546875,
              58.71875
            ],
            [
              53.015625,
              58.5625
            ],
            [
              53.328125,
              57.9375
            ],
            [
              53.640625,
              57.46875
            ],
            [
              53.796875,
              57.0
            ],
            [
              53.953125,
              56.53125
            ],
            [
              54.109375,
              56.0625
            ],
            [
              54.578125,
              55.59375
            ],
            [
              54.890625,
              55.125
            ],
            [
              55.359375,
              54.8125
            ],
            [
              55.515625,
              54.34375
            ],
            [
              55.671875,
              53.875
            ],
            [
              55.828125,
              53.40625
            ],
            [
              55.828125,
              52.78125
            ],
            [
              55.828125,
              52.15625
            ],
            [
              55.828125,
              51.53125
            ],
            [
              55.671875,
              50.75
            ],
            [
              55.515625,
              50.125
            ],
            [
              55.359375,
              49.34375
            ],
            [
              55.203125,
              48.875
            ],
            [
              55.046875,
              48.25
            ],
            [
              55.046875,
              47.625
            ],
            [
              55.046875,
              46.84375
            ],
            [
              55.046875,
              46.0625
            ],
            [
              55.046875,
              45.4375
            ],
            [
              55.046875,
              44.8125
            ],
            [
              55.046875,
              44.1875
            ],
            [
              55.046875,
              43.40625
            ],
            [
              54.890625,
              42.9375
            ],
            [
              54.578125,
              42.3125
            ],
            [
              54.578125,
              41.6875
            ],
            [
              54.421875,
              41.21875
            ],
            [
              54.265625,
              40.59375
            ],
            [
              54.265625,
              39.96875
            ],
            [
              54.109375,
              39.34375
            ],
            [
              53.953125,
              38.71875
            ],
            [
              53.796875,
              38.25
            ],
            [
              53.640625,
              37.625
            ],
            [
              53.484375,
              37.0
            ],
            [
              53.171875,
              36.375
            ],
            [
              53.015625,
              35.75
            ],
            [
              52.859375,
              35.28125
            ],
            [
              52.859375,
              34.65625
            ],
            [
              52.859375,
              34.03125
            ],
            [
              52.859375,
              33.09375
            ],
            [
              52.703125,
              31.84375
            ],
            [
              52.703125,
              30.90625
            ],
            [
              52.546875,
              30.125
            ],
            [
              52.546875,
              29.1875
            ],
            [
              52.546875,
              28.5625
            ],
            [
              52.546875,
              27.9375
            ],
            [
              52.390625,
              27.46875
            ],
            [
              52.390625,
              26.84375
            ],
            [
              52.546875,
              26.375
            ],
            [
              52.703125,
              25.90625
            ],
            [
              52.859375,
              25.4375
            ],
            [
              52.859375,
              24.65625
            ],
            [
              52.859375,
              23.875
            ],
            [
              52.859375,
              23.09375
            ],
            [
              52.859375,
              22.46875
            ],
            [
              52.859375,
              21.84375
            ],
            [
              52.859375,
              21.21875
            ],
            [
              52.859375,
              20.59375
            ],
            [
              53.015625,
              20.125
            ],
            [
              53.171875,
              19.5
            ],
            [
              53.171875,
              18.71875
            ],
            [
              53.328125,
              18.25
            ],
            [
              53.484375,
              17.3125
            ],
            [
              53.640625,
              16.53125
            ],
            [
              53.796875,
              15.75
            ],
            [
              53.953125,
              15.28125
            ],
            [
              53.953125,
              14.65625
            ],
            [
              53.953125,
              13.875
            ],
            [
              53.796875,
              13.09375
            ],
            [
              53.328125,
              12.625
            ],
            [
              52.859375,
              11.84375
            ],
            [
              52.546875,
              11.0625
            ],
            [
              51.921875,
              10.4375
            ],
            [
              51.140625,
              9.34375
            ],
            [
              50.203125,
              8.25
            ],
            [
              49.578125,
              7.3125
            ],
            [
              48.953125,
              6.375
            ],
            [
              48.484375,
              5.59375
            ],
            [
              48.171875,
              4.96875
            ],
            [
              48.015625,
              4.5
            ],
            [
              47.703125,
              4.03125
            ],
            [
              47.390625,
              3.5625
            ],
            [
              47.234375,
              3.09375
            ],
            [
              46.765625,
              2.78125
            ],
            [
              46.140625,
              2.625
            ],
            [
              45.515625,
              2.46875
            ],
            [
              45.046875,
              2.3125
            ],
            [
              44.421875,
              2.3125
            ],
            [
              43.796875,
              2.3125
            ],
            [
              43.015625,
              2.3125
            ],
            [
              42.234375,
              2.3125
            ],
            [
              41.609375,
              2.3125
            ],
            [
              40.984375,
              2.15625
            ],
            [
              40.359375,
              2.0
            ],
            [
              39.734375,
              2.0
            ],
            [
              39.109375,
              2.0
            ],
            [
              38.640625,
              2.15625
            ],
            [
              38.171875,
              2.3125
            ],
            [
              37.546875,
              2.46875
            ],
            [
              37.078125,
              2.625
            ],
            [
              36.609375,
              2.78125
            ],
            [
              36.140625,
              2.9375
            ],
            [
              35.359375,
              3.40625
            ],
            [
              34.578125,
              3.71875
            ],
            [
              34.109375,
              4.03125
            ],
            [
              33.484375,
              4.1875
            ],
            [
              33.015625,
              4.34375
            ],
            [
              32.546875,
              4.5
            ],
            [
              32.078125,
              4.8125
            ],
            [
              31.453125,
              5.125
            ],
            [
              30.828125,
              5.4375
            ],
            [
              30.359375,
              5.59375
            ],
            [
              29.890625,
              5.75
            ],
            [
              29.421875,
              5.90625
            ],
            [
              28.953125,
              6.21875
            ],
            [
              28.328125,
              6.53125
            ],
            [
              27.859375,
              6.84375
            ],
            [
              27.234375,
              7.0
            ],
            [
              26.765625,
              7.3125
            ],
            [
              26.296875,
              7.625
            ],
            [
              25.828125,
              7.9375
            ],
            [
              25.359375,
              8.09375
            ],
            [
              24.890625,
              8.25
            ],
            [
              24.421875,
              8.5625
            ],
            [
              23.953125,
              8.71875
            ],
            [
              23.484375,
              8.875
            ],
            [
              23.015625,
              9.03125
            ],
            [
              22.546875,
              9.1875
            ],
            [
              21.765625,
              9.5
            ],
            [
              21.296875,
              9.65625
            ],
            [
              20.828125,
              9.8125
            ],
            [
              20.203125,
              10.125
            ],
            [
              19.734375,
              10.28125
            ],
            [
              19.265625,
              10.59375
            ],
            [
              18.640625,
              10.59375
            ],
            [
              18.484375,
              11.0625
            ],
            [
              18.484375,
              11.6875
            ],
            [
              18.796875,
              12.3125
            ],
            [
              19.109375,
              12.9375
            ],
            [
              19.265625,
              13.40625
            ],
            [
              19.578125,
              14.03125
            ],
            [
              20.046875,
              14.65625
            ],
            [
              20.515625,
              15.125
            ],
            [
              20.828125,
              15.90625
            ],
            [
              21.296875,
              16.375
            ],
            [
              21.609375,
              16.84375
            ],
            [
              21.921875,
              17.3125
            ],
            [
              22.546875,
              17.78125
            ],
            [
              23.015625,
              18.25
            ],
            [
              23.484375,
              18.5625
            ],
            [
              23.953125,
              19.03125
            ],
            [
              24.421875,
              19.5
            ],
            [
              24.734375,
              19.96875
            ],
            [
              25.203125,
              20.28125
            ],
            [
              25.671875,
              20.75
            ],
            [
              25.984375,
              21.21875
            ],
            [
              26.453125,
              21.53125
            ],
            [
              26.609375,
              22.0
            ],
            [
              27.078125,
              22.625
            ],
            [
              27.546875,
              23.40625
            ],
            [
              28.015625,
              24.1875
            ],
            [
              28.328125,
              24.96875
            ],
            [
              28.484375,
              25.4375
            ],
            [
              28.796875,
              26.0625
            ],
            [
              28.953125,
              26.53125
            ],
            [
              29.109375,
              27.3125
            ],
            [
              29.265625,
              27.78125
            ],
            [
              29.421875,
              28.40625
            ],
            [
              29.578125,
              28.875
            ],
            [
              29.734375,
              29.34375
            ],
            [
              29.890625,
              29.96875
            ],
            [
              30.203125,
              30.59375
            ],
            [
              30.359375,
              31.375
            ],
            [
              30.515625,
              32.0
            ],
            [
              30.671875,
              32.46875
            ],
            [
              30.828125,
              32.9375
            ],
            [
              30.984375,
              33.71875
            ],
            [
              31.296875,
              34.34375
            ],
            [
              31.296875,
              34.96875
            ],
            [
              31.453125,
              35.4375
            ],
            [
              31.609375,
              35.90625
            ],
            [
              31.765625,
              36.53125
            ],
            [
              31.921875,
              37.0
            ],
            [
              31.921875,
              37.625
            ],
            [
              31.921875,
              38.25
            ],
            [
              31.921875,
              38.875
            ],
            [
              31.921875,
              39.5
            ],
            [
              31.921875,
              40.125
            ],
            [
              31.921875,
              40.75
            ],
            [
              31.921875,
              41.375
            ],
            [
              31.921875,
              42.3125
            ],
            [
              31.921875,
              43.09375
            ],
            [
              31.921875,
              43.71875
            ],
            [
              31.921875,
              44.34375
            ],
            [
              31.921875,
              44.96875
            ],
            [
              31.921875,
              45.59375
            ],
            [
              31.921875,
              46.375
            ],
            [
              31.921875,
              47.15625
            ],
            [
              31.921875,
              47.78125
            ],
            [
              31.921875,
              48.40625
            ],
            [
              31.921875,
              49.03125
            ],
            [
              31.921875,
              49.65625
            ],
            [
              31.921875,
              50.28125
            ],
            [
              31.453125,
              50.4375
            ]
          ],
          [
            [
              11.140625,
              19.1875
            ],
            [
              10.515625,
              19.1875
            ],
            [
              10.046875,
              19.03125
            ],
            [
              9.578125,
              18.875
            ],
            [
              9.109375,
              18.09375
            ],
            [
              8.484375,
              17.15625
            ],
            [
              8.328125,
              16.375
            ],
            [
              8.171875,
              15.90625
            ],
            [
              8.328125,
              15.4375
            ],
            [
              8.796875,
              15.28125
            ],
            [
              9.265625,
              15.125
            ],
            [
              9.734375,
              14.96875
            ],
            [
              10.359375,
              14.96875
            ],
            [
              10.828125,
              15.125
            ],
            [
              10.828125,
              15.90625
            ],
            [
              10.828125,
              16.53125
            ],
            [
              10.671875,
              17.0
            ],
            [
              10.515625,
              17.46875
            ],
            [
              10.515625,
              18.09375
            ]
          ],
          [
            [
              15.984375,
              16.0625
            ],
            [
              15.359375,
              16.0625
            ],
            [
              15.203125,
              15.59375
            ],
            [
              15.671875,
              15.28125
            ],
            [
              16.296875,
              15.28125
            ],
            [
              16.765625,
              15.4375
            ],
            [
              16.765625,
              16.0625
            ],
            [
              16.609375,
              16.53125
            ],
            [
              15.984375,
              16.53125
            ]
          ]
        ]
      }
    }
  ]
}