{
  "type": "FeatureCollection",
  "crs": {
    "type": "name",
    "properties": {
      "name": "urn:ogc:def:crs:OGC:1.3:CRS84"
    }
  },
  "features": [
    {
      "type": "Feature",
      "properties": {
        "timestamp": "2026-06-22T16:46:19.411085",
        "country_name": "France",
        "author": "",
        "author_id": "1c464dfc-d8a9-42b2-8b6f-72ecd219fc18",
        "validated": false,
        "ranking": [
          [
            "Germany",
            0.14116419851779938
          ],
          [
            "Burundi",
            0.11906459927558899
          ],
          [
            "France",
            0.06951185315847397
          ],
          [
            "Greenland",
            0.05279047414660454
          ],
          [
            "Chad",
            0.03976338356733322
          ],
          [
            "French Guiana",
            0.03712102770805359
          ],
          [
            "Qatar",
            0.0332675576210022
          ],
          [
            "Sri Lanka",
            0.03319365158677101
          ],
          [
            "Romania",
            0.03002055734395981
          ],
          [
            "Eswatini",
            0.018361808732151985
          ],
          [
            "Luxembourg",
            0.018307412043213844
          ],
          [
            "Guyana",
            0.016819413751363754
          ],
          [
            "Gabon",
            0.012869895435869694
          ],
          [
            "Lesotho",
            0.012751049362123013
          ],
          [
            "Saint Lucia",
            0.012050996534526348
          ],
          [
            "Serbia",
            0.011523831635713577
          ],
          [
            "Angola",
            0.01148230955004692
          ],
          [
            "Saudi Arabia",
            0.010723511688411236
          ],
          [
            "Belarus",
            0.010206316597759724
          ],
          [
            "Benin",
            0.010174470022320747
          ],
          [
            "Namibia",
            0.00951571948826313
          ],
          [
            "Lithuania",
            0.009416148066520691
          ],
          [
            "Belize",
            0.009302666410803795
          ],
          [
            "Guatemala",
            0.008002012968063354
          ],
          [
            "Ethiopia",
            0.007984449155628681
          ],
          [
            "Guadeloupe",
            0.0077422927133738995
          ],
          [
            "Peru",
            0.00755175668746233
          ],
          [
            "Ghana",
            0.007405127864331007
          ],
          [
            "Switzerland",
            0.006469112820923328
          ],
          [
            "Montenegro",
            0.005879766307771206
          ],
          [
            "North Macedonia",
            0.005567487794905901
          ],
          [
            "Bangladesh",
            0.0055382768623530865
          ],
          [
            "Spain",
            0.005153791047632694
          ],
          [
            "Algeria",
            0.0051114121451973915
          ],
          [
            "Suriname",
            0.0047769625671207905
          ],
          [
            "Colombia",
            0.004709042143076658
          ],
          [
            "Croatia",
            0.00468590809032321
          ],
          [
            "Iraq",
            0.00453553069382906
          ],
          [
            "Rwanda",
            0.004530680365860462
          ],
          [
            "Botswana",
            0.004190561827272177
          ],
          [
            "Sierra Leone",
            0.003985595889389515
          ],
          [
            "Ecuador",
            0.003944304771721363
          ],
          [
            "Bolivia",
            0.003867004532366991
          ],
          [
            "South Korea",
            0.0038662815932184458
          ],
          [
            "Mauritania",
            0.0037583806551992893
          ],
          [
            "Iran",
            0.0037382126320153475
          ],
          [
            "Cambodia",
            0.0036282273940742016
          ],
          [
            "Nicaragua",
            0.003322673263028264
          ],
          [
            "Ireland",
            0.003184596076607704
          ],
          [
            "Uruguay",
            0.003102825256064534
          ],
          [
            "Uganda",
            0.003049352904781699
          ],
          [
            "Djibouti",
            0.002962318016216159
          ],
          [
            "Syria",
            0.002862510271370411
          ],
          [
            "Reunion",
            0.0028596832416951656
          ],
          [
            "Burkina Faso",
            0.0026607532054185867
          ],
          [
            "Zimbabwe",
            0.002660103840753436
          ],
          [
            "Albania",
            0.0026217566337436438
          ],
          [
            "Heard and McDonald Islands",
            0.002619811799377203
          ],
          [
            "Mozambique",
            0.002604973502457142
          ],
          [
            "South Sudan",
            0.002604615641757846
          ],
          [
            "Dominica",
            0.0025775087997317314
          ],
          [
            "Czech Republic",
            0.0024847870226949453
          ],
          [
            "South Africa",
            0.0024641905911266804
          ],
          [
            "Finland",
            0.0023752732668071985
          ],
          [
            "India",
            0.0023561103735119104
          ],
          [
            "Côte d'Ivoire",
            0.002306113950908184
          ],
          [
            "Martinique",
            0.002256722655147314
          ],
          [
            "Myanmar",
            0.0022164066322147846
          ],
          [
            "Egypt",
            0.0022090966813266277
          ],
          [
            "Tunisia",
            0.0021013712976127863
          ],
          [
            "Kenya",
            0.0020459506195038557
          ],
          [
            "Sudan",
            0.001981800887733698
          ],
          [
            "West Bank",
            0.001849152147769928
          ],
          [
            "Bosnia & Herzegovina",
            0.0017945242580026388
          ],
          [
            "Bahrain",
            0.0016622423427179456
          ],
          [
            "Jordan",
            0.0016280408017337322
          ],
          [
            "Turkmenistan",
            0.0015991086838766932
          ],
          [
            "Hong Kong",
            0.0015983403427526355
          ],
          [
            "Congo",
            0.0015953920083120465
          ],
          [
            "Bhutan",
            0.0015876390971243382
          ],
          [
            "Antigua & Barbuda",
            0.0014570190105587244
          ],
          [
            "Mayotte",
            0.0014538489049300551
          ],
          [
            "Belgium",
            0.0013939987402409315
          ],
          [
            "Cape Verde",
            0.0013520276406779885
          ],
          [
            "Mongolia",
            0.0013260465348139405
          ],
          [
            "Moldova",
            0.0013137361966073513
          ],
          [
            "Honduras",
            0.0013027121312916279
          ],
          [
            "Vietnam",
            0.0012913472019135952
          ],
          [
            "Togo",
            0.0012786734150722623
          ],
          [
            "United States Virgin Islands",
            0.0012751395115628839
          ],
          [
            "Nigeria",
            0.001227817963808775
          ],
          [
            "Yemen",
            0.0012207354884594679
          ],
          [
            "Kuwait",
            0.0011638879077509046
          ],
          [
            "Australia",
            0.0011627607746049762
          ],
          [
            "Ukraine",
            0.0011324789375066757
          ],
          [
            "Oman",
            0.0011016128119081259
          ],
          [
            "Faroe Islands",
            0.0010586290154606104
          ],
          [
            "Liberia",
            0.0010328167118132114
          ],
          [
            "China",
            0.0009585977531969547
          ],
          [
            "Barbados",
            0.0009576163720339537
          ],
          [
            "Svalbard",
            0.0009503200417384505
          ],
          [
            "Estonia",
            0.0009396785171702504
          ],
          [
            "Portugal",
            0.0009378521353937685
          ],
          [
            "Senegal",
            0.0009198369807563722
          ],
          [
            "Afghanistan",
            0.000912870280444622
          ],
          [
            "Venezuela",
            0.0009107484947890043
          ],
          [
            "Italy",
            0.0008684640051797032
          ],
          [
            "Taiwan",
            0.0008516095695085824
          ],
          [
            "Brazil",
            0.0008441365789622068
          ],
          [
            "Vanuatu",
            0.0008166840416379273
          ],
          [
            "Thailand",
            0.0008092627977021039
          ],
          [
            "Tajikistan",
            0.0007517793565057218
          ],
          [
            "Bahamas",
            0.0007408175151795149
          ],
          [
            "Canada",
            0.0007123367395251989
          ],
          [
            "Kazakhstan",
            0.0007087790872901678
          ],
          [
            "Slovakia",
            0.0006913099205121398
          ],
          [
            "Azerbaijan",
            0.0006898898864164948
          ],
          [
            "Cameroon",
            0.0006877589039504528
          ],
          [
            "Somalia",
            0.0006866879994049668
          ],
          [
            "Falkland Islands",
            0.0006813454674556851
          ],
          [
            "Hungary",
            0.0006784768775105476
          ],
          [
            "Malawi",
            0.0006622658693231642
          ],
          [
            "Slovenia",
            0.000661252299323678
          ],
          [
            "Iceland",
            0.0006596159655600786
          ],
          [
            "El Salvador",
            0.0006414433591999114
          ],
          [
            "Malaysia",
            0.0006403786828741431
          ],
          [
            "North Korea",
            0.0006396425887942314
          ],
          [
            "South Georgia Islands",
            0.0006052226526662707
          ],
          [
            "Armenia",
            0.000578433508053422
          ],
          [
            "Uzbekistan",
            0.0005631372332572937
          ],
          [
            "Kyrgyzstan",
            0.0005174255929887295
          ],
          [
            "Comoros",
            0.00051720259943977
          ],
          [
            "Laos",
            0.0005044869030825794
          ],
          [
            "United States of America",
            0.0005014228518120944
          ],
          [
            "Dominican Republic",
            0.0004981113597750664
          ],
          [
            "Fiji",
            0.0004962962702848017
          ],
          [
            "Tanzania",
            0.0004893937148153782
          ],
          [
            "Brunei",
            0.00047781443572603166
          ],
          [
            "Zambia",
            0.00047170399921014905
          ],
          [
            "Papua New Guinea",
            0.0004616514197550714
          ],
          [
            "Turkey",
            0.0004561381647363305
          ],
          [
            "Isle of Man",
            0.0004556938074529171
          ],
          [
            "Russia",
            0.0004540713271126151
          ],
          [
            "Netherlands",
            0.00044908266863785684
          ],
          [
            "Costa Rica",
            0.0004460623604245484
          ],
          [
            "Guinea",
            0.00043955404544249177
          ],
          [
            "Mali",
            0.0004281818401068449
          ],
          [
            "Western Sahara",
            0.0004221550188958645
          ],
          [
            "Poland",
            0.0004087774141225964
          ],
          [
            "Argentina",
            0.00040875948616303504
          ],
          [
            "Latvia",
            0.0004045501700602472
          ],
          [
            "United Kingdom",
            0.00040021698805503547
          ],
          [
            "DR Congo",
            0.0003746919392142445
          ],
          [
            "Puerto Rico",
            0.0003675611224025488
          ],
          [
            "Trinidad and Tobago",
            0.00036602685577236116
          ],
          [
            "Jamaica",
            0.00033824844285845757
          ],
          [
            "Philippines",
            0.0003373663639649749
          ],
          [
            "Cuba",
            0.00033514027018100023
          ],
          [
            "Denmark",
            0.00031913197017274797
          ],
          [
            "Sweden",
            0.00031651739845983684
          ],
          [
            "Madagascar",
            0.0003145944210700691
          ],
          [
            "Bulgaria",
            0.00030789588345214725
          ],
          [
            "Central African Republic",
            0.00030024765874259174
          ],
          [
            "Georgia",
            0.00029558426467701793
          ],
          [
            "Paraguay",
            0.0002953098446596414
          ],
          [
            "Libya",
            0.00028540584025904536
          ],
          [
            "United Arab Emirates",
            0.0002818586362991482
          ],
          [
            "Greece",
            0.00027745391707867384
          ],
          [
            "Indonesia",
            0.00026920493110083044
          ],
          [
            "Guinea-Bissau",
            0.00026842663646675646
          ],
          [
            "Sao Tome and Principe",
            0.0002579204156063497
          ],
          [
            "New Caledonia",
            0.00022646338038612157
          ],
          [
            "New Zealand",
            0.00021818018285557628
          ],
          [
            "Netherlands Antilles",
            0.00020459377265069634
          ],
          [
            "Solomon Islands",
            0.00018311076564714313
          ],
          [
            "Panama",
            0.00018106342758983374
          ],
          [
            "Madeira Islands",
            0.00017497663793619722
          ],
          [
            "Guam",
            0.0001723134919302538
          ],
          [
            "Mexico",
            0.00016834626148920506
          ],
          [
            "Chile",
            0.00015614955918863416
          ],
          [
            "Samoa",
            0.00014169768837746233
          ],
          [
            "Turks and Caicos Islands",
            0.00013232413039077073
          ],
          [
            "Niger",
            0.00011980556882917881
          ],
          [
            "Lebanon",
            0.00011824008106486872
          ],
          [
            "Timor-Leste",
            0.00011632592213572934
          ],
          [
            "Norway",
            0.00011509948672028258
          ],
          [
            "Cyprus",
            0.00010815957648446783
          ],
          [
            "Pakistan",
            0.00010472054418642074
          ],
          [
            "Equatorial Guinea",
            0.00010093973105540499
          ],
          [
            "Israel",
            9.720043453853577e-05
          ],
          [
            "Japan",
            8.98703292477876e-05
          ],
          [
            "Eritrea",
            6.766956357751042e-05
          ],
          [
            "Palau",
            6.714922346873209e-05
          ],
          [
            "Nepal",
            6.43962193862535e-05
          ],
          [
            "Gambia",
            4.723682286567055e-05
          ],
          [
            "Morocco",
            3.166645910823718e-05
          ],
          [
            "Austria",
            1.9740913558052853e-05
          ],
          [
            "Kiribati",
            1.1021182217518799e-05
          ],
          [
            "Haiti",
            9.903208592731971e-06
          ]
        ]
      },
      "geometry": {
        "type": "MultiLineString",
        "coordinates": [
          [
            [
              7.307692307692292,
              43.076923076923094
            ],
            [
              8.230769230769226,
              43.076923076923094
            ],
            [
              8.923076923076906,
              43.30769230769232
            ],
            [
              9.84615384615384,
              43.30769230769232
            ],
            [
              10.538461538461547,
              43.769230769230774
            ],
            [
              11.923076923076906,
              44.0
            ],
            [
              13.076923076923066,
              44.46153846153845
            ],
            [
              13.769230769230774,
              44.69230769230768
            ],
            [
              14.461538461538453,
              45.15384615384619
            ],
            [
              15.384615384615387,
              45.38461538461536
            ],
            [
              15.84615384615384,
              46.076923076923094
            ],
            [
              16.538461538461547,
              46.53846153846155
            ],
            [
              17.230769230769226,
              46.769230769230774
            ],
            [
              17.923076923076906,
              47.230769230769226
            ],
            [
              18.615384615384613,
              47.46153846153845
            ],
            [
              19.30769230769232,
              47.923076923076906
            ],
            [
              20.0,
              48.15384615384619
            ],
            [
              20.69230769230768,
              48.84615384615387
            ],
            [
              21.384615384615387,
              49.30769230769232
            ],
            [
              22.076923076923066,
              50.0
            ],
            [
              22.769230769230774,
              50.69230769230768
            ],
            [
              23.461538461538453,
              50.923076923076906
            ],
            [
              23.69230769230768,
              51.61538461538464
            ],
            [
              24.384615384615387,
              52.076923076923094
            ],
            [
              25.076923076923066,
              52.30769230769232
            ],
            [
              26.230769230769226,
              52.30769230769232
            ],
            [
              27.15384615384616,
              52.30769230769232
            ],
            [
              27.84615384615384,
              52.769230769230774
            ],
            [
              28.538461538461547,
              53.0
            ],
            [
              29.0,
              53.69230769230768
            ],
            [
              29.0,
              54.84615384615387
            ],
            [
              29.230769230769226,
              55.53846153846155
            ],
            [
              29.69230769230768,
              56.230769230769226
            ],
            [
              29.923076923076906,
              56.923076923076906
            ],
            [
              30.384615384615387,
              57.61538461538464
            ],
            [
              30.615384615384613,
              58.30769230769232
            ],
            [
              31.076923076923066,
              59.0
            ],
            [
              31.30769230769232,
              59.69230769230768
            ],
            [
              31.769230769230774,
              60.38461538461536
            ],
            [
              32.46153846153845,
              61.076923076923094
            ],
            [
              33.15384615384616,
              61.769230769230774
            ],
            [
              33.84615384615384,
              62.0
            ],
            [
              34.769230769230774,
              62.0
            ],
            [
              35.923076923076906,
              61.769230769230774
            ],
            [
              36.15384615384616,
              60.84615384615387
            ],
            [
              36.15384615384616,
              59.69230769230768
            ],
            [
              36.61538461538461,
              59.0
            ],
            [
              36.84615384615384,
              58.30769230769232
            ],
            [
              37.30769230769232,
              56.923076923076906
            ],
            [
              37.30769230769232,
              55.53846153846155
            ],
            [
              37.30769230769232,
              54.15384615384619
            ],
            [
              37.30769230769232,
              53.230769230769226
            ],
            [
              37.30769230769232,
              52.076923076923094
            ],
            [
              37.53846153846155,
              51.38461538461536
            ],
            [
              38.69230769230768,
              51.15384615384619
            ],
            [
              39.38461538461539,
              50.46153846153845
            ],
            [
              39.61538461538461,
              49.769230769230774
            ],
            [
              40.30769230769232,
              49.076923076923094
            ],
            [
              41.0,
              48.61538461538464
            ],
            [
              41.69230769230768,
              47.923076923076906
            ],
            [
              42.84615384615384,
              47.923076923076906
            ],
            [
              43.769230769230774,
              47.923076923076906
            ],
            [
              44.46153846153845,
              47.69230769230768
            ],
            [
              45.15384615384616,
              47.230769230769226
            ],
            [
              45.84615384615384,
              46.53846153846155
            ],
            [
              46.53846153846155,
              46.30769230769232
            ],
            [
              47.230769230769226,
              45.84615384615387
            ],
            [
              47.923076923076906,
              45.61538461538464
            ],
            [
              48.61538461538461,
              45.15384615384619
            ],
            [
              49.769230769230774,
              45.15384615384619
            ],
            [
              50.46153846153845,
              45.38461538461536
            ],
            [
              51.38461538461539,
              45.38461538461536
            ],
            [
              52.076923076923094,
              45.15384615384619
            ],
            [
              52.769230769230774,
              44.923076923076906
            ],
            [
              53.923076923076906,
              44.46153846153845
            ],
            [
              54.84615384615384,
              44.46153846153845
            ],
            [
              55.30769230769232,
              43.769230769230774
            ],
            [
              55.53846153846155,
              43.076923076923094
            ],
            [
              56.230769230769226,
              42.38461538461536
            ],
            [
              56.69230769230768,
              41.69230769230768
            ],
            [
              56.0,
              41.46153846153845
            ],
            [
              55.30769230769232,
              40.769230769230774
            ],
            [
              54.61538461538461,
              40.076923076923094
            ],
            [
              54.38461538461539,
              39.38461538461536
            ],
            [
              53.69230769230768,
              38.69230769230768
            ],
            [
              53.230769230769226,
              37.53846153846155
            ],
            [
              52.53846153846155,
              37.30769230769232
            ],
            [
              51.84615384615384,
              36.84615384615387
            ],
            [
              50.923076923076906,
              36.84615384615387
            ],
            [
              50.230769230769226,
              36.61538461538464
            ],
            [
              49.53846153846155,
              36.15384615384619
            ],
            [
              48.84615384615384,
              35.46153846153845
            ],
            [
              48.38461538461539,
              34.769230769230774
            ],
            [
              48.38461538461539,
              33.84615384615387
            ],
            [
              48.61538461538461,
              33.15384615384619
            ],
            [
              48.38461538461539,
              32.46153846153845
            ],
            [
              47.46153846153845,
              32.46153846153845
            ],
            [
              46.769230769230774,
              32.0
            ],
            [
              46.076923076923094,
              31.769230769230774
            ],
            [
              45.61538461538461,
              31.076923076923094
            ],
            [
              44.923076923076906,
              30.61538461538464
            ],
            [
              44.923076923076906,
              29.69230769230768
            ],
            [
              44.923076923076906,
              28.538461538461547
            ],
            [
              45.15384615384616,
              27.846153846153868
            ],
            [
              45.61538461538461,
              27.15384615384619
            ],
            [
              45.61538461538461,
              26.230769230769226
            ],
            [
              45.61538461538461,
              25.076923076923094
            ],
            [
              45.61538461538461,
              24.15384615384619
            ],
            [
              45.61538461538461,
              23.0
            ],
            [
              45.61538461538461,
              22.076923076923094
            ],
            [
              45.61538461538461,
              20.923076923076906
            ],
            [
              45.61538461538461,
              20.0
            ],
            [
              45.61538461538461,
              18.846153846153868
            ],
            [
              45.61538461538461,
              17.923076923076906
            ],
            [
              45.61538461538461,
              16.769230769230774
            ],
            [
              45.61538461538461,
              15.846153846153868
            ],
            [
              44.923076923076906,
              15.384615384615358
            ],
            [
              44.69230769230768,
              14.69230769230768
            ],
            [
              44.69230769230768,
              13.769230769230774
            ],
            [
              44.230769230769226,
              13.076923076923094
            ],
            [
              44.230769230769226,
              11.923076923076906
            ],
            [
              44.923076923076906,
              11.69230769230768
            ],
            [
              45.61538461538461,
              11.230769230769226
            ],
            [
              45.84615384615384,
              10.538461538461547
            ],
            [
              46.30769230769232,
              9.846153846153868
            ],
            [
              46.30769230769232,
              8.923076923076906
            ],
            [
              46.53846153846155,
              8.230769230769226
            ],
            [
              47.230769230769226,
              7.769230769230774
            ],
            [
              47.69230769230768,
              7.076923076923094
            ],
            [
              48.38461538461539,
              6.846153846153868
            ],
            [
              48.15384615384613,
              6.153846153846189
            ],
            [
              47.69230769230768,
              5.461538461538453
            ],
            [
              47.46153846153845,
              4.769230769230774
            ],
            [
              47.0,
              4.076923076923094
            ],
            [
              46.769230769230774,
              3.3846153846153584
            ],
            [
              46.30769230769232,
              2.692307692307679
            ],
            [
              46.076923076923094,
              2.0
            ],
            [
              45.38461538461539,
              2.2307692307692264
            ],
            [
              44.69230769230768,
              2.461538461538453
            ],
            [
              44.0,
              3.153846153846189
            ],
            [
              43.30769230769232,
              3.846153846153868
            ],
            [
              42.84615384615384,
              4.538461538461547
            ],
            [
              42.61538461538461,
              5.230769230769226
            ],
            [
              41.923076923076906,
              5.692307692307679
            ],
            [
              41.230769230769226,
              6.384615384615358
            ],
            [
              40.53846153846155,
              6.615384615384642
            ],
            [
              39.84615384615384,
              7.307692307692321
            ],
            [
              38.69230769230768,
              7.769230769230774
            ],
            [
              37.769230769230774,
              7.769230769230774
            ],
            [
              37.076923076923066,
              8.0
            ],
            [
              35.923076923076906,
              8.0
            ],
            [
              35.230769230769226,
              7.769230769230774
            ],
            [
              35.0,
              6.846153846153868
            ],
            [
              35.0,
              5.692307692307679
            ],
            [
              35.0,
              4.769230769230774
            ],
            [
              35.0,
              3.6153846153846416
            ],
            [
              35.0,
              2.692307692307679
            ],
            [
              34.53846153846155,
              2.0
            ],
            [
              33.61538461538461,
              2.0
            ],
            [
              32.46153846153845,
              2.0
            ],
            [
              31.538461538461547,
              2.0
            ],
            [
              30.384615384615387,
              2.0
            ],
            [
              29.69230769230768,
              2.2307692307692264
            ],
            [
              29.0,
              2.461538461538453
            ],
            [
              28.30769230769232,
              2.9230769230769056
            ],
            [
              27.384615384615387,
              2.9230769230769056
            ],
            [
              26.230769230769226,
              2.9230769230769056
            ],
            [
              25.30769230769232,
              2.9230769230769056
            ],
            [
              24.615384615384613,
              2.692307692307679
            ],
            [
              23.923076923076906,
              2.461538461538453
            ],
            [
              23.230769230769226,
              2.9230769230769056
            ],
            [
              22.538461538461547,
              3.153846153846189
            ],
            [
              21.84615384615384,
              3.6153846153846416
            ],
            [
              21.15384615384616,
              3.846153846153868
            ],
            [
              20.461538461538453,
              4.307692307692321
            ],
            [
              19.30769230769232,
              4.538461538461547
            ],
            [
              18.615384615384613,
              5.0
            ],
            [
              17.923076923076906,
              5.230769230769226
            ],
            [
              17.923076923076906,
              6.384615384615358
            ],
            [
              17.923076923076906,
              7.307692307692321
            ],
            [
              18.15384615384616,
              8.0
            ],
            [
              18.615384615384613,
              9.153846153846189
            ],
            [
              18.84615384615384,
              10.076923076923094
            ],
            [
              19.30769230769232,
              10.769230769230774
            ],
            [
              19.30769230769232,
              11.923076923076906
            ],
            [
              19.538461538461547,
              12.615384615384642
            ],
            [
              19.538461538461547,
              13.538461538461547
            ],
            [
              19.538461538461547,
              14.69230769230768
            ],
            [
              19.30769230769232,
              15.615384615384642
            ],
            [
              19.076923076923066,
              16.30769230769232
            ],
            [
              18.615384615384613,
              17.461538461538453
            ],
            [
              18.384615384615387,
              18.846153846153868
            ],
            [
              17.923076923076906,
              19.538461538461547
            ],
            [
              17.69230769230768,
              20.230769230769226
            ],
            [
              17.230769230769226,
              21.15384615384619
            ],
            [
              16.538461538461547,
              21.846153846153868
            ],
            [
              15.84615384615384,
              22.538461538461547
            ],
            [
              15.615384615384613,
              23.230769230769226
            ],
            [
              14.923076923076906,
              23.69230769230768
            ],
            [
              14.461538461538453,
              24.38461538461536
            ],
            [
              14.230769230769226,
              25.076923076923094
            ],
            [
              13.769230769230774,
              25.769230769230774
            ],
            [
              14.0,
              26.69230769230768
            ],
            [
              14.461538461538453,
              27.38461538461536
            ],
            [
              14.69230769230768,
              28.076923076923094
            ],
            [
              14.69230769230768,
              29.230769230769226
            ],
            [
              15.15384615384616,
              29.923076923076906
            ],
            [
              15.384615384615387,
              30.61538461538464
            ],
            [
              15.84615384615384,
              32.0
            ],
            [
              15.84615384615384,
              32.923076923076906
            ],
            [
              15.84615384615384,
              34.076923076923094
            ],
            [
              15.15384615384616,
              34.769230769230774
            ],
            [
              14.461538461538453,
              35.46153846153845
            ],
            [
              13.769230769230774,
              35.69230769230768
            ],
            [
              13.076923076923066,
              36.15384615384619
            ],
            [
              12.384615384615387,
              36.38461538461536
            ],
            [
              11.69230769230768,
              36.84615384615387
            ],
            [
              11.461538461538453,
              37.53846153846155
            ],
            [
              10.769230769230774,
              37.769230769230774
            ],
            [
              10.076923076923066,
              38.230769230769226
            ],
            [
              9.615384615384613,
              38.923076923076906
            ],
            [
              9.384615384615387,
              39.61538461538464
            ],
            [
              8.923076923076906,
              40.30769230769232
            ],
            [
              8.923076923076906,
              41.230769230769226
            ],
            [
              8.923076923076906,
              42.38461538461536
            ]
          ]
        ]
      }
    }
  ]
}