{
  "type": "FeatureCollection",
  "crs": {
    "type": "name",
    "properties": {
      "name": "urn:ogc:def:crs:OGC:1.3:CRS84"
    }
  },
  "features": [
    {
      "type": "Feature",
      "properties": {
        "timestamp": "2026-06-07T15:34:57.115912",
        "country_name": "Gambia",
        "author": "",
        "author_id": "8a0c41f1-ddfd-4b8c-8521-0b2a4ecd1d72",
        "validated": false,
        "ranking": [
          [
            "Gambia",
            0.3755040466785431
          ],
          [
            "Indonesia",
            0.1491653323173523
          ],
          [
            "Timor-Leste",
            0.11999369412660599
          ],
          [
            "Netherlands Antilles",
            0.10821500420570374
          ],
          [
            "Puerto Rico",
            0.04132087156176567
          ],
          [
            "Solomon Islands",
            0.025183439254760742
          ],
          [
            "Panama",
            0.02513660304248333
          ],
          [
            "Malaysia",
            0.013699064031243324
          ],
          [
            "Jamaica",
            0.009462280198931694
          ],
          [
            "Turkey",
            0.00802855659276247
          ],
          [
            "Cuba",
            0.0069410307332873344
          ],
          [
            "Kyrgyzstan",
            0.006903184577822685
          ],
          [
            "Ecuador",
            0.005960720591247082
          ],
          [
            "Uzbekistan",
            0.004688722547143698
          ],
          [
            "Cyprus",
            0.004511513747274876
          ],
          [
            "Turkmenistan",
            0.004422430414706469
          ],
          [
            "Turks and Caicos Islands",
            0.004080876708030701
          ],
          [
            "New Zealand",
            0.003774755634367466
          ],
          [
            "Slovakia",
            0.0034595790784806013
          ],
          [
            "Austria",
            0.003286750055849552
          ],
          [
            "Georgia",
            0.0031293793581426144
          ],
          [
            "New Caledonia",
            0.003003066871315241
          ],
          [
            "Japan",
            0.0028731590136885643
          ],
          [
            "Mongolia",
            0.002796569839119911
          ],
          [
            "Falkland Islands",
            0.0027642787899821997
          ],
          [
            "Kazakhstan",
            0.0023630086798220873
          ],
          [
            "Russia",
            0.0022312661167234182
          ],
          [
            "Samoa",
            0.0021841274574398994
          ],
          [
            "Latvia",
            0.0020410330034792423
          ],
          [
            "Nepal",
            0.0019430887186899781
          ],
          [
            "El Salvador",
            0.0019336830591782928
          ],
          [
            "Paraguay",
            0.0018980518216267228
          ],
          [
            "Papua New Guinea",
            0.0016829412197694182
          ],
          [
            "Equatorial Guinea",
            0.0014845671830698848
          ],
          [
            "Honduras",
            0.0014347181422635913
          ],
          [
            "Chile",
            0.0013407369842752814
          ],
          [
            "Eritrea",
            0.0012950997333973646
          ],
          [
            "Yemen",
            0.001257822965271771
          ],
          [
            "Comoros",
            0.0012084880145266652
          ],
          [
            "Hong Kong",
            0.0012058148859068751
          ],
          [
            "Guinea-Bissau",
            0.0011954822111874819
          ],
          [
            "United Arab Emirates",
            0.00115524313878268
          ],
          [
            "Fiji",
            0.0011272988049313426
          ],
          [
            "Israel",
            0.0011229959782212973
          ],
          [
            "Malawi",
            0.00108590058516711
          ],
          [
            "Guam",
            0.0010280550923198462
          ],
          [
            "Dominican Republic",
            0.0009634097805246711
          ],
          [
            "Sao Tome and Principe",
            0.0009280426311306655
          ],
          [
            "Central African Republic",
            0.0009152924176305532
          ],
          [
            "Czech Republic",
            0.000885144283529371
          ],
          [
            "Argentina",
            0.0007636113441549242
          ],
          [
            "Madeira Islands",
            0.0007485789828933775
          ],
          [
            "Thailand",
            0.000737513299100101
          ],
          [
            "Spain",
            0.0007255240925587714
          ],
          [
            "Armenia",
            0.0006346324807964265
          ],
          [
            "Bahamas",
            0.0006274242768995464
          ],
          [
            "Myanmar",
            0.0005772369331680238
          ],
          [
            "Trinidad and Tobago",
            0.0005676582222804427
          ],
          [
            "Vanuatu",
            0.0005372533341869712
          ],
          [
            "Heard and McDonald Islands",
            0.0005253396811895072
          ],
          [
            "Bahrain",
            0.0005076193483546376
          ],
          [
            "Tajikistan",
            0.0004911519936285913
          ],
          [
            "Somalia",
            0.00047994748456403613
          ],
          [
            "United States of America",
            0.00047773090773262084
          ],
          [
            "Mexico",
            0.00044331030221655965
          ],
          [
            "Ukraine",
            0.00044006266398355365
          ],
          [
            "Guadeloupe",
            0.0004385962674859911
          ],
          [
            "Estonia",
            0.00041519361548125744
          ],
          [
            "Benin",
            0.00040209261351265013
          ],
          [
            "Togo",
            0.0003984676441177726
          ],
          [
            "Mozambique",
            0.0003847288026008755
          ],
          [
            "Switzerland",
            0.0003830308560281992
          ],
          [
            "Burkina Faso",
            0.00038162636337801814
          ],
          [
            "Svalbard",
            0.0003545173676684499
          ],
          [
            "Martinique",
            0.0003211196162737906
          ],
          [
            "Namibia",
            0.0003169864066876471
          ],
          [
            "Cameroon",
            0.00031429113005287945
          ],
          [
            "Mali",
            0.00031341114663518965
          ],
          [
            "Costa Rica",
            0.0002860976674128324
          ],
          [
            "South Korea",
            0.00028359575662761927
          ],
          [
            "Bhutan",
            0.00028289019246585667
          ],
          [
            "Belize",
            0.00027507709455676377
          ],
          [
            "Saudi Arabia",
            0.00027303898241370916
          ],
          [
            "Niger",
            0.0002722495992202312
          ],
          [
            "Norway",
            0.0002577990817371756
          ],
          [
            "DR Congo",
            0.00024183318600989878
          ],
          [
            "Dominica",
            0.00024047215993050486
          ],
          [
            "Sweden",
            0.00023946748115122318
          ],
          [
            "Lithuania",
            0.00023526570294052362
          ],
          [
            "South Sudan",
            0.0002241083566332236
          ],
          [
            "Azerbaijan",
            0.00021494201791938394
          ],
          [
            "Serbia",
            0.00021241678041405976
          ],
          [
            "Barbados",
            0.00020963755378033966
          ],
          [
            "Tunisia",
            0.00019325906760059297
          ],
          [
            "Philippines",
            0.00018933539104182273
          ],
          [
            "Portugal",
            0.0001813915732782334
          ],
          [
            "United Kingdom",
            0.00017149816267192364
          ],
          [
            "Cape Verde",
            0.00016995822079479694
          ],
          [
            "Moldova",
            0.00016124655667226762
          ],
          [
            "West Bank",
            0.0001576507493155077
          ],
          [
            "Liberia",
            0.00015678202908020467
          ],
          [
            "Canada",
            0.00015354591596405953
          ],
          [
            "Laos",
            0.00014712894335389137
          ],
          [
            "Mauritania",
            0.00014536907838191837
          ],
          [
            "Guyana",
            0.00014428707072511315
          ],
          [
            "Guinea",
            0.00014244542398955673
          ],
          [
            "India",
            0.00014082294364925474
          ],
          [
            "Belgium",
            0.0001373840495944023
          ],
          [
            "Senegal",
            0.0001365848002023995
          ],
          [
            "Guatemala",
            0.00013561341620516032
          ],
          [
            "Brunei",
            0.00013557773490902036
          ],
          [
            "Iran",
            0.0001320766023127362
          ],
          [
            "Antigua & Barbuda",
            0.000129939682665281
          ],
          [
            "Oman",
            0.00012671532749664038
          ],
          [
            "Slovenia",
            0.00012558708840515465
          ],
          [
            "Bangladesh",
            0.0001251461508218199
          ],
          [
            "Mayotte",
            0.0001249725028173998
          ],
          [
            "Palau",
            0.00012394321674946696
          ],
          [
            "Rwanda",
            0.00012195487215649337
          ],
          [
            "China",
            0.00011737595195882022
          ],
          [
            "North Korea",
            0.00011284834909019992
          ],
          [
            "Iraq",
            0.00011204023030586541
          ],
          [
            "Kuwait",
            0.00011137907858937979
          ],
          [
            "Albania",
            0.00011109011393273249
          ],
          [
            "Zambia",
            0.00010734351963037625
          ],
          [
            "South Georgia Islands",
            0.00010525626566959545
          ],
          [
            "Egypt",
            0.00010130470036529005
          ],
          [
            "Qatar",
            9.708858124213293e-05
          ],
          [
            "Italy",
            9.592159767635167e-05
          ],
          [
            "Peru",
            9.183014481095597e-05
          ],
          [
            "Faroe Islands",
            8.76299527590163e-05
          ],
          [
            "Vietnam",
            8.738326869206503e-05
          ],
          [
            "United States Virgin Islands",
            8.68918068590574e-05
          ],
          [
            "Finland",
            8.630626689409837e-05
          ],
          [
            "Hungary",
            8.612981764599681e-05
          ],
          [
            "Iceland",
            8.526822784915566e-05
          ],
          [
            "Croatia",
            8.516989328199998e-05
          ],
          [
            "Pakistan",
            8.478009840473533e-05
          ],
          [
            "Montenegro",
            8.468151645502076e-05
          ],
          [
            "Australia",
            8.381188672501594e-05
          ],
          [
            "Isle of Man",
            8.236281428253278e-05
          ],
          [
            "Romania",
            8.004451228771359e-05
          ],
          [
            "Ethiopia",
            7.65806034905836e-05
          ],
          [
            "Greenland",
            7.611302135046571e-05
          ],
          [
            "Western Sahara",
            7.393015403067693e-05
          ],
          [
            "Lebanon",
            7.321951852645725e-05
          ],
          [
            "South Africa",
            7.155082130338997e-05
          ],
          [
            "Taiwan",
            7.154317427193746e-05
          ],
          [
            "Bosnia & Herzegovina",
            6.939110608072951e-05
          ],
          [
            "Congo",
            6.865099567221478e-05
          ],
          [
            "Algeria",
            6.721731188008562e-05
          ],
          [
            "Colombia",
            6.603159272344783e-05
          ],
          [
            "Angola",
            6.200858479132876e-05
          ],
          [
            "Venezuela",
            5.990187491988763e-05
          ],
          [
            "Syria",
            5.931590203545056e-05
          ],
          [
            "Saint Lucia",
            5.801716179121286e-05
          ],
          [
            "Suriname",
            5.626284109894186e-05
          ],
          [
            "Ghana",
            5.5576820159330964e-05
          ],
          [
            "Reunion",
            5.3463510994333774e-05
          ],
          [
            "Sri Lanka",
            5.157820851309225e-05
          ],
          [
            "Sierra Leone",
            4.8161164158955216e-05
          ],
          [
            "Uganda",
            4.6629389544250444e-05
          ],
          [
            "Jordan",
            4.6051081881159917e-05
          ],
          [
            "Libya",
            4.5203549234429374e-05
          ],
          [
            "Kenya",
            4.5192340621724725e-05
          ],
          [
            "Tanzania",
            4.3736468796851113e-05
          ],
          [
            "Nicaragua",
            4.370136230136268e-05
          ],
          [
            "Brazil",
            4.3618256313493475e-05
          ],
          [
            "Luxembourg",
            4.31692496931646e-05
          ],
          [
            "Botswana",
            4.254027589922771e-05
          ],
          [
            "Zimbabwe",
            4.014249498140998e-05
          ],
          [
            "Poland",
            3.910190935130231e-05
          ],
          [
            "Uruguay",
            3.7182220694376156e-05
          ],
          [
            "Morocco",
            3.5381599445827305e-05
          ],
          [
            "Belarus",
            3.522033875924535e-05
          ],
          [
            "Bolivia",
            3.354843647684902e-05
          ],
          [
            "Ireland",
            3.325372745166533e-05
          ],
          [
            "Burundi",
            3.273842594353482e-05
          ],
          [
            "Afghanistan",
            3.24705833918415e-05
          ],
          [
            "Eswatini",
            3.075877611991018e-05
          ],
          [
            "Bulgaria",
            3.0753730243304744e-05
          ],
          [
            "North Macedonia",
            2.8633281544898637e-05
          ],
          [
            "Djibouti",
            2.8462902264436707e-05
          ],
          [
            "French Guiana",
            2.7349075025995262e-05
          ],
          [
            "Madagascar",
            2.6859001081902534e-05
          ],
          [
            "Netherlands",
            2.6098858143086545e-05
          ],
          [
            "Gabon",
            2.40069639403373e-05
          ],
          [
            "Côte d'Ivoire",
            2.1716799892601557e-05
          ],
          [
            "Nigeria",
            2.1585190552286804e-05
          ],
          [
            "Kiribati",
            2.042308187810704e-05
          ],
          [
            "Lesotho",
            1.744584551488515e-05
          ],
          [
            "Greece",
            1.7244503396796063e-05
          ],
          [
            "France",
            1.6965077520580962e-05
          ],
          [
            "Sudan",
            1.3935860806668643e-05
          ],
          [
            "Cambodia",
            1.2109764611523133e-05
          ],
          [
            "Chad",
            8.89251987246098e-06
          ],
          [
            "Denmark",
            7.679441296204459e-06
          ],
          [
            "Germany",
            7.229691618704237e-06
          ],
          [
            "Haiti",
            6.589354597963393e-06
          ]
        ]
      },
      "geometry": {
        "type": "MultiLineString",
        "coordinates": [
          [
            [
              2.0,
              27.785123966942137
            ],
            [
              4.975206611570258,
              27.785123966942137
            ],
            [
              6.95867768595042,
              27.785123966942137
            ],
            [
              9.43801652892563,
              27.785123966942137
            ],
            [
              12.413223140495859,
              27.785123966942137
            ],
            [
              14.39669421487605,
              27.785123966942137
            ],
            [
              16.380165289256183,
              27.785123966942137
            ],
            [
              18.363636363636374,
              27.785123966942137
            ],
            [
              20.347107438016536,
              27.785123966942137
            ],
            [
              22.3305785123967,
              27.785123966942137
            ],
            [
              25.305785123966928,
              27.785123966942137
            ],
            [
              27.28925619834712,
              27.785123966942137
            ],
            [
              29.768595041322328,
              27.785123966942137
            ],
            [
              31.752066115702462,
              27.785123966942137
            ],
            [
              33.239669421487605,
              28.280991735537185
            ],
            [
              33.239669421487605,
              30.264462809917347
            ],
            [
              33.73553719008265,
              32.24793388429754
            ],
            [
              33.239669421487605,
              34.23140495867767
            ],
            [
              31.256198347107443,
              34.23140495867767
            ],
            [
              28.280991735537214,
              34.23140495867767
            ],
            [
              25.801652892562004,
              34.23140495867767
            ],
            [
              23.322314049586794,
              34.23140495867767
            ],
            [
              20.842975206611584,
              34.23140495867767
            ],
            [
              18.859504132231393,
              34.23140495867767
            ],
            [
              15.884297520661164,
              34.23140495867767
            ],
            [
              13.900826446280973,
              34.23140495867767
            ],
            [
              11.91735537190084,
              34.23140495867767
            ],
            [
              9.43801652892563,
              34.23140495867767
            ],
            [
              7.454545454545439,
              34.23140495867767
            ],
            [
              5.471074380165305,
              34.23140495867767
            ],
            [
              3.4876033057851146,
              34.23140495867767
            ],
            [
              2.4958677685950477,
              32.74380165289256
            ],
            [
              2.9917355371900953,
              31.256198347107443
            ],
            [
              3.4876033057851146,
              29.768595041322328
            ]
          ],
          [
            [
              35.22314049586777,
              33.239669421487605
            ],
            [
              37.20661157024793,
              34.23140495867767
            ],
            [
              39.19008264462809,
              34.72727272727275
            ],
            [
              40.677685950413206,
              36.21487603305786
            ],
            [
              42.6611570247934,
              36.21487603305786
            ],
            [
              44.64462809917356,
              36.21487603305786
            ],
            [
              46.62809917355372,
              36.21487603305786
            ],
            [
              48.115702479338836,
              35.22314049586777
            ],
            [
              49.10743801652893,
              33.73553719008265
            ],
            [
              50.09917355371903,
              32.24793388429754
            ],
            [
              52.08264462809916,
              31.752066115702462
            ],
            [
              54.06611570247935,
              31.752066115702462
            ],
            [
              55.553719008264466,
              31.256198347107443
            ],
            [
              57.53719008264463,
              31.256198347107443
            ],
            [
              59.02479338842977,
              31.752066115702462
            ],
            [
              60.512396694214885,
              32.74380165289256
            ],
            [
              62.0,
              34.23140495867767
            ]
          ]
        ]
      }
    }
  ]
}