{
  "type": "FeatureCollection",
  "crs": {
    "type": "name",
    "properties": {
      "name": "urn:ogc:def:crs:OGC:1.3:CRS84"
    }
  },
  "features": [
    {
      "type": "Feature",
      "properties": {
        "timestamp": "2026-07-20T08:42:43.201306",
        "country_name": "Germany",
        "author": "",
        "author_id": "824c4569-7267-4a13-9936-e308b9827b81",
        "validated": false,
        "ranking": [
          [
            "Germany",
            0.21190863847732544
          ],
          [
            "Eswatini",
            0.07614703476428986
          ],
          [
            "Romania",
            0.03947662189602852
          ],
          [
            "Côte d'Ivoire",
            0.03220931068062782
          ],
          [
            "Sierra Leone",
            0.027944568544626236
          ],
          [
            "France",
            0.025760173797607422
          ],
          [
            "Iraq",
            0.023816317319869995
          ],
          [
            "Burundi",
            0.022015297785401344
          ],
          [
            "Ethiopia",
            0.02197450026869774
          ],
          [
            "Kenya",
            0.01954581029713154
          ],
          [
            "Luxembourg",
            0.017397373914718628
          ],
          [
            "Suriname",
            0.016230400651693344
          ],
          [
            "Syria",
            0.01620982587337494
          ],
          [
            "Gabon",
            0.016017891466617584
          ],
          [
            "Algeria",
            0.014463838189840317
          ],
          [
            "Sudan",
            0.013922451995313168
          ],
          [
            "Guyana",
            0.013579565100371838
          ],
          [
            "Reunion",
            0.013413246721029282
          ],
          [
            "Sri Lanka",
            0.011911888606846333
          ],
          [
            "French Guiana",
            0.011722471565008163
          ],
          [
            "Montenegro",
            0.011175807565450668
          ],
          [
            "Barbados",
            0.01099784392863512
          ],
          [
            "India",
            0.01060551032423973
          ],
          [
            "Namibia",
            0.010383672080934048
          ],
          [
            "Guadeloupe",
            0.010063949972391129
          ],
          [
            "Bangladesh",
            0.009480806067585945
          ],
          [
            "Nigeria",
            0.009289400652050972
          ],
          [
            "Kuwait",
            0.008982018567621708
          ],
          [
            "Lesotho",
            0.008818292990326881
          ],
          [
            "Egypt",
            0.008756730705499649
          ],
          [
            "Djibouti",
            0.00871786754578352
          ],
          [
            "Cambodia",
            0.008694121614098549
          ],
          [
            "Saudi Arabia",
            0.008530907332897186
          ],
          [
            "Serbia",
            0.008098218590021133
          ],
          [
            "Peru",
            0.007805855944752693
          ],
          [
            "Chad",
            0.006829823367297649
          ],
          [
            "Angola",
            0.006801016628742218
          ],
          [
            "Poland",
            0.006205496843904257
          ],
          [
            "Uruguay",
            0.006016707979142666
          ],
          [
            "Belarus",
            0.005812282674014568
          ],
          [
            "Mauritania",
            0.005623999051749706
          ],
          [
            "North Macedonia",
            0.0055166203528642654
          ],
          [
            "Bolivia",
            0.005473240744322538
          ],
          [
            "Uganda",
            0.005260041449218988
          ],
          [
            "Lithuania",
            0.004901009611785412
          ],
          [
            "Iran",
            0.004555939231067896
          ],
          [
            "Greenland",
            0.004407891072332859
          ],
          [
            "Ghana",
            0.0043986947275698185
          ],
          [
            "Botswana",
            0.004245832562446594
          ],
          [
            "Spain",
            0.004074502736330032
          ],
          [
            "Nicaragua",
            0.0036375317722558975
          ],
          [
            "Qatar",
            0.0034604202955961227
          ],
          [
            "Australia",
            0.003392202081158757
          ],
          [
            "Ecuador",
            0.003110141260549426
          ],
          [
            "Senegal",
            0.003073678584769368
          ],
          [
            "Guatemala",
            0.0028759825509041548
          ],
          [
            "Rwanda",
            0.0028472947888076305
          ],
          [
            "United States of America",
            0.0027061968576163054
          ],
          [
            "Switzerland",
            0.0026068163570016623
          ],
          [
            "South Korea",
            0.0024577586445957422
          ],
          [
            "Tanzania",
            0.0024276382755488157
          ],
          [
            "Belize",
            0.002411030698567629
          ],
          [
            "Martinique",
            0.002407010179013014
          ],
          [
            "Czech Republic",
            0.0022659951355308294
          ],
          [
            "Italy",
            0.002230570651590824
          ],
          [
            "Bahamas",
            0.0021484927274286747
          ],
          [
            "Albania",
            0.0020154830999672413
          ],
          [
            "Finland",
            0.0020030010491609573
          ],
          [
            "Somalia",
            0.0019964638631790876
          ],
          [
            "Jordan",
            0.0019866065122187138
          ],
          [
            "Cape Verde",
            0.0019667751621454954
          ],
          [
            "Dominican Republic",
            0.0018325019627809525
          ],
          [
            "Bosnia & Herzegovina",
            0.0015940011944621801
          ],
          [
            "Zimbabwe",
            0.0015736587811261415
          ],
          [
            "Congo",
            0.0015598585596308112
          ],
          [
            "El Salvador",
            0.0014895634958520532
          ],
          [
            "Benin",
            0.0014368556439876556
          ],
          [
            "South Africa",
            0.0014341367641463876
          ],
          [
            "Malaysia",
            0.0013800167944282293
          ],
          [
            "Dominica",
            0.0013724727323278785
          ],
          [
            "Honduras",
            0.0013670435873791575
          ],
          [
            "Burkina Faso",
            0.001360779395326972
          ],
          [
            "Vietnam",
            0.0013299747370183468
          ],
          [
            "Armenia",
            0.0012776831863448024
          ],
          [
            "Mozambique",
            0.0012687898706644773
          ],
          [
            "South Georgia Islands",
            0.0012613076251000166
          ],
          [
            "Tajikistan",
            0.00120643712580204
          ],
          [
            "Libya",
            0.0011772835860028863
          ],
          [
            "Afghanistan",
            0.0011479321401566267
          ],
          [
            "Yemen",
            0.0011030230671167374
          ],
          [
            "DR Congo",
            0.0010964598041027784
          ],
          [
            "China",
            0.0010940907523036003
          ],
          [
            "South Sudan",
            0.0010882258648052812
          ],
          [
            "Turkmenistan",
            0.0010781972669064999
          ],
          [
            "Comoros",
            0.0010780267184600234
          ],
          [
            "Slovakia",
            0.0010479848133400083
          ],
          [
            "United States Virgin Islands",
            0.0010385409696027637
          ],
          [
            "Greece",
            0.0010134117910638452
          ],
          [
            "Liberia",
            0.0010109117720276117
          ],
          [
            "Bhutan",
            0.0009883211459964514
          ],
          [
            "Laos",
            0.0009675411856733263
          ],
          [
            "Denmark",
            0.0009661986259743571
          ],
          [
            "Azerbaijan",
            0.000963969505392015
          ],
          [
            "Guinea",
            0.0009556453442201018
          ],
          [
            "Svalbard",
            0.0009350546752102673
          ],
          [
            "Fiji",
            0.0009326056460849941
          ],
          [
            "Thailand",
            0.0009056639391928911
          ],
          [
            "Hong Kong",
            0.0008714703726582229
          ],
          [
            "Faroe Islands",
            0.0008559686248190701
          ],
          [
            "West Bank",
            0.0008248020894825459
          ],
          [
            "Croatia",
            0.0008126111933961511
          ],
          [
            "Vanuatu",
            0.0007945793331600726
          ],
          [
            "Mayotte",
            0.000775691878516227
          ],
          [
            "United Arab Emirates",
            0.0007711012731306255
          ],
          [
            "Hungary",
            0.0007543227984569967
          ],
          [
            "Uzbekistan",
            0.0007285741739906371
          ],
          [
            "Moldova",
            0.0007279935525730252
          ],
          [
            "Costa Rica",
            0.0007094280445016921
          ],
          [
            "Eritrea",
            0.0006849675555713475
          ],
          [
            "Saint Lucia",
            0.0006807891768403351
          ],
          [
            "Heard and McDonald Islands",
            0.0006714168121106923
          ],
          [
            "Ukraine",
            0.0006571431877091527
          ],
          [
            "Colombia",
            0.000652233196888119
          ],
          [
            "Turkey",
            0.000649430206976831
          ],
          [
            "Canada",
            0.0006477403803728521
          ],
          [
            "Zambia",
            0.0006464234902523458
          ],
          [
            "Mongolia",
            0.0006415630341507494
          ],
          [
            "Togo",
            0.0006245914264582098
          ],
          [
            "Ireland",
            0.0006018334534019232
          ],
          [
            "Slovenia",
            0.0005933442735113204
          ],
          [
            "Bahrain",
            0.0005905521684326231
          ],
          [
            "Belgium",
            0.000588098366279155
          ],
          [
            "Cyprus",
            0.0005759561900049448
          ],
          [
            "Bulgaria",
            0.000563369132578373
          ],
          [
            "Cuba",
            0.0005531864007934928
          ],
          [
            "Puerto Rico",
            0.0005411103484220803
          ],
          [
            "Cameroon",
            0.0005392989842221141
          ],
          [
            "Equatorial Guinea",
            0.0005388938589021564
          ],
          [
            "North Korea",
            0.0005122484290041029
          ],
          [
            "Argentina",
            0.0005047436570748687
          ],
          [
            "Sao Tome and Principe",
            0.0005037271184846759
          ],
          [
            "Netherlands",
            0.0004913661396130919
          ],
          [
            "Turks and Caicos Islands",
            0.00048789673019200563
          ],
          [
            "Portugal",
            0.00047904436360113323
          ],
          [
            "Falkland Islands",
            0.00046801872667856514
          ],
          [
            "Philippines",
            0.0004629209288395941
          ],
          [
            "Brazil",
            0.0004620247345883399
          ],
          [
            "Tunisia",
            0.00044589716708287597
          ],
          [
            "Venezuela",
            0.00044214879744686186
          ],
          [
            "Kyrgyzstan",
            0.0004246422031428665
          ],
          [
            "Antigua & Barbuda",
            0.00041403938666917384
          ],
          [
            "Russia",
            0.0004102206730749458
          ],
          [
            "Mali",
            0.00036520592402666807
          ],
          [
            "Papua New Guinea",
            0.00035164813743904233
          ],
          [
            "Latvia",
            0.000350008049281314
          ],
          [
            "Trinidad and Tobago",
            0.0003440320142544806
          ],
          [
            "Iceland",
            0.00033441855339333415
          ],
          [
            "Jamaica",
            0.0003313683264423162
          ],
          [
            "Georgia",
            0.0003301362448837608
          ],
          [
            "Estonia",
            0.00029288645600900054
          ],
          [
            "Guinea-Bissau",
            0.0002825944102369249
          ],
          [
            "Mexico",
            0.00028004459454678
          ],
          [
            "Malawi",
            0.0002789325953926891
          ],
          [
            "Samoa",
            0.0002732127031777054
          ],
          [
            "Nepal",
            0.0002679359749890864
          ],
          [
            "Indonesia",
            0.0002593192330095917
          ],
          [
            "Japan",
            0.0002517692919354886
          ],
          [
            "Paraguay",
            0.00024705746909603477
          ],
          [
            "Oman",
            0.00024268314882647246
          ],
          [
            "Netherlands Antilles",
            0.0002420235105091706
          ],
          [
            "Solomon Islands",
            0.000240197783568874
          ],
          [
            "Myanmar",
            0.00022053858265280724
          ],
          [
            "Brunei",
            0.00021428029867820442
          ],
          [
            "Guam",
            0.0002055998338619247
          ],
          [
            "New Caledonia",
            0.00020275039423722774
          ],
          [
            "Timor-Leste",
            0.00019411595712881535
          ],
          [
            "Isle of Man",
            0.0001882642536656931
          ],
          [
            "Western Sahara",
            0.0001866161182988435
          ],
          [
            "Kazakhstan",
            0.00016882499039638788
          ],
          [
            "United Kingdom",
            0.0001536436175229028
          ],
          [
            "Central African Republic",
            0.00015029330097604543
          ],
          [
            "Sweden",
            0.00014787490363232791
          ],
          [
            "Taiwan",
            0.00014528079191222787
          ],
          [
            "Lebanon",
            0.00013982261589262635
          ],
          [
            "Niger",
            0.0001369279489153996
          ],
          [
            "Panama",
            0.00013133915490470827
          ],
          [
            "New Zealand",
            0.00011940538388444111
          ],
          [
            "Chile",
            0.00011397458729334176
          ],
          [
            "Norway",
            0.0001125835842685774
          ],
          [
            "Kiribati",
            9.535510616842657e-05
          ],
          [
            "Pakistan",
            8.658895967528224e-05
          ],
          [
            "Madeira Islands",
            8.429049921687692e-05
          ],
          [
            "Israel",
            6.587302777916193e-05
          ],
          [
            "Gambia",
            6.433579255826771e-05
          ],
          [
            "Palau",
            4.659636033466086e-05
          ],
          [
            "Madagascar",
            4.548302240436897e-05
          ],
          [
            "Morocco",
            3.448727875365876e-05
          ],
          [
            "Haiti",
            2.484390279278159e-05
          ],
          [
            "Austria",
            2.445178324705921e-05
          ]
        ]
      },
      "geometry": {
        "type": "MultiLineString",
        "coordinates": [
          [
            [
              22.94182825484765,
              57.84487534626041
            ],
            [
              22.94182825484765,
              57.18005540166206
            ],
            [
              22.94182825484765,
              56.34903047091413
            ],
            [
              23.27423822714681,
              55.68421052631581
            ],
            [
              23.44044321329639,
              55.18559556786704
            ],
            [
              23.44044321329639,
              54.35457063711911
            ],
            [
              23.44044321329639,
              53.68975069252079
            ],
            [
              23.44044321329639,
              52.69252077562328
            ],
            [
              22.77562326869804,
              52.02770083102493
            ],
            [
              22.2770083102493,
              51.52908587257619
            ],
            [
              21.61218836565098,
              51.03047091412742
            ],
            [
              20.94736842105263,
              50.69806094182826
            ],
            [
              20.28254847645428,
              50.69806094182826
            ],
            [
              19.45152354570638,
              50.69806094182826
            ],
            [
              18.78670360110803,
              50.86426592797784
            ],
            [
              18.28808864265926,
              51.36288088642661
            ],
            [
              18.12188365650968,
              51.86149584487535
            ],
            [
              17.78947368421052,
              52.5263157894737
            ],
            [
              17.45706371191136,
              53.02493074792244
            ],
            [
              16.95844875346259,
              53.52354570637121
            ],
            [
              16.45983379501385,
              53.68975069252079
            ],
            [
              15.7950138504155,
              54.02216066481995
            ],
            [
              14.46537396121883,
              54.02216066481995
            ],
            [
              13.800554016620481,
              53.68975069252079
            ],
            [
              13.46814404432132,
              53.02493074792244
            ],
            [
              13.46814404432132,
              52.02770083102493
            ],
            [
              13.46814404432132,
              51.36288088642661
            ],
            [
              14.13296398891967,
              51.03047091412742
            ],
            [
              14.79778393351799,
              50.69806094182826
            ],
            [
              15.13019390581718,
              50.19944598337952
            ],
            [
              15.13019390581718,
              49.36842105263159
            ],
            [
              15.13019390581718,
              48.2049861495845
            ],
            [
              14.63157894736841,
              47.04155124653741
            ],
            [
              14.13296398891967,
              46.54293628808864
            ],
            [
              14.13296398891967,
              45.87811634349032
            ],
            [
              14.13296398891967,
              44.88088642659281
            ],
            [
              14.29916897506925,
              44.38227146814404
            ],
            [
              14.13296398891967,
              43.71745152354572
            ],
            [
              13.46814404432132,
              43.38504155124656
            ],
            [
              12.803324099723,
              43.05263157894737
            ],
            [
              11.4736842105263,
              42.55401662049863
            ],
            [
              10.80886426592798,
              42.22160664819944
            ],
            [
              10.31024930747921,
              42.05540166204986
            ],
            [
              10.14404432132963,
              41.39058171745154
            ],
            [
              10.14404432132963,
              40.72576177285319
            ],
            [
              10.14404432132963,
              40.06094182825487
            ],
            [
              10.14404432132963,
              39.39612188365652
            ],
            [
              9.64542936288089,
              37.90027700831027
            ],
            [
              8.81440443213296,
              36.90304709141276
            ],
            [
              8.14958448753461,
              35.90581717451525
            ],
            [
              7.48476454293629,
              35.2409972299169
            ],
            [
              7.31855955678671,
              34.74238227146816
            ],
            [
              7.31855955678671,
              33.91135734072023
            ],
            [
              7.31855955678671,
              33.24653739612188
            ],
            [
              7.65096952908587,
              32.74792243767314
            ],
            [
              8.14958448753461,
              31.91689750692521
            ],
            [
              8.64819944598338,
              30.9196675900277
            ],
            [
              9.313019390581701,
              29.92243767313022
            ],
            [
              9.47922437673131,
              29.42382271468145
            ],
            [
              9.81163434903047,
              28.92520775623268
            ],
            [
              9.81163434903047,
              28.26038781163436
            ],
            [
              9.64542936288089,
              27.76177285318562
            ],
            [
              9.47922437673131,
              27.26315789473685
            ],
            [
              9.47922437673131,
              26.26592797783934
            ],
            [
              9.47922437673131,
              25.43490304709144
            ],
            [
              9.47922437673131,
              24.77008310249309
            ],
            [
              9.47922437673131,
              24.10526315789474
            ],
            [
              9.47922437673131,
              22.77562326869807
            ],
            [
              9.97783933518005,
              22.11080332409972
            ],
            [
              10.14404432132963,
              21.61218836565098
            ],
            [
              10.6426592797784,
              21.27977839335182
            ],
            [
              10.80886426592798,
              20.78116343490305
            ],
            [
              11.30747922437672,
              20.11634349030473
            ],
            [
              11.80609418282549,
              19.78393351800554
            ],
            [
              12.30470914127423,
              19.61772853185596
            ],
            [
              13.13573407202216,
              19.2853185595568
            ],
            [
              13.800554016620481,
              18.95290858725764
            ],
            [
              14.63157894736841,
              18.78670360110806
            ],
            [
              15.46260387811634,
              18.78670360110806
            ],
            [
              15.961218836565081,
              18.62049861495845
            ],
            [
              16.62603878116343,
              18.28808864265929
            ],
            [
              17.45706371191136,
              17.95567867036013
            ],
            [
              18.12188365650968,
              17.62326869806094
            ],
            [
              18.62049861495845,
              17.45706371191136
            ],
            [
              19.45152354570638,
              17.1246537396122
            ],
            [
              20.44875346260386,
              16.62603878116346
            ],
            [
              21.11357340720221,
              16.12742382271469
            ],
            [
              21.77839335180056,
              15.62880886426592
            ],
            [
              22.2770083102493,
              15.29639889196676
            ],
            [
              22.60941828254846,
              14.79778393351802
            ],
            [
              22.2770083102493,
              14.299168975069279
            ],
            [
              21.94459833795014,
              13.80055401662051
            ],
            [
              21.44598337950137,
              13.13573407202216
            ],
            [
              20.94736842105263,
              12.304709141274259
            ],
            [
              20.44875346260386,
              11.47368421052633
            ],
            [
              19.78393351800554,
              10.80886426592798
            ],
            [
              19.45152354570638,
              10.31024930747924
            ],
            [
              18.95290858725761,
              10.144044321329659
            ],
            [
              18.78670360110803,
              9.64542936288089
            ],
            [
              18.28808864265926,
              9.47922437673131
            ],
            [
              18.12188365650968,
              8.81440443213296
            ],
            [
              17.9556786703601,
              8.31578947368422
            ],
            [
              17.45706371191136,
              7.983379501385059
            ],
            [
              16.95844875346259,
              7.48476454293629
            ],
            [
              16.29362880886427,
              7.152354570637129
            ],
            [
              15.46260387811634,
              6.48753462603878
            ],
            [
              15.13019390581718,
              5.988919667590039
            ],
            [
              14.79778393351799,
              5.490304709141299
            ],
            [
              14.29916897506925,
              4.9916897506925295
            ],
            [
              14.63157894736841,
              4.1606648199446
            ],
            [
              15.29639889196676,
              3.662049861495859
            ],
            [
              16.45983379501385,
              2.8310249307479296
            ],
            [
              17.1246537396122,
              2.498614958448769
            ],
            [
              18.12188365650968,
              2.1662049861495802
            ],
            [
              18.78670360110803,
              2.0
            ],
            [
              19.45152354570638,
              2.0
            ],
            [
              20.1163434903047,
              2.0
            ],
            [
              20.94736842105263,
              2.0
            ],
            [
              21.44598337950137,
              2.1662049861495802
            ],
            [
              21.94459833795014,
              2.332409972299189
            ],
            [
              22.94182825484765,
              2.498614958448769
            ],
            [
              23.77285318559558,
              2.6648199445983494
            ],
            [
              24.60387811634348,
              2.6648199445983494
            ],
            [
              26.09972299168976,
              2.8310249307479296
            ],
            [
              26.76454293628808,
              2.8310249307479296
            ],
            [
              27.42936288088643,
              2.8310249307479296
            ],
            [
              28.42659279778394,
              2.8310249307479296
            ],
            [
              29.42382271468142,
              2.8310249307479296
            ],
            [
              30.42105263157896,
              2.8310249307479296
            ],
            [
              31.08587257617728,
              2.8310249307479296
            ],
            [
              31.91689750692521,
              2.8310249307479296
            ],
            [
              34.57617728531855,
              2.6648199445983494
            ],
            [
              36.40443213296399,
              2.6648199445983494
            ],
            [
              37.4016620498615,
              2.6648199445983494
            ],
            [
              37.4016620498615,
              3.3296398891966987
            ],
            [
              38.39889196675898,
              3.495844875346279
            ],
            [
              39.39612188365652,
              3.495844875346279
            ],
            [
              40.06094182825484,
              3.495844875346279
            ],
            [
              41.39058171745151,
              2.99722991689751
            ],
            [
              42.22160664819944,
              2.8310249307479296
            ],
            [
              43.38504155124653,
              2.332409972299189
            ],
            [
              44.7146814404432,
              2.1662049861495802
            ],
            [
              46.0443213296399,
              2.1662049861495802
            ],
            [
              46.70914127423822,
              2.1662049861495802
            ],
            [
              48.37119113573408,
              2.1662049861495802
            ],
            [
              50.19944598337949,
              2.1662049861495802
            ],
            [
              52.02770083102493,
              2.1662049861495802
            ],
            [
              52.69252077562328,
              2.1662049861495802
            ],
            [
              53.3573407202216,
              2.1662049861495802
            ],
            [
              53.3573407202216,
              2.8310249307479296
            ],
            [
              53.3573407202216,
              3.495844875346279
            ],
            [
              53.3573407202216,
              4.1606648199446
            ],
            [
              53.3573407202216,
              5.15789473684211
            ],
            [
              53.3573407202216,
              5.988919667590039
            ],
            [
              53.3573407202216,
              6.819944598337969
            ],
            [
              53.3573407202216,
              7.48476454293629
            ],
            [
              52.69252077562328,
              8.4819944598338
            ],
            [
              52.19390581717451,
              9.31301939058173
            ],
            [
              51.86149584487535,
              10.144044321329659
            ],
            [
              51.36288088642658,
              10.6426592797784
            ],
            [
              51.03047091412742,
              11.307479224376749
            ],
            [
              51.03047091412742,
              12.470914127423839
            ],
            [
              50.86426592797784,
              13.13573407202216
            ],
            [
              50.69806094182826,
              13.96675900277009
            ],
            [
              50.36565096952907,
              14.631578947368439
            ],
            [
              50.19944598337949,
              15.29639889196676
            ],
            [
              49.86703601108033,
              15.795013850415529
            ],
            [
              49.53462603878114,
              16.45983379501385
            ],
            [
              48.70360110803324,
              17.45706371191136
            ],
            [
              48.2049861495845,
              17.95567867036013
            ],
            [
              47.70637119113573,
              18.62049861495845
            ],
            [
              47.04155124653738,
              19.11911357340722
            ],
            [
              46.21052631578948,
              19.95013850415512
            ],
            [
              45.37950138504155,
              20.61495844875347
            ],
            [
              44.7146814404432,
              20.94736842105266
            ],
            [
              44.21606648199446,
              21.4459833795014
            ],
            [
              44.04986149584488,
              21.94459833795014
            ],
            [
              43.71745152354572,
              22.44321329639891
            ],
            [
              43.55124653739611,
              23.10803324099723
            ],
            [
              43.55124653739611,
              23.77285318559558
            ],
            [
              43.55124653739611,
              24.60387811634351
            ],
            [
              43.55124653739611,
              25.60110803324102
            ],
            [
              43.55124653739611,
              26.76454293628811
            ],
            [
              43.38504155124653,
              27.26315789473685
            ],
            [
              42.72022160664818,
              27.9279778393352
            ],
            [
              42.22160664819944,
              28.26038781163436
            ],
            [
              41.7229916897507,
              28.59279778393352
            ],
            [
              41.05817174515235,
              29.42382271468145
            ],
            [
              40.72576177285319,
              30.0886426592798
            ],
            [
              40.55955678670358,
              30.58725761772854
            ],
            [
              40.393351800554,
              31.08587257617728
            ],
            [
              40.22714681440442,
              31.58448753462605
            ],
            [
              40.55955678670358,
              32.2493074792244
            ],
            [
              41.7229916897507,
              32.58171745152356
            ],
            [
              42.88642659279779,
              32.74792243767314
            ],
            [
              44.38227146814404,
              32.91412742382272
            ],
            [
              45.37950138504155,
              33.0803324099723
            ],
            [
              46.0443213296399,
              32.91412742382272
            ],
            [
              46.54293628808864,
              32.74792243767314
            ],
            [
              47.04155124653738,
              32.58171745152356
            ],
            [
              47.70637119113573,
              32.41551246537398
            ],
            [
              48.37119113573408,
              32.08310249307482
            ],
            [
              49.0360110803324,
              32.08310249307482
            ],
            [
              49.53462603878114,
              31.91689750692521
            ],
            [
              50.53185595567868,
              31.91689750692521
            ],
            [
              51.36288088642658,
              32.08310249307482
            ],
            [
              52.02770083102493,
              32.08310249307482
            ],
            [
              52.19390581717451,
              32.58171745152356
            ],
            [
              52.69252077562328,
              33.24653739612188
            ],
            [
              53.3573407202216,
              34.07756232686981
            ],
            [
              53.85595567867034,
              34.90858725761774
            ],
            [
              54.02216066481995,
              35.40720221606648
            ],
            [
              54.02216066481995,
              36.07202216066483
            ],
            [
              54.18836565096953,
              36.90304709141276
            ],
            [
              54.18836565096953,
              37.73407202216066
            ],
            [
              54.18836565096953,
              38.39889196675901
            ],
            [
              54.18836565096953,
              39.22991689750694
            ],
            [
              54.18836565096953,
              39.89473684210526
            ],
            [
              54.18836565096953,
              40.55955678670361
            ],
            [
              54.35457063711911,
              41.22437673130196
            ],
            [
              54.68698060941827,
              42.05540166204986
            ],
            [
              55.35180055401662,
              43.38504155124656
            ],
            [
              55.85041551246536,
              45.21329639889197
            ],
            [
              55.85041551246536,
              46.0443213296399
            ],
            [
              56.01662049861494,
              46.54293628808864
            ],
            [
              56.01662049861494,
              47.37396121883657
            ],
            [
              56.01662049861494,
              48.03878116343492
            ],
            [
              55.85041551246536,
              49.20221606648201
            ],
            [
              55.5180055401662,
              49.86703601108033
            ],
            [
              55.35180055401662,
              50.53185595567868
            ],
            [
              55.35180055401662,
              51.36288088642661
            ],
            [
              55.35180055401662,
              52.02770083102493
            ],
            [
              55.35180055401662,
              52.69252077562328
            ],
            [
              55.35180055401662,
              53.68975069252079
            ],
            [
              55.68421052631578,
              54.6869806094183
            ],
            [
              55.85041551246536,
              55.68421052631581
            ],
            [
              55.85041551246536,
              56.34903047091413
            ],
            [
              56.01662049861494,
              57.34626038781164
            ],
            [
              56.01662049861494,
              58.01108033240999
            ],
            [
              55.35180055401662,
              58.01108033240999
            ],
            [
              54.68698060941827,
              58.01108033240999
            ],
            [
              53.85595567867034,
              57.84487534626041
            ],
            [
              52.69252077562328,
              57.34626038781164
            ],
            [
              51.196675900277,
              57.18005540166206
            ],
            [
              50.36565096952907,
              56.8476454293629
            ],
            [
              49.86703601108033,
              56.68144044321332
            ],
            [
              49.0360110803324,
              56.01662049861497
            ],
            [
              48.03878116343489,
              55.68421052631581
            ],
            [
              46.54293628808864,
              55.35180055401662
            ],
            [
              45.21329639889197,
              54.85318559556788
            ],
            [
              44.04986149584488,
              54.6869806094183
            ],
            [
              43.38504155124653,
              54.6869806094183
            ],
            [
              42.05540166204986,
              54.18836565096953
            ],
            [
              40.89196675900277,
              54.02216066481995
            ],
            [
              40.22714681440442,
              53.68975069252079
            ],
            [
              39.72853185595568,
              53.52354570637121
            ],
            [
              38.73130193905817,
              53.52354570637121
            ],
            [
              38.06648199445982,
              53.52354570637121
            ],
            [
              36.90304709141273,
              53.52354570637121
            ],
            [
              35.57340720221606,
              53.52354570637121
            ],
            [
              34.74238227146813,
              53.52354570637121
            ],
            [
              34.07756232686981,
              54.02216066481995
            ],
            [
              33.41274238227146,
              54.02216066481995
            ],
            [
              32.91412742382272,
              54.35457063711911
            ],
            [
              32.74792243767314,
              55.01939058171746
            ],
            [
              32.74792243767314,
              55.85041551246539
            ],
            [
              32.74792243767314,
              56.68144044321332
            ],
            [
              32.91412742382272,
              57.34626038781164
            ],
            [
              32.91412742382272,
              58.34349030470915
            ],
            [
              32.91412742382272,
              59.0083102493075
            ],
            [
              32.91412742382272,
              59.8393351800554
            ],
            [
              32.91412742382272,
              60.50415512465375
            ],
            [
              32.74792243767314,
              61.00277008310249
            ],
            [
              31.75069252077563,
              61.50138504155126
            ],
            [
              31.08587257617728,
              61.66759002770084
            ],
            [
              30.58725761772854,
              61.83379501385042
            ],
            [
              30.08864265927977,
              62.0
            ],
            [
              28.7590027700831,
              62.0
            ],
            [
              25.43490304709141,
              61.66759002770084
            ],
            [
              23.60664819944597,
              61.33518005540168
            ],
            [
              22.94182825484765,
              61.33518005540168
            ],
            [
              22.77562326869804,
              60.83656509695291
            ],
            [
              23.10803324099723,
              60.00554016620501
            ],
            [
              23.60664819944597,
              59.34072022160666
            ],
            [
              24.10526315789474,
              58.84210526315789
            ],
            [
              24.4376731301939,
              58.01108033240999
            ],
            [
              24.60387811634348,
              57.51246537396122
            ],
            [
              24.77008310249306,
              56.51523545706371
            ],
            [
              25.10249307479225,
              55.01939058171746
            ]
          ],
          [
            [
              53.3573407202216,
              60.67036011080333
            ],
            [
              52.69252077562328,
              60.83656509695291
            ],
            [
              52.02770083102493,
              60.33795013850417
            ],
            [
              52.02770083102493,
              59.34072022160666
            ],
            [
              52.02770083102493,
              58.67590027700831
            ],
            [
              52.02770083102493,
              58.01108033240999
            ],
            [
              52.85872576177286,
              58.01108033240999
            ],
            [
              53.3573407202216,
              58.50969529085873
            ],
            [
              54.52077562326869,
              59.34072022160666
            ],
            [
              55.35180055401662,
              60.00554016620501
            ],
            [
              56.18282548476452,
              60.67036011080333
            ],
            [
              56.68144044321329,
              61.33518005540168
            ],
            [
              56.18282548476452,
              61.66759002770084
            ],
            [
              55.68421052631578,
              61.83379501385042
            ],
            [
              55.01939058171746,
              61.33518005540168
            ]
          ]
        ]
      }
    }
  ]
}