{
  "type": "FeatureCollection",
  "crs": {
    "type": "name",
    "properties": {
      "name": "urn:ogc:def:crs:OGC:1.3:CRS84"
    }
  },
  "features": [
    {
      "type": "Feature",
      "properties": {
        "timestamp": "2026-05-22T19:59:32.711910",
        "country_name": "Germany",
        "author": "Eymen",
        "author_id": "1049879f-f8b2-41fc-a84d-9c1f3a63005f",
        "validated": false,
        "ranking": [
          [
            "Qatar",
            0.16830728948116302
          ],
          [
            "Benin",
            0.06117122247815132
          ],
          [
            "Chad",
            0.0522238127887249
          ],
          [
            "Greenland",
            0.044125959277153015
          ],
          [
            "Saint Lucia",
            0.04246191307902336
          ],
          [
            "Taiwan",
            0.040672529488801956
          ],
          [
            "Belize",
            0.039204541593790054
          ],
          [
            "South Korea",
            0.032760992646217346
          ],
          [
            "Myanmar",
            0.03109549731016159
          ],
          [
            "Tunisia",
            0.023725343868136406
          ],
          [
            "Portugal",
            0.023562544956803322
          ],
          [
            "Mozambique",
            0.019094709306955338
          ],
          [
            "Guyana",
            0.018339399248361588
          ],
          [
            "West Bank",
            0.018157988786697388
          ],
          [
            "North Korea",
            0.013599017634987831
          ],
          [
            "Sri Lanka",
            0.01315361075103283
          ],
          [
            "Germany",
            0.012793528847396374
          ],
          [
            "Somalia",
            0.012264056131243706
          ],
          [
            "Namibia",
            0.009197651408612728
          ],
          [
            "Spain",
            0.008978575468063354
          ],
          [
            "Bangladesh",
            0.008809920400381088
          ],
          [
            "Albania",
            0.008024599403142929
          ],
          [
            "Burundi",
            0.007754127960652113
          ],
          [
            "Sweden",
            0.007541491184383631
          ],
          [
            "Mayotte",
            0.007345746271312237
          ],
          [
            "Argentina",
            0.00729442248120904
          ],
          [
            "Ireland",
            0.007227035239338875
          ],
          [
            "Madagascar",
            0.006994722876697779
          ],
          [
            "Malawi",
            0.0061627039685845375
          ],
          [
            "Finland",
            0.006145425606518984
          ],
          [
            "Congo",
            0.006040072534233332
          ],
          [
            "Togo",
            0.005638520698994398
          ],
          [
            "Burkina Faso",
            0.005633124615997076
          ],
          [
            "Serbia",
            0.005414916202425957
          ],
          [
            "Thailand",
            0.00525944959372282
          ],
          [
            "Mauritania",
            0.005223808344453573
          ],
          [
            "Western Sahara",
            0.005210474133491516
          ],
          [
            "Switzerland",
            0.005117946304380894
          ],
          [
            "Trinidad and Tobago",
            0.00498018367215991
          ],
          [
            "French Guiana",
            0.004552334081381559
          ],
          [
            "Guadeloupe",
            0.004494066350162029
          ],
          [
            "Colombia",
            0.0043794820085167885
          ],
          [
            "Afghanistan",
            0.004309520591050386
          ],
          [
            "Ghana",
            0.0040910509414970875
          ],
          [
            "Rwanda",
            0.003973639570176601
          ],
          [
            "Luxembourg",
            0.003952466882765293
          ],
          [
            "Hong Kong",
            0.0038890971336513758
          ],
          [
            "Belarus",
            0.003790776478126645
          ],
          [
            "Faroe Islands",
            0.0037145435344427824
          ],
          [
            "France",
            0.0037094668950885534
          ],
          [
            "Lebanon",
            0.003593364031985402
          ],
          [
            "India",
            0.0035294387489557266
          ],
          [
            "Fiji",
            0.0034782274160534143
          ],
          [
            "Romania",
            0.0034202877432107925
          ],
          [
            "Angola",
            0.003397939261049032
          ],
          [
            "Canada",
            0.0032581386622041464
          ],
          [
            "Peru",
            0.003173014149069786
          ],
          [
            "Croatia",
            0.0030423980206251144
          ],
          [
            "Saudi Arabia",
            0.0029529130551964045
          ],
          [
            "Djibouti",
            0.0029230061918497086
          ],
          [
            "Oman",
            0.0029212171211838722
          ],
          [
            "Vietnam",
            0.002850011456757784
          ],
          [
            "Slovakia",
            0.0028344367165118456
          ],
          [
            "Eswatini",
            0.002642721636220813
          ],
          [
            "Netherlands",
            0.002552079502493143
          ],
          [
            "Antigua & Barbuda",
            0.0025396437849849463
          ],
          [
            "Philippines",
            0.002471914514899254
          ],
          [
            "Honduras",
            0.002439921023324132
          ],
          [
            "Cameroon",
            0.002415057737380266
          ],
          [
            "Guatemala",
            0.002359819831326604
          ],
          [
            "Guam",
            0.0023529164027422667
          ],
          [
            "Svalbard",
            0.002277434105053544
          ],
          [
            "Bahrain",
            0.0022028309758752584
          ],
          [
            "Montenegro",
            0.002173383254557848
          ],
          [
            "Turkmenistan",
            0.0021188659593462944
          ],
          [
            "Syria",
            0.001914272434078157
          ],
          [
            "Brunei",
            0.0018438157858327031
          ],
          [
            "Jordan",
            0.0016730085480958223
          ],
          [
            "United Kingdom",
            0.0016646721633151174
          ],
          [
            "Vanuatu",
            0.0016263860743492842
          ],
          [
            "Yemen",
            0.001590775791555643
          ],
          [
            "Algeria",
            0.0015776257496327162
          ],
          [
            "Iraq",
            0.001572836539708078
          ],
          [
            "Gabon",
            0.0015320592792704701
          ],
          [
            "Dominica",
            0.0015267734415829182
          ],
          [
            "Ecuador",
            0.0014612403465434909
          ],
          [
            "Kyrgyzstan",
            0.0014540451811626554
          ],
          [
            "Ethiopia",
            0.0014411428710445762
          ],
          [
            "Central African Republic",
            0.0013889370020478964
          ],
          [
            "New Zealand",
            0.001330756233073771
          ],
          [
            "Lithuania",
            0.0013304009335115552
          ],
          [
            "Isle of Man",
            0.001304783159866929
          ],
          [
            "Norway",
            0.0012844784650951624
          ],
          [
            "Moldova",
            0.0012343169655650854
          ],
          [
            "Mali",
            0.0011797089828178287
          ],
          [
            "Martinique",
            0.0011726580560207367
          ],
          [
            "Senegal",
            0.0011721928603947163
          ],
          [
            "Czech Republic",
            0.00114065979141742
          ],
          [
            "Estonia",
            0.0011360135395079851
          ],
          [
            "South Africa",
            0.0011233976110816002
          ],
          [
            "Falkland Islands",
            0.0011110552586615086
          ],
          [
            "Bolivia",
            0.0010903992224484682
          ],
          [
            "Bhutan",
            0.001085032126866281
          ],
          [
            "Mongolia",
            0.0010609491728246212
          ],
          [
            "Papua New Guinea",
            0.0010431488044559956
          ],
          [
            "South Sudan",
            0.001030445215292275
          ],
          [
            "Heard and McDonald Islands",
            0.0010289584752172232
          ],
          [
            "Iran",
            0.0010054735466837883
          ],
          [
            "Kazakhstan",
            0.0009883175371214747
          ],
          [
            "Palau",
            0.0009587637614458799
          ],
          [
            "Lesotho",
            0.0009503269102424383
          ],
          [
            "Slovenia",
            0.0007999289082363248
          ],
          [
            "Japan",
            0.0006769048632122576
          ],
          [
            "Reunion",
            0.0006669877329841256
          ],
          [
            "Kuwait",
            0.0006606784882023931
          ],
          [
            "Israel",
            0.0006444906466640532
          ],
          [
            "Turkey",
            0.0006399303092621267
          ],
          [
            "Russia",
            0.0006378538091666996
          ],
          [
            "Bahamas",
            0.0006275014602579176
          ],
          [
            "Belgium",
            0.0005879335221834481
          ],
          [
            "Ukraine",
            0.0005869273445568979
          ],
          [
            "United States Virgin Islands",
            0.0005845989799126983
          ],
          [
            "Zimbabwe",
            0.0005725421942770481
          ],
          [
            "Timor-Leste",
            0.0005602476885542274
          ],
          [
            "Nicaragua",
            0.0005591651424765587
          ],
          [
            "Uganda",
            0.0005589923821389675
          ],
          [
            "El Salvador",
            0.0005572582595050335
          ],
          [
            "Armenia",
            0.000554524885956198
          ],
          [
            "Uruguay",
            0.0005453117191791534
          ],
          [
            "Botswana",
            0.00054365728283301
          ],
          [
            "Cyprus",
            0.0005388619611039758
          ],
          [
            "Tajikistan",
            0.0005356718902476132
          ],
          [
            "Dominican Republic",
            0.0005352460430003703
          ],
          [
            "North Macedonia",
            0.0005346491234377027
          ],
          [
            "Australia",
            0.0005280888290144503
          ],
          [
            "Hungary",
            0.0005243310588411987
          ],
          [
            "Cambodia",
            0.0004977654316462576
          ],
          [
            "Puerto Rico",
            0.0004890762502327561
          ],
          [
            "South Georgia Islands",
            0.00047832034761086106
          ],
          [
            "Latvia",
            0.0004755031841341406
          ],
          [
            "Indonesia",
            0.00046722404658794403
          ],
          [
            "Malaysia",
            0.0004657452809624374
          ],
          [
            "Costa Rica",
            0.0004481925570871681
          ],
          [
            "Liberia",
            0.0004312511591706425
          ],
          [
            "Jamaica",
            0.0004310217627789825
          ],
          [
            "Barbados",
            0.00041817434248514473
          ],
          [
            "Kenya",
            0.0004122577083762735
          ],
          [
            "Azerbaijan",
            0.00041139364475384355
          ],
          [
            "Sao Tome and Principe",
            0.0004109740548301488
          ],
          [
            "Cape Verde",
            0.0003986794035881758
          ],
          [
            "Georgia",
            0.00039399927482008934
          ],
          [
            "Italy",
            0.000392785994336009
          ],
          [
            "Egypt",
            0.0003816354728769511
          ],
          [
            "United Arab Emirates",
            0.0003733940829988569
          ],
          [
            "Zambia",
            0.000368776498362422
          ],
          [
            "Chile",
            0.00036528464988805354
          ],
          [
            "Laos",
            0.0003558821917977184
          ],
          [
            "Guinea-Bissau",
            0.00035466853296384215
          ],
          [
            "Paraguay",
            0.000353531155269593
          ],
          [
            "Suriname",
            0.00033852519118227065
          ],
          [
            "Nigeria",
            0.0003223232342861593
          ],
          [
            "Cuba",
            0.0003170441777911037
          ],
          [
            "Uzbekistan",
            0.0003083306655753404
          ],
          [
            "Niger",
            0.0002941332058981061
          ],
          [
            "Morocco",
            0.0002912975614890456
          ],
          [
            "DR Congo",
            0.0002878675877582282
          ],
          [
            "Greece",
            0.00027184252394363284
          ],
          [
            "China",
            0.0002570799842942506
          ],
          [
            "United States of America",
            0.0002566747716628015
          ],
          [
            "New Caledonia",
            0.0002493905776645988
          ],
          [
            "Bosnia & Herzegovina",
            0.00024791230680420995
          ],
          [
            "Libya",
            0.00023638502170797437
          ],
          [
            "Guinea",
            0.00022726379393134266
          ],
          [
            "Venezuela",
            0.00022713682847097516
          ],
          [
            "Mexico",
            0.00020473619224503636
          ],
          [
            "Sierra Leone",
            0.00019839851302094758
          ],
          [
            "Panama",
            0.00019008568779099733
          ],
          [
            "Solomon Islands",
            0.00018831958004739136
          ],
          [
            "Sudan",
            0.00018629818805493414
          ],
          [
            "Iceland",
            0.00017894436314236373
          ],
          [
            "Côte d'Ivoire",
            0.00017748679965734482
          ],
          [
            "Pakistan",
            0.00017413888417650014
          ],
          [
            "Comoros",
            0.00017368046974297613
          ],
          [
            "Brazil",
            0.00015884343883953989
          ],
          [
            "Denmark",
            0.00015131584950722754
          ],
          [
            "Netherlands Antilles",
            0.00011103048018412665
          ],
          [
            "Equatorial Guinea",
            0.00010971663141390309
          ],
          [
            "Poland",
            0.00010353088146075606
          ],
          [
            "Samoa",
            9.504986519459635e-05
          ],
          [
            "Tanzania",
            8.742519275983796e-05
          ],
          [
            "Turks and Caicos Islands",
            8.714284194866195e-05
          ],
          [
            "Gambia",
            7.693556108279154e-05
          ],
          [
            "Eritrea",
            6.88317377353087e-05
          ],
          [
            "Bulgaria",
            6.853344530100003e-05
          ],
          [
            "Madeira Islands",
            6.790303450543433e-05
          ],
          [
            "Nepal",
            5.444249472930096e-05
          ],
          [
            "Austria",
            4.9800357373896986e-05
          ],
          [
            "Haiti",
            3.9038084651110694e-05
          ],
          [
            "Kiribati",
            1.1226552487642039e-05
          ]
        ]
      },
      "geometry": {
        "type": "MultiLineString",
        "coordinates": [
          [
            [
              34.37410071942446,
              52.35971223021582
            ],
            [
              33.366906474820155,
              53.51079136690649
            ],
            [
              32.64748201438849,
              55.23741007194246
            ],
            [
              32.50359712230215,
              56.100719424460436
            ],
            [
              32.64748201438849,
              57.10791366906474
            ],
            [
              31.784172661870514,
              57.82733812949641
            ],
            [
              30.920863309352512,
              57.971223021582745
            ],
            [
              30.633093525179845,
              58.83453237410072
            ],
            [
              31.064748201438846,
              59.697841726618705
            ],
            [
              31.64028776978418,
              60.99280575539569
            ],
            [
              32.07194244604318,
              62.0
            ],
            [
              31.064748201438846,
              61.856115107913666
            ],
            [
              30.345323741007206,
              61.280575539568346
            ],
            [
              29.33812949640287,
              60.705035971223026
            ],
            [
              28.61870503597123,
              59.697841726618705
            ],
            [
              28.18705035971223,
              58.546762589928065
            ],
            [
              27.75539568345323,
              57.39568345323741
            ],
            [
              27.75539568345323,
              56.100719424460436
            ],
            [
              27.467625899280563,
              55.09352517985613
            ],
            [
              26.60431654676259,
              54.80575539568346
            ],
            [
              26.460431654676256,
              53.94244604316546
            ],
            [
              27.179856115107924,
              52.935251798561154
            ],
            [
              26.60431654676259,
              52.07194244604318
            ],
            [
              24.446043165467643,
              51.784172661870514
            ],
            [
              23.438848920863308,
              51.784172661870514
            ],
            [
              24.589928057553948,
              50.20143884892087
            ],
            [
              25.45323741007195,
              49.62589928057554
            ],
            [
              25.597122302158283,
              48.762589928057565
            ]
          ],
          [
            [
              38.54676258992805,
              50.633093525179845
            ],
            [
              40.12949640287769,
              50.345323741007206
            ],
            [
              41.424460431654666,
              50.05755395683454
            ],
            [
              42.575539568345334,
              49.913669064748206
            ],
            [
              43.726618705035975,
              49.913669064748206
            ],
            [
              45.309352517985616,
              49.482014388489205
            ],
            [
              47.75539568345323,
              48.18705035971223
            ],
            [
              50.05755395683454,
              47.03597122302159
            ],
            [
              51.20863309352518,
              46.74820143884892
            ],
            [
              52.07194244604318,
              46.31654676258992
            ],
            [
              51.49640287769785,
              45.59712230215828
            ],
            [
              50.48920863309354,
              44.58992805755395
            ],
            [
              50.05755395683454,
              43.43884892086331
            ],
            [
              50.05755395683454,
              41.56834532374103
            ],
            [
              50.20143884892087,
              40.273381294964025
            ],
            [
              49.482014388489205,
              39.26618705035972
            ],
            [
              48.61870503597123,
              38.690647482014384
            ],
            [
              47.46762589928056,
              38.25899280575538
            ],
            [
              46.60431654676259,
              36.96402877697841
            ],
            [
              46.17266187050359,
              35.38129496402877
            ],
            [
              45.59712230215828,
              34.37410071942446
            ],
            [
              44.44604316546764,
              33.366906474820155
            ],
            [
              43.43884892086331,
              32.64748201438849
            ],
            [
              42.575539568345334,
              31.928057553956847
            ],
            [
              41.856115107913666,
              30.920863309352512
            ],
            [
              40.84892086330936,
              29.769784172661872
            ],
            [
              39.98561151079139,
              29.33812949640287
            ],
            [
              38.402877697841745,
              28.61870503597123
            ],
            [
              37.10791366906474,
              27.467625899280563
            ],
            [
              36.67625899280574,
              26.028776978417284
            ],
            [
              36.820143884892104,
              24.446043165467643
            ],
            [
              37.10791366906474,
              23.438848920863308
            ],
            [
              37.39568345323741,
              22.575539568345334
            ],
            [
              37.25179856115108,
              21.568345323741028
            ],
            [
              37.10791366906474,
              20.561151079136692
            ],
            [
              37.68345323741008,
              19.69784172661872
            ],
            [
              38.83453237410072,
              18.834532374100718
            ],
            [
              39.841726618705025,
              17.539568345323744
            ],
            [
              40.41726618705036,
              16.820143884892104
            ],
            [
              41.28057553956836,
              15.52517985611513
            ],
            [
              42.143884892086334,
              14.374100719424462
            ],
            [
              42.71942446043164,
              13.510791366906489
            ],
            [
              43.15107913669067,
              12.503597122302153
            ],
            [
              45.16546762589928,
              10.201438848920873
            ],
            [
              47.179856115107896,
              8.18705035971223
            ],
            [
              47.75539568345323,
              7.467625899280563
            ],
            [
              46.028776978417284,
              7.323741007194258
            ],
            [
              42.71942446043164,
              7.611510791366925
            ],
            [
              40.12949640287769,
              7.323741007194258
            ],
            [
              38.97841726618705,
              7.0359712230215905
            ],
            [
              38.11510791366908,
              6.460431654676256
            ],
            [
              36.67625899280574,
              5.453237410071949
            ],
            [
              35.23741007194246,
              5.021582733812949
            ],
            [
              33.94244604316546,
              4.877697841726615
            ],
            [
              32.935251798561154,
              5.021582733812949
            ],
            [
              31.20863309352518,
              4.877697841726615
            ],
            [
              29.913669064748206,
              4.302158273381281
            ]
          ],
          [
            [
              24.589928057553948,
              49.62589928057554
            ],
            [
              25.02158273381295,
              47.32374100719426
            ],
            [
              25.45323741007195,
              44.158273381294975
            ],
            [
              25.165467625899282,
              43.15107913669067
            ],
            [
              23.294964028776974,
              42.575539568345334
            ],
            [
              22.287769784172667,
              42.71942446043167
            ],
            [
              21.28057553956836,
              42.431654676259
            ],
            [
              20.273381294964025,
              41.424460431654666
            ],
            [
              19.122302158273385,
              41.13669064748203
            ],
            [
              18.11510791366908,
              40.99280575539569
            ],
            [
              16.96402877697841,
              40.84892086330936
            ],
            [
              16.100719424460436,
              40.56115107913669
            ],
            [
              15.525179856115102,
              39.41007194244605
            ],
            [
              15.381294964028768,
              38.54676258992805
            ],
            [
              14.517985611510795,
              38.11510791366908
            ],
            [
              13.94244604316549,
              37.10791366906474
            ],
            [
              12.79136690647482,
              36.53237410071944
            ],
            [
              11.928057553956847,
              36.3884892086331
            ],
            [
              11.928057553956847,
              34.23021582733813
            ],
            [
              13.366906474820155,
              31.928057553956847
            ],
            [
              13.654676258992822,
              30.920863309352512
            ],
            [
              13.654676258992822,
              29.62589928057554
            ],
            [
              14.949640287769796,
              28.043165467625897
            ],
            [
              15.81294964028777,
              27.179856115107924
            ],
            [
              16.388489208633104,
              26.316546762589923
            ],
            [
              16.532374100719437,
              25.309352517985616
            ],
            [
              16.676258992805742,
              23.58273381294964
            ],
            [
              17.39568345323741,
              22.287769784172667
            ],
            [
              17.971223021582745,
              21.424460431654666
            ],
            [
              18.54676258992805,
              20.41726618705036
            ],
            [
              18.834532374100718,
              19.553956834532386
            ],
            [
              18.834532374100718,
              18.402877697841745
            ],
            [
              18.54676258992805,
              17.39568345323741
            ],
            [
              17.971223021582745,
              16.100719424460436
            ],
            [
              17.82733812949641,
              14.661870503597129
            ],
            [
              17.971223021582745,
              13.510791366906489
            ],
            [
              18.11510791366908,
              12.647482014388487
            ],
            [
              16.532374100719437,
              10.776978417266207
            ],
            [
              15.093525179856101,
              9.625899280575538
            ],
            [
              14.374100719424462,
              8.906474820143899
            ],
            [
              13.798561151079127,
              7.899280575539592
            ],
            [
              13.94244604316549,
              7.0359712230215905
            ],
            [
              14.805755395683462,
              6.028776978417284
            ],
            [
              15.525179856115102,
              5.165467625899282
            ],
            [
              16.532374100719437,
              4.446043165467643
            ],
            [
              17.39568345323741,
              4.1582733812949755
            ],
            [
              18.258992805755383,
              4.302158273381281
            ],
            [
              19.410071942446052,
              4.877697841726615
            ],
            [
              20.273381294964025,
              5.309352517985616
            ],
            [
              21.424460431654666,
              5.453237410071949
            ],
            [
              22.575539568345334,
              5.165467625899282
            ],
            [
              24.589928057553948,
              4.302158273381281
            ],
            [
              26.460431654676256,
              3.1510791366906687
            ],
            [
              27.75539568345323,
              2.287769784172667
            ],
            [
              28.61870503597123,
              2.0
            ],
            [
              29.769784172661872,
              2.1438848920863336
            ]
          ],
          [
            [
              36.100719424460436,
              51.35251798561151
            ],
            [
              36.96402877697841,
              50.48920863309354
            ],
            [
              37.82733812949641,
              50.05755395683454
            ],
            [
              38.690647482014384,
              49.76978417266187
            ],
            [
              39.553956834532386,
              49.62589928057554
            ],
            [
              40.56115107913669,
              49.482014388489205
            ]
          ]
        ]
      }
    }
  ]
}