{
  "type": "FeatureCollection",
  "crs": {
    "type": "name",
    "properties": {
      "name": "urn:ogc:def:crs:OGC:1.3:CRS84"
    }
  },
  "features": [
    {
      "type": "Feature",
      "properties": {
        "timestamp": "2026-06-23T13:02:23.484490",
        "country_name": "Greenland",
        "author": "dummy",
        "author_id": "56bc3182-38fb-4e9f-b44d-cf3830fd0855",
        "validated": false,
        "ranking": [
          [
            "Greenland",
            0.05994044616818428
          ],
          [
            "Jordan",
            0.05658402293920517
          ],
          [
            "Burundi",
            0.04319024085998535
          ],
          [
            "Bangladesh",
            0.034137506037950516
          ],
          [
            "Syria",
            0.025428837165236473
          ],
          [
            "Gabon",
            0.024388274177908897
          ],
          [
            "Montenegro",
            0.021486133337020874
          ],
          [
            "Rwanda",
            0.02141224779188633
          ],
          [
            "Nigeria",
            0.01952035166323185
          ],
          [
            "Hong Kong",
            0.019121592864394188
          ],
          [
            "Western Sahara",
            0.01892172358930111
          ],
          [
            "Spain",
            0.01593773066997528
          ],
          [
            "Belize",
            0.01591816544532776
          ],
          [
            "Switzerland",
            0.015254893340170383
          ],
          [
            "France",
            0.015138547867536545
          ],
          [
            "Mayotte",
            0.014324497431516647
          ],
          [
            "India",
            0.013475087471306324
          ],
          [
            "Somalia",
            0.013395034708082676
          ],
          [
            "Afghanistan",
            0.013226231560111046
          ],
          [
            "South Africa",
            0.013122078031301498
          ],
          [
            "Benin",
            0.012029995210468769
          ],
          [
            "Congo",
            0.01189911924302578
          ],
          [
            "North Korea",
            0.011725550517439842
          ],
          [
            "Falkland Islands",
            0.010433375835418701
          ],
          [
            "Lithuania",
            0.009651283733546734
          ],
          [
            "Lesotho",
            0.009553718380630016
          ],
          [
            "South Korea",
            0.009319315664470196
          ],
          [
            "Cambodia",
            0.009069136343896389
          ],
          [
            "Slovenia",
            0.009026597253978252
          ],
          [
            "Croatia",
            0.00902608036994934
          ],
          [
            "Tunisia",
            0.009005273692309856
          ],
          [
            "North Macedonia",
            0.008658932521939278
          ],
          [
            "Mali",
            0.008493916131556034
          ],
          [
            "Kyrgyzstan",
            0.008367606438696384
          ],
          [
            "Fiji",
            0.008198393508791924
          ],
          [
            "French Guiana",
            0.008048675023019314
          ],
          [
            "Zambia",
            0.007739080116152763
          ],
          [
            "Romania",
            0.00757776340469718
          ],
          [
            "Angola",
            0.007431522943079472
          ],
          [
            "China",
            0.006848002318292856
          ],
          [
            "Qatar",
            0.006554294377565384
          ],
          [
            "Guyana",
            0.006473141722381115
          ],
          [
            "Namibia",
            0.006468045059591532
          ],
          [
            "Brunei",
            0.006409135181456804
          ],
          [
            "Burkina Faso",
            0.006346439011394978
          ],
          [
            "Papua New Guinea",
            0.006264919880777597
          ],
          [
            "Slovakia",
            0.006146476604044437
          ],
          [
            "Albania",
            0.006133196875452995
          ],
          [
            "Peru",
            0.0061326115392148495
          ],
          [
            "Djibouti",
            0.005928679369390011
          ],
          [
            "Thailand",
            0.0056516206823289394
          ],
          [
            "Mozambique",
            0.005631197709590197
          ],
          [
            "Svalbard",
            0.0054884059354662895
          ],
          [
            "Sudan",
            0.005475106183439493
          ],
          [
            "Cyprus",
            0.005455071106553078
          ],
          [
            "Guinea-Bissau",
            0.0048871999606490135
          ],
          [
            "Botswana",
            0.0048751989379525185
          ],
          [
            "Chad",
            0.004813633859157562
          ],
          [
            "Saudi Arabia",
            0.004681847058236599
          ],
          [
            "Venezuela",
            0.004660348873585463
          ],
          [
            "Vietnam",
            0.0044791135005652905
          ],
          [
            "Uganda",
            0.004388534929603338
          ],
          [
            "Canada",
            0.004324800800532103
          ],
          [
            "Ukraine",
            0.0042936913669109344
          ],
          [
            "Honduras",
            0.004252629820257425
          ],
          [
            "Faroe Islands",
            0.004125518258661032
          ],
          [
            "Portugal",
            0.004110931418836117
          ],
          [
            "Guatemala",
            0.004092390649020672
          ],
          [
            "Kuwait",
            0.0040893396362662315
          ],
          [
            "Moldova",
            0.004033803474158049
          ],
          [
            "Russia",
            0.004014162812381983
          ],
          [
            "Germany",
            0.003978945780545473
          ],
          [
            "Iceland",
            0.0039670406840741634
          ],
          [
            "Belarus",
            0.003951612394303083
          ],
          [
            "Isle of Man",
            0.003789949929341674
          ],
          [
            "Taiwan",
            0.003783442312851548
          ],
          [
            "Netherlands",
            0.003685556584969163
          ],
          [
            "Ecuador",
            0.003601396456360817
          ],
          [
            "Guadeloupe",
            0.003540054662153125
          ],
          [
            "Brazil",
            0.003379625966772437
          ],
          [
            "Guinea",
            0.0033540225122123957
          ],
          [
            "Uzbekistan",
            0.003340322058647871
          ],
          [
            "Myanmar",
            0.003306403523311019
          ],
          [
            "Bolivia",
            0.0030794681515544653
          ],
          [
            "Dominican Republic",
            0.003065643599256873
          ],
          [
            "Sri Lanka",
            0.002923048799857497
          ],
          [
            "Turkmenistan",
            0.002848596777766943
          ],
          [
            "Mauritania",
            0.0028232713229954243
          ],
          [
            "Ethiopia",
            0.002785545540973544
          ],
          [
            "Serbia",
            0.0027701803483068943
          ],
          [
            "Mongolia",
            0.0026787053793668747
          ],
          [
            "Estonia",
            0.0026701712049543858
          ],
          [
            "Iran",
            0.0026652151718735695
          ],
          [
            "Trinidad and Tobago",
            0.0026516311336308718
          ],
          [
            "Bulgaria",
            0.002536606742069125
          ],
          [
            "Guam",
            0.002400717930868268
          ],
          [
            "Kazakhstan",
            0.0023615516256541014
          ],
          [
            "Lebanon",
            0.0023302664048969746
          ],
          [
            "Pakistan",
            0.002307893941178918
          ],
          [
            "Oman",
            0.0022460147738456726
          ],
          [
            "United Arab Emirates",
            0.0020682697650045156
          ],
          [
            "Senegal",
            0.0020666331984102726
          ],
          [
            "Tajikistan",
            0.0020269546657800674
          ],
          [
            "Ireland",
            0.002015777863562107
          ],
          [
            "Turkey",
            0.002013913821429014
          ],
          [
            "Australia",
            0.001965915085747838
          ],
          [
            "Ghana",
            0.001918383059091866
          ],
          [
            "Hungary",
            0.0018801195546984673
          ],
          [
            "Belgium",
            0.0018775822827592492
          ],
          [
            "Bhutan",
            0.0018212459981441498
          ],
          [
            "Luxembourg",
            0.0017707997467368841
          ],
          [
            "Indonesia",
            0.001739941188134253
          ],
          [
            "Yemen",
            0.0016833782428875566
          ],
          [
            "Malaysia",
            0.0016830347012728453
          ],
          [
            "Saint Lucia",
            0.0016821392346173525
          ],
          [
            "Sweden",
            0.0015976192662492394
          ],
          [
            "Heard and McDonald Islands",
            0.0014641184825450182
          ],
          [
            "Malawi",
            0.0014301667688414454
          ],
          [
            "El Salvador",
            0.0014273382257670164
          ],
          [
            "Czech Republic",
            0.0014242053730413318
          ],
          [
            "Panama",
            0.001402606489136815
          ],
          [
            "New Caledonia",
            0.001360334805212915
          ],
          [
            "Timor-Leste",
            0.0013567536370828748
          ],
          [
            "Italy",
            0.0013269130140542984
          ],
          [
            "Madagascar",
            0.0013000201433897018
          ],
          [
            "United States of America",
            0.0012875510146841407
          ],
          [
            "Puerto Rico",
            0.0012691256124526262
          ],
          [
            "South Sudan",
            0.0012460725847631693
          ],
          [
            "Cameroon",
            0.0012427258770912886
          ],
          [
            "Colombia",
            0.0011997403344139457
          ],
          [
            "Eswatini",
            0.0011936575174331665
          ],
          [
            "Iraq",
            0.0011870120652019978
          ],
          [
            "West Bank",
            0.0011746473610401154
          ],
          [
            "Egypt",
            0.0011671344982460141
          ],
          [
            "Greece",
            0.001166883041150868
          ],
          [
            "Argentina",
            0.0011543778236955404
          ],
          [
            "Latvia",
            0.0011314478470012546
          ],
          [
            "Finland",
            0.0011049850145354867
          ],
          [
            "Sierra Leone",
            0.0010865639196708798
          ],
          [
            "Suriname",
            0.0010842204792425036
          ],
          [
            "Armenia",
            0.0010583734838292003
          ],
          [
            "Dominica",
            0.0010403067572042346
          ],
          [
            "Norway",
            0.0009849144844338298
          ],
          [
            "Côte d'Ivoire",
            0.0009639376075938344
          ],
          [
            "South Georgia Islands",
            0.0009586717351339757
          ],
          [
            "Central African Republic",
            0.0009538746671751142
          ],
          [
            "Togo",
            0.0009317284566350281
          ],
          [
            "Japan",
            0.0008797450573183596
          ],
          [
            "Costa Rica",
            0.0008681832114234567
          ],
          [
            "Reunion",
            0.0008536039968021214
          ],
          [
            "Algeria",
            0.000852879777085036
          ],
          [
            "New Zealand",
            0.0008386567933484912
          ],
          [
            "Azerbaijan",
            0.0008301899069920182
          ],
          [
            "Vanuatu",
            0.0008239822927862406
          ],
          [
            "Liberia",
            0.0008216407732106745
          ],
          [
            "Cuba",
            0.0008108997717499733
          ],
          [
            "Jamaica",
            0.0008066975860856473
          ],
          [
            "Philippines",
            0.0007788803777657449
          ],
          [
            "Cape Verde",
            0.0007700264104641974
          ],
          [
            "Morocco",
            0.0007622262346558273
          ],
          [
            "Martinique",
            0.0007338273571804166
          ],
          [
            "Bosnia & Herzegovina",
            0.0007205994334071875
          ],
          [
            "Laos",
            0.0007171386969275773
          ],
          [
            "Bahamas",
            0.00069475790951401
          ],
          [
            "Kenya",
            0.0006476040580309927
          ],
          [
            "Niger",
            0.0006310092285275459
          ],
          [
            "Libya",
            0.0006305400747805834
          ],
          [
            "Antigua & Barbuda",
            0.0006280422676354647
          ],
          [
            "Bahrain",
            0.0006153195281513035
          ],
          [
            "Uruguay",
            0.0006055256817489862
          ],
          [
            "Georgia",
            0.0005878814845345914
          ],
          [
            "Israel",
            0.0005770917632617056
          ],
          [
            "Gambia",
            0.0005579491844400764
          ],
          [
            "Mexico",
            0.0005500412662513554
          ],
          [
            "United Kingdom",
            0.0005146602052263916
          ],
          [
            "Nicaragua",
            0.0005043603014200926
          ],
          [
            "Turks and Caicos Islands",
            0.0004891878925263882
          ],
          [
            "Paraguay",
            0.0004885808448307216
          ],
          [
            "Palau",
            0.00046459687291644514
          ],
          [
            "DR Congo",
            0.00045985550968907773
          ],
          [
            "Poland",
            0.00040646945126354694
          ],
          [
            "Denmark",
            0.0003789239563047886
          ],
          [
            "Solomon Islands",
            0.0003761594998650253
          ],
          [
            "Eritrea",
            0.0003501253086142242
          ],
          [
            "Zimbabwe",
            0.0003324918798170984
          ],
          [
            "Austria",
            0.0003147039096802473
          ],
          [
            "Netherlands Antilles",
            0.0003018395509570837
          ],
          [
            "Tanzania",
            0.0002975377137772739
          ],
          [
            "Comoros",
            0.0002957655815407634
          ],
          [
            "Chile",
            0.00029561726842075586
          ],
          [
            "Barbados",
            0.0002847318828571588
          ],
          [
            "United States Virgin Islands",
            0.0002418230869807303
          ],
          [
            "Madeira Islands",
            0.00023442455858457834
          ],
          [
            "Samoa",
            0.00021104459301568568
          ],
          [
            "Equatorial Guinea",
            0.00020996053353883326
          ],
          [
            "Nepal",
            0.00017628626665100455
          ],
          [
            "Sao Tome and Principe",
            0.00015338175580836833
          ],
          [
            "Haiti",
            0.00013635135837830603
          ],
          [
            "Kiribati",
            6.266371929086745e-05
          ]
        ]
      },
      "geometry": {
        "type": "MultiLineString",
        "coordinates": [
          [
            [
              17.767441860465112,
              28.09302325581396
            ],
            [
              17.90697674418604,
              28.51162790697674
            ],
            [
              18.32558139534882,
              28.651162790697697
            ],
            [
              18.465116279069747,
              29.069767441860478
            ],
            [
              18.883720930232556,
              29.34883720930233
            ],
            [
              19.58139534883719,
              29.34883720930233
            ],
            [
              20.279069767441854,
              29.34883720930233
            ],
            [
              20.697674418604635,
              29.209302325581405
            ],
            [
              21.116279069767444,
              28.93023255813955
            ],
            [
              21.25581395348837,
              28.51162790697674
            ],
            [
              21.534883720930225,
              28.09302325581396
            ],
            [
              21.953488372093005,
              27.953488372093034
            ],
            [
              22.372093023255815,
              27.67441860465118
            ],
            [
              22.790697674418595,
              27.534883720930253
            ],
            [
              23.48837209302326,
              27.534883720930253
            ],
            [
              23.767441860465112,
              28.09302325581396
            ],
            [
              23.90697674418604,
              28.51162790697674
            ],
            [
              24.046511627906966,
              29.069767441860478
            ],
            [
              24.046511627906966,
              29.627906976744185
            ],
            [
              23.767441860465112,
              30.046511627906995
            ],
            [
              23.348837209302303,
              30.32558139534885
            ],
            [
              22.790697674418595,
              30.883720930232585
            ],
            [
              22.093023255813932,
              30.883720930232585
            ],
            [
              21.395348837209298,
              31.02325581395351
            ],
            [
              20.697674418604635,
              31.02325581395351
            ],
            [
              20.279069767441854,
              31.16279069767444
            ],
            [
              20.41860465116278,
              31.58139534883722
            ],
            [
              20.139534883720927,
              32.139534883720955
            ],
            [
              19.58139534883719,
              32.139534883720955
            ],
            [
              19.302325581395337,
              32.558139534883736
            ],
            [
              19.023255813953483,
              32.97674418604652
            ],
            [
              18.465116279069747,
              33.25581395348837
            ],
            [
              17.90697674418604,
              33.395348837209326
            ],
            [
              17.348837209302303,
              33.395348837209326
            ],
            [
              16.930232558139522,
              33.53488372093025
            ],
            [
              16.51162790697674,
              33.67441860465118
            ],
            [
              16.093023255813932,
              33.81395348837211
            ],
            [
              15.813953488372078,
              34.23255813953489
            ],
            [
              15.534883720930225,
              34.6511627906977
            ],
            [
              14.976744186046517,
              35.06976744186048
            ],
            [
              14.558139534883708,
              35.209302325581405
            ],
            [
              14.139534883720927,
              35.34883720930233
            ],
            [
              13.58139534883719,
              35.34883720930233
            ],
            [
              13.023255813953483,
              35.34883720930233
            ],
            [
              12.604651162790674,
              35.90697674418607
            ],
            [
              12.604651162790674,
              36.465116279069775
            ],
            [
              12.604651162790674,
              37.02325581395351
            ],
            [
              12.604651162790674,
              37.58139534883722
            ],
            [
              12.604651162790674,
              38.27906976744188
            ],
            [
              12.883720930232556,
              38.69767441860466
            ],
            [
              13.023255813953483,
              39.25581395348837
            ],
            [
              13.16279069767441,
              39.81395348837211
            ],
            [
              13.302325581395337,
              40.372093023255815
            ],
            [
              13.16279069767441,
              40.790697674418624
            ],
            [
              12.883720930232556,
              41.209302325581405
            ],
            [
              12.465116279069747,
              41.76744186046511
            ],
            [
              12.32558139534882,
              42.18604651162792
            ],
            [
              12.32558139534882,
              42.74418604651163
            ],
            [
              12.32558139534882,
              43.302325581395365
            ],
            [
              12.604651162790674,
              43.86046511627907
            ],
            [
              12.74418604651163,
              44.41860465116281
            ],
            [
              12.74418604651163,
              44.97674418604652
            ],
            [
              12.883720930232556,
              45.53488372093025
            ],
            [
              13.023255813953483,
              45.953488372093034
            ],
            [
              13.441860465116264,
              46.372093023255815
            ],
            [
              14.0,
              46.790697674418624
            ],
            [
              14.558139534883708,
              46.790697674418624
            ],
            [
              15.116279069767444,
              46.790697674418624
            ],
            [
              15.674418604651152,
              46.6511627906977
            ],
            [
              17.209302325581376,
              46.6511627906977
            ],
            [
              17.627906976744185,
              46.790697674418624
            ],
            [
              18.465116279069747,
              46.93023255813955
            ],
            [
              19.023255813953483,
              47.06976744186048
            ],
            [
              19.16279069767441,
              47.627906976744185
            ],
            [
              19.023255813953483,
              48.046511627906995
            ],
            [
              18.604651162790674,
              48.32558139534885
            ],
            [
              18.465116279069747,
              48.74418604651163
            ],
            [
              18.32558139534882,
              49.302325581395365
            ],
            [
              18.32558139534882,
              49.86046511627907
            ],
            [
              18.465116279069747,
              50.41860465116281
            ],
            [
              18.465116279069747,
              51.116279069767444
            ],
            [
              18.465116279069747,
              51.67441860465118
            ],
            [
              18.465116279069747,
              52.51162790697674
            ],
            [
              18.186046511627893,
              52.93023255813955
            ],
            [
              18.046511627906966,
              53.34883720930233
            ],
            [
              17.90697674418604,
              53.90697674418607
            ],
            [
              17.767441860465112,
              54.32558139534885
            ],
            [
              17.48837209302326,
              54.883720930232556
            ],
            [
              16.930232558139522,
              55.44186046511629
            ],
            [
              16.232558139534888,
              55.44186046511629
            ],
            [
              15.813953488372078,
              55.58139534883722
            ],
            [
              15.674418604651152,
              56.0
            ],
            [
              16.65116279069767,
              56.558139534883736
            ],
            [
              17.209302325581376,
              56.558139534883736
            ],
            [
              17.90697674418604,
              56.558139534883736
            ],
            [
              18.604651162790674,
              56.558139534883736
            ],
            [
              19.441860465116264,
              56.558139534883736
            ],
            [
              20.139534883720927,
              56.41860465116281
            ],
            [
              20.697674418604635,
              56.27906976744188
            ],
            [
              21.25581395348837,
              56.139534883720955
            ],
            [
              21.81395348837208,
              56.139534883720955
            ],
            [
              22.790697674418595,
              56.0
            ],
            [
              23.48837209302326,
              55.86046511627907
            ],
            [
              24.046511627906966,
              55.720930232558146
            ],
            [
              24.604651162790674,
              55.720930232558146
            ],
            [
              25.16279069767441,
              55.720930232558146
            ],
            [
              25.720930232558146,
              55.720930232558146
            ],
            [
              26.558139534883708,
              55.720930232558146
            ],
            [
              27.67441860465115,
              55.720930232558146
            ],
            [
              28.232558139534888,
              55.720930232558146
            ],
            [
              28.790697674418595,
              55.720930232558146
            ],
            [
              29.627906976744185,
              55.58139534883722
            ],
            [
              30.186046511627893,
              55.302325581395365
            ],
            [
              30.74418604651163,
              55.02325581395351
            ],
            [
              31.302325581395337,
              54.74418604651163
            ],
            [
              32.0,
              54.465116279069775
            ],
            [
              32.41860465116278,
              54.046511627906995
            ],
            [
              32.97674418604652,
              53.90697674418607
            ],
            [
              33.534883720930225,
              53.76744186046514
            ],
            [
              34.09302325581393,
              53.48837209302326
            ],
            [
              34.93023255813952,
              53.06976744186048
            ],
            [
              35.76744186046511,
              52.790697674418624
            ],
            [
              36.32558139534882,
              52.790697674418624
            ],
            [
              36.883720930232556,
              52.790697674418624
            ],
            [
              37.441860465116264,
              52.93023255813955
            ],
            [
              37.860465116279045,
              53.06976744186048
            ],
            [
              38.41860465116278,
              53.209302325581405
            ],
            [
              38.97674418604652,
              53.209302325581405
            ],
            [
              39.534883720930225,
              53.209302325581405
            ],
            [
              40.372093023255815,
              53.209302325581405
            ],
            [
              41.06976744186045,
              53.06976744186048
            ],
            [
              41.90697674418604,
              53.06976744186048
            ],
            [
              42.32558139534882,
              52.93023255813955
            ],
            [
              42.74418604651163,
              52.6511627906977
            ],
            [
              43.16279069767441,
              52.51162790697674
            ],
            [
              43.58139534883719,
              52.23255813953489
            ],
            [
              44.13953488372093,
              52.09302325581396
            ],
            [
              44.697674418604635,
              52.09302325581396
            ],
            [
              45.25581395348837,
              52.09302325581396
            ],
            [
              45.81395348837208,
              52.09302325581396
            ],
            [
              46.23255813953489,
              52.372093023255815
            ],
            [
              46.65116279069764,
              52.51162790697674
            ],
            [
              47.3488372093023,
              52.51162790697674
            ],
            [
              48.046511627906966,
              52.23255813953489
            ],
            [
              48.465116279069775,
              52.09302325581396
            ],
            [
              49.02325581395348,
              51.53488372093025
            ],
            [
              49.16279069767438,
              50.83720930232559
            ],
            [
              49.44186046511629,
              50.27906976744188
            ],
            [
              49.720930232558146,
              49.720930232558146
            ],
            [
              50.279069767441854,
              49.302325581395365
            ],
            [
              50.83720930232556,
              49.302325581395365
            ],
            [
              51.39534883720927,
              49.302325581395365
            ],
            [
              51.81395348837208,
              49.44186046511629
            ],
            [
              52.372093023255786,
              49.58139534883722
            ],
            [
              52.790697674418595,
              49.86046511627907
            ],
            [
              53.90697674418607,
              49.302325581395365
            ],
            [
              54.32558139534882,
              48.74418604651163
            ],
            [
              55.16279069767438,
              48.18604651162792
            ],
            [
              56.55813953488371,
              47.48837209302326
            ],
            [
              57.116279069767415,
              47.06976744186048
            ],
            [
              57.953488372093034,
              46.790697674418624
            ],
            [
              58.372093023255786,
              46.51162790697674
            ],
            [
              58.65116279069764,
              46.09302325581396
            ],
            [
              58.93023255813955,
              45.53488372093025
            ],
            [
              59.3488372093023,
              45.25581395348837
            ],
            [
              59.76744186046511,
              44.83720930232559
            ],
            [
              60.32558139534882,
              44.27906976744188
            ],
            [
              60.74418604651163,
              44.139534883720955
            ],
            [
              61.02325581395348,
              43.720930232558146
            ],
            [
              61.44186046511629,
              43.44186046511629
            ],
            [
              61.860465116279045,
              42.883720930232585
            ],
            [
              62.0,
              42.465116279069775
            ],
            [
              61.860465116279045,
              41.90697674418607
            ],
            [
              61.44186046511629,
              41.76744186046511
            ],
            [
              61.02325581395348,
              41.48837209302326
            ],
            [
              60.32558139534882,
              40.93023255813955
            ],
            [
              59.76744186046511,
              40.790697674418624
            ],
            [
              59.209302325581405,
              40.372093023255815
            ],
            [
              58.790697674418595,
              39.81395348837211
            ],
            [
              58.372093023255786,
              39.25581395348837
            ],
            [
              58.09302325581393,
              38.83720930232559
            ],
            [
              57.67441860465112,
              38.558139534883736
            ],
            [
              57.39534883720927,
              38.139534883720955
            ],
            [
              56.97674418604652,
              38.0
            ],
            [
              56.1395348837209,
              37.44186046511629
            ],
            [
              55.44186046511629,
              37.16279069767444
            ],
            [
              54.74418604651163,
              37.02325581395351
            ],
            [
              54.046511627906966,
              36.465116279069775
            ],
            [
              53.62790697674416,
              36.32558139534885
            ],
            [
              53.06976744186045,
              36.18604651162792
            ],
            [
              52.51162790697674,
              36.18604651162792
            ],
            [
              51.81395348837208,
              36.32558139534885
            ],
            [
              50.97674418604652,
              36.6046511627907
            ],
            [
              49.720930232558146,
              37.02325581395351
            ],
            [
              49.16279069767438,
              37.16279069767444
            ],
            [
              48.32558139534882,
              37.302325581395365
            ],
            [
              47.76744186046511,
              37.302325581395365
            ],
            [
              47.06976744186045,
              37.16279069767444
            ],
            [
              46.372093023255786,
              36.883720930232585
            ],
            [
              45.81395348837208,
              36.883720930232585
            ],
            [
              45.25581395348837,
              36.883720930232585
            ],
            [
              44.55813953488371,
              37.02325581395351
            ],
            [
              43.720930232558146,
              37.16279069767444
            ],
            [
              42.604651162790674,
              37.58139534883722
            ],
            [
              42.18604651162789,
              38.139534883720955
            ],
            [
              41.90697674418604,
              38.558139534883736
            ],
            [
              41.48837209302326,
              39.116279069767444
            ],
            [
              40.65116279069767,
              39.53488372093025
            ],
            [
              39.67441860465115,
              39.395348837209326
            ],
            [
              39.116279069767415,
              39.116279069767444
            ],
            [
              38.55813953488371,
              38.69767441860466
            ],
            [
              37.860465116279045,
              38.139534883720955
            ],
            [
              37.441860465116264,
              37.86046511627907
            ],
            [
              36.74418604651163,
              37.44186046511629
            ],
            [
              36.32558139534882,
              37.302325581395365
            ],
            [
              35.76744186046511,
              37.02325581395351
            ],
            [
              35.48837209302326,
              36.465116279069775
            ],
            [
              35.76744186046511,
              35.90697674418607
            ],
            [
              36.32558139534882,
              35.627906976744185
            ],
            [
              36.883720930232556,
              35.34883720930233
            ],
            [
              37.441860465116264,
              35.34883720930233
            ],
            [
              38.0,
              35.209302325581405
            ],
            [
              38.41860465116278,
              35.06976744186048
            ],
            [
              39.116279069767415,
              35.06976744186048
            ],
            [
              39.67441860465115,
              34.790697674418624
            ],
            [
              40.23255813953489,
              34.790697674418624
            ],
            [
              40.790697674418595,
              34.790697674418624
            ],
            [
              41.627906976744185,
              34.790697674418624
            ],
            [
              42.18604651162789,
              34.790697674418624
            ],
            [
              42.883720930232556,
              34.51162790697674
            ],
            [
              43.30232558139534,
              34.23255813953489
            ],
            [
              43.58139534883719,
              33.81395348837211
            ],
            [
              44.13953488372093,
              33.53488372093025
            ],
            [
              44.55813953488371,
              33.395348837209326
            ],
            [
              45.25581395348837,
              33.67441860465118
            ],
            [
              45.3953488372093,
              34.09302325581396
            ],
            [
              45.953488372093034,
              35.06976744186048
            ],
            [
              46.23255813953489,
              35.48837209302326
            ],
            [
              46.51162790697674,
              34.790697674418624
            ],
            [
              46.51162790697674,
              33.953488372093034
            ],
            [
              46.790697674418595,
              33.53488372093025
            ],
            [
              46.790697674418595,
              32.97674418604652
            ],
            [
              46.790697674418595,
              32.27906976744188
            ],
            [
              46.65116279069764,
              31.860465116279073
            ],
            [
              46.51162790697674,
              31.441860465116292
            ],
            [
              46.23255813953489,
              30.883720930232585
            ],
            [
              45.953488372093034,
              30.465116279069775
            ],
            [
              45.67441860465112,
              29.767441860465112
            ],
            [
              45.3953488372093,
              29.209302325581405
            ],
            [
              44.97674418604652,
              28.651162790697697
            ],
            [
              44.697674418604635,
              28.232558139534888
            ],
            [
              44.55813953488371,
              27.813953488372107
            ],
            [
              44.279069767441854,
              27.116279069767444
            ],
            [
              44.0,
              26.558139534883736
            ],
            [
              44.0,
              26.0
            ],
            [
              44.0,
              25.441860465116292
            ],
            [
              44.0,
              24.74418604651163
            ],
            [
              43.720930232558146,
              24.18604651162792
            ],
            [
              43.58139534883719,
              23.767441860465112
            ],
            [
              43.58139534883719,
              22.790697674418624
            ],
            [
              43.441860465116264,
              22.09302325581396
            ],
            [
              43.441860465116264,
              21.534883720930253
            ],
            [
              43.441860465116264,
              20.83720930232559
            ],
            [
              43.58139534883719,
              20.0
            ],
            [
              43.58139534883719,
              19.441860465116292
            ],
            [
              43.16279069767441,
              18.604651162790702
            ],
            [
              43.02325581395348,
              18.046511627906995
            ],
            [
              42.465116279069775,
              17.48837209302326
            ],
            [
              41.627906976744185,
              16.93023255813955
            ],
            [
              41.06976744186045,
              16.790697674418624
            ],
            [
              40.23255813953489,
              16.372093023255843
            ],
            [
              39.67441860465115,
              16.232558139534888
            ],
            [
              39.116279069767415,
              15.813953488372107
            ],
            [
              38.55813953488371,
              15.534883720930253
            ],
            [
              38.13953488372093,
              15.116279069767444
            ],
            [
              37.720930232558146,
              14.697674418604663
            ],
            [
              37.16279069767441,
              14.558139534883736
            ],
            [
              36.74418604651163,
              14.279069767441882
            ],
            [
              36.32558139534882,
              14.139534883720955
            ],
            [
              35.76744186046511,
              13.860465116279073
            ],
            [
              35.06976744186045,
              13.302325581395365
            ],
            [
              34.790697674418595,
              12.883720930232585
            ],
            [
              34.65116279069767,
              12.186046511627922
            ],
            [
              34.372093023255815,
              11.488372093023258
            ],
            [
              34.23255813953489,
              10.790697674418624
            ],
            [
              34.09302325581393,
              10.09302325581396
            ],
            [
              34.09302325581393,
              9.534883720930253
            ],
            [
              33.953488372093005,
              8.976744186046517
            ],
            [
              33.953488372093005,
              8.279069767441882
            ],
            [
              33.534883720930225,
              8.0
            ],
            [
              32.83720930232556,
              7.581395348837219
            ],
            [
              32.279069767441854,
              7.581395348837219
            ],
            [
              30.604651162790674,
              7.581395348837219
            ],
            [
              29.209302325581376,
              7.860465116279073
            ],
            [
              26.41860465116278,
              8.41860465116281
            ],
            [
              24.186046511627893,
              8.83720930232559
            ],
            [
              22.232558139534888,
              9.25581395348837
            ],
            [
              18.604651162790674,
              9.953488372093034
            ],
            [
              17.209302325581376,
              10.09302325581396
            ],
            [
              16.232558139534888,
              10.232558139534888
            ],
            [
              15.674418604651152,
              10.232558139534888
            ],
            [
              15.116279069767444,
              10.232558139534888
            ],
            [
              14.697674418604635,
              10.09302325581396
            ],
            [
              14.41860465116278,
              9.534883720930253
            ],
            [
              14.279069767441854,
              9.116279069767444
            ],
            [
              13.720930232558118,
              9.395348837209326
            ],
            [
              13.302325581395337,
              9.67441860465118
            ],
            [
              12.883720930232556,
              9.813953488372107
            ],
            [
              12.32558139534882,
              9.953488372093034
            ],
            [
              11.209302325581376,
              9.953488372093034
            ],
            [
              10.511627906976742,
              9.953488372093034
            ],
            [
              9.953488372093005,
              9.813953488372107
            ],
            [
              9.534883720930225,
              9.534883720930253
            ],
            [
              9.395348837209298,
              9.116279069767444
            ],
            [
              9.116279069767444,
              8.558139534883736
            ],
            [
              9.116279069767444,
              8.0
            ],
            [
              9.116279069767444,
              7.441860465116292
            ],
            [
              8.558139534883708,
              7.441860465116292
            ],
            [
              7.860465116279073,
              7.860465116279073
            ],
            [
              7.441860465116264,
              8.558139534883736
            ],
            [
              7.302325581395337,
              9.116279069767444
            ],
            [
              7.023255813953483,
              9.67441860465118
            ],
            [
              6.744186046511629,
              10.09302325581396
            ],
            [
              6.32558139534882,
              10.232558139534888
            ],
            [
              5.906976744186039,
              10.511627906976742
            ],
            [
              5.348837209302303,
              10.511627906976742
            ],
            [
              4.930232558139522,
              10.790697674418624
            ],
            [
              4.6511627906976685,
              11.209302325581405
            ],
            [
              4.6511627906976685,
              11.767441860465112
            ],
            [
              4.6511627906976685,
              12.465116279069775
            ],
            [
              4.6511627906976685,
              13.023255813953483
            ],
            [
              4.790697674418595,
              13.441860465116292
            ],
            [
              4.930232558139522,
              13.860465116279073
            ],
            [
              4.930232558139522,
              14.41860465116281
            ],
            [
              4.6511627906976685,
              14.976744186046517
            ],
            [
              4.372093023255815,
              15.395348837209326
            ],
            [
              4.093023255813932,
              15.813953488372107
            ],
            [
              4.093023255813932,
              16.372093023255843
            ],
            [
              3.9534883720930054,
              16.790697674418624
            ],
            [
              3.9534883720930054,
              17.48837209302326
            ],
            [
              3.9534883720930054,
              18.046511627906995
            ],
            [
              4.093023255813932,
              18.465116279069775
            ],
            [
              4.232558139534888,
              18.883720930232585
            ],
            [
              4.5116279069767415,
              19.58139534883722
            ],
            [
              4.5116279069767415,
              20.139534883720955
            ],
            [
              4.5116279069767415,
              20.697674418604663
            ],
            [
              4.372093023255815,
              21.395348837209326
            ],
            [
              4.093023255813932,
              21.953488372093034
            ],
            [
              3.9534883720930054,
              22.372093023255843
            ],
            [
              3.3953488372092977,
              22.651162790697697
            ],
            [
              3.116279069767444,
              23.069767441860478
            ],
            [
              2.8372093023255616,
              23.48837209302326
            ],
            [
              2.418604651162781,
              23.906976744186068
            ],
            [
              2.279069767441854,
              24.465116279069775
            ],
            [
              2.0,
              25.16279069767444
            ],
            [
              2.0,
              25.860465116279073
            ],
            [
              2.8372093023255616,
              26.279069767441882
            ],
            [
              3.3953488372092977,
              26.279069767441882
            ],
            [
              3.9534883720930054,
              26.279069767441882
            ],
            [
              4.372093023255815,
              26.139534883720955
            ],
            [
              4.930232558139522,
              26.139534883720955
            ],
            [
              5.4883720930232585,
              26.139534883720955
            ],
            [
              6.32558139534882,
              26.139534883720955
            ],
            [
              6.744186046511629,
              26.279069767441882
            ],
            [
              7.302325581395337,
              26.279069767441882
            ],
            [
              8.41860465116278,
              26.279069767441882
            ],
            [
              9.116279069767444,
              26.41860465116281
            ],
            [
              10.093023255813932,
              26.41860465116281
            ],
            [
              10.790697674418595,
              26.41860465116281
            ],
            [
              11.488372093023258,
              26.41860465116281
            ],
            [
              12.32558139534882,
              26.279069767441882
            ],
            [
              12.883720930232556,
              26.0
            ],
            [
              13.441860465116264,
              25.58139534883722
            ],
            [
              14.0,
              25.302325581395365
            ],
            [
              14.41860465116278,
              24.883720930232585
            ],
            [
              14.837209302325562,
              24.604651162790702
            ],
            [
              15.395348837209298,
              24.604651162790702
            ],
            [
              15.953488372093005,
              24.604651162790702
            ],
            [
              16.232558139534888,
              25.023255813953483
            ],
            [
              16.65116279069767,
              25.58139534883722
            ],
            [
              16.790697674418595,
              26.0
            ],
            [
              17.06976744186045,
              26.41860465116281
            ],
            [
              17.48837209302326,
              26.697674418604663
            ],
            [
              17.90697674418604,
              26.83720930232559
            ],
            [
              18.046511627906966,
              27.25581395348837
            ],
            [
              18.465116279069747,
              27.67441860465118
            ]
          ]
        ]
      }
    }
  ]
}