{
  "type": "FeatureCollection",
  "crs": {
    "type": "name",
    "properties": {
      "name": "urn:ogc:def:crs:OGC:1.3:CRS84"
    }
  },
  "features": [
    {
      "type": "Feature",
      "properties": {
        "timestamp": "2026-06-25T19:37:48.072306",
        "country_name": "Guinea-Bissau",
        "author": "armenia",
        "author_id": "143ff033-1880-4e7c-bc54-882ae8c91f0b",
        "validated": false,
        "ranking": [
          [
            "Guinea-Bissau",
            0.04826332628726959
          ],
          [
            "Kyrgyzstan",
            0.034319620579481125
          ],
          [
            "Guinea",
            0.026344072073698044
          ],
          [
            "Falkland Islands",
            0.022942520678043365
          ],
          [
            "Slovakia",
            0.022589370608329773
          ],
          [
            "Guadeloupe",
            0.022177057340741158
          ],
          [
            "India",
            0.022072087973356247
          ],
          [
            "United States of America",
            0.018830617889761925
          ],
          [
            "Svalbard",
            0.017930982634425163
          ],
          [
            "Dominican Republic",
            0.017045823857188225
          ],
          [
            "Turkmenistan",
            0.016870643943548203
          ],
          [
            "Hong Kong",
            0.016183480620384216
          ],
          [
            "Lithuania",
            0.014349369332194328
          ],
          [
            "Honduras",
            0.014292744919657707
          ],
          [
            "Syria",
            0.01354824099689722
          ],
          [
            "Spain",
            0.013037691824138165
          ],
          [
            "Cuba",
            0.01301995012909174
          ],
          [
            "Turks and Caicos Islands",
            0.013006049208343029
          ],
          [
            "Russia",
            0.012575901113450527
          ],
          [
            "Indonesia",
            0.012557468377053738
          ],
          [
            "Romania",
            0.012326829135417938
          ],
          [
            "El Salvador",
            0.012111370451748371
          ],
          [
            "Iceland",
            0.012068570591509342
          ],
          [
            "Fiji",
            0.011966729536652565
          ],
          [
            "Ukraine",
            0.011928081512451172
          ],
          [
            "Gabon",
            0.011741407215595245
          ],
          [
            "Tajikistan",
            0.011624153703451157
          ],
          [
            "Burkina Faso",
            0.010883493348956108
          ],
          [
            "Panama",
            0.010471505112946033
          ],
          [
            "Bangladesh",
            0.009763159789144993
          ],
          [
            "Estonia",
            0.00955555122345686
          ],
          [
            "Uzbekistan",
            0.009431030601263046
          ],
          [
            "Malaysia",
            0.009244843386113644
          ],
          [
            "France",
            0.009190710261464119
          ],
          [
            "Iran",
            0.009129124693572521
          ],
          [
            "Jamaica",
            0.008691770024597645
          ],
          [
            "Turkey",
            0.008626187220215797
          ],
          [
            "Saudi Arabia",
            0.008370551280677319
          ],
          [
            "Azerbaijan",
            0.008036197163164616
          ],
          [
            "North Macedonia",
            0.008008149452507496
          ],
          [
            "Senegal",
            0.008007019758224487
          ],
          [
            "Solomon Islands",
            0.00796365737915039
          ],
          [
            "Ethiopia",
            0.007910022512078285
          ],
          [
            "Papua New Guinea",
            0.007739693857729435
          ],
          [
            "Switzerland",
            0.007643354590982199
          ],
          [
            "Latvia",
            0.007440309505909681
          ],
          [
            "Ecuador",
            0.0074339257553219795
          ],
          [
            "Czech Republic",
            0.007257136516273022
          ],
          [
            "Montenegro",
            0.007172670215368271
          ],
          [
            "Netherlands Antilles",
            0.0070956130512058735
          ],
          [
            "Puerto Rico",
            0.00708111934363842
          ],
          [
            "Gambia",
            0.006933821365237236
          ],
          [
            "Costa Rica",
            0.006700498051941395
          ],
          [
            "Yemen",
            0.00669771246612072
          ],
          [
            "Rwanda",
            0.006545780226588249
          ],
          [
            "Australia",
            0.006540837697684765
          ],
          [
            "Somalia",
            0.006179761607199907
          ],
          [
            "Croatia",
            0.005914149805903435
          ],
          [
            "Namibia",
            0.0057439557276666164
          ],
          [
            "Mozambique",
            0.005638877861201763
          ],
          [
            "Burundi",
            0.0052556609734892845
          ],
          [
            "Timor-Leste",
            0.005111275240778923
          ],
          [
            "Sierra Leone",
            0.004994568414986134
          ],
          [
            "Belgium",
            0.004887372720986605
          ],
          [
            "Kazakhstan",
            0.004680914338678122
          ],
          [
            "Thailand",
            0.004673224873840809
          ],
          [
            "Bahamas",
            0.004590797238051891
          ],
          [
            "Mauritania",
            0.004483801778405905
          ],
          [
            "Cambodia",
            0.004414084833115339
          ],
          [
            "Mongolia",
            0.004408052656799555
          ],
          [
            "Venezuela",
            0.004390147048979998
          ],
          [
            "China",
            0.004371763672679663
          ],
          [
            "Samoa",
            0.004364939872175455
          ],
          [
            "Nepal",
            0.004159172065556049
          ],
          [
            "South Georgia Islands",
            0.00399162108078599
          ],
          [
            "Belarus",
            0.003946524579077959
          ],
          [
            "Peru",
            0.0039319186471402645
          ],
          [
            "Angola",
            0.003910670056939125
          ],
          [
            "Nigeria",
            0.003905452089384198
          ],
          [
            "Mexico",
            0.0038051861338317394
          ],
          [
            "Côte d'Ivoire",
            0.003742828266695142
          ],
          [
            "Cyprus",
            0.0037179184146225452
          ],
          [
            "Algeria",
            0.0036801304668188095
          ],
          [
            "Georgia",
            0.0035142581909894943
          ],
          [
            "South Korea",
            0.0033708030823618174
          ],
          [
            "Lesotho",
            0.0032781301997601986
          ],
          [
            "Laos",
            0.0031894100829958916
          ],
          [
            "Kuwait",
            0.003188278991729021
          ],
          [
            "Eritrea",
            0.003157234750688076
          ],
          [
            "Jordan",
            0.0030630631372332573
          ],
          [
            "Bhutan",
            0.0030530134681612253
          ],
          [
            "Iraq",
            0.0029381774365901947
          ],
          [
            "Reunion",
            0.002920009195804596
          ],
          [
            "Suriname",
            0.002899894956499338
          ],
          [
            "Benin",
            0.002834583865478635
          ],
          [
            "Italy",
            0.0027985102497041225
          ],
          [
            "Sudan",
            0.0027747468557208776
          ],
          [
            "Greece",
            0.002742665819823742
          ],
          [
            "Zambia",
            0.00262550450861454
          ],
          [
            "Heard and McDonald Islands",
            0.0025620495434850454
          ],
          [
            "Guyana",
            0.002477437723428011
          ],
          [
            "Armenia",
            0.002469700062647462
          ],
          [
            "Comoros",
            0.0024026581086218357
          ],
          [
            "Uganda",
            0.002371434587985277
          ],
          [
            "Bulgaria",
            0.002316862577572465
          ],
          [
            "Uruguay",
            0.0022729868069291115
          ],
          [
            "New Caledonia",
            0.0022694733925163746
          ],
          [
            "Belize",
            0.0022398780565708876
          ],
          [
            "Serbia",
            0.002203264506533742
          ],
          [
            "Mali",
            0.0022015126887708902
          ],
          [
            "Slovenia",
            0.0021769932936877012
          ],
          [
            "Nicaragua",
            0.0021393417846411467
          ],
          [
            "Guatemala",
            0.0021340805105865
          ],
          [
            "South Africa",
            0.0021089441142976284
          ],
          [
            "Afghanistan",
            0.0020976990927010775
          ],
          [
            "Eswatini",
            0.0020960874389857054
          ],
          [
            "Djibouti",
            0.002048652619123459
          ],
          [
            "Brazil",
            0.0019506182288751006
          ],
          [
            "Greenland",
            0.001925133285112679
          ],
          [
            "Liberia",
            0.0018724772380664945
          ],
          [
            "Zimbabwe",
            0.001864967169240117
          ],
          [
            "Western Sahara",
            0.00184914143756032
          ],
          [
            "Mayotte",
            0.0018297922797501087
          ],
          [
            "Poland",
            0.0017832915764302015
          ],
          [
            "Egypt",
            0.0017791535938158631
          ],
          [
            "Hungary",
            0.0017652036622166634
          ],
          [
            "Argentina",
            0.0017570310737937689
          ],
          [
            "United Arab Emirates",
            0.001705615664832294
          ],
          [
            "Central African Republic",
            0.0016993065364658833
          ],
          [
            "Guam",
            0.001642462913878262
          ],
          [
            "South Sudan",
            0.0016357318963855505
          ],
          [
            "Japan",
            0.0015637017786502838
          ],
          [
            "Brunei",
            0.0015097118448466063
          ],
          [
            "Barbados",
            0.0014949148753657937
          ],
          [
            "New Zealand",
            0.0014379938365891576
          ],
          [
            "Norway",
            0.001423905254341662
          ],
          [
            "DR Congo",
            0.0013819111045449972
          ],
          [
            "Martinique",
            0.0013416187139227986
          ],
          [
            "Bolivia",
            0.0013407283695414662
          ],
          [
            "Cape Verde",
            0.0013307617045938969
          ],
          [
            "North Korea",
            0.0012732753530144691
          ],
          [
            "Canada",
            0.0012469604844227433
          ],
          [
            "Germany",
            0.0012391600757837296
          ],
          [
            "Sri Lanka",
            0.0012362446868792176
          ],
          [
            "Botswana",
            0.0012211058055981994
          ],
          [
            "Faroe Islands",
            0.0011967475293204188
          ],
          [
            "Tanzania",
            0.0011879419907927513
          ],
          [
            "Vanuatu",
            0.001156679936684668
          ],
          [
            "Kenya",
            0.0010989223374053836
          ],
          [
            "Niger",
            0.0010982161620631814
          ],
          [
            "Myanmar",
            0.0010890860576182604
          ],
          [
            "Luxembourg",
            0.0010533940512686968
          ],
          [
            "Bosnia & Herzegovina",
            0.0010390961542725563
          ],
          [
            "Bahrain",
            0.0010276389075443149
          ],
          [
            "Qatar",
            0.0010144488187506795
          ],
          [
            "Malawi",
            0.000972199602983892
          ],
          [
            "Albania",
            0.0009077119175344706
          ],
          [
            "French Guiana",
            0.0009040627046488225
          ],
          [
            "Libya",
            0.0008577192784287035
          ],
          [
            "Trinidad and Tobago",
            0.0008539289701730013
          ],
          [
            "Equatorial Guinea",
            0.0007777588325552642
          ],
          [
            "Moldova",
            0.0007669432088732719
          ],
          [
            "Sao Tome and Principe",
            0.0007481360225938261
          ],
          [
            "Paraguay",
            0.0007411609985865653
          ],
          [
            "Congo",
            0.0007292042719200253
          ],
          [
            "Togo",
            0.0007241839193738997
          ],
          [
            "Tunisia",
            0.0006649745628237724
          ],
          [
            "Denmark",
            0.0006633151206187904
          ],
          [
            "Madeira Islands",
            0.0006509980303235352
          ],
          [
            "Dominica",
            0.0006293715559877455
          ],
          [
            "Sweden",
            0.0005854181945323944
          ],
          [
            "Vietnam",
            0.0005710340919904411
          ],
          [
            "Ireland",
            0.0005554248346015811
          ],
          [
            "Austria",
            0.0005508649628609419
          ],
          [
            "Kiribati",
            0.0005426732823252678
          ],
          [
            "Taiwan",
            0.0005199949373491108
          ],
          [
            "Portugal",
            0.0004983298713341355
          ],
          [
            "Ghana",
            0.0004718803393188864
          ],
          [
            "Israel",
            0.0004537016502581537
          ],
          [
            "Colombia",
            0.00041554670315235853
          ],
          [
            "Netherlands",
            0.0004147374420426786
          ],
          [
            "Chile",
            0.00041196387610398233
          ],
          [
            "Philippines",
            0.0003938213631045073
          ],
          [
            "Saint Lucia",
            0.0003896246198564768
          ],
          [
            "Lebanon",
            0.0003672597522381693
          ],
          [
            "Finland",
            0.00036721842479892075
          ],
          [
            "Antigua & Barbuda",
            0.0003158461768180132
          ],
          [
            "West Bank",
            0.00031483510974794626
          ],
          [
            "Chad",
            0.0002849168668035418
          ],
          [
            "Cameroon",
            0.0002562742156442255
          ],
          [
            "United Kingdom",
            0.00025116169126704335
          ],
          [
            "Isle of Man",
            0.00023004501417744905
          ],
          [
            "Morocco",
            0.00021942632156424224
          ],
          [
            "Oman",
            0.00019959874043706805
          ],
          [
            "United States Virgin Islands",
            0.00018998967425432056
          ],
          [
            "Pakistan",
            0.00016910703561734408
          ],
          [
            "Haiti",
            9.66316438280046e-05
          ],
          [
            "Palau",
            9.301859245169908e-05
          ],
          [
            "Madagascar",
            9.219108324032277e-05
          ]
        ]
      },
      "geometry": {
        "type": "MultiLineString",
        "coordinates": [
          [
            [
              10.508287292817727,
              33.546961325966834
            ],
            [
              11.281767955801115,
              33.546961325966834
            ],
            [
              15.259668508287291,
              33.325966850828706
            ],
            [
              25.204419889502788,
              32.88397790055251
            ],
            [
              41.22651933701661,
              32.0
            ],
            [
              60.67403314917124,
              30.784530386740357
            ]
          ],
          [
            [
              62.0,
              30.011049723756912
            ],
            [
              62.0,
              30.784530386740357
            ],
            [
              62.0,
              31.558011049723746
            ],
            [
              61.77900552486187,
              32.773480662983445
            ],
            [
              61.558011049723746,
              33.878453038674024
            ],
            [
              61.44751381215474,
              34.98342541436466
            ],
            [
              61.44751381215474,
              35.86740331491711
            ],
            [
              61.44751381215474,
              37.30386740331494
            ],
            [
              61.44751381215474,
              38.40883977900552
            ],
            [
              61.44751381215474,
              39.29281767955803
            ],
            [
              61.44751381215474,
              39.845303867403345
            ],
            [
              61.44751381215474,
              40.397790055248606
            ],
            [
              61.44751381215474,
              40.950276243093924
            ],
            [
              61.44751381215474,
              41.39226519337018
            ],
            [
              61.44751381215474,
              41.83425414364643
            ],
            [
              61.44751381215474,
              42.93922651933701
            ],
            [
              61.44751381215474,
              43.602209944751394
            ],
            [
              61.44751381215474,
              44.486187845303846
            ],
            [
              61.44751381215474,
              45.14917127071823
            ],
            [
              61.44751381215474,
              45.92265193370167
            ],
            [
              61.44751381215474,
              46.806629834254124
            ],
            [
              61.44751381215474,
              47.35911602209944
            ],
            [
              61.33701657458562,
              47.69060773480663
            ],
            [
              61.005524861878484,
              48.24309392265195
            ],
            [
              60.3425414364641,
              48.906077348066276
            ],
            [
              59.79005524861884,
              49.458563535911594
            ],
            [
              59.458563535911594,
              49.790055248618785
            ],
            [
              59.12707182320446,
              49.90055248618785
            ],
            [
              58.132596685082945,
              50.121546961325976
            ],
            [
              54.92817679558016,
              50.78453038674036
            ],
            [
              52.0552486187845,
              51.11602209944749
            ],
            [
              48.74033149171271,
              51.33701657458562
            ],
            [
              44.76243093922653,
              51.558011049723746
            ],
            [
              40.23204419889498,
              51.66850828729281
            ],
            [
              35.038674033149164,
              51.77900552486187
            ],
            [
              30.618784530386733,
              52.0
            ],
            [
              27.414364640883946,
              52.110497237569064
            ],
            [
              24.651933701657526,
              52.22099447513813
            ],
            [
              22.88397790055251,
              52.33149171270719
            ],
            [
              21.779005524861873,
              52.441988950276254
            ],
            [
              20.895027624309364,
              52.441988950276254
            ],
            [
              19.458563535911594,
              52.441988950276254
            ],
            [
              18.022099447513824,
              52.441988950276254
            ],
            [
              16.364640883977927,
              52.441988950276254
            ],
            [
              15.370165745856411,
              52.441988950276254
            ],
            [
              14.59668508287291,
              52.441988950276254
            ],
            [
              14.154696132596655,
              52.441988950276254
            ],
            [
              14.044198895027648,
              52.110497237569064
            ],
            [
              13.7127071823204,
              51.558011049723746
            ],
            [
              13.602209944751394,
              51.226519337016555
            ],
            [
              13.27071823204426,
              50.56353591160223
            ],
            [
              12.828729281768005,
              49.67955801104972
            ],
            [
              12.165745856353624,
              48.46408839779008
            ],
            [
              11.171270718232108,
              46.91712707182319
            ],
            [
              10.176795580110479,
              45.48066298342542
            ],
            [
              9.29281767955797,
              44.04419889502765
            ],
            [
              8.629834254143702,
              42.60773480662982
            ],
            [
              7.8563535911602,
              40.61878453038673
            ],
            [
              7.414364640883946,
              39.18232044198896
            ],
            [
              7.082872928176812,
              38.07734806629833
            ],
            [
              6.972375690607805,
              37.414364640884
            ],
            [
              6.861878453038685,
              37.08287292817681
            ],
            [
              6.861878453038685,
              36.530386740331494
            ],
            [
              6.861878453038685,
              36.08839779005524
            ],
            [
              7.414364640883946,
              35.86740331491711
            ],
            [
              8.077348066298327,
              35.75690607734805
            ],
            [
              8.85082872928183,
              35.646408839778985
            ],
            [
              10.066298342541472,
              35.314917127071794
            ],
            [
              11.392265193370122,
              35.093922651933724
            ],
            [
              12.055248618784503,
              34.98342541436466
            ],
            [
              12.386740331491751,
              34.8729281767956
            ],
            [
              12.607734806629878,
              34.43093922651934
            ],
            [
              12.828729281768005,
              33.878453038674024
            ],
            [
              12.939226519337012,
              33.546961325966834
            ],
            [
              12.939226519337012,
              32.55248618784532
            ],
            [
              12.939226519337012,
              32.0
            ],
            [
              12.828729281768005,
              31.558011049723746
            ]
          ],
          [
            [
              11.834254143646376,
              32.441988950276254
            ],
            [
              11.834254143646376,
              32.0
            ],
            [
              11.281767955801115,
              31.889502762430936
            ],
            [
              10.83977900552486,
              31.889502762430936
            ],
            [
              10.397790055248606,
              31.889502762430936
            ],
            [
              9.734806629834225,
              31.889502762430936
            ],
            [
              9.29281767955797,
              31.779005524861873
            ],
            [
              9.071823204419843,
              31.447513812154682
            ],
            [
              8.85082872928183,
              31.11602209944749
            ],
            [
              8.740331491712709,
              30.784530386740357
            ],
            [
              8.740331491712709,
              30.342541436464103
            ],
            [
              8.740331491712709,
              29.790055248618785
            ],
            [
              8.740331491712709,
              29.34806629834253
            ],
            [
              8.85082872928183,
              28.906077348066276
            ],
            [
              9.182320441988963,
              28.574585635359085
            ],
            [
              9.624309392265218,
              28.46408839779008
            ],
            [
              10.176795580110479,
              28.353591160221015
            ],
            [
              10.618784530386733,
              28.353591160221015
            ],
            [
              11.060773480662988,
              28.353591160221015
            ],
            [
              11.171270718232108,
              28.022099447513824
            ],
            [
              11.171270718232108,
              27.469613259668506
            ],
            [
              11.392265193370122,
              27.138121546961315
            ],
            [
              11.502762430939242,
              26.806629834254124
            ],
            [
              11.72375690607737,
              26.475138121546934
            ],
            [
              11.72375690607737,
              25.922651933701673
            ],
            [
              11.72375690607737,
              25.480662983425418
            ],
            [
              11.834254143646376,
              25.149171270718227
            ],
            [
              11.834254143646376,
              24.707182320441973
            ],
            [
              11.944751381215497,
              24.375690607734782
            ],
            [
              12.27624309392263,
              24.265193370165775
            ],
            [
              12.607734806629878,
              24.375690607734782
            ],
            [
              12.939226519337012,
              24.59668508287291
            ],
            [
              13.049723756906133,
              25.038674033149164
            ],
            [
              13.049723756906133,
              25.480662983425418
            ],
            [
              12.939226519337012,
              25.81215469613261
            ],
            [
              12.718232044198885,
              26.1436464088398
            ],
            [
              12.607734806629878,
              26.475138121546934
            ],
            [
              12.497237569060758,
              26.806629834254124
            ],
            [
              12.497237569060758,
              27.24861878453038
            ],
            [
              12.828729281768005,
              27.359116022099442
            ],
            [
              13.16022099447514,
              27.58011049723757
            ],
            [
              13.7127071823204,
              28.022099447513824
            ],
            [
              14.154696132596655,
              28.46408839779008
            ],
            [
              14.265193370165775,
              28.795580110497212
            ],
            [
              14.486187845303903,
              29.127071823204403
            ],
            [
              14.70718232044203,
              29.569060773480658
            ],
            [
              14.817679558011037,
              29.90055248618785
            ],
            [
              14.70718232044203,
              30.23204419889504
            ],
            [
              14.265193370165775,
              30.342541436464103
            ],
            [
              13.933701657458528,
              30.56353591160223
            ],
            [
              13.491712707182387,
              30.56353591160223
            ],
            [
              12.828729281768005,
              30.121546961325976
            ],
            [
              12.497237569060758,
              28.574585635359085
            ],
            [
              12.386740331491751,
              27.24861878453038
            ]
          ],
          [
            [
              3.43646408839777,
              33.325966850828706
            ],
            [
              4.209944751381272,
              33.546961325966834
            ],
            [
              5.867403314917169,
              33.76795580110496
            ],
            [
              7.7458563535911935,
              33.98895027624309
            ],
            [
              8.961325966850836,
              34.209944751381215
            ],
            [
              9.513812154696097,
              34.32044198895028
            ],
            [
              9.955801104972352,
              34.43093922651934
            ],
            [
              10.618784530386733,
              34.32044198895028
            ],
            [
              11.281767955801115,
              33.76795580110496
            ],
            [
              12.055248618784503,
              32.66298342541438
            ],
            [
              13.049723756906133,
              31.005524861878484
            ],
            [
              14.154696132596655,
              29.34806629834253
            ],
            [
              15.480662983425418,
              28.022099447513824
            ],
            [
              16.80662983425418,
              27.02762430939225
            ],
            [
              18.022099447513824,
              26.1436464088398
            ],
            [
              19.12707182320446,
              24.9281767955801
            ],
            [
              20.01104972375697,
              23.49171270718233
            ],
            [
              20.674033149171237,
              22.055248618784503
            ],
            [
              21.22651933701661,
              20.287292817679543
            ],
            [
              21.668508287292866,
              17.082872928176812
            ],
            [
              21.889502762430993,
              14.65193370165747
            ],
            [
              22.0,
              12.773480662983445
            ],
            [
              22.11049723756912,
              11.889502762430936
            ],
            [
              21.558011049723746,
              11.558011049723746
            ],
            [
              20.674033149171237,
              11.558011049723746
            ],
            [
              19.90055248618785,
              11.558011049723746
            ],
            [
              18.13259668508283,
              11.779005524861873
            ],
            [
              16.585635359116054,
              12.33149171270719
            ],
            [
              15.259668508287291,
              12.994475138121516
            ],
            [
              14.154696132596655,
              13.657458563535897
            ],
            [
              13.16022099447514,
              14.430939226519342
            ],
            [
              12.386740331491751,
              15.425414364640915
            ],
            [
              11.72375690607737,
              16.198895027624303
            ],
            [
              11.171270718232108,
              16.75138121546962
            ],
            [
              10.618784530386733,
              17.30386740331494
            ],
            [
              9.845303867403345,
              18.298342541436455
            ],
            [
              8.519337016574582,
              19.624309392265218
            ],
            [
              7.303867403314939,
              20.83977900552486
            ],
            [
              5.867403314917169,
              22.386740331491694
            ],
            [
              5.093922651933667,
              23.270718232044203
            ],
            [
              4.651933701657526,
              24.044198895027648
            ],
            [
              4.0994475138121516,
              24.9281767955801
            ],
            [
              3.5469613259668904,
              26.033149171270736
            ],
            [
              2.9944751381215156,
              27.138121546961315
            ],
            [
              2.6629834254143816,
              27.801104972375697
            ],
            [
              2.3314917127072476,
              28.795580110497212
            ],
            [
              2.1104972375691204,
              30.011049723756912
            ],
            [
              2.0,
              31.226519337016555
            ],
            [
              2.0,
              32.55248618784532
            ],
            [
              2.220994475138127,
              34.541436464088406
            ],
            [
              2.7734806629833884,
              35.75690607734805
            ],
            [
              3.2154696132596428,
              36.530386740331494
            ],
            [
              3.43646408839777,
              36.861878453038685
            ],
            [
              3.988950276243145,
              37.08287292817681
            ],
            [
              4.541436464088406,
              37.08287292817681
            ],
            [
              5.093922651933667,
              36.75138121546962
            ],
            [
              5.646408839779042,
              36.1988950276243
            ],
            [
              6.088397790055296,
              35.314917127071794
            ],
            [
              6.861878453038685,
              33.325966850828706
            ],
            [
              7.082872928176812,
              32.33149171270719
            ]
          ]
        ]
      }
    }
  ]
}