{
  "type": "FeatureCollection",
  "crs": {
    "type": "name",
    "properties": {
      "name": "urn:ogc:def:crs:OGC:1.3:CRS84"
    }
  },
  "features": [
    {
      "type": "Feature",
      "properties": {
        "timestamp": "2026-07-10T14:41:28.855921",
        "country_name": "Guyana",
        "author": "",
        "author_id": "57396df9-98b5-4e7e-a29a-efe4e9eabde8",
        "validated": false,
        "ranking": [
          [
            "Guyana",
            0.20218215882778168
          ],
          [
            "Albania",
            0.11981330066919327
          ],
          [
            "Finland",
            0.04824768379330635
          ],
          [
            "Sri Lanka",
            0.044642072170972824
          ],
          [
            "Thailand",
            0.037075355648994446
          ],
          [
            "Tunisia",
            0.03555671498179436
          ],
          [
            "Qatar",
            0.032355621457099915
          ],
          [
            "Serbia",
            0.031004928052425385
          ],
          [
            "Benin",
            0.028246575966477394
          ],
          [
            "Luxembourg",
            0.024337509647011757
          ],
          [
            "West Bank",
            0.022797025740146637
          ],
          [
            "Togo",
            0.022575784474611282
          ],
          [
            "Peru",
            0.017382804304361343
          ],
          [
            "Myanmar",
            0.01571548543870449
          ],
          [
            "Dominica",
            0.01422392763197422
          ],
          [
            "United Kingdom",
            0.014160072430968285
          ],
          [
            "Vietnam",
            0.01402747817337513
          ],
          [
            "Portugal",
            0.013287981040775776
          ],
          [
            "Malawi",
            0.013048091903328896
          ],
          [
            "Moldova",
            0.011797471903264523
          ],
          [
            "Argentina",
            0.011693556793034077
          ],
          [
            "Bangladesh",
            0.010831648483872414
          ],
          [
            "Philippines",
            0.010786919854581356
          ],
          [
            "South Korea",
            0.010774592868983746
          ],
          [
            "Italy",
            0.008915906772017479
          ],
          [
            "Greenland",
            0.007650275714695454
          ],
          [
            "Belize",
            0.005930716171860695
          ],
          [
            "Laos",
            0.005740511696785688
          ],
          [
            "Faroe Islands",
            0.005433369427919388
          ],
          [
            "Bahrain",
            0.0050874026492238045
          ],
          [
            "Ghana",
            0.005051202140748501
          ],
          [
            "Saudi Arabia",
            0.004916173405945301
          ],
          [
            "Mozambique",
            0.004766155034303665
          ],
          [
            "Martinique",
            0.004756637383252382
          ],
          [
            "Guatemala",
            0.0042081475257873535
          ],
          [
            "Vanuatu",
            0.0038868626579642296
          ],
          [
            "Colombia",
            0.003111575497314334
          ],
          [
            "Turkmenistan",
            0.0031107685063034296
          ],
          [
            "French Guiana",
            0.002801306312903762
          ],
          [
            "Saint Lucia",
            0.0027473075315356255
          ],
          [
            "Iraq",
            0.0027165384963154793
          ],
          [
            "Tajikistan",
            0.0027109533548355103
          ],
          [
            "Ethiopia",
            0.0026705076452344656
          ],
          [
            "Namibia",
            0.0025952656287699938
          ],
          [
            "Papua New Guinea",
            0.002585260896012187
          ],
          [
            "Sweden",
            0.0025754619855433702
          ],
          [
            "Eritrea",
            0.0025172799360007048
          ],
          [
            "Heard and McDonald Islands",
            0.0022103337105363607
          ],
          [
            "Bahamas",
            0.0022058989852666855
          ],
          [
            "United States of America",
            0.0021958996076136827
          ],
          [
            "Romania",
            0.0021282576490193605
          ],
          [
            "Cameroon",
            0.002029833383858204
          ],
          [
            "Chad",
            0.00201037572696805
          ],
          [
            "Ireland",
            0.0017957824748009443
          ],
          [
            "Canada",
            0.0017808801494538784
          ],
          [
            "Croatia",
            0.0017805983079597354
          ],
          [
            "Israel",
            0.0017562119755893946
          ],
          [
            "Uzbekistan",
            0.0016460869228467345
          ],
          [
            "Paraguay",
            0.0016456632874906063
          ],
          [
            "Somalia",
            0.0016350505175068974
          ],
          [
            "Indonesia",
            0.0015551373362541199
          ],
          [
            "France",
            0.0015462316805496812
          ],
          [
            "Antigua & Barbuda",
            0.00152873364277184
          ],
          [
            "Guadeloupe",
            0.0015278328210115433
          ],
          [
            "South Georgia Islands",
            0.0015151019906625152
          ],
          [
            "Eswatini",
            0.0014797422336414456
          ],
          [
            "El Salvador",
            0.0013901342172175646
          ],
          [
            "Svalbard",
            0.0013841151958331466
          ],
          [
            "Equatorial Guinea",
            0.0013695040252059698
          ],
          [
            "Mexico",
            0.0013311185175552964
          ],
          [
            "Mayotte",
            0.0013251072959974408
          ],
          [
            "Cuba",
            0.001315520261414349
          ],
          [
            "United States Virgin Islands",
            0.0013080016942694783
          ],
          [
            "Barbados",
            0.0012745230924338102
          ],
          [
            "Armenia",
            0.001271216431632638
          ],
          [
            "Congo",
            0.001218875520862639
          ],
          [
            "New Caledonia",
            0.0012053025420755148
          ],
          [
            "Lithuania",
            0.0011392980813980103
          ],
          [
            "Senegal",
            0.001098938169889152
          ],
          [
            "Chile",
            0.0010431143455207348
          ],
          [
            "Bolivia",
            0.001037309062667191
          ],
          [
            "Trinidad and Tobago",
            0.0010305901523679495
          ],
          [
            "Germany",
            0.0009756091749295592
          ],
          [
            "Oman",
            0.0009622293873690069
          ],
          [
            "Russia",
            0.0009386100573465228
          ],
          [
            "Liberia",
            0.0008995587122626603
          ],
          [
            "New Zealand",
            0.0008711176342330873
          ],
          [
            "Greece",
            0.0008509738836437464
          ],
          [
            "Kuwait",
            0.0008358622435480356
          ],
          [
            "Samoa",
            0.0007953977328725159
          ],
          [
            "Denmark",
            0.0007915294263511896
          ],
          [
            "Solomon Islands",
            0.0007738384301774204
          ],
          [
            "Kenya",
            0.0007365141063928604
          ],
          [
            "Nepal",
            0.0007189959869720042
          ],
          [
            "Georgia",
            0.0007180092507041991
          ],
          [
            "Costa Rica",
            0.0007163991685956717
          ],
          [
            "Czech Republic",
            0.0006934182019904256
          ],
          [
            "Turks and Caicos Islands",
            0.0006915096892043948
          ],
          [
            "Djibouti",
            0.0006902354652993381
          ],
          [
            "Burundi",
            0.0006831431528553367
          ],
          [
            "Montenegro",
            0.0006755952490493655
          ],
          [
            "India",
            0.0006705563864670694
          ],
          [
            "Hong Kong",
            0.0006509142694994807
          ],
          [
            "Dominican Republic",
            0.000639013946056366
          ],
          [
            "Latvia",
            0.0006132246344350278
          ],
          [
            "Ecuador",
            0.0005988844786770642
          ],
          [
            "Japan",
            0.0005984894232824445
          ],
          [
            "Reunion",
            0.0005975461099296808
          ],
          [
            "United Arab Emirates",
            0.0005874803173355758
          ],
          [
            "Taiwan",
            0.0005794234457425773
          ],
          [
            "Spain",
            0.0005704827490262687
          ],
          [
            "Panama",
            0.0005601511802524328
          ],
          [
            "Switzerland",
            0.0005519119440577924
          ],
          [
            "Cape Verde",
            0.0005336432950571179
          ],
          [
            "Angola",
            0.0005299319745972753
          ],
          [
            "Uganda",
            0.0005292692803777754
          ],
          [
            "Falkland Islands",
            0.0005270580877549946
          ],
          [
            "Timor-Leste",
            0.0005146112525835633
          ],
          [
            "Brazil",
            0.0004864218644797802
          ],
          [
            "Ukraine",
            0.0004849859105888754
          ],
          [
            "Algeria",
            0.0004694623639807105
          ],
          [
            "Mali",
            0.0004668078036047518
          ],
          [
            "Venezuela",
            0.0004519350186455995
          ],
          [
            "Slovakia",
            0.00044847873505204916
          ],
          [
            "Jamaica",
            0.00043995626037940383
          ],
          [
            "Sierra Leone",
            0.0004348712391220033
          ],
          [
            "Comoros",
            0.0004278043343219906
          ],
          [
            "Bosnia & Herzegovina",
            0.0003974423452746123
          ],
          [
            "Belarus",
            0.00039347336860373616
          ],
          [
            "Australia",
            0.00038796247099526227
          ],
          [
            "Puerto Rico",
            0.00038703784230165184
          ],
          [
            "China",
            0.00038503584801219404
          ],
          [
            "Suriname",
            0.000370459834812209
          ],
          [
            "DR Congo",
            0.0003424409660510719
          ],
          [
            "South Sudan",
            0.0003407944168429822
          ],
          [
            "Guinea",
            0.0003181209904141724
          ],
          [
            "Fiji",
            0.0003157669852953404
          ],
          [
            "Kazakhstan",
            0.0003087182994931936
          ],
          [
            "Turkey",
            0.0003060133312828839
          ],
          [
            "Rwanda",
            0.0003034032415598631
          ],
          [
            "Lesotho",
            0.0003030481457244605
          ],
          [
            "Iran",
            0.0003002313314937055
          ],
          [
            "Bhutan",
            0.00029494313639588654
          ],
          [
            "Mongolia",
            0.0002898807288147509
          ],
          [
            "Jordan",
            0.00027160707395523787
          ],
          [
            "Netherlands",
            0.0002688998356461525
          ],
          [
            "Kyrgyzstan",
            0.0002681495388969779
          ],
          [
            "Guinea-Bissau",
            0.0002602203458081931
          ],
          [
            "Gabon",
            0.00025784590980038047
          ],
          [
            "Honduras",
            0.00025739826378412545
          ],
          [
            "Mauritania",
            0.00025322457076981664
          ],
          [
            "Burkina Faso",
            0.0002453746856190264
          ],
          [
            "Gambia",
            0.0002410191373201087
          ],
          [
            "Botswana",
            0.00023066430003382266
          ],
          [
            "Azerbaijan",
            0.00022905223886482418
          ],
          [
            "Uruguay",
            0.00021993144764564931
          ],
          [
            "North Macedonia",
            0.0002162608871003613
          ],
          [
            "Syria",
            0.00020946297445334494
          ],
          [
            "Madagascar",
            0.00020634615793824196
          ],
          [
            "Central African Republic",
            0.00020600875723175704
          ],
          [
            "Yemen",
            0.00020488727022893727
          ],
          [
            "Guam",
            0.00020005975966341794
          ],
          [
            "South Africa",
            0.00019776745466515422
          ],
          [
            "Nicaragua",
            0.00019320091814734042
          ],
          [
            "Sudan",
            0.00019314490782562643
          ],
          [
            "Belgium",
            0.00019226534641347826
          ],
          [
            "Palau",
            0.00018934920080937445
          ],
          [
            "Estonia",
            0.0001736727572279051
          ],
          [
            "Egypt",
            0.00017362870858050883
          ],
          [
            "Madeira Islands",
            0.0001729267241898924
          ],
          [
            "Zimbabwe",
            0.0001719994324957952
          ],
          [
            "Cambodia",
            0.00016466011584270746
          ],
          [
            "Malaysia",
            0.0001581607066327706
          ],
          [
            "Zambia",
            0.00014889768499415368
          ],
          [
            "North Korea",
            0.00014707373338751495
          ],
          [
            "Cyprus",
            0.0001360310852760449
          ],
          [
            "Western Sahara",
            0.00012506246275734156
          ],
          [
            "Côte d'Ivoire",
            0.00012428795162122697
          ],
          [
            "Libya",
            0.00011848310532514006
          ],
          [
            "Netherlands Antilles",
            0.00010878926696022972
          ],
          [
            "Brunei",
            0.00010835915600182489
          ],
          [
            "Kiribati",
            0.00010786179336719215
          ],
          [
            "Isle of Man",
            0.00010614257189445198
          ],
          [
            "Sao Tome and Principe",
            9.953404514817521e-05
          ],
          [
            "Iceland",
            9.80167169473134e-05
          ],
          [
            "Pakistan",
            9.65191939030774e-05
          ],
          [
            "Nigeria",
            8.571751095587388e-05
          ],
          [
            "Austria",
            8.134850213536993e-05
          ],
          [
            "Norway",
            7.497763726860285e-05
          ],
          [
            "Lebanon",
            7.408842793665826e-05
          ],
          [
            "Afghanistan",
            7.260680285980925e-05
          ],
          [
            "Slovenia",
            7.197872764663771e-05
          ],
          [
            "Poland",
            7.108549471013248e-05
          ],
          [
            "Tanzania",
            5.4022701078793034e-05
          ],
          [
            "Hungary",
            5.189983858144842e-05
          ],
          [
            "Niger",
            4.660904596676119e-05
          ],
          [
            "Bulgaria",
            3.495800410746597e-05
          ],
          [
            "Haiti",
            2.665833198989276e-05
          ],
          [
            "Morocco",
            8.403982064919546e-06
          ]
        ]
      },
      "geometry": {
        "type": "MultiLineString",
        "coordinates": [
          [
            [
              41.42281879194633,
              8.845637583892625
            ],
            [
              40.37583892617451,
              8.765100671140942
            ],
            [
              37.476510067114106,
              8.765100671140942
            ],
            [
              33.69127516778525,
              8.765100671140942
            ],
            [
              29.422818791946327,
              9.81208053691276
            ],
            [
              25.637583892617442,
              11.422818791946298
            ],
            [
              22.5771812080537,
              13.677852348993298
            ],
            [
              21.1275167785235,
              16.25503355704697
            ],
            [
              20.966442953020135,
              18.75167785234899
            ],
            [
              21.288590604026865,
              21.409395973154375
            ],
            [
              23.14093959731545,
              24.30872483221478
            ],
            [
              25.637583892617442,
              26.724832214765115
            ],
            [
              28.859060402684577,
              28.335570469798654
            ],
            [
              32.56375838926175,
              29.06040268456377
            ],
            [
              36.18791946308727,
              29.221476510067106
            ],
            [
              39.32885906040269,
              29.543624161073808
            ],
            [
              41.98657718120805,
              30.107382550335558
            ],
            [
              43.838926174496635,
              31.073825503355692
            ],
            [
              44.56375838926175,
              32.76510067114094
            ],
            [
              44.56375838926175,
              36.06711409395973
            ],
            [
              44.24161073825505,
              41.06040268456377
            ],
            [
              42.71140939597316,
              46.05369127516778
            ],
            [
              40.778523489932894,
              50.72483221476509
            ],
            [
              38.281879194630875,
              54.99328859060404
            ],
            [
              35.463087248322154,
              58.61744966442953
            ],
            [
              32.724832214765115,
              61.033557046979865
            ],
            [
              30.228187919463096,
              62.0
            ],
            [
              27.57046979865771,
              62.0
            ],
            [
              24.590604026845654,
              59.50335570469798
            ],
            [
              21.449664429530202,
              55.154362416107375
            ],
            [
              18.469798657718115,
              50.080536912751654
            ],
            [
              16.37583892617451,
              44.92617449664428
            ],
            [
              15.489932885906057,
              40.17449664429529
            ],
            [
              15.489932885906057,
              36.38926174496646
            ],
            [
              16.859060402684577,
              34.214765100671144
            ],
            [
              20.483221476510067,
              33.651006711409394
            ],
            [
              24.99328859060404,
              33.57046979865771
            ],
            [
              29.82550335570471,
              33.57046979865771
            ],
            [
              34.5771812080537,
              33.81208053691273
            ],
            [
              38.76510067114094,
              34.536912751677846
            ],
            [
              42.469798657718115,
              34.61744966442953
            ],
            [
              45.4496644295302,
              34.05369127516778
            ],
            [
              47.463087248322154,
              31.476510067114077
            ],
            [
              48.42953020134229,
              28.17449664429529
            ],
            [
              48.51006711409394,
              24.389261744966433
            ],
            [
              47.54362416107381,
              19.879194630872462
            ],
            [
              45.04697986577182,
              14.885906040268452
            ],
            [
              42.469798657718115,
              10.053691275167807
            ],
            [
              39.409395973154375,
              5.704697986577173
            ],
            [
              35.70469798657717,
              2.56375838926175
            ],
            [
              31.43624161073825,
              2.0
            ],
            [
              27.489932885906057,
              3.771812080536904
            ],
            [
              24.832214765100673,
              6.75167785234899
            ],
            [
              23.785234899328856,
              8.201342281879192
            ]
          ]
        ]
      }
    }
  ]
}