{
  "type": "FeatureCollection",
  "crs": {
    "type": "name",
    "properties": {
      "name": "urn:ogc:def:crs:OGC:1.3:CRS84"
    }
  },
  "features": [
    {
      "type": "Feature",
      "properties": {
        "timestamp": "2026-07-06T02:29:37.800723",
        "country_name": "India",
        "author": "",
        "author_id": "1da0f222-4a94-47fe-8d60-41319baa6671",
        "validated": false,
        "ranking": [
          [
            "India",
            0.4485221803188324
          ],
          [
            "Bangladesh",
            0.053509924560785294
          ],
          [
            "Montenegro",
            0.02158907987177372
          ],
          [
            "Saudi Arabia",
            0.019790008664131165
          ],
          [
            "Dominican Republic",
            0.018724888563156128
          ],
          [
            "Guadeloupe",
            0.015664834529161453
          ],
          [
            "Czech Republic",
            0.013075046241283417
          ],
          [
            "Belize",
            0.010985550470650196
          ],
          [
            "Syria",
            0.008652642369270325
          ],
          [
            "Jordan",
            0.008624252863228321
          ],
          [
            "Somalia",
            0.008402246981859207
          ],
          [
            "Slovakia",
            0.00812025461345911
          ],
          [
            "Honduras",
            0.007854299619793892
          ],
          [
            "South Georgia Islands",
            0.007568519562482834
          ],
          [
            "Turkey",
            0.006998908240348101
          ],
          [
            "Serbia",
            0.006847480311989784
          ],
          [
            "Spain",
            0.006418958771973848
          ],
          [
            "Angola",
            0.006417771335691214
          ],
          [
            "Heard and McDonald Islands",
            0.005960278678685427
          ],
          [
            "Panama",
            0.0058412859216332436
          ],
          [
            "Guyana",
            0.0057585290633141994
          ],
          [
            "France",
            0.005740982014685869
          ],
          [
            "Burundi",
            0.005718589294701815
          ],
          [
            "Mayotte",
            0.005714740138500929
          ],
          [
            "Namibia",
            0.005570498760789633
          ],
          [
            "Ecuador",
            0.005504739470779896
          ],
          [
            "Tajikistan",
            0.005387036595493555
          ],
          [
            "Bolivia",
            0.005345950368791819
          ],
          [
            "Bahamas",
            0.004850453231483698
          ],
          [
            "Switzerland",
            0.004824112169444561
          ],
          [
            "Mozambique",
            0.0047850278206169605
          ],
          [
            "Ethiopia",
            0.00475100614130497
          ],
          [
            "Gabon",
            0.004700906574726105
          ],
          [
            "Falkland Islands",
            0.004534159321337938
          ],
          [
            "Afghanistan",
            0.004434849135577679
          ],
          [
            "Benin",
            0.0043014045804739
          ],
          [
            "Croatia",
            0.004258384462445974
          ],
          [
            "Romania",
            0.004242923576384783
          ],
          [
            "El Salvador",
            0.003974812105298042
          ],
          [
            "Thailand",
            0.003849889850243926
          ],
          [
            "United States of America",
            0.003547300584614277
          ],
          [
            "Guam",
            0.0035191045608371496
          ],
          [
            "Lithuania",
            0.0034861417952924967
          ],
          [
            "Kyrgyzstan",
            0.0034475321881473064
          ],
          [
            "Kuwait",
            0.0033752003218978643
          ],
          [
            "Uzbekistan",
            0.0033270581625401974
          ],
          [
            "Turkmenistan",
            0.0032548506278544664
          ],
          [
            "Russia",
            0.003240467282012105
          ],
          [
            "Slovenia",
            0.0031705922447144985
          ],
          [
            "Mongolia",
            0.003129353281110525
          ],
          [
            "Jamaica",
            0.003121722722426057
          ],
          [
            "Peru",
            0.003085282864049077
          ],
          [
            "Bhutan",
            0.0030050186906009912
          ],
          [
            "Nigeria",
            0.0029797174502164125
          ],
          [
            "Puerto Rico",
            0.002880460349842906
          ],
          [
            "Iran",
            0.0028630041051656008
          ],
          [
            "Papua New Guinea",
            0.0027634729631245136
          ],
          [
            "North Macedonia",
            0.0027350883465260267
          ],
          [
            "China",
            0.0027303555980324745
          ],
          [
            "Uruguay",
            0.0027269728016108274
          ],
          [
            "Cuba",
            0.0026715060230344534
          ],
          [
            "Svalbard",
            0.0026601061690598726
          ],
          [
            "Rwanda",
            0.0026540702674537897
          ],
          [
            "Cyprus",
            0.002620109124109149
          ],
          [
            "Yemen",
            0.0025256623048335314
          ],
          [
            "Indonesia",
            0.002486856421455741
          ],
          [
            "Georgia",
            0.002486069221049547
          ],
          [
            "Senegal",
            0.0024472041986882687
          ],
          [
            "Ukraine",
            0.0024171299301087856
          ],
          [
            "Sri Lanka",
            0.0023342168424278498
          ],
          [
            "Guinea-Bissau",
            0.0021938481368124485
          ],
          [
            "Iraq",
            0.002183128846809268
          ],
          [
            "Iceland",
            0.0021682807710021734
          ],
          [
            "Martinique",
            0.002087698318064213
          ],
          [
            "Argentina",
            0.0020812139846384525
          ],
          [
            "Armenia",
            0.0020647302735596895
          ],
          [
            "Hong Kong",
            0.0020308089442551136
          ],
          [
            "Comoros",
            0.0019559513311833143
          ],
          [
            "Sierra Leone",
            0.0018959972076117992
          ],
          [
            "Faroe Islands",
            0.0018957223510369658
          ],
          [
            "Barbados",
            0.0018628607504069805
          ],
          [
            "Fiji",
            0.0018293194007128477
          ],
          [
            "New Caledonia",
            0.0017989121843129396
          ],
          [
            "North Korea",
            0.0017917075892910361
          ],
          [
            "Burkina Faso",
            0.0017866638954728842
          ],
          [
            "Sweden",
            0.001719266758300364
          ],
          [
            "Suriname",
            0.0017187553457915783
          ],
          [
            "Malaysia",
            0.0016784857725724578
          ],
          [
            "Western Sahara",
            0.0016480250051245093
          ],
          [
            "Myanmar",
            0.0016458261525258422
          ],
          [
            "Côte d'Ivoire",
            0.0016165841370821
          ],
          [
            "Luxembourg",
            0.0015762862749397755
          ],
          [
            "Mexico",
            0.0015691081061959267
          ],
          [
            "United Arab Emirates",
            0.0015536221908405423
          ],
          [
            "Cape Verde",
            0.001547517953440547
          ],
          [
            "Liberia",
            0.0015271160518750548
          ],
          [
            "Laos",
            0.0015127628576010466
          ],
          [
            "Venezuela",
            0.0015044184401631355
          ],
          [
            "Botswana",
            0.0014927935553714633
          ],
          [
            "Guinea",
            0.0014826718252152205
          ],
          [
            "Lesotho",
            0.0014743948122486472
          ],
          [
            "South Korea",
            0.0014550014166161418
          ],
          [
            "Egypt",
            0.0014340264024212956
          ],
          [
            "South Sudan",
            0.0013644950231537223
          ],
          [
            "Bulgaria",
            0.0013546773698180914
          ],
          [
            "Solomon Islands",
            0.001338182482868433
          ],
          [
            "Moldova",
            0.0013079991331323981
          ],
          [
            "Greenland",
            0.001284396625123918
          ],
          [
            "Djibouti",
            0.0012650847202166915
          ],
          [
            "Paraguay",
            0.0012447066837921739
          ],
          [
            "Latvia",
            0.0012340383836999536
          ],
          [
            "Taiwan",
            0.0012327515287324786
          ],
          [
            "Eswatini",
            0.001224178122356534
          ],
          [
            "Brunei",
            0.0012196218594908714
          ],
          [
            "Vietnam",
            0.001206279848702252
          ],
          [
            "Equatorial Guinea",
            0.0011963264551013708
          ],
          [
            "Italy",
            0.0011959614930674434
          ],
          [
            "French Guiana",
            0.0011937712552025914
          ],
          [
            "Eritrea",
            0.0011889630695804954
          ],
          [
            "Belgium",
            0.0011869261506944895
          ],
          [
            "Qatar",
            0.0011663000332191586
          ],
          [
            "Kazakhstan",
            0.0011522725690156221
          ],
          [
            "Togo",
            0.0011447106953710318
          ],
          [
            "Cambodia",
            0.0011435868218541145
          ],
          [
            "Turks and Caicos Islands",
            0.0011118389666080475
          ],
          [
            "Azerbaijan",
            0.0010877936147153378
          ],
          [
            "South Africa",
            0.0010875135194510221
          ],
          [
            "Sudan",
            0.0010655885562300682
          ],
          [
            "Hungary",
            0.0010399873135611415
          ],
          [
            "Zambia",
            0.0010337281273677945
          ],
          [
            "Timor-Leste",
            0.0010084172245115042
          ],
          [
            "Albania",
            0.0009462602320127189
          ],
          [
            "Vanuatu",
            0.0009376329835504293
          ],
          [
            "Estonia",
            0.0009273156756535172
          ],
          [
            "Costa Rica",
            0.000914901786018163
          ],
          [
            "Finland",
            0.0009101154282689095
          ],
          [
            "Madeira Islands",
            0.0008790137944743037
          ],
          [
            "Algeria",
            0.000877365586347878
          ],
          [
            "Australia",
            0.0008075843215920031
          ],
          [
            "Japan",
            0.0008020443492569029
          ],
          [
            "Kenya",
            0.0008007450960576534
          ],
          [
            "Nepal",
            0.0007884465157985687
          ],
          [
            "Brazil",
            0.0007416127482429147
          ],
          [
            "Congo",
            0.0007322111632674932
          ],
          [
            "Greece",
            0.0007224834989756346
          ],
          [
            "Tunisia",
            0.0007207767921499908
          ],
          [
            "Guatemala",
            0.000714051362592727
          ],
          [
            "Malawi",
            0.0007136769127100706
          ],
          [
            "Germany",
            0.000701079610735178
          ],
          [
            "Reunion",
            0.0006984529318287969
          ],
          [
            "Philippines",
            0.0006848887423984706
          ],
          [
            "Netherlands Antilles",
            0.0006732231704518199
          ],
          [
            "Central African Republic",
            0.0006021361332386732
          ],
          [
            "Portugal",
            0.0005894725327380002
          ],
          [
            "Ireland",
            0.0005757174803875387
          ],
          [
            "New Zealand",
            0.0005751818534918129
          ],
          [
            "Bosnia & Herzegovina",
            0.0005739183397963643
          ],
          [
            "Belarus",
            0.0005586615880019963
          ],
          [
            "Mauritania",
            0.0005494090146385133
          ],
          [
            "Nicaragua",
            0.0005476105725392699
          ],
          [
            "Denmark",
            0.0005468736635521054
          ],
          [
            "Tanzania",
            0.0005354958702810109
          ],
          [
            "Canada",
            0.000524967210367322
          ],
          [
            "Oman",
            0.0005082046263851225
          ],
          [
            "Trinidad and Tobago",
            0.00048767682164907455
          ],
          [
            "Antigua & Barbuda",
            0.0004838217282667756
          ],
          [
            "Samoa",
            0.0004807410587090999
          ],
          [
            "Ghana",
            0.00045261214836500585
          ],
          [
            "Israel",
            0.0004505234828684479
          ],
          [
            "Colombia",
            0.00043902822653762996
          ],
          [
            "Uganda",
            0.0004226920136716217
          ],
          [
            "Poland",
            0.0004113675095140934
          ],
          [
            "Dominica",
            0.00040670987800695
          ],
          [
            "Chile",
            0.00040048311348073184
          ],
          [
            "Lebanon",
            0.00039148060022853315
          ],
          [
            "Sao Tome and Principe",
            0.0003778536629397422
          ],
          [
            "Libya",
            0.00035640023997984827
          ],
          [
            "Bahrain",
            0.00032790758996270597
          ],
          [
            "DR Congo",
            0.0003174863231834024
          ],
          [
            "West Bank",
            0.00031192152528092265
          ],
          [
            "Mali",
            0.0003105644427705556
          ],
          [
            "Cameroon",
            0.00030259237973950803
          ],
          [
            "Zimbabwe",
            0.00027759390650317073
          ],
          [
            "Palau",
            0.000267767725745216
          ],
          [
            "Gambia",
            0.00024154144921340048
          ],
          [
            "United Kingdom",
            0.00023484880512114614
          ],
          [
            "Netherlands",
            0.00022423668997362256
          ],
          [
            "United States Virgin Islands",
            0.00020302542543504387
          ],
          [
            "Saint Lucia",
            0.00019065089873038232
          ],
          [
            "Madagascar",
            0.00018926901975646615
          ],
          [
            "Niger",
            0.00017340596241410822
          ],
          [
            "Chad",
            0.00016183139814529568
          ],
          [
            "Austria",
            0.00015567746595479548
          ],
          [
            "Isle of Man",
            0.00014899366942699999
          ],
          [
            "Norway",
            0.00012130486720707268
          ],
          [
            "Kiribati",
            0.00011143265874125063
          ],
          [
            "Pakistan",
            9.444386523682624e-05
          ],
          [
            "Morocco",
            6.324669084278867e-05
          ],
          [
            "Haiti",
            5.466554648592137e-05
          ]
        ]
      },
      "geometry": {
        "type": "MultiLineString",
        "coordinates": [
          [
            [
              11.454545454545439,
              53.45454545454544
            ],
            [
              11.454545454545439,
              54.54545454545453
            ],
            [
              11.272727272727252,
              55.09090909090909
            ],
            [
              11.272727272727252,
              56.18181818181819
            ],
            [
              11.090909090909065,
              56.72727272727272
            ],
            [
              11.090909090909065,
              57.636363636363626
            ],
            [
              10.181818181818187,
              58.18181818181819
            ],
            [
              9.454545454545439,
              59.27272727272725
            ],
            [
              9.636363636363626,
              60.0
            ],
            [
              9.818181818181813,
              61.09090909090909
            ],
            [
              10.181818181818187,
              61.636363636363626
            ],
            [
              10.727272727272691,
              62.0
            ],
            [
              12.0,
              62.0
            ],
            [
              13.454545454545439,
              62.0
            ],
            [
              14.727272727272691,
              62.0
            ],
            [
              15.818181818181813,
              62.0
            ],
            [
              17.45454545454544,
              61.81818181818181
            ],
            [
              18.909090909090878,
              61.81818181818181
            ],
            [
              20.181818181818187,
              61.81818181818181
            ],
            [
              21.090909090909065,
              61.27272727272725
            ],
            [
              21.090909090909065,
              59.81818181818181
            ],
            [
              21.090909090909065,
              58.72727272727272
            ],
            [
              21.090909090909065,
              58.0
            ],
            [
              21.090909090909065,
              57.09090909090909
            ],
            [
              20.363636363636374,
              56.54545454545453
            ],
            [
              20.363636363636374,
              55.81818181818181
            ],
            [
              20.363636363636374,
              54.363636363636346
            ],
            [
              20.363636363636374,
              53.27272727272725
            ],
            [
              20.545454545454504,
              52.72727272727272
            ],
            [
              20.72727272727269,
              52.18181818181819
            ],
            [
              21.636363636363626,
              51.636363636363626
            ],
            [
              22.181818181818187,
              51.45454545454544
            ],
            [
              22.909090909090878,
              50.90909090909091
            ],
            [
              23.818181818181813,
              50.363636363636346
            ],
            [
              24.363636363636374,
              50.0
            ],
            [
              26.0,
              49.81818181818181
            ],
            [
              26.181818181818187,
              48.90909090909088
            ],
            [
              27.272727272727252,
              48.18181818181819
            ],
            [
              27.818181818181813,
              47.27272727272725
            ],
            [
              28.72727272727269,
              46.72727272727275
            ],
            [
              29.272727272727252,
              46.18181818181819
            ],
            [
              29.818181818181813,
              46.0
            ],
            [
              31.090909090909065,
              46.0
            ],
            [
              31.636363636363626,
              45.636363636363626
            ],
            [
              32.18181818181819,
              45.45454545454544
            ],
            [
              33.81818181818181,
              45.45454545454544
            ],
            [
              35.27272727272725,
              45.45454545454544
            ],
            [
              36.545454545454504,
              45.45454545454544
            ],
            [
              37.636363636363626,
              45.45454545454544
            ],
            [
              38.545454545454504,
              45.45454545454544
            ],
            [
              39.27272727272725,
              45.45454545454544
            ],
            [
              40.18181818181819,
              45.636363636363626
            ],
            [
              41.27272727272725,
              46.18181818181819
            ],
            [
              41.45454545454544,
              46.72727272727275
            ],
            [
              42.0,
              47.27272727272725
            ],
            [
              42.363636363636374,
              47.81818181818181
            ],
            [
              42.545454545454504,
              48.363636363636374
            ],
            [
              43.090909090909065,
              48.18181818181819
            ],
            [
              44.0,
              47.27272727272725
            ],
            [
              44.18181818181819,
              46.72727272727275
            ],
            [
              44.18181818181819,
              45.636363636363626
            ],
            [
              45.090909090909065,
              44.54545454545456
            ],
            [
              45.81818181818181,
              44.54545454545456
            ],
            [
              46.363636363636374,
              44.363636363636374
            ],
            [
              47.27272727272725,
              44.0
            ],
            [
              48.0,
              44.0
            ],
            [
              48.90909090909088,
              44.0
            ],
            [
              49.45454545454544,
              44.18181818181819
            ],
            [
              50.18181818181819,
              44.54545454545456
            ],
            [
              51.27272727272725,
              44.72727272727275
            ],
            [
              51.81818181818181,
              45.27272727272725
            ],
            [
              52.72727272727275,
              45.636363636363626
            ],
            [
              53.81818181818181,
              45.636363636363626
            ],
            [
              54.545454545454504,
              45.636363636363626
            ],
            [
              56.0,
              45.636363636363626
            ],
            [
              56.72727272727275,
              45.636363636363626
            ],
            [
              57.636363636363626,
              45.636363636363626
            ],
            [
              58.363636363636374,
              45.636363636363626
            ],
            [
              58.72727272727275,
              44.90909090909088
            ],
            [
              58.545454545454504,
              44.0
            ],
            [
              57.45454545454544,
              43.45454545454544
            ],
            [
              56.90909090909088,
              43.27272727272725
            ],
            [
              56.0,
              43.27272727272725
            ],
            [
              55.27272727272725,
              43.27272727272725
            ],
            [
              54.363636363636374,
              42.90909090909088
            ],
            [
              53.81818181818181,
              42.72727272727275
            ],
            [
              53.090909090909065,
              42.18181818181819
            ],
            [
              52.545454545454504,
              41.27272727272725
            ],
            [
              52.18181818181819,
              40.72727272727275
            ],
            [
              51.636363636363626,
              40.18181818181819
            ],
            [
              51.090909090909065,
              40.0
            ],
            [
              50.90909090909088,
              39.45454545454544
            ],
            [
              51.090909090909065,
              37.45454545454544
            ],
            [
              51.090909090909065,
              35.81818181818181
            ],
            [
              51.090909090909065,
              35.090909090909065
            ],
            [
              51.090909090909065,
              34.18181818181819
            ],
            [
              50.90909090909088,
              33.090909090909065
            ],
            [
              50.363636363636374,
              33.27272727272725
            ],
            [
              49.45454545454544,
              33.636363636363626
            ],
            [
              49.45454545454544,
              34.363636363636374
            ],
            [
              48.90909090909088,
              35.27272727272725
            ],
            [
              48.363636363636374,
              35.81818181818181
            ],
            [
              47.81818181818181,
              36.363636363636374
            ],
            [
              47.636363636363626,
              36.90909090909088
            ],
            [
              47.090909090909065,
              38.18181818181819
            ],
            [
              46.72727272727275,
              38.72727272727275
            ],
            [
              46.545454545454504,
              39.81818181818181
            ],
            [
              46.18181818181819,
              40.363636363636374
            ],
            [
              45.45454545454544,
              40.72727272727275
            ],
            [
              44.363636363636374,
              41.45454545454544
            ],
            [
              43.27272727272725,
              41.45454545454544
            ],
            [
              42.363636363636374,
              41.45454545454544
            ],
            [
              41.636363636363626,
              41.27272727272725
            ],
            [
              41.27272727272725,
              40.72727272727275
            ],
            [
              41.27272727272725,
              39.45454545454544
            ],
            [
              41.090909090909065,
              38.90909090909088
            ],
            [
              41.45454545454544,
              38.0
            ],
            [
              41.45454545454544,
              36.72727272727275
            ],
            [
              41.27272727272725,
              36.18181818181819
            ],
            [
              41.27272727272725,
              35.27272727272725
            ],
            [
              41.090909090909065,
              34.54545454545456
            ],
            [
              40.18181818181819,
              34.54545454545456
            ],
            [
              38.90909090909088,
              33.636363636363626
            ],
            [
              37.45454545454544,
              33.636363636363626
            ],
            [
              36.72727272727275,
              33.45454545454544
            ],
            [
              36.72727272727275,
              32.54545454545456
            ],
            [
              36.72727272727275,
              31.272727272727252
            ],
            [
              36.18181818181819,
              30.909090909090878
            ],
            [
              35.81818181818181,
              30.363636363636374
            ],
            [
              35.636363636363626,
              29.636363636363626
            ],
            [
              34.72727272727275,
              29.090909090909065
            ],
            [
              34.545454545454504,
              28.181818181818187
            ],
            [
              34.545454545454504,
              27.090909090909065
            ],
            [
              34.0,
              26.363636363636374
            ],
            [
              33.45454545454544,
              25.45454545454544
            ],
            [
              33.090909090909065,
              24.727272727272748
            ],
            [
              33.090909090909065,
              23.818181818181813
            ],
            [
              32.545454545454504,
              23.090909090909065
            ],
            [
              32.0,
              22.727272727272748
            ],
            [
              31.45454545454544,
              22.181818181818187
            ],
            [
              30.363636363636374,
              21.636363636363626
            ],
            [
              30.181818181818187,
              20.909090909090878
            ],
            [
              29.818181818181813,
              20.363636363636374
            ],
            [
              29.272727272727252,
              19.45454545454544
            ],
            [
              29.090909090909065,
              18.909090909090878
            ],
            [
              29.090909090909065,
              17.636363636363626
            ],
            [
              29.272727272727252,
              17.090909090909065
            ],
            [
              29.272727272727252,
              16.181818181818187
            ],
            [
              30.0,
              14.545454545454504
            ],
            [
              30.0,
              13.818181818181813
            ],
            [
              30.0,
              12.909090909090878
            ],
            [
              29.818181818181813,
              12.363636363636374
            ],
            [
              29.272727272727252,
              11.272727272727252
            ],
            [
              29.090909090909065,
              10.727272727272748
            ],
            [
              28.545454545454504,
              10.181818181818187
            ],
            [
              28.545454545454504,
              9.454545454545439
            ],
            [
              28.0,
              8.545454545454504
            ],
            [
              27.636363636363626,
              8.0
            ],
            [
              27.090909090909065,
              7.454545454545439
            ],
            [
              27.090909090909065,
              6.727272727272748
            ],
            [
              26.545454545454504,
              5.818181818181813
            ],
            [
              26.0,
              5.090909090909065
            ],
            [
              25.272727272727252,
              4.727272727272748
            ],
            [
              24.909090909090878,
              4.0
            ],
            [
              23.818181818181813,
              3.636363636363626
            ],
            [
              23.272727272727252,
              3.818181818181813
            ],
            [
              22.545454545454504,
              4.363636363636374
            ],
            [
              22.181818181818187,
              4.909090909090878
            ],
            [
              21.636363636363626,
              6.545454545454504
            ],
            [
              21.636363636363626,
              7.454545454545439
            ],
            [
              21.090909090909065,
              8.545454545454504
            ],
            [
              20.909090909090878,
              9.090909090909065
            ],
            [
              20.545454545454504,
              9.818181818181813
            ],
            [
              20.363636363636374,
              10.363636363636374
            ],
            [
              19.818181818181813,
              11.454545454545439
            ],
            [
              19.272727272727252,
              12.0
            ],
            [
              18.909090909090878,
              12.545454545454504
            ],
            [
              18.363636363636374,
              12.909090909090878
            ],
            [
              17.818181818181813,
              14.0
            ],
            [
              17.090909090909065,
              14.181818181818187
            ],
            [
              16.545454545454504,
              14.727272727272748
            ],
            [
              16.181818181818187,
              15.272727272727252
            ],
            [
              15.454545454545439,
              16.727272727272748
            ],
            [
              15.454545454545439,
              17.818181818181813
            ],
            [
              15.454545454545439,
              19.090909090909065
            ],
            [
              15.454545454545439,
              20.0
            ],
            [
              15.090909090909065,
              20.727272727272748
            ],
            [
              15.090909090909065,
              21.818181818181813
            ],
            [
              15.090909090909065,
              22.727272727272748
            ],
            [
              15.090909090909065,
              23.818181818181813
            ],
            [
              15.090909090909065,
              24.54545454545456
            ],
            [
              15.090909090909065,
              25.45454545454544
            ],
            [
              15.090909090909065,
              26.181818181818187
            ],
            [
              14.909090909090878,
              26.727272727272748
            ],
            [
              14.909090909090878,
              27.636363636363626
            ],
            [
              14.363636363636374,
              28.181818181818187
            ],
            [
              14.0,
              28.909090909090878
            ],
            [
              14.0,
              30.363636363636374
            ],
            [
              13.454545454545439,
              30.909090909090878
            ],
            [
              13.454545454545439,
              31.636363636363626
            ],
            [
              12.909090909090878,
              32.0
            ],
            [
              12.727272727272691,
              33.090909090909065
            ],
            [
              12.727272727272691,
              34.363636363636374
            ],
            [
              12.727272727272691,
              35.81818181818181
            ],
            [
              12.727272727272691,
              36.90909090909088
            ],
            [
              12.727272727272691,
              37.636363636363626
            ],
            [
              12.727272727272691,
              38.54545454545456
            ],
            [
              11.636363636363626,
              38.54545454545456
            ],
            [
              10.181818181818187,
              38.54545454545456
            ],
            [
              9.636363636363626,
              37.81818181818181
            ],
            [
              8.545454545454504,
              37.81818181818181
            ],
            [
              7.454545454545439,
              37.81818181818181
            ],
            [
              6.363636363636374,
              37.81818181818181
            ],
            [
              5.636363636363626,
              37.81818181818181
            ],
            [
              5.454545454545439,
              38.54545454545456
            ],
            [
              6.363636363636374,
              38.72727272727275
            ],
            [
              7.090909090909065,
              38.72727272727275
            ],
            [
              8.181818181818187,
              39.090909090909065
            ],
            [
              8.727272727272691,
              39.81818181818181
            ],
            [
              8.545454545454504,
              40.72727272727275
            ],
            [
              7.818181818181813,
              40.72727272727275
            ],
            [
              6.909090909090878,
              40.72727272727275
            ],
            [
              6.727272727272691,
              41.27272727272725
            ],
            [
              6.181818181818187,
              41.45454545454544
            ],
            [
              5.636363636363626,
              42.0
            ],
            [
              5.272727272727252,
              42.54545454545456
            ],
            [
              5.818181818181813,
              42.90909090909088
            ],
            [
              6.909090909090878,
              42.90909090909088
            ],
            [
              8.0,
              42.90909090909088
            ],
            [
              8.727272727272691,
              42.90909090909088
            ],
            [
              9.636363636363626,
              42.90909090909088
            ],
            [
              10.363636363636374,
              42.90909090909088
            ],
            [
              11.818181818181813,
              43.45454545454544
            ],
            [
              12.909090909090878,
              44.0
            ],
            [
              13.454545454545439,
              44.18181818181819
            ],
            [
              14.545454545454504,
              44.18181818181819
            ],
            [
              15.272727272727252,
              44.18181818181819
            ],
            [
              15.454545454545439,
              45.636363636363626
            ],
            [
              15.090909090909065,
              46.18181818181819
            ],
            [
              14.909090909090878,
              46.72727272727275
            ],
            [
              14.0,
              47.45454545454544
            ],
            [
              13.454545454545439,
              48.0
            ],
            [
              12.727272727272691,
              49.636363636363626
            ],
            [
              12.727272727272691,
              50.72727272727272
            ],
            [
              12.727272727272691,
              52.18181818181819
            ]
          ],
          [
            [
              8.0,
              14.545454545454504
            ],
            [
              8.545454545454504,
              14.0
            ],
            [
              9.272727272727252,
              13.454545454545439
            ],
            [
              9.818181818181813,
              13.272727272727252
            ],
            [
              9.636363636363626,
              14.0
            ],
            [
              9.090909090909065,
              14.181818181818187
            ]
          ],
          [
            [
              11.272727272727252,
              8.545454545454504
            ],
            [
              12.0,
              8.545454545454504
            ],
            [
              12.363636363636374,
              9.090909090909065
            ],
            [
              12.363636363636374,
              9.818181818181813
            ]
          ],
          [
            [
              11.272727272727252,
              2.0
            ],
            [
              12.0,
              2.545454545454504
            ],
            [
              12.0,
              3.272727272727252
            ],
            [
              12.0,
              4.181818181818187
            ]
          ],
          [
            [
              54.363636363636374,
              18.909090909090878
            ],
            [
              53.636363636363626,
              18.727272727272748
            ],
            [
              53.27272727272725,
              18.181818181818187
            ],
            [
              53.27272727272725,
              17.272727272727252
            ],
            [
              53.45454545454544,
              16.0
            ],
            [
              54.363636363636374,
              15.454545454545439
            ],
            [
              54.545454545454504,
              14.909090909090878
            ],
            [
              55.090909090909065,
              14.363636363636374
            ],
            [
              54.363636363636374,
              14.727272727272748
            ],
            [
              53.636363636363626,
              15.636363636363626
            ],
            [
              53.27272727272725,
              16.181818181818187
            ],
            [
              53.090909090909065,
              16.727272727272748
            ],
            [
              52.545454545454504,
              16.909090909090878
            ],
            [
              52.545454545454504,
              17.818181818181813
            ],
            [
              52.18181818181819,
              18.54545454545456
            ],
            [
              52.18181818181819,
              19.45454545454544
            ],
            [
              52.363636363636374,
              20.0
            ],
            [
              52.363636363636374,
              20.727272727272748
            ],
            [
              52.90909090909088,
              21.090909090909065
            ]
          ],
          [
            [
              53.090909090909065,
              26.181818181818187
            ],
            [
              52.545454545454504,
              26.0
            ],
            [
              52.18181818181819,
              25.45454545454544
            ]
          ],
          [
            [
              56.0,
              5.272727272727252
            ],
            [
              57.090909090909065,
              5.090909090909065
            ],
            [
              58.363636363636374,
              5.090909090909065
            ],
            [
              58.0,
              5.818181818181813
            ],
            [
              57.090909090909065,
              6.363636363636374
            ],
            [
              56.363636363636374,
              7.454545454545439
            ]
          ]
        ]
      }
    }
  ]
}