{
  "type": "FeatureCollection",
  "crs": {
    "type": "name",
    "properties": {
      "name": "urn:ogc:def:crs:OGC:1.3:CRS84"
    }
  },
  "features": [
    {
      "type": "Feature",
      "properties": {
        "timestamp": "2026-05-17T14:12:40.229364",
        "country_name": "Indonesia",
        "author": "FelixGeograhyExpert",
        "author_id": "8b16f210-3083-470c-903f-ba93b4193321",
        "validated": false,
        "ranking": [
          [
            "Indonesia",
            0.6178692579269409
          ],
          [
            "Panama",
            0.10156690329313278
          ],
          [
            "Gambia",
            0.08689233660697937
          ],
          [
            "Timor-Leste",
            0.029534857720136642
          ],
          [
            "Jamaica",
            0.022232232615351677
          ],
          [
            "Puerto Rico",
            0.0165556613355875
          ],
          [
            "Cuba",
            0.01308614294975996
          ],
          [
            "Malaysia",
            0.0109131820499897
          ],
          [
            "Netherlands Antilles",
            0.00868724100291729
          ],
          [
            "Turkey",
            0.007586517371237278
          ],
          [
            "Georgia",
            0.006261602509766817
          ],
          [
            "Turks and Caicos Islands",
            0.005887832026928663
          ],
          [
            "Falkland Islands",
            0.00490872235968709
          ],
          [
            "Uzbekistan",
            0.004399210214614868
          ],
          [
            "Kyrgyzstan",
            0.0041100322268903255
          ],
          [
            "Guinea-Bissau",
            0.003954524639993906
          ],
          [
            "Nepal",
            0.0038503031246364117
          ],
          [
            "Russia",
            0.0035869337152689695
          ],
          [
            "Cyprus",
            0.0031749994959682226
          ],
          [
            "Austria",
            0.002685682149603963
          ],
          [
            "Ecuador",
            0.002586754271760583
          ],
          [
            "New Caledonia",
            0.002533878432586789
          ],
          [
            "Dominican Republic",
            0.002433228539302945
          ],
          [
            "Samoa",
            0.002379779703915119
          ],
          [
            "Kazakhstan",
            0.002221175003796816
          ],
          [
            "Slovakia",
            0.0020660352893173695
          ],
          [
            "Turkmenistan",
            0.0018071203958243132
          ],
          [
            "Papua New Guinea",
            0.0017676742281764746
          ],
          [
            "Mongolia",
            0.0017368914559483528
          ],
          [
            "Hong Kong",
            0.0015200740890577435
          ],
          [
            "Latvia",
            0.0014276806032285094
          ],
          [
            "Honduras",
            0.0013828636147081852
          ],
          [
            "Solomon Islands",
            0.0013379369629547
          ],
          [
            "Central African Republic",
            0.0011953315697610378
          ],
          [
            "Madeira Islands",
            0.001128417206928134
          ],
          [
            "El Salvador",
            0.0010920839849859476
          ],
          [
            "Yemen",
            0.0008412806200794876
          ],
          [
            "Armenia",
            0.0008288841927424073
          ],
          [
            "Tajikistan",
            0.0006555475993081927
          ],
          [
            "Eritrea",
            0.0004877957107964903
          ],
          [
            "Japan",
            0.00048582261661067605
          ],
          [
            "United Arab Emirates",
            0.00043508174712769687
          ],
          [
            "Paraguay",
            0.0004216587112750858
          ],
          [
            "Ukraine",
            0.0004159806703682989
          ],
          [
            "Mexico",
            0.0004151262401137501
          ],
          [
            "Czech Republic",
            0.00039712616126053035
          ],
          [
            "New Zealand",
            0.00030193154816515744
          ],
          [
            "Estonia",
            0.0002784262760542333
          ],
          [
            "Switzerland",
            0.0002595921396277845
          ],
          [
            "Heard and McDonald Islands",
            0.0002516350941732526
          ],
          [
            "Bhutan",
            0.0002395126793999225
          ],
          [
            "Comoros",
            0.00022837333381175995
          ],
          [
            "Bangladesh",
            0.00021196022862568498
          ],
          [
            "Equatorial Guinea",
            0.00020580404088832438
          ],
          [
            "United States of America",
            0.00019926259119529277
          ],
          [
            "Burkina Faso",
            0.00018468538473825902
          ],
          [
            "Guinea",
            0.000180628543603234
          ],
          [
            "Fiji",
            0.00017200983711518347
          ],
          [
            "South Sudan",
            0.00015653787704650313
          ],
          [
            "India",
            0.0001454636367270723
          ],
          [
            "South Georgia Islands",
            0.00013367042993195355
          ],
          [
            "China",
            0.00013010110706090927
          ],
          [
            "Senegal",
            0.0001287213381147012
          ],
          [
            "Costa Rica",
            0.00012673753371927887
          ],
          [
            "Saudi Arabia",
            0.00012207982945255935
          ],
          [
            "Slovenia",
            0.00012069715012330562
          ],
          [
            "Bahamas",
            0.00011206692579435185
          ],
          [
            "Guadeloupe",
            0.00010627782467054203
          ],
          [
            "Mali",
            0.00010482290963409469
          ],
          [
            "Belgium",
            0.00010354400001233444
          ],
          [
            "Liberia",
            0.00010135822230949998
          ],
          [
            "Trinidad and Tobago",
            9.56913354457356e-05
          ],
          [
            "Canada",
            9.38057855819352e-05
          ],
          [
            "Brunei",
            9.205477545037866e-05
          ],
          [
            "Iceland",
            8.39859785628505e-05
          ],
          [
            "Philippines",
            8.355154568562284e-05
          ],
          [
            "Lithuania",
            8.013967453734949e-05
          ],
          [
            "Thailand",
            8.001901005627587e-05
          ],
          [
            "Italy",
            7.853702845750377e-05
          ],
          [
            "Azerbaijan",
            7.815150456735864e-05
          ],
          [
            "Zambia",
            7.79444380896166e-05
          ],
          [
            "Guam",
            7.778670988045633e-05
          ],
          [
            "Laos",
            7.413998537231237e-05
          ],
          [
            "Hungary",
            7.269683555932716e-05
          ],
          [
            "Malawi",
            7.108152203727514e-05
          ],
          [
            "Kuwait",
            7.05252678017132e-05
          ],
          [
            "Niger",
            7.041572098387405e-05
          ],
          [
            "South Korea",
            6.980473699513823e-05
          ],
          [
            "Svalbard",
            6.170229607960209e-05
          ],
          [
            "Spain",
            6.108309753471985e-05
          ],
          [
            "Israel",
            5.9529989812290296e-05
          ],
          [
            "Barbados",
            5.810164657304995e-05
          ],
          [
            "Bulgaria",
            5.803364183520898e-05
          ],
          [
            "Somalia",
            5.7444565754849464e-05
          ],
          [
            "Myanmar",
            5.638756192638539e-05
          ],
          [
            "Cameroon",
            5.277234231471084e-05
          ],
          [
            "Montenegro",
            5.250137473922223e-05
          ],
          [
            "Moldova",
            5.165981929167174e-05
          ],
          [
            "Argentina",
            5.01276517752558e-05
          ],
          [
            "Pakistan",
            4.975140836904757e-05
          ],
          [
            "Iran",
            4.91303471790161e-05
          ],
          [
            "Serbia",
            4.711051587946713e-05
          ],
          [
            "Chile",
            4.406175503390841e-05
          ],
          [
            "Mozambique",
            4.283068119548261e-05
          ],
          [
            "Iraq",
            4.232369610690512e-05
          ],
          [
            "Benin",
            4.188122329651378e-05
          ],
          [
            "South Africa",
            4.1600429540267214e-05
          ],
          [
            "United Kingdom",
            4.124583938391879e-05
          ],
          [
            "Sweden",
            3.7698369851568714e-05
          ],
          [
            "Venezuela",
            3.6426063161343336e-05
          ],
          [
            "Romania",
            3.602064316510223e-05
          ],
          [
            "DR Congo",
            3.5402590583544225e-05
          ],
          [
            "Martinique",
            3.522604674799368e-05
          ],
          [
            "Tunisia",
            3.214546086383052e-05
          ],
          [
            "Ethiopia",
            3.184606248396449e-05
          ],
          [
            "Croatia",
            3.172111973981373e-05
          ],
          [
            "North Korea",
            3.0935574613977224e-05
          ],
          [
            "Kiribati",
            3.0836312362225726e-05
          ],
          [
            "Namibia",
            3.076475695706904e-05
          ],
          [
            "Rwanda",
            2.9845821700291708e-05
          ],
          [
            "Togo",
            2.9598932087537833e-05
          ],
          [
            "Guyana",
            2.9340766559471376e-05
          ],
          [
            "Greece",
            2.8953505534445867e-05
          ],
          [
            "Oman",
            2.8838039725087583e-05
          ],
          [
            "Bolivia",
            2.8619133445317857e-05
          ],
          [
            "Portugal",
            2.7968921131105162e-05
          ],
          [
            "Djibouti",
            2.701518496905919e-05
          ],
          [
            "Colombia",
            2.688847052922938e-05
          ],
          [
            "Peru",
            2.6807152607943863e-05
          ],
          [
            "Morocco",
            2.574117388576269e-05
          ],
          [
            "Belize",
            2.494501313776709e-05
          ],
          [
            "Guatemala",
            2.4422299247817136e-05
          ],
          [
            "Australia",
            2.4302878955495544e-05
          ],
          [
            "Cape Verde",
            2.2936152163310908e-05
          ],
          [
            "Sierra Leone",
            2.113243317580782e-05
          ],
          [
            "Isle of Man",
            2.089356530632358e-05
          ],
          [
            "Brazil",
            2.0890935047646053e-05
          ],
          [
            "Syria",
            2.036484693235252e-05
          ],
          [
            "Bosnia & Herzegovina",
            2.0195269826217555e-05
          ],
          [
            "Angola",
            2.0149753254372627e-05
          ],
          [
            "Congo",
            1.936116677825339e-05
          ],
          [
            "Vanuatu",
            1.9243649148847908e-05
          ],
          [
            "Luxembourg",
            1.910777427838184e-05
          ],
          [
            "Botswana",
            1.9059725673287176e-05
          ],
          [
            "Uruguay",
            1.8774544514599256e-05
          ],
          [
            "Sao Tome and Principe",
            1.7885979104903527e-05
          ],
          [
            "Egypt",
            1.6994579709717073e-05
          ],
          [
            "Bahrain",
            1.6893198335310444e-05
          ],
          [
            "France",
            1.68236147146672e-05
          ],
          [
            "Palau",
            1.669883931754157e-05
          ],
          [
            "Suriname",
            1.6685595255694352e-05
          ],
          [
            "Lebanon",
            1.607443846296519e-05
          ],
          [
            "Burundi",
            1.56700025399914e-05
          ],
          [
            "Tanzania",
            1.560227246955037e-05
          ],
          [
            "Netherlands",
            1.5399955373140983e-05
          ],
          [
            "Mayotte",
            1.513516872364562e-05
          ],
          [
            "Dominica",
            1.4784111044718884e-05
          ],
          [
            "Greenland",
            1.4489315617538523e-05
          ],
          [
            "Albania",
            1.4422781532630324e-05
          ],
          [
            "Mauritania",
            1.3656778719450813e-05
          ],
          [
            "Haiti",
            1.3121701158524957e-05
          ],
          [
            "Qatar",
            1.3077527000859845e-05
          ],
          [
            "Gabon",
            1.3029276487941388e-05
          ],
          [
            "Algeria",
            1.2883254385087639e-05
          ],
          [
            "Finland",
            1.277748651773436e-05
          ],
          [
            "Ireland",
            1.2365364455035888e-05
          ],
          [
            "Nicaragua",
            1.2338270607870072e-05
          ],
          [
            "West Bank",
            1.2322255315666553e-05
          ],
          [
            "Afghanistan",
            1.168101607618155e-05
          ],
          [
            "North Macedonia",
            1.1619908036664128e-05
          ],
          [
            "Norway",
            1.1196048035344575e-05
          ],
          [
            "Vietnam",
            1.11351182567887e-05
          ],
          [
            "Sri Lanka",
            1.0953768651233986e-05
          ],
          [
            "Reunion",
            1.0727325388870668e-05
          ],
          [
            "Taiwan",
            1.0075986210722476e-05
          ],
          [
            "French Guiana",
            1.0051187018689234e-05
          ],
          [
            "Ghana",
            9.860991667665076e-06
          ],
          [
            "Denmark",
            9.784159374248702e-06
          ],
          [
            "Faroe Islands",
            9.667681297287345e-06
          ],
          [
            "Nigeria",
            9.535040589980781e-06
          ],
          [
            "Uganda",
            8.954882105172146e-06
          ],
          [
            "Saint Lucia",
            8.804622666502837e-06
          ],
          [
            "Zimbabwe",
            8.5920719357091e-06
          ],
          [
            "Poland",
            8.168098247551825e-06
          ],
          [
            "Kenya",
            7.825543434591964e-06
          ],
          [
            "Libya",
            7.754595571896061e-06
          ],
          [
            "Belarus",
            7.58095802666503e-06
          ],
          [
            "Jordan",
            7.319671112782089e-06
          ],
          [
            "Eswatini",
            6.392957857315196e-06
          ],
          [
            "Sudan",
            6.123669663793407e-06
          ],
          [
            "Côte d'Ivoire",
            6.093888714531204e-06
          ],
          [
            "Antigua & Barbuda",
            6.0790871430072e-06
          ],
          [
            "Western Sahara",
            5.664959189743968e-06
          ],
          [
            "Cambodia",
            5.204262834013207e-06
          ],
          [
            "Madagascar",
            4.634739070752403e-06
          ],
          [
            "Lesotho",
            3.8613693504885305e-06
          ],
          [
            "Chad",
            3.704359187395312e-06
          ],
          [
            "Germany",
            3.3343319501000224e-06
          ],
          [
            "United States Virgin Islands",
            3.116160087301978e-06
          ]
        ]
      },
      "geometry": {
        "type": "MultiLineString",
        "coordinates": [
          [
            [
              3.7391304347826093,
              43.739130434782595
            ],
            [
              3.3043478260869534,
              43.086956521739125
            ],
            [
              2.8695652173912976,
              41.3478260869565
            ],
            [
              2.8695652173912976,
              40.04347826086956
            ],
            [
              2.434782608695656,
              38.30434782608694
            ],
            [
              2.217391304347828,
              37.0
            ],
            [
              2.0,
              36.3478260869565
            ],
            [
              2.8695652173912976,
              35.913043478260875
            ],
            [
              3.9565217391304373,
              35.04347826086956
            ],
            [
              4.608695652173907,
              34.82608695652172
            ],
            [
              5.478260869565219,
              34.391304347826065
            ],
            [
              6.130434782608688,
              33.739130434782595
            ],
            [
              6.34782608695653,
              33.086956521739125
            ],
            [
              5.478260869565219,
              32.43478260869563
            ],
            [
              4.608695652173907,
              32.43478260869563
            ],
            [
              4.173913043478265,
              31.782608695652158
            ],
            [
              5.043478260869563,
              31.347826086956502
            ],
            [
              5.695652173913047,
              30.913043478260875
            ],
            [
              6.565217391304344,
              30.695652173913032
            ],
            [
              7.65217391304347,
              30.260869565217376
            ],
            [
              8.521739130434781,
              29.82608695652172
            ],
            [
              9.173913043478251,
              29.608695652173907
            ],
            [
              9.826086956521749,
              29.391304347826065
            ],
            [
              11.130434782608688,
              28.739130434782595
            ],
            [
              12.217391304347814,
              28.30434782608694
            ],
            [
              14.173913043478251,
              27.434782608695627
            ],
            [
              16.782608695652186,
              26.565217391304344
            ],
            [
              18.956521739130437,
              25.695652173913032
            ],
            [
              20.043478260869563,
              25.695652173913032
            ],
            [
              21.13043478260869,
              24.82608695652172
            ],
            [
              22.217391304347814,
              24.82608695652172
            ],
            [
              23.739130434782595,
              24.391304347826065
            ],
            [
              24.82608695652175,
              24.391304347826065
            ],
            [
              25.47826086956522,
              23.956521739130437
            ],
            [
              24.17391304347825,
              23.956521739130437
            ],
            [
              23.30434782608694,
              24.17391304347825
            ],
            [
              22.434782608695656,
              24.82608695652172
            ],
            [
              21.565217391304344,
              25.695652173913032
            ],
            [
              22.65217391304347,
              25.47826086956522
            ],
            [
              22.217391304347814,
              26.347826086956502
            ],
            [
              21.782608695652186,
              27.434782608695627
            ],
            [
              20.913043478260875,
              28.30434782608694
            ],
            [
              19.82608695652175,
              28.956521739130437
            ],
            [
              18.086956521739125,
              30.043478260869563
            ],
            [
              15.913043478260875,
              31.347826086956502
            ],
            [
              14.608695652173907,
              32.217391304347814
            ],
            [
              13.739130434782595,
              32.217391304347814
            ],
            [
              12.869565217391312,
              32.65217391304347
            ],
            [
              11.782608695652186,
              33.086956521739125
            ],
            [
              10.260869565217376,
              33.52173913043478
            ],
            [
              9.173913043478251,
              33.739130434782595
            ],
            [
              8.521739130434781,
              34.17391304347825
            ],
            [
              8.086956521739125,
              34.82608695652172
            ],
            [
              7.65217391304347,
              35.69565217391303
            ],
            [
              7.217391304347814,
              36.3478260869565
            ],
            [
              6.34782608695653,
              37.86956521739128
            ],
            [
              5.695652173913047,
              39.17391304347825
            ],
            [
              5.478260869565219,
              40.04347826086956
            ],
            [
              5.043478260869563,
              40.913043478260875
            ],
            [
              5.043478260869563,
              42.0
            ],
            [
              4.826086956521735,
              42.86956521739128
            ],
            [
              4.608695652173907,
              43.95652173913044
            ],
            [
              4.608695652173907,
              45.26086956521738
            ]
          ],
          [
            [
              31.565217391304344,
              36.78260869565216
            ],
            [
              30.695652173913032,
              37.217391304347814
            ],
            [
              29.391304347826093,
              37.217391304347814
            ],
            [
              27.434782608695656,
              37.0
            ],
            [
              25.47826086956522,
              37.0
            ],
            [
              23.52173913043478,
              36.565217391304344
            ],
            [
              22.65217391304347,
              36.3478260869565
            ],
            [
              21.782608695652186,
              36.13043478260869
            ],
            [
              20.913043478260875,
              35.913043478260875
            ],
            [
              20.47826086956522,
              35.26086956521738
            ],
            [
              19.82608695652175,
              34.82608695652172
            ],
            [
              18.956521739130437,
              34.391304347826065
            ],
            [
              18.086956521739125,
              33.739130434782595
            ],
            [
              17.217391304347814,
              33.30434782608694
            ],
            [
              16.782608695652186,
              32.65217391304347
            ],
            [
              16.782608695652186,
              31.782608695652158
            ],
            [
              17.65217391304347,
              31.347826086956502
            ],
            [
              19.608695652173907,
              30.913043478260875
            ],
            [
              21.565217391304344,
              30.695652173913032
            ],
            [
              22.86956521739131,
              30.260869565217376
            ],
            [
              25.47826086956522,
              29.608695652173907
            ],
            [
              26.565217391304344,
              29.17391304347825
            ],
            [
              27.86956521739131,
              29.17391304347825
            ],
            [
              28.739130434782595,
              29.17391304347825
            ],
            [
              29.82608695652175,
              29.17391304347825
            ],
            [
              31.565217391304344,
              29.391304347826065
            ],
            [
              32.86956521739131,
              29.608695652173907
            ],
            [
              33.95652173913044,
              30.043478260869563
            ],
            [
              35.04347826086956,
              30.47826086956522
            ],
            [
              36.3478260869565,
              31.347826086956502
            ],
            [
              36.782608695652186,
              32.217391304347814
            ],
            [
              37.65217391304347,
              33.52173913043478
            ],
            [
              39.82608695652175,
              36.13043478260869
            ],
            [
              42.0,
              38.739130434782595
            ],
            [
              43.73913043478262,
              40.04347826086956
            ],
            [
              44.60869565217391,
              41.13043478260869
            ],
            [
              44.82608695652175,
              41.78260869565216
            ],
            [
              44.39130434782609,
              42.43478260869563
            ],
            [
              43.73913043478262,
              42.65217391304347
            ],
            [
              42.86956521739131,
              42.65217391304347
            ],
            [
              41.13043478260869,
              41.78260869565216
            ],
            [
              40.04347826086956,
              41.3478260869565
            ],
            [
              38.52173913043478,
              40.47826086956522
            ],
            [
              37.434782608695656,
              40.04347826086956
            ],
            [
              35.47826086956522,
              38.95652173913044
            ],
            [
              34.39130434782609,
              38.52173913043478
            ],
            [
              33.73913043478262,
              38.30434782608694
            ],
            [
              33.086956521739125,
              37.65217391304347
            ],
            [
              32.434782608695656,
              37.43478260869563
            ],
            [
              31.565217391304344,
              37.0
            ],
            [
              30.47826086956522,
              36.3478260869565
            ],
            [
              29.391304347826093,
              36.78260869565216
            ]
          ],
          [
            [
              53.95652173913044,
              36.13043478260869
            ],
            [
              52.86956521739131,
              35.69565217391303
            ],
            [
              51.13043478260869,
              34.60869565217391
            ],
            [
              49.82608695652175,
              34.391304347826065
            ],
            [
              48.73913043478262,
              33.95652173913044
            ],
            [
              47.0,
              33.30434782608694
            ],
            [
              33.30434782608694,
              28.956521739130437
            ],
            [
              30.260869565217376,
              28.30434782608694
            ],
            [
              28.086956521739125,
              28.086956521739125
            ],
            [
              26.565217391304344,
              27.65217391304347
            ],
            [
              25.043478260869563,
              27.217391304347814
            ],
            [
              23.956521739130437,
              27.0
            ],
            [
              24.17391304347825,
              26.347826086956502
            ],
            [
              24.82608695652175,
              26.13043478260869
            ],
            [
              25.913043478260875,
              26.13043478260869
            ],
            [
              26.782608695652186,
              26.13043478260869
            ],
            [
              28.52173913043478,
              25.695652173913032
            ],
            [
              29.17391304347825,
              25.47826086956522
            ],
            [
              29.82608695652175,
              25.260869565217376
            ],
            [
              29.82608695652175,
              24.391304347826065
            ],
            [
              28.956521739130437,
              23.52173913043478
            ],
            [
              28.30434782608694,
              23.30434782608694
            ],
            [
              27.65217391304347,
              23.086956521739125
            ],
            [
              26.782608695652186,
              23.086956521739125
            ],
            [
              28.086956521739125,
              23.30434782608694
            ],
            [
              30.043478260869563,
              23.956521739130437
            ],
            [
              31.782608695652186,
              23.956521739130437
            ],
            [
              33.73913043478262,
              23.956521739130437
            ],
            [
              36.565217391304344,
              24.17391304347825
            ],
            [
              38.73913043478262,
              24.391304347826065
            ],
            [
              39.82608695652175,
              24.391304347826065
            ],
            [
              40.47826086956522,
              24.82608695652172
            ],
            [
              41.565217391304344,
              25.260869565217376
            ],
            [
              42.434782608695656,
              25.47826086956522
            ],
            [
              43.73913043478262,
              25.695652173913032
            ],
            [
              44.82608695652175,
              25.913043478260875
            ],
            [
              46.782608695652186,
              26.347826086956502
            ],
            [
              48.086956521739125,
              26.347826086956502
            ],
            [
              49.39130434782609,
              26.565217391304344
            ],
            [
              50.69565217391303,
              27.0
            ],
            [
              51.565217391304344,
              27.0
            ],
            [
              53.086956521739125,
              27.434782608695627
            ],
            [
              53.95652173913044,
              27.434782608695627
            ],
            [
              54.60869565217391,
              27.65217391304347
            ],
            [
              54.82608695652175,
              28.30434782608694
            ],
            [
              54.82608695652175,
              29.17391304347825
            ],
            [
              54.60869565217391,
              29.82608695652172
            ],
            [
              54.60869565217391,
              30.695652173913032
            ],
            [
              55.04347826086956,
              32.43478260869563
            ],
            [
              55.913043478260875,
              34.391304347826065
            ],
            [
              56.565217391304344,
              35.47826086956522
            ],
            [
              57.217391304347814,
              36.78260869565216
            ],
            [
              57.217391304347814,
              37.86956521739128
            ],
            [
              55.913043478260875,
              38.30434782608694
            ],
            [
              54.82608695652175,
              38.30434782608694
            ],
            [
              53.73913043478262,
              38.30434782608694
            ],
            [
              52.86956521739131,
              37.86956521739128
            ],
            [
              52.86956521739131,
              37.0
            ]
          ],
          [
            [
              55.69565217391303,
              27.434782608695627
            ],
            [
              55.47826086956522,
              25.913043478260875
            ],
            [
              54.82608695652175,
              24.391304347826065
            ],
            [
              54.17391304347825,
              22.65217391304347
            ],
            [
              53.73913043478262,
              21.782608695652158
            ],
            [
              52.86956521739131,
              20.913043478260875
            ],
            [
              52.217391304347814,
              20.47826086956522
            ],
            [
              51.565217391304344,
              20.043478260869563
            ],
            [
              52.217391304347814,
              20.260869565217376
            ],
            [
              53.30434782608694,
              20.47826086956522
            ],
            [
              55.47826086956522,
              20.043478260869563
            ],
            [
              56.3478260869565,
              19.82608695652172
            ],
            [
              57.217391304347814,
              19.608695652173907
            ],
            [
              58.086956521739125,
              19.608695652173907
            ],
            [
              59.17391304347825,
              19.608695652173907
            ],
            [
              60.26086956521738,
              19.391304347826065
            ],
            [
              61.13043478260869,
              19.17391304347825
            ],
            [
              62.0,
              19.17391304347825
            ]
          ],
          [
            [
              55.913043478260875,
              25.260869565217376
            ],
            [
              57.65217391304347,
              25.043478260869563
            ],
            [
              58.52173913043478,
              25.043478260869563
            ],
            [
              59.39130434782609,
              25.043478260869563
            ],
            [
              60.26086956521738,
              25.043478260869563
            ],
            [
              60.69565217391303,
              24.17391304347825
            ],
            [
              60.69565217391303,
              22.65217391304347
            ],
            [
              60.69565217391303,
              21.347826086956502
            ],
            [
              60.69565217391303,
              19.608695652173907
            ],
            [
              61.13043478260869,
              18.739130434782595
            ]
          ]
        ]
      }
    }
  ]
}