{
  "type": "FeatureCollection",
  "crs": {
    "type": "name",
    "properties": {
      "name": "urn:ogc:def:crs:OGC:1.3:CRS84"
    }
  },
  "features": [
    {
      "type": "Feature",
      "properties": {
        "timestamp": "2026-07-19T14:23:13.945752",
        "country_name": "Indonesia",
        "author": "",
        "author_id": "08e9c6ae-87d9-4a4f-b03a-125dac4cd1e8",
        "validated": false,
        "ranking": [
          [
            "Indonesia",
            0.349596232175827
          ],
          [
            "Cuba",
            0.10140082240104675
          ],
          [
            "Timor-Leste",
            0.048888832330703735
          ],
          [
            "Gambia",
            0.04452291876077652
          ],
          [
            "Jamaica",
            0.04140220209956169
          ],
          [
            "Puerto Rico",
            0.030004199594259262
          ],
          [
            "Falkland Islands",
            0.029073581099510193
          ],
          [
            "Turkey",
            0.024399500340223312
          ],
          [
            "Georgia",
            0.02089015021920204
          ],
          [
            "Solomon Islands",
            0.017770916223526
          ],
          [
            "Panama",
            0.017551086843013763
          ],
          [
            "Kyrgyzstan",
            0.01672363094985485
          ],
          [
            "Russia",
            0.016211820766329765
          ],
          [
            "Guinea-Bissau",
            0.014783542603254318
          ],
          [
            "Turkmenistan",
            0.013976329006254673
          ],
          [
            "Nepal",
            0.013755250722169876
          ],
          [
            "Samoa",
            0.013083722442388535
          ],
          [
            "Kazakhstan",
            0.01269883569329977
          ],
          [
            "Turks and Caicos Islands",
            0.012671882286667824
          ],
          [
            "Uzbekistan",
            0.011786029674112797
          ],
          [
            "Papua New Guinea",
            0.008702332153916359
          ],
          [
            "Slovakia",
            0.008240193128585815
          ],
          [
            "Mongolia",
            0.007073421962559223
          ],
          [
            "Tajikistan",
            0.006753975059837103
          ],
          [
            "Latvia",
            0.0067201415076851845
          ],
          [
            "Mexico",
            0.006606692913919687
          ],
          [
            "Malawi",
            0.004958080593496561
          ],
          [
            "Bahamas",
            0.00486297532916069
          ],
          [
            "Eritrea",
            0.00442096684128046
          ],
          [
            "El Salvador",
            0.004234094172716141
          ],
          [
            "Svalbard",
            0.0040880474261939526
          ],
          [
            "Netherlands Antilles",
            0.003804756561294198
          ],
          [
            "Central African Republic",
            0.0036227453965693712
          ],
          [
            "Honduras",
            0.0033534264657646418
          ],
          [
            "New Zealand",
            0.0032079985830932856
          ],
          [
            "Hong Kong",
            0.003132831072434783
          ],
          [
            "New Caledonia",
            0.0029195318929851055
          ],
          [
            "United States of America",
            0.0020626236218959093
          ],
          [
            "United Kingdom",
            0.0020412742160260677
          ],
          [
            "South Georgia Islands",
            0.001982281915843487
          ],
          [
            "Heard and McDonald Islands",
            0.0018906049663200974
          ],
          [
            "Yemen",
            0.0018585585057735443
          ],
          [
            "Malaysia",
            0.0016971338773146272
          ],
          [
            "Czech Republic",
            0.001658730790950358
          ],
          [
            "Italy",
            0.001647879951633513
          ],
          [
            "Israel",
            0.0016236815135926008
          ],
          [
            "Philippines",
            0.0015331216854974627
          ],
          [
            "Estonia",
            0.0014535445952787995
          ],
          [
            "Cyprus",
            0.0014367718249559402
          ],
          [
            "Dominican Republic",
            0.0013971751322969794
          ],
          [
            "Fiji",
            0.00136095704510808
          ],
          [
            "South Korea",
            0.0013393592089414597
          ],
          [
            "Vanuatu",
            0.0013199154054746032
          ],
          [
            "Ecuador",
            0.0012474155519157648
          ],
          [
            "Laos",
            0.0011955869849771261
          ],
          [
            "Canada",
            0.0011781853390857577
          ],
          [
            "Myanmar",
            0.0011663218028843403
          ],
          [
            "Austria",
            0.0010714720701798797
          ],
          [
            "Switzerland",
            0.000992919085547328
          ],
          [
            "Thailand",
            0.0008808780112303793
          ],
          [
            "Guadeloupe",
            0.0008730350527912378
          ],
          [
            "Mozambique",
            0.0008395943441428244
          ],
          [
            "Ukraine",
            0.0007784983608871698
          ],
          [
            "Togo",
            0.0007524439133703709
          ],
          [
            "Armenia",
            0.0007510301657021046
          ],
          [
            "Chile",
            0.0007184212445281446
          ],
          [
            "Somalia",
            0.0007152518955990672
          ],
          [
            "Burkina Faso",
            0.0006580756744369864
          ],
          [
            "Norway",
            0.0006329871248453856
          ],
          [
            "Madeira Islands",
            0.0006241109222173691
          ],
          [
            "Japan",
            0.000567033828701824
          ],
          [
            "Argentina",
            0.0005600269651040435
          ],
          [
            "Bahrain",
            0.0005537865217775106
          ],
          [
            "Guam",
            0.000551125907804817
          ],
          [
            "Spain",
            0.0005447861040011048
          ],
          [
            "Niger",
            0.0005207157228142023
          ],
          [
            "Bhutan",
            0.0005084196454845369
          ],
          [
            "Costa Rica",
            0.0005083954310975969
          ],
          [
            "Azerbaijan",
            0.0004893118166364729
          ],
          [
            "Paraguay",
            0.0004447491664905101
          ],
          [
            "Bangladesh",
            0.0004194736247882247
          ],
          [
            "Tunisia",
            0.0004114450130145997
          ],
          [
            "Guinea",
            0.0003977363812737167
          ],
          [
            "Saudi Arabia",
            0.00039629233651794493
          ],
          [
            "Sweden",
            0.00037508539389818907
          ],
          [
            "Iceland",
            0.0003570873523131013
          ],
          [
            "Comoros",
            0.00033343228278681636
          ],
          [
            "Equatorial Guinea",
            0.0003312409680802375
          ],
          [
            "Brunei",
            0.00033069681376218796
          ],
          [
            "Benin",
            0.00032601848943158984
          ],
          [
            "Albania",
            0.00031396455597132444
          ],
          [
            "Peru",
            0.0003033533284906298
          ],
          [
            "Faroe Islands",
            0.00030202718335203826
          ],
          [
            "Guyana",
            0.0002994339738506824
          ],
          [
            "Rwanda",
            0.00029671244556084275
          ],
          [
            "Vietnam",
            0.000287831062451005
          ],
          [
            "Barbados",
            0.0002616546116769314
          ],
          [
            "Zambia",
            0.000260718516074121
          ],
          [
            "Serbia",
            0.00023331731790676713
          ],
          [
            "Ireland",
            0.00022892982815392315
          ],
          [
            "Moldova",
            0.00022767182963434607
          ],
          [
            "Martinique",
            0.00022481086489278823
          ],
          [
            "Greece",
            0.00021846471645403653
          ],
          [
            "Trinidad and Tobago",
            0.0002084370207739994
          ],
          [
            "South Sudan",
            0.00020812397997360677
          ],
          [
            "Belize",
            0.00020480199600569904
          ],
          [
            "Belgium",
            0.00018964365881402045
          ],
          [
            "Guatemala",
            0.00018562620971351862
          ],
          [
            "Slovenia",
            0.00018304451077710837
          ],
          [
            "Portugal",
            0.00018243142403662205
          ],
          [
            "Sri Lanka",
            0.00017982005374506116
          ],
          [
            "Mali",
            0.0001770609087543562
          ],
          [
            "China",
            0.0001690523058641702
          ],
          [
            "Hungary",
            0.00016472693823743612
          ],
          [
            "Croatia",
            0.00015920845908112824
          ],
          [
            "South Africa",
            0.00015842783614061773
          ],
          [
            "Ethiopia",
            0.00015675093163736165
          ],
          [
            "Saint Lucia",
            0.00015101295139174908
          ],
          [
            "Colombia",
            0.00014898112567607313
          ],
          [
            "Senegal",
            0.0001480796781834215
          ],
          [
            "Congo",
            0.00014461824321188033
          ],
          [
            "Dominica",
            0.0001445360539946705
          ],
          [
            "Qatar",
            0.00014399316569324583
          ],
          [
            "Lithuania",
            0.00014222983736544847
          ],
          [
            "Kiribati",
            0.0001407367381034419
          ],
          [
            "Cameroon",
            0.00013597447832580656
          ],
          [
            "North Korea",
            0.00013305385073181242
          ],
          [
            "Namibia",
            0.0001319849252467975
          ],
          [
            "Cape Verde",
            0.00013188828597776592
          ],
          [
            "India",
            0.00013183899864088744
          ],
          [
            "Finland",
            0.00012893218081444502
          ],
          [
            "Romania",
            0.00012828726903535426
          ],
          [
            "Luxembourg",
            0.00012573064304888248
          ],
          [
            "Iraq",
            0.00012062810856150463
          ],
          [
            "Oman",
            0.00011685168283293024
          ],
          [
            "Australia",
            0.00011462741531431675
          ],
          [
            "Netherlands",
            0.00011024157720385119
          ],
          [
            "Isle of Man",
            0.00010902353096753359
          ],
          [
            "United Arab Emirates",
            0.00010849559475900605
          ],
          [
            "Mauritania",
            0.00010320605360902846
          ],
          [
            "Sao Tome and Principe",
            0.00010184056009165943
          ],
          [
            "Taiwan",
            9.896080155158415e-05
          ],
          [
            "Angola",
            9.74886424955912e-05
          ],
          [
            "Iran",
            9.26538705243729e-05
          ],
          [
            "Morocco",
            9.248543210560456e-05
          ],
          [
            "Liberia",
            9.147997479885817e-05
          ],
          [
            "Denmark",
            9.116957517107949e-05
          ],
          [
            "Greenland",
            9.100505121750757e-05
          ],
          [
            "Bulgaria",
            8.368472481379285e-05
          ],
          [
            "West Bank",
            7.64507130952552e-05
          ],
          [
            "Syria",
            7.32176995370537e-05
          ],
          [
            "Nicaragua",
            6.829822086729109e-05
          ],
          [
            "Antigua & Barbuda",
            6.707054126309231e-05
          ],
          [
            "Montenegro",
            6.621382635785267e-05
          ],
          [
            "Djibouti",
            6.489649240393192e-05
          ],
          [
            "Algeria",
            6.33595627732575e-05
          ],
          [
            "Lebanon",
            6.290379678830504e-05
          ],
          [
            "Palau",
            6.248824502108619e-05
          ],
          [
            "Venezuela",
            6.177590694278479e-05
          ],
          [
            "DR Congo",
            5.820546721224673e-05
          ],
          [
            "Kuwait",
            5.664865602739155e-05
          ],
          [
            "Brazil",
            5.562581281992607e-05
          ],
          [
            "Bolivia",
            5.249727109912783e-05
          ],
          [
            "North Macedonia",
            5.0166108849225566e-05
          ],
          [
            "Uganda",
            4.9486796342534944e-05
          ],
          [
            "Burundi",
            4.8804489779286087e-05
          ],
          [
            "Ghana",
            4.805453500011936e-05
          ],
          [
            "Belarus",
            4.675496165873483e-05
          ],
          [
            "Western Sahara",
            4.441623605089262e-05
          ],
          [
            "Pakistan",
            4.4241041905479506e-05
          ],
          [
            "Mayotte",
            4.39199575339444e-05
          ],
          [
            "Afghanistan",
            4.3229225411778316e-05
          ],
          [
            "Haiti",
            4.200146213406697e-05
          ],
          [
            "Gabon",
            4.123710823478177e-05
          ],
          [
            "Madagascar",
            4.103577884961851e-05
          ],
          [
            "Bosnia & Herzegovina",
            3.9865441067377105e-05
          ],
          [
            "Jordan",
            3.7680831155739725e-05
          ],
          [
            "France",
            3.604229641496204e-05
          ],
          [
            "Zimbabwe",
            3.52896677213721e-05
          ],
          [
            "Eswatini",
            3.3776683267205954e-05
          ],
          [
            "Egypt",
            3.202441439498216e-05
          ],
          [
            "Uruguay",
            2.870502066798508e-05
          ],
          [
            "Lesotho",
            2.7457421310828067e-05
          ],
          [
            "Suriname",
            2.497129207768012e-05
          ],
          [
            "United States Virgin Islands",
            2.288712130393833e-05
          ],
          [
            "French Guiana",
            2.0089542886125855e-05
          ],
          [
            "Reunion",
            1.9680808691191487e-05
          ],
          [
            "Sierra Leone",
            1.933267958520446e-05
          ],
          [
            "Libya",
            1.9002121916855685e-05
          ],
          [
            "Nigeria",
            1.836392402765341e-05
          ],
          [
            "Kenya",
            1.800131576601416e-05
          ],
          [
            "Germany",
            1.6100091670523398e-05
          ],
          [
            "Botswana",
            1.570728636579588e-05
          ],
          [
            "Cambodia",
            1.555746166559402e-05
          ],
          [
            "Sudan",
            1.480510582041461e-05
          ],
          [
            "Chad",
            1.326101573795313e-05
          ],
          [
            "Côte d'Ivoire",
            1.315182089456357e-05
          ],
          [
            "Poland",
            1.2134850294387434e-05
          ],
          [
            "Tanzania",
            1.0986619599862024e-05
          ]
        ]
      },
      "geometry": {
        "type": "MultiLineString",
        "coordinates": [
          [
            [
              2.0,
              44.41758241758242
            ],
            [
              2.4395604395604096,
              44.19780219780216
            ],
            [
              2.4395604395604096,
              43.75824175824175
            ],
            [
              2.549450549450512,
              43.428571428571445
            ],
            [
              2.659340659340671,
              43.09890109890108
            ],
            [
              2.7692307692307736,
              42.769230769230774
            ],
            [
              2.879120879120876,
              42.43956043956041
            ],
            [
              2.9890109890109784,
              42.1098901098901
            ],
            [
              3.3186813186812856,
              41.780219780219795
            ],
            [
              3.6483516483516496,
              41.670329670329636
            ],
            [
              4.087912087912059,
              41.45054945054943
            ],
            [
              4.417582417582423,
              41.34065934065933
            ],
            [
              4.74725274725273,
              41.120879120879124
            ],
            [
              5.186813186813197,
              41.01098901098902
            ],
            [
              5.626373626373606,
              40.90109890109886
            ],
            [
              6.065934065934073,
              40.90109890109886
            ],
            [
              6.505494505494482,
              40.68131868131866
            ],
            [
              6.945054945054949,
              40.68131868131866
            ],
            [
              7.164835164835154,
              41.120879120879124
            ],
            [
              7.164835164835154,
              41.560439560439534
            ],
            [
              7.164835164835154,
              42.0
            ],
            [
              6.945054945054949,
              42.43956043956041
            ],
            [
              6.615384615384585,
              42.65934065934067
            ],
            [
              6.285714285714278,
              42.769230769230774
            ],
            [
              5.956043956043914,
              42.98901098901098
            ],
            [
              5.516483516483504,
              43.09890109890108
            ],
            [
              5.186813186813197,
              43.318681318681286
            ],
            [
              4.857142857142833,
              43.428571428571445
            ],
            [
              4.527472527472526,
              43.53846153846155
            ],
            [
              4.307692307692321,
              43.868131868131854
            ],
            [
              3.8681318681318544,
              44.08791208791206
            ],
            [
              3.428571428571388,
              44.08791208791206
            ]
          ],
          [
            [
              20.901098901098862,
              41.560439560439534
            ],
            [
              20.571428571428555,
              41.34065934065933
            ],
            [
              20.571428571428555,
              40.90109890109886
            ],
            [
              20.571428571428555,
              40.46153846153845
            ],
            [
              20.571428571428555,
              40.021978021977986
            ],
            [
              20.571428571428555,
              39.472527472527474
            ],
            [
              20.571428571428555,
              39.03296703296701
            ],
            [
              20.79120879120876,
              38.7032967032967
            ],
            [
              21.120879120879124,
              38.483516483516496
            ],
            [
              21.45054945054943,
              38.263736263736234
            ],
            [
              21.780219780219795,
              38.04395604395603
            ],
            [
              22.329670329670307,
              38.04395604395603
            ],
            [
              22.769230769230774,
              37.824175824175825
            ],
            [
              23.64835164835165,
              37.824175824175825
            ],
            [
              24.08791208791206,
              37.824175824175825
            ],
            [
              24.527472527472526,
              37.824175824175825
            ],
            [
              24.967032967032935,
              37.824175824175825
            ],
            [
              25.626373626373606,
              37.824175824175825
            ],
            [
              26.065934065934073,
              37.824175824175825
            ],
            [
              26.615384615384585,
              37.824175824175825
            ],
            [
              27.05494505494505,
              37.824175824175825
            ],
            [
              27.824175824175825,
              37.824175824175825
            ],
            [
              28.263736263736234,
              37.824175824175825
            ],
            [
              28.923076923076906,
              37.824175824175825
            ],
            [
              29.472527472527474,
              37.824175824175825
            ],
            [
              30.241758241758248,
              37.824175824175825
            ],
            [
              30.901098901098862,
              37.824175824175825
            ],
            [
              31.34065934065933,
              37.824175824175825
            ],
            [
              31.780219780219795,
              37.824175824175825
            ],
            [
              32.43956043956041,
              37.824175824175825
            ],
            [
              32.98901098901098,
              37.824175824175825
            ],
            [
              33.53846153846155,
              37.93406593406593
            ],
            [
              34.307692307692264,
              37.93406593406593
            ],
            [
              34.85714285714283,
              37.93406593406593
            ],
            [
              35.2967032967033,
              37.93406593406593
            ],
            [
              35.73626373626371,
              37.93406593406593
            ],
            [
              36.175824175824175,
              38.04395604395603
            ],
            [
              36.39560439560438,
              38.373626373626394
            ],
            [
              36.50549450549448,
              38.7032967032967
            ],
            [
              36.50549450549448,
              39.14285714285711
            ],
            [
              36.72527472527469,
              39.58241758241758
            ],
            [
              37.05494505494505,
              40.24175824175825
            ],
            [
              37.164835164835154,
              40.68131868131866
            ],
            [
              37.38461538461536,
              41.120879120879124
            ],
            [
              37.49450549450546,
              41.560439560439534
            ],
            [
              37.60439560439556,
              42.0
            ],
            [
              37.60439560439556,
              42.43956043956041
            ],
            [
              37.49450549450546,
              42.769230769230774
            ],
            [
              37.164835164835154,
              43.09890109890108
            ],
            [
              36.835164835164846,
              43.428571428571445
            ],
            [
              36.39560439560438,
              43.428571428571445
            ],
            [
              35.956043956043914,
              43.53846153846155
            ],
            [
              35.4065934065934,
              43.75824175824175
            ],
            [
              34.85714285714283,
              43.868131868131854
            ],
            [
              33.97802197802196,
              43.868131868131854
            ],
            [
              33.53846153846155,
              43.868131868131854
            ],
            [
              33.09890109890108,
              43.868131868131854
            ],
            [
              32.659340659340614,
              43.868131868131854
            ],
            [
              32.219780219780205,
              43.868131868131854
            ],
            [
              31.670329670329636,
              43.868131868131854
            ],
            [
              31.120879120879124,
              43.868131868131854
            ],
            [
              30.461538461538453,
              43.868131868131854
            ],
            [
              30.021978021977986,
              43.868131868131854
            ],
            [
              29.582417582417577,
              43.868131868131854
            ],
            [
              29.032967032967008,
              43.868131868131854
            ],
            [
              28.483516483516496,
              43.868131868131854
            ],
            [
              27.824175824175825,
              43.868131868131854
            ],
            [
              27.164835164835154,
              43.868131868131854
            ],
            [
              26.615384615384585,
              43.868131868131854
            ],
            [
              26.065934065934073,
              43.868131868131854
            ],
            [
              25.626373626373606,
              43.868131868131854
            ],
            [
              25.076923076923038,
              43.868131868131854
            ],
            [
              24.307692307692264,
              43.868131868131854
            ],
            [
              23.868131868131854,
              43.868131868131854
            ],
            [
              23.428571428571445,
              43.868131868131854
            ],
            [
              23.208791208791183,
              43.53846153846155
            ],
            [
              22.98901098901098,
              43.09890109890108
            ],
            [
              22.769230769230774,
              42.65934065934067
            ],
            [
              22.549450549450512,
              42.219780219780205
            ],
            [
              22.43956043956041,
              41.8901098901099
            ],
            [
              22.109890109890102,
              41.670329670329636
            ],
            [
              21.670329670329636,
              41.560439560439534
            ],
            [
              21.230769230769226,
              41.230769230769226
            ],
            [
              20.79120879120876,
              41.01098901098902
            ],
            [
              20.35164835164835,
              40.90109890109886
            ],
            [
              19.69230769230768,
              40.68131868131866
            ],
            [
              19.252747252747213,
              40.571428571428555
            ],
            [
              18.5934065934066,
              40.46153846153845
            ]
          ],
          [
            [
              9.362637362637372,
              37.824175824175825
            ],
            [
              9.362637362637372,
              37.38461538461536
            ],
            [
              9.362637362637372,
              36.835164835164846
            ],
            [
              9.69230769230768,
              36.39560439560438
            ],
            [
              10.021978021977986,
              36.06593406593407
            ]
          ],
          [
            [
              12.659340659340671,
              33.64835164835165
            ],
            [
              12.879120879120876,
              33.20879120879118
            ],
            [
              12.879120879120876,
              32.769230769230774
            ],
            [
              12.879120879120876,
              31.890109890109898
            ],
            [
              12.659340659340671,
              31.120879120879124
            ]
          ],
          [
            [
              10.021978021977986,
              28.7032967032967
            ],
            [
              10.131868131868146,
              28.373626373626394
            ],
            [
              10.461538461538453,
              27.934065934065927
            ],
            [
              10.901098901098862,
              27.38461538461536
            ],
            [
              11.780219780219795,
              26.835164835164846
            ],
            [
              12.549450549450512,
              26.285714285714278
            ],
            [
              13.318681318681286,
              25.626373626373606
            ],
            [
              14.197802197802162,
              25.186813186813197
            ],
            [
              14.967032967032935,
              24.857142857142833
            ],
            [
              15.626373626373606,
              24.527472527472526
            ],
            [
              16.175824175824175,
              24.30769230769232
            ]
          ],
          [
            [
              18.483516483516496,
              23.978021978021957
            ],
            [
              19.032967032967008,
              23.978021978021957
            ],
            [
              18.813186813186803,
              24.417582417582423
            ],
            [
              18.483516483516496,
              24.857142857142833
            ],
            [
              18.263736263736234,
              25.2967032967033
            ],
            [
              18.04395604395603,
              25.95604395604397
            ]
          ],
          [
            [
              17.274725274725256,
              32.219780219780205
            ],
            [
              17.714285714285722,
              32.43956043956041
            ],
            [
              18.153846153846132,
              32.43956043956041
            ],
            [
              18.483516483516496,
              32.219780219780205
            ],
            [
              19.252747252747213,
              31.890109890109898
            ],
            [
              20.131868131868146,
              31.670329670329636
            ],
            [
              21.230769230769226,
              31.45054945054943
            ],
            [
              22.549450549450512,
              31.01098901098902
            ],
            [
              23.758241758241752,
              30.681318681318658
            ],
            [
              24.967032967032935,
              30.35164835164835
            ],
            [
              26.505494505494482,
              30.021978021978043
            ],
            [
              27.714285714285722,
              29.69230769230768
            ]
          ],
          [
            [
              29.032967032967008,
              28.263736263736234
            ],
            [
              28.7032967032967,
              28.153846153846132
            ],
            [
              28.263736263736234,
              28.04395604395603
            ],
            [
              27.604395604395563,
              27.824175824175825
            ],
            [
              26.835164835164846,
              27.49450549450546
            ],
            [
              26.065934065934073,
              27.05494505494505
            ],
            [
              25.516483516483504,
              26.285714285714278
            ],
            [
              25.186813186813197,
              25.4065934065934
            ],
            [
              24.967032967032935,
              24.417582417582423
            ],
            [
              25.076923076923038,
              23.318681318681286
            ],
            [
              25.84615384615381,
              22.219780219780205
            ]
          ],
          [
            [
              30.571428571428555,
              19.582417582417577
            ],
            [
              30.681318681318658,
              20.241758241758248
            ],
            [
              30.681318681318658,
              20.79120879120876
            ],
            [
              30.681318681318658,
              21.230769230769226
            ],
            [
              30.681318681318658,
              21.670329670329636
            ],
            [
              30.681318681318658,
              22.43956043956041
            ],
            [
              30.681318681318658,
              22.98901098901098
            ],
            [
              30.681318681318658,
              23.978021978021957
            ],
            [
              30.681318681318658,
              24.527472527472526
            ]
          ],
          [
            [
              31.45054945054943,
              29.582417582417577
            ],
            [
              31.560439560439534,
              30.131868131868146
            ],
            [
              31.780219780219795,
              30.79120879120876
            ],
            [
              32.219780219780205,
              31.230769230769226
            ],
            [
              32.879120879120876,
              31.670329670329636
            ],
            [
              33.75824175824175,
              32.0
            ],
            [
              34.527472527472526,
              32.32967032967031
            ],
            [
              35.4065934065934,
              32.65934065934067
            ],
            [
              36.06593406593407,
              32.98901098901098
            ],
            [
              36.615384615384585,
              33.20879120879118
            ],
            [
              37.05494505494505,
              33.428571428571445
            ],
            [
              37.164835164835154,
              33.75824175824175
            ]
          ],
          [
            [
              39.03296703296701,
              30.35164835164835
            ],
            [
              39.25274725274721,
              29.80219780219778
            ],
            [
              39.472527472527474,
              29.472527472527474
            ],
            [
              40.021978021977986,
              29.032967032967008
            ],
            [
              40.24175824175825,
              28.5934065934066
            ],
            [
              39.58241758241758,
              28.373626373626394
            ],
            [
              38.8131868131868,
              28.263736263736234
            ],
            [
              37.49450549450546,
              28.263736263736234
            ],
            [
              36.175824175824175,
              28.153846153846132
            ],
            [
              34.85714285714283,
              27.934065934065927
            ],
            [
              33.75824175824175,
              27.824175824175825
            ]
          ],
          [
            [
              32.54945054945051,
              27.05494505494505
            ],
            [
              33.09890109890108,
              27.05494505494505
            ],
            [
              33.75824175824175,
              27.274725274725256
            ],
            [
              34.41758241758242,
              27.274725274725256
            ],
            [
              34.85714285714283,
              27.274725274725256
            ],
            [
              35.516483516483504,
              27.274725274725256
            ],
            [
              36.28571428571428,
              27.274725274725256
            ],
            [
              37.274725274725256,
              27.274725274725256
            ],
            [
              38.5934065934066,
              27.274725274725256
            ],
            [
              40.131868131868146,
              27.274725274725256
            ],
            [
              41.45054945054943,
              27.38461538461536
            ],
            [
              42.769230769230774,
              27.49450549450546
            ]
          ],
          [
            [
              44.74725274725273,
              29.362637362637372
            ],
            [
              45.076923076923094,
              29.80219780219778
            ],
            [
              45.516483516483504,
              30.131868131868146
            ],
            [
              46.06593406593407,
              30.571428571428555
            ],
            [
              46.50549450549448,
              31.01098901098902
            ],
            [
              46.835164835164846,
              31.670329670329636
            ],
            [
              47.05494505494505,
              32.219780219780205
            ],
            [
              47.38461538461536,
              32.769230769230774
            ],
            [
              47.49450549450546,
              33.318681318681286
            ],
            [
              47.60439560439556,
              33.868131868131854
            ],
            [
              47.60439560439556,
              34.41758241758242
            ],
            [
              47.274725274725256,
              34.967032967032935
            ]
          ],
          [
            [
              44.41758241758242,
              33.20879120879118
            ],
            [
              44.74725274725273,
              32.54945054945051
            ],
            [
              44.967032967032935,
              31.890109890109898
            ],
            [
              45.4065934065934,
              31.45054945054943
            ],
            [
              45.84615384615381,
              30.901098901098862
            ],
            [
              46.50549450549448,
              30.461538461538453
            ],
            [
              47.164835164835154,
              30.021978021978043
            ],
            [
              47.824175824175825,
              29.69230769230768
            ],
            [
              48.7032967032967,
              29.252747252747213
            ],
            [
              49.36263736263737,
              28.813186813186803
            ],
            [
              50.021978021977986,
              28.263736263736234
            ],
            [
              50.46153846153845,
              27.714285714285722
            ],
            [
              50.68131868131866,
              27.274725274725256
            ],
            [
              50.68131868131866,
              26.835164835164846
            ]
          ],
          [
            [
              47.71428571428572,
              25.73626373626371
            ],
            [
              47.60439560439556,
              25.4065934065934
            ],
            [
              47.60439560439556,
              24.74725274725273
            ],
            [
              47.60439560439556,
              24.30769230769232
            ],
            [
              47.60439560439556,
              23.868131868131854
            ],
            [
              47.60439560439556,
              23.318681318681286
            ],
            [
              47.60439560439556,
              22.769230769230774
            ],
            [
              47.60439560439556,
              22.219780219780205
            ],
            [
              47.49450549450546,
              21.670329670329636
            ],
            [
              47.38461538461536,
              21.120879120879124
            ],
            [
              47.274725274725256,
              20.681318681318658
            ],
            [
              47.274725274725256,
              20.241758241758248
            ],
            [
              47.274725274725256,
              19.80219780219778
            ]
          ],
          [
            [
              49.36263736263737,
              20.021978021978043
            ],
            [
              49.69230769230768,
              20.241758241758248
            ],
            [
              50.021978021977986,
              20.681318681318658
            ],
            [
              50.24175824175825,
              21.01098901098902
            ],
            [
              50.35164835164835,
              21.45054945054943
            ],
            [
              50.571428571428555,
              21.890109890109898
            ],
            [
              50.79120879120876,
              22.219780219780205
            ],
            [
              50.90109890109886,
              22.65934065934067
            ],
            [
              51.120879120879124,
              22.98901098901098
            ],
            [
              51.34065934065933,
              23.318681318681286
            ],
            [
              51.45054945054943,
              23.758241758241752
            ],
            [
              51.670329670329636,
              24.08791208791206
            ],
            [
              52.0,
              24.417582417582423
            ],
            [
              52.32967032967031,
              24.967032967032935
            ]
          ],
          [
            [
              54.307692307692264,
              27.05494505494505
            ],
            [
              54.74725274725273,
              27.274725274725256
            ],
            [
              55.076923076923094,
              27.49450549450546
            ],
            [
              55.73626373626371,
              27.714285714285722
            ],
            [
              56.39560439560438,
              28.153846153846132
            ],
            [
              57.38461538461536,
              28.483516483516496
            ],
            [
              58.37362637362634,
              28.923076923076906
            ],
            [
              59.69230769230768,
              29.472527472527474
            ],
            [
              60.79120879120876,
              29.912087912087884
            ]
          ],
          [
            [
              62.0,
              31.45054945054943
            ],
            [
              61.670329670329636,
              31.01098901098902
            ],
            [
              61.45054945054943,
              30.571428571428555
            ],
            [
              61.01098901098902,
              29.912087912087884
            ],
            [
              60.35164835164835,
              29.362637362637372
            ],
            [
              59.472527472527474,
              28.483516483516496
            ],
            [
              58.483516483516496,
              27.49450549450546
            ],
            [
              57.49450549450546,
              26.505494505494482
            ]
          ]
        ]
      }
    }
  ]
}