{
  "type": "FeatureCollection",
  "crs": {
    "type": "name",
    "properties": {
      "name": "urn:ogc:def:crs:OGC:1.3:CRS84"
    }
  },
  "features": [
    {
      "type": "Feature",
      "properties": {
        "timestamp": "2026-06-07T07:34:10.222222",
        "country_name": "Ireland",
        "author": "Tain",
        "author_id": "9992629b-3288-4cf9-b63d-f8eac5a5bec1",
        "validated": false,
        "ranking": [
          [
            "Ireland",
            0.21009871363639832
          ],
          [
            "Netherlands",
            0.0654110461473465
          ],
          [
            "Congo",
            0.05991880223155022
          ],
          [
            "Colombia",
            0.041495002806186676
          ],
          [
            "Isle of Man",
            0.033056460320949554
          ],
          [
            "Rwanda",
            0.023824438452720642
          ],
          [
            "Mauritania",
            0.022095322608947754
          ],
          [
            "Uganda",
            0.02197599969804287
          ],
          [
            "Niger",
            0.021329181268811226
          ],
          [
            "Belarus",
            0.017205458134412766
          ],
          [
            "Canada",
            0.014984844252467155
          ],
          [
            "Philippines",
            0.012599864974617958
          ],
          [
            "Norway",
            0.012590807862579823
          ],
          [
            "Hong Kong",
            0.012380199506878853
          ],
          [
            "South Africa",
            0.012372622266411781
          ],
          [
            "Oman",
            0.012248201295733452
          ],
          [
            "Lesotho",
            0.010934890247881413
          ],
          [
            "Guatemala",
            0.010738249868154526
          ],
          [
            "United Kingdom",
            0.01058855839073658
          ],
          [
            "Mozambique",
            0.00846549216657877
          ],
          [
            "Malawi",
            0.008440437726676464
          ],
          [
            "Spain",
            0.008008411154150963
          ],
          [
            "Guadeloupe",
            0.007880193181335926
          ],
          [
            "Burundi",
            0.007235631346702576
          ],
          [
            "Mali",
            0.007104565389454365
          ],
          [
            "Tajikistan",
            0.0071000815369188786
          ],
          [
            "Nicaragua",
            0.006899246014654636
          ],
          [
            "Angola",
            0.006434939336031675
          ],
          [
            "Zambia",
            0.0063590360805392265
          ],
          [
            "South Korea",
            0.006153427995741367
          ],
          [
            "Somalia",
            0.005864076316356659
          ],
          [
            "Gabon",
            0.005785685032606125
          ],
          [
            "Cameroon",
            0.005639340728521347
          ],
          [
            "Pakistan",
            0.005581534467637539
          ],
          [
            "Albania",
            0.005571408662945032
          ],
          [
            "Peru",
            0.0054227737709879875
          ],
          [
            "Myanmar",
            0.005414567422121763
          ],
          [
            "Switzerland",
            0.00514514883980155
          ],
          [
            "Lithuania",
            0.0051186224445700645
          ],
          [
            "Kazakhstan",
            0.005035557318478823
          ],
          [
            "Ghana",
            0.0048990026116371155
          ],
          [
            "Turkmenistan",
            0.004599361214786768
          ],
          [
            "Saint Lucia",
            0.004585023038089275
          ],
          [
            "Djibouti",
            0.004418238531798124
          ],
          [
            "French Guiana",
            0.004306277725845575
          ],
          [
            "Tunisia",
            0.0042246063239872456
          ],
          [
            "North Macedonia",
            0.004183686338365078
          ],
          [
            "Greenland",
            0.004136822652071714
          ],
          [
            "Burkina Faso",
            0.004118737764656544
          ],
          [
            "Sudan",
            0.003966818563640118
          ],
          [
            "North Korea",
            0.003961949143558741
          ],
          [
            "France",
            0.003933306783437729
          ],
          [
            "Finland",
            0.0038713961839675903
          ],
          [
            "Estonia",
            0.0036943797022104263
          ],
          [
            "Italy",
            0.003592125838622451
          ],
          [
            "Jordan",
            0.003581262193620205
          ],
          [
            "Russia",
            0.003527333727106452
          ],
          [
            "Belize",
            0.003459874540567398
          ],
          [
            "Qatar",
            0.0034525373484939337
          ],
          [
            "Benin",
            0.003335493616759777
          ],
          [
            "Vietnam",
            0.003287466475740075
          ],
          [
            "Serbia",
            0.0032280408777296543
          ],
          [
            "Central African Republic",
            0.0031021747272461653
          ],
          [
            "Romania",
            0.00307948375120759
          ],
          [
            "Fiji",
            0.0029257184360176325
          ],
          [
            "Papua New Guinea",
            0.0029053601901978254
          ],
          [
            "Togo",
            0.002868030220270157
          ],
          [
            "Sweden",
            0.002703737234696746
          ],
          [
            "Western Sahara",
            0.0026712033431977034
          ],
          [
            "Lebanon",
            0.0026702710893005133
          ],
          [
            "Chad",
            0.0026613527443259954
          ],
          [
            "Brazil",
            0.0025310374330729246
          ],
          [
            "Morocco",
            0.00248420936986804
          ],
          [
            "Bangladesh",
            0.0024628282990306616
          ],
          [
            "Portugal",
            0.00244377413764596
          ],
          [
            "Guyana",
            0.0023968317545950413
          ],
          [
            "Svalbard",
            0.0023806255776435137
          ],
          [
            "Guam",
            0.0023516928777098656
          ],
          [
            "Sri Lanka",
            0.0023342908825725317
          ],
          [
            "Bahrain",
            0.0023265478666871786
          ],
          [
            "Iceland",
            0.002291417447850108
          ],
          [
            "New Zealand",
            0.0021803597919642925
          ],
          [
            "Thailand",
            0.002096959389746189
          ],
          [
            "United Arab Emirates",
            0.0020870757289230824
          ],
          [
            "Cambodia",
            0.002052763942629099
          ],
          [
            "West Bank",
            0.002003185683861375
          ],
          [
            "Bhutan",
            0.0019143135286867619
          ],
          [
            "Slovakia",
            0.0018588807433843613
          ],
          [
            "Ukraine",
            0.0018213106086477637
          ],
          [
            "Bosnia & Herzegovina",
            0.0017988801700994372
          ],
          [
            "Nigeria",
            0.0017898858059197664
          ],
          [
            "Brunei",
            0.0017727958038449287
          ],
          [
            "Moldova",
            0.0016960817156359553
          ],
          [
            "Eswatini",
            0.0016922429203987122
          ],
          [
            "Mayotte",
            0.0016601101960986853
          ],
          [
            "Faroe Islands",
            0.0016573198372498155
          ],
          [
            "Venezuela",
            0.0016345877666026354
          ],
          [
            "Croatia",
            0.0016127118142321706
          ],
          [
            "Guinea-Bissau",
            0.001570589025504887
          ],
          [
            "Syria",
            0.0015570534160360694
          ],
          [
            "Algeria",
            0.0015304420376196504
          ],
          [
            "Argentina",
            0.0014718088787049055
          ],
          [
            "Taiwan",
            0.0014609124045819044
          ],
          [
            "Heard and McDonald Islands",
            0.0014545146841555834
          ],
          [
            "Azerbaijan",
            0.001446596346795559
          ],
          [
            "Falkland Islands",
            0.001431863522157073
          ],
          [
            "Australia",
            0.001409331220202148
          ],
          [
            "Vanuatu",
            0.0014025868149474263
          ],
          [
            "Germany",
            0.0014001972740516067
          ],
          [
            "Madagascar",
            0.0013836943544447422
          ],
          [
            "Cape Verde",
            0.0013535786420106888
          ],
          [
            "Saudi Arabia",
            0.0013528894633054733
          ],
          [
            "Haiti",
            0.001348257763311267
          ],
          [
            "Luxembourg",
            0.0013239693362265825
          ],
          [
            "Kyrgyzstan",
            0.0012869166675955057
          ],
          [
            "Trinidad and Tobago",
            0.0012459931895136833
          ],
          [
            "Belgium",
            0.001241758349351585
          ],
          [
            "Latvia",
            0.0012385365553200245
          ],
          [
            "Israel",
            0.0012350123142823577
          ],
          [
            "Senegal",
            0.00119728222489357
          ],
          [
            "Czech Republic",
            0.001175224781036377
          ],
          [
            "Timor-Leste",
            0.0011588464258238673
          ],
          [
            "Iran",
            0.0011362199438735843
          ],
          [
            "Dominica",
            0.001122083282098174
          ],
          [
            "Bolivia",
            0.0010909760603681207
          ],
          [
            "Zimbabwe",
            0.0010792925022542477
          ],
          [
            "Denmark",
            0.0010752283269539475
          ],
          [
            "China",
            0.0010632692137733102
          ],
          [
            "Ethiopia",
            0.0010483053047209978
          ],
          [
            "Greece",
            0.0009834402007982135
          ],
          [
            "Bulgaria",
            0.0009548387606628239
          ],
          [
            "Kenya",
            0.0009040180593729019
          ],
          [
            "DR Congo",
            0.0008970136987045407
          ],
          [
            "Côte d'Ivoire",
            0.0008788136765360832
          ],
          [
            "Suriname",
            0.0008387345587834716
          ],
          [
            "Uzbekistan",
            0.0008307057432830334
          ],
          [
            "Mongolia",
            0.000820597109850496
          ],
          [
            "Yemen",
            0.0008125434396788478
          ],
          [
            "Namibia",
            0.0008122629951685667
          ],
          [
            "Antigua & Barbuda",
            0.0007645714213140309
          ],
          [
            "Martinique",
            0.0007639402174390852
          ],
          [
            "South Georgia Islands",
            0.0007364109624177217
          ],
          [
            "El Salvador",
            0.0007330112857744098
          ],
          [
            "South Sudan",
            0.0006981966434977949
          ],
          [
            "Hungary",
            0.0006634987657889724
          ],
          [
            "Turkey",
            0.0006575372535735369
          ],
          [
            "Egypt",
            0.0006422270089387894
          ],
          [
            "Georgia",
            0.0006386064342223108
          ],
          [
            "Laos",
            0.0006364007713273168
          ],
          [
            "Guinea",
            0.000593188451603055
          ],
          [
            "Botswana",
            0.0005888630985282362
          ],
          [
            "Costa Rica",
            0.0005718298489227891
          ],
          [
            "Honduras",
            0.0005693788989447057
          ],
          [
            "Chile",
            0.0005461780237965286
          ],
          [
            "Sierra Leone",
            0.0005310252890922129
          ],
          [
            "Slovenia",
            0.0005294102593325078
          ],
          [
            "Bahamas",
            0.0005207523354329169
          ],
          [
            "Mexico",
            0.0005119850393384695
          ],
          [
            "United States of America",
            0.000510274083353579
          ],
          [
            "India",
            0.0004749768413603306
          ],
          [
            "Cuba",
            0.0004683511797338724
          ],
          [
            "Kuwait",
            0.0004678538825828582
          ],
          [
            "Cyprus",
            0.0004556660423986614
          ],
          [
            "Austria",
            0.0004492900625336915
          ],
          [
            "Japan",
            0.0004230232152622193
          ],
          [
            "Indonesia",
            0.00041406883974559605
          ],
          [
            "Iraq",
            0.00041323411278426647
          ],
          [
            "Panama",
            0.0004075023753102869
          ],
          [
            "Uruguay",
            0.0003827692708000541
          ],
          [
            "Montenegro",
            0.00038062012754380703
          ],
          [
            "Ecuador",
            0.00037972533027641475
          ],
          [
            "Poland",
            0.00037953126593492925
          ],
          [
            "Barbados",
            0.00034474884159862995
          ],
          [
            "Puerto Rico",
            0.0003438662097323686
          ],
          [
            "Afghanistan",
            0.0003438577114138752
          ],
          [
            "Dominican Republic",
            0.000340109079843387
          ],
          [
            "Paraguay",
            0.00033631661790423095
          ],
          [
            "Libya",
            0.00032778040622361004
          ],
          [
            "New Caledonia",
            0.0003029791114386171
          ],
          [
            "Jamaica",
            0.0002966891333926469
          ],
          [
            "Reunion",
            0.0002441280521452427
          ],
          [
            "United States Virgin Islands",
            0.00021926949557382613
          ],
          [
            "Solomon Islands",
            0.00018439812993165106
          ],
          [
            "Palau",
            0.0001829048414947465
          ],
          [
            "Madeira Islands",
            0.00017259146261494607
          ],
          [
            "Samoa",
            0.00016705978487152606
          ],
          [
            "Gambia",
            0.00016642245464026928
          ],
          [
            "Netherlands Antilles",
            0.00016480420890729874
          ],
          [
            "Armenia",
            0.00014062802074477077
          ],
          [
            "Eritrea",
            0.00013944265083409846
          ],
          [
            "Turks and Caicos Islands",
            0.00013471955026034266
          ],
          [
            "Sao Tome and Principe",
            0.00012932003301102668
          ],
          [
            "Nepal",
            0.00011635612463578582
          ],
          [
            "Malaysia",
            0.0001056800756487064
          ],
          [
            "Comoros",
            0.00010193847992923111
          ],
          [
            "Equatorial Guinea",
            8.840500959195197e-05
          ],
          [
            "Liberia",
            8.054143836488947e-05
          ],
          [
            "Tanzania",
            6.917316932231188e-05
          ],
          [
            "Kiribati",
            3.31467563228216e-05
          ]
        ]
      },
      "geometry": {
        "type": "MultiLineString",
        "coordinates": [
          [
            [
              24.34482758620686,
              26.275862068965523
            ],
            [
              23.103448275862036,
              26.13793103448276
            ],
            [
              22.137931034482733,
              26.13793103448276
            ],
            [
              21.03448275862067,
              26.0
            ],
            [
              20.068965517241367,
              25.448275862068954
            ],
            [
              19.241379310344797,
              25.034482758620697
            ],
            [
              18.413793103448256,
              24.620689655172413
            ],
            [
              17.724137931034477,
              24.068965517241395
            ],
            [
              17.17241379310343,
              23.379310344827587
            ],
            [
              16.620689655172384,
              22.551724137931046
            ],
            [
              16.068965517241367,
              21.724137931034477
            ],
            [
              15.51724137931032,
              20.758620689655174
            ],
            [
              14.827586206896541,
              19.793103448275872
            ],
            [
              13.999999999999972,
              19.103448275862064
            ],
            [
              13.17241379310343,
              18.551724137931046
            ],
            [
              12.206896551724128,
              18.275862068965523
            ],
            [
              11.241379310344797,
              18.275862068965523
            ],
            [
              10.275862068965495,
              18.275862068965523
            ],
            [
              9.17241379310343,
              18.275862068965523
            ],
            [
              8.344827586206861,
              18.13793103448276
            ],
            [
              7.379310344827559,
              18.0
            ],
            [
              6.275862068965495,
              17.86206896551724
            ],
            [
              5.310344827586192,
              17.586206896551715
            ],
            [
              4.344827586206861,
              17.448275862068954
            ],
            [
              3.5172413793103203,
              17.034482758620697
            ],
            [
              2.6896551724137794,
              16.34482758620689
            ],
            [
              2.137931034482733,
              15.379310344827587
            ],
            [
              1.9999999999999716,
              14.551724137931046
            ],
            [
              2.4137931034482563,
              13.586206896551744
            ],
            [
              3.1034482758620356,
              12.896551724137936
            ],
            [
              4.068965517241367,
              12.482758620689651
            ],
            [
              4.8965517241379075,
              12.344827586206918
            ],
            [
              5.724137931034477,
              12.206896551724128
            ],
            [
              6.827586206896541,
              12.206896551724128
            ],
            [
              7.931034482758605,
              12.206896551724128
            ],
            [
              8.896551724137908,
              12.206896551724128
            ],
            [
              9.586206896551687,
              11.379310344827587
            ],
            [
              9.724137931034477,
              10.0
            ],
            [
              9.999999999999972,
              8.758620689655174
            ],
            [
              10.413793103448256,
              7.65517241379311
            ],
            [
              10.68965517241378,
              6.827586206896569
            ],
            [
              11.103448275862036,
              6.0
            ],
            [
              11.793103448275843,
              5.448275862068954
            ],
            [
              12.620689655172384,
              5.172413793103431
            ],
            [
              13.448275862068954,
              5.0344827586206975
            ],
            [
              14.413793103448256,
              5.0344827586206975
            ],
            [
              15.379310344827559,
              5.0344827586206975
            ],
            [
              16.34482758620686,
              5.0344827586206975
            ],
            [
              17.310344827586192,
              5.0344827586206975
            ],
            [
              18.137931034482733,
              5.310344827586221
            ],
            [
              19.241379310344797,
              5.310344827586221
            ],
            [
              20.206896551724128,
              5.310344827586221
            ],
            [
              21.310344827586192,
              5.310344827586221
            ],
            [
              22.413793103448256,
              5.310344827586221
            ],
            [
              23.37931034482756,
              5.310344827586221
            ],
            [
              24.34482758620686,
              5.310344827586221
            ],
            [
              25.17241379310343,
              5.448275862068954
            ],
            [
              25.99999999999997,
              5.724137931034477
            ],
            [
              26.965517241379303,
              6.0
            ],
            [
              27.793103448275843,
              6.413793103448256
            ],
            [
              28.896551724137908,
              6.551724137931046
            ],
            [
              29.724137931034477,
              6.689655172413779
            ],
            [
              30.68965517241378,
              6.9655172413793025
            ],
            [
              31.37931034482756,
              7.517241379310349
            ],
            [
              31.931034482758605,
              8.206896551724128
            ],
            [
              32.620689655172384,
              8.896551724137936
            ],
            [
              33.17241379310343,
              9.586206896551744
            ],
            [
              33.72413793103448,
              10.551724137931046
            ],
            [
              34.13793103448273,
              11.379310344827587
            ],
            [
              34.68965517241378,
              12.068965517241395
            ],
            [
              35.65517241379308,
              12.482758620689651
            ],
            [
              36.48275862068965,
              12.896551724137936
            ],
            [
              37.448275862068954,
              13.17241379310343
            ],
            [
              38.55172413793102,
              13.17241379310343
            ],
            [
              39.65517241379308,
              13.17241379310343
            ],
            [
              40.758620689655146,
              13.17241379310343
            ],
            [
              42.0,
              13.17241379310343
            ],
            [
              43.103448275862036,
              13.17241379310343
            ],
            [
              44.06896551724134,
              13.17241379310343
            ],
            [
              45.03448275862067,
              13.17241379310343
            ],
            [
              46.0,
              13.17241379310343
            ],
            [
              47.103448275862036,
              13.17241379310343
            ],
            [
              48.06896551724134,
              13.17241379310343
            ],
            [
              48.758620689655146,
              13.724137931034477
            ],
            [
              49.03448275862067,
              14.68965517241378
            ],
            [
              49.448275862068954,
              15.517241379310349
            ],
            [
              49.72413793103448,
              16.34482758620689
            ],
            [
              50.13793103448273,
              17.31034482758622
            ],
            [
              50.551724137931046,
              18.13793103448276
            ],
            [
              50.9655172413793,
              18.965517241379303
            ],
            [
              51.51724137931035,
              19.793103448275872
            ],
            [
              51.65517241379308,
              20.620689655172413
            ],
            [
              51.931034482758605,
              21.448275862068954
            ],
            [
              52.06896551724134,
              22.413793103448285
            ],
            [
              52.48275862068965,
              23.241379310344826
            ],
            [
              52.89655172413791,
              24.068965517241395
            ],
            [
              53.448275862068954,
              24.758620689655174
            ],
            [
              54.275862068965466,
              25.31034482758622
            ],
            [
              54.82758620689651,
              26.0
            ],
            [
              54.82758620689651,
              27.103448275862064
            ],
            [
              54.82758620689651,
              28.068965517241395
            ],
            [
              54.82758620689651,
              29.034482758620697
            ],
            [
              54.82758620689651,
              30.13793103448276
            ],
            [
              54.82758620689651,
              31.103448275862064
            ],
            [
              54.82758620689651,
              32.068965517241395
            ],
            [
              54.13793103448273,
              32.62068965517241
            ],
            [
              53.448275862068954,
              33.448275862068954
            ],
            [
              52.89655172413791,
              34.27586206896552
            ],
            [
              52.48275862068965,
              35.241379310344826
            ],
            [
              51.931034482758605,
              36.20689655172413
            ],
            [
              51.37931034482756,
              36.896551724137936
            ],
            [
              51.103448275862036,
              37.72413793103448
            ],
            [
              51.65517241379308,
              38.413793103448285
            ],
            [
              52.34482758620686,
              39.241379310344826
            ],
            [
              53.0344827586207,
              39.931034482758605
            ],
            [
              54.0,
              40.20689655172413
            ],
            [
              54.82758620689651,
              40.48275862068965
            ],
            [
              55.65517241379308,
              40.896551724137936
            ],
            [
              56.620689655172384,
              41.0344827586207
            ],
            [
              57.448275862068954,
              41.31034482758622
            ],
            [
              58.413793103448256,
              41.448275862068954
            ],
            [
              59.241379310344826,
              41.586206896551715
            ],
            [
              60.20689655172413,
              41.586206896551715
            ],
            [
              61.0344827586207,
              41.72413793103448
            ],
            [
              61.86206896551721,
              42.13793103448276
            ],
            [
              62.0,
              42.9655172413793
            ],
            [
              62.0,
              43.931034482758605
            ],
            [
              62.0,
              44.896551724137936
            ],
            [
              61.72413793103448,
              45.86206896551724
            ],
            [
              61.448275862068954,
              46.68965517241378
            ],
            [
              61.0344827586207,
              47.51724137931035
            ],
            [
              60.75862068965512,
              48.34482758620689
            ],
            [
              60.620689655172384,
              49.31034482758622
            ],
            [
              60.20689655172413,
              50.13793103448276
            ],
            [
              59.931034482758605,
              50.9655172413793
            ],
            [
              59.65517241379308,
              51.79310344827587
            ],
            [
              59.37931034482756,
              52.758620689655174
            ],
            [
              58.9655172413793,
              53.586206896551715
            ],
            [
              58.68965517241378,
              54.413793103448285
            ],
            [
              58.13793103448273,
              55.103448275862064
            ],
            [
              57.58620689655169,
              55.931034482758605
            ],
            [
              56.75862068965512,
              56.20689655172413
            ],
            [
              55.65517241379308,
              56.20689655172413
            ],
            [
              54.68965517241378,
              56.20689655172413
            ],
            [
              53.72413793103448,
              55.79310344827587
            ],
            [
              52.75862068965512,
              55.37931034482759
            ],
            [
              51.793103448275815,
              54.9655172413793
            ],
            [
              50.9655172413793,
              54.82758620689654
            ],
            [
              50.13793103448273,
              54.551724137931046
            ],
            [
              48.758620689655146,
              54.551724137931046
            ],
            [
              47.65517241379308,
              54.551724137931046
            ],
            [
              46.413793103448256,
              54.551724137931046
            ],
            [
              45.448275862068954,
              54.68965517241378
            ],
            [
              44.758620689655146,
              55.241379310344826
            ],
            [
              43.931034482758605,
              55.931034482758605
            ],
            [
              43.103448275862036,
              56.758620689655174
            ],
            [
              42.55172413793102,
              57.448275862068954
            ],
            [
              42.0,
              58.13793103448276
            ],
            [
              41.31034482758619,
              58.68965517241378
            ],
            [
              40.48275862068965,
              58.9655172413793
            ],
            [
              39.37931034482756,
              58.9655172413793
            ],
            [
              38.13793103448273,
              58.9655172413793
            ],
            [
              36.89655172413791,
              58.9655172413793
            ],
            [
              36.06896551724134,
              58.82758620689654
            ],
            [
              35.103448275862036,
              58.27586206896552
            ],
            [
              34.413793103448256,
              57.586206896551715
            ],
            [
              33.31034482758619,
              56.896551724137936
            ],
            [
              32.48275862068965,
              56.34482758620689
            ],
            [
              31.37931034482756,
              55.65517241379311
            ],
            [
              30.275862068965495,
              55.241379310344826
            ],
            [
              29.448275862068954,
              54.9655172413793
            ],
            [
              28.48275862068965,
              54.27586206896552
            ],
            [
              27.51724137931032,
              53.586206896551715
            ],
            [
              28.068965517241367,
              52.896551724137936
            ],
            [
              29.03448275862067,
              52.896551724137936
            ],
            [
              29.99999999999997,
              52.62068965517241
            ],
            [
              30.965517241379303,
              52.20689655172413
            ],
            [
              31.793103448275843,
              51.93103448275863
            ],
            [
              32.758620689655146,
              51.37931034482759
            ],
            [
              33.72413793103448,
              50.82758620689654
            ],
            [
              34.55172413793102,
              50.27586206896552
            ],
            [
              35.37931034482756,
              49.586206896551715
            ],
            [
              36.06896551724134,
              49.0344827586207
            ],
            [
              37.03448275862067,
              48.34482758620689
            ],
            [
              37.86206896551721,
              47.65517241379311
            ],
            [
              38.55172413793102,
              46.82758620689654
            ],
            [
              38.82758620689651,
              45.72413793103448
            ],
            [
              38.82758620689651,
              44.62068965517241
            ],
            [
              38.413793103448256,
              43.51724137931035
            ],
            [
              37.72413793103448,
              42.9655172413793
            ],
            [
              36.758620689655146,
              42.551724137931046
            ],
            [
              35.931034482758605,
              42.27586206896552
            ],
            [
              34.82758620689651,
              42.27586206896552
            ],
            [
              33.86206896551721,
              42.27586206896552
            ],
            [
              32.758620689655146,
              42.27586206896552
            ],
            [
              31.793103448275843,
              42.27586206896552
            ],
            [
              30.68965517241378,
              42.27586206896552
            ],
            [
              29.586206896551687,
              42.27586206896552
            ],
            [
              28.620689655172384,
              42.551724137931046
            ],
            [
              27.655172413793082,
              43.103448275862064
            ],
            [
              26.68965517241378,
              43.79310344827587
            ],
            [
              25.99999999999997,
              44.48275862068965
            ],
            [
              25.17241379310343,
              45.17241379310346
            ],
            [
              24.620689655172384,
              45.86206896551724
            ],
            [
              23.931034482758605,
              46.551724137931046
            ],
            [
              22.965517241379303,
              47.241379310344826
            ],
            [
              21.99999999999997,
              47.65517241379311
            ],
            [
              20.758620689655146,
              47.93103448275863
            ],
            [
              19.655172413793082,
              47.93103448275863
            ],
            [
              18.68965517241378,
              47.93103448275863
            ],
            [
              17.99999999999997,
              46.9655172413793
            ],
            [
              17.724137931034477,
              45.72413793103448
            ],
            [
              17.724137931034477,
              44.20689655172413
            ],
            [
              17.724137931034477,
              42.82758620689657
            ],
            [
              17.86206896551721,
              41.586206896551715
            ],
            [
              18.413793103448256,
              40.896551724137936
            ],
            [
              19.37931034482756,
              40.34482758620689
            ],
            [
              18.275862068965495,
              40.068965517241395
            ],
            [
              17.448275862068954,
              39.241379310344826
            ],
            [
              16.758620689655146,
              37.86206896551724
            ],
            [
              16.620689655172384,
              36.34482758620689
            ],
            [
              16.620689655172384,
              35.241379310344826
            ],
            [
              16.620689655172384,
              34.13793103448276
            ],
            [
              17.17241379310343,
              33.448275862068954
            ],
            [
              18.137931034482733,
              33.448275862068954
            ],
            [
              19.103448275862036,
              33.17241379310346
            ],
            [
              20.068965517241367,
              32.62068965517241
            ],
            [
              21.448275862068954,
              31.931034482758605
            ],
            [
              22.82758620689654,
              31.103448275862064
            ],
            [
              24.068965517241367,
              30.413793103448285
            ],
            [
              24.896551724137908,
              30.0
            ],
            [
              25.86206896551721,
              29.586206896551715
            ],
            [
              26.82758620689654,
              29.17241379310346
            ],
            [
              27.931034482758605,
              28.620689655172413
            ],
            [
              28.758620689655146,
              28.068965517241395
            ],
            [
              29.17241379310343,
              27.241379310344826
            ],
            [
              28.34482758620686,
              26.82758620689657
            ],
            [
              26.68965517241378,
              26.82758620689657
            ],
            [
              25.724137931034477,
              26.82758620689657
            ],
            [
              24.620689655172384,
              26.82758620689657
            ],
            [
              23.655172413793082,
              26.82758620689657
            ]
          ]
        ]
      }
    }
  ]
}