{
  "type": "FeatureCollection",
  "crs": {
    "type": "name",
    "properties": {
      "name": "urn:ogc:def:crs:OGC:1.3:CRS84"
    }
  },
  "features": [
    {
      "type": "Feature",
      "properties": {
        "timestamp": "2026-06-08T03:38:04.004548",
        "country_name": "Italy",
        "author": "",
        "author_id": "d6fbfd9a-2be2-45d3-8b03-936fa0eb4bc4",
        "validated": false,
        "ranking": [
          [
            "Albania",
            0.1644250899553299
          ],
          [
            "Italy",
            0.11850438266992569
          ],
          [
            "Malawi",
            0.031609561294317245
          ],
          [
            "Thailand",
            0.030882982537150383
          ],
          [
            "Philippines",
            0.028354497626423836
          ],
          [
            "Serbia",
            0.027031805366277695
          ],
          [
            "Portugal",
            0.026035334914922714
          ],
          [
            "Finland",
            0.02501862868666649
          ],
          [
            "United Kingdom",
            0.024334508925676346
          ],
          [
            "Moldova",
            0.022152215242385864
          ],
          [
            "Vietnam",
            0.022086000069975853
          ],
          [
            "South Korea",
            0.021679174154996872
          ],
          [
            "Guyana",
            0.017876222729682922
          ],
          [
            "Argentina",
            0.017030222341418266
          ],
          [
            "Togo",
            0.01472377497702837
          ],
          [
            "Tunisia",
            0.014429081231355667
          ],
          [
            "Laos",
            0.014225225895643234
          ],
          [
            "Bangladesh",
            0.013824335299432278
          ],
          [
            "Sri Lanka",
            0.0138017563149333
          ],
          [
            "Peru",
            0.012266735546290874
          ],
          [
            "Saudi Arabia",
            0.011766703799366951
          ],
          [
            "Qatar",
            0.01126312930136919
          ],
          [
            "Mozambique",
            0.00969609897583723
          ],
          [
            "Mexico",
            0.007896431721746922
          ],
          [
            "West Bank",
            0.0077556888572871685
          ],
          [
            "Sweden",
            0.007697476074099541
          ],
          [
            "Canada",
            0.007579670287668705
          ],
          [
            "Belize",
            0.00714131910353899
          ],
          [
            "Bahamas",
            0.007124965079128742
          ],
          [
            "Faroe Islands",
            0.006993676070123911
          ],
          [
            "Turkmenistan",
            0.006986290216445923
          ],
          [
            "Somalia",
            0.006847635842859745
          ],
          [
            "Ireland",
            0.006194788962602615
          ],
          [
            "Vanuatu",
            0.005621013231575489
          ],
          [
            "Svalbard",
            0.0056098527275025845
          ],
          [
            "Heard and McDonald Islands",
            0.005471357610076666
          ],
          [
            "Congo",
            0.005167840979993343
          ],
          [
            "Eritrea",
            0.005138139706104994
          ],
          [
            "South Georgia Islands",
            0.005127712618559599
          ],
          [
            "Myanmar",
            0.005126011557877064
          ],
          [
            "United States of America",
            0.004980103112757206
          ],
          [
            "Bahrain",
            0.0049639432691037655
          ],
          [
            "Ghana",
            0.0048009976744651794
          ],
          [
            "Colombia",
            0.004465881269425154
          ],
          [
            "Papua New Guinea",
            0.004399639088660479
          ],
          [
            "Cameroon",
            0.004370299633592367
          ],
          [
            "Benin",
            0.004311548080295324
          ],
          [
            "Luxembourg",
            0.004142952151596546
          ],
          [
            "Martinique",
            0.003968114499002695
          ],
          [
            "Israel",
            0.003921510651707649
          ],
          [
            "Tajikistan",
            0.003885823767632246
          ],
          [
            "Dominica",
            0.0038172488566488028
          ],
          [
            "Uzbekistan",
            0.00371007202193141
          ],
          [
            "Greece",
            0.0034804209135472775
          ],
          [
            "Oman",
            0.0034672885667532682
          ],
          [
            "Romania",
            0.0033465137239545584
          ],
          [
            "New Zealand",
            0.00327433948405087
          ],
          [
            "Namibia",
            0.0031262089032679796
          ],
          [
            "Mayotte",
            0.003106391988694668
          ],
          [
            "French Guiana",
            0.002663491992279887
          ],
          [
            "Ukraine",
            0.0025896476581692696
          ],
          [
            "Denmark",
            0.0024350560270249844
          ],
          [
            "Ethiopia",
            0.0024288680870085955
          ],
          [
            "Lithuania",
            0.002405759645625949
          ],
          [
            "Guatemala",
            0.002384926425293088
          ],
          [
            "France",
            0.002361051272600889
          ],
          [
            "Croatia",
            0.002273721154779196
          ],
          [
            "Armenia",
            0.0022541687358170748
          ],
          [
            "Russia",
            0.0022420084569603205
          ],
          [
            "Greenland",
            0.0022298325784504414
          ],
          [
            "Mali",
            0.002201707335188985
          ],
          [
            "Burundi",
            0.0020831713918596506
          ],
          [
            "Guadeloupe",
            0.0020769662223756313
          ],
          [
            "Saint Lucia",
            0.0019945362582802773
          ],
          [
            "Cape Verde",
            0.0019643816631287336
          ],
          [
            "Senegal",
            0.0018594808643683791
          ],
          [
            "Turks and Caicos Islands",
            0.0017459479859098792
          ],
          [
            "Chad",
            0.0017279851017519832
          ],
          [
            "El Salvador",
            0.001639575115405023
          ],
          [
            "Equatorial Guinea",
            0.0016185459680855274
          ],
          [
            "Costa Rica",
            0.0015944073675200343
          ],
          [
            "Barbados",
            0.0015700117219239473
          ],
          [
            "Bolivia",
            0.0015358849195763469
          ],
          [
            "Rwanda",
            0.001527013722807169
          ],
          [
            "Antigua & Barbuda",
            0.0014919848181307316
          ],
          [
            "Samoa",
            0.0014247538056224585
          ],
          [
            "Cambodia",
            0.0014236646238714457
          ],
          [
            "Chile",
            0.001420163200236857
          ],
          [
            "Georgia",
            0.0013623650884255767
          ],
          [
            "Netherlands",
            0.0013262624852359295
          ],
          [
            "Fiji",
            0.0012534282868728042
          ],
          [
            "Switzerland",
            0.0012426995672285557
          ],
          [
            "Cuba",
            0.0012356090592220426
          ],
          [
            "Latvia",
            0.0012300971429795027
          ],
          [
            "Spain",
            0.001226685824804008
          ],
          [
            "Nepal",
            0.001197641366161406
          ],
          [
            "Norway",
            0.0011281140614300966
          ],
          [
            "Gabon",
            0.0010701956925913692
          ],
          [
            "Dominican Republic",
            0.0010693345684558153
          ],
          [
            "Czech Republic",
            0.0010684640146791935
          ],
          [
            "Trinidad and Tobago",
            0.0010321360314264894
          ],
          [
            "Reunion",
            0.0010253058280795813
          ],
          [
            "Hong Kong",
            0.0009896332630887628
          ],
          [
            "North Macedonia",
            0.0009438159177079797
          ],
          [
            "Central African Republic",
            0.0009360478143207729
          ],
          [
            "Guinea",
            0.0009236474288627505
          ],
          [
            "Angola",
            0.0009223428787663579
          ],
          [
            "Taiwan",
            0.0008931949851103127
          ],
          [
            "Sudan",
            0.0008928798488341272
          ],
          [
            "Kazakhstan",
            0.0008901370456442237
          ],
          [
            "New Caledonia",
            0.0008811622392386198
          ],
          [
            "Timor-Leste",
            0.0008728004177100956
          ],
          [
            "Iran",
            0.0008721746853552759
          ],
          [
            "Australia",
            0.0008677477017045021
          ],
          [
            "Iraq",
            0.0008651464013382792
          ],
          [
            "Paraguay",
            0.0008603709866292775
          ],
          [
            "Uganda",
            0.0008238218142651021
          ],
          [
            "Japan",
            0.0008232390973716974
          ],
          [
            "Brazil",
            0.0008152947993949056
          ],
          [
            "Venezuela",
            0.0008140222053043544
          ],
          [
            "United States Virgin Islands",
            0.0008104976150207222
          ],
          [
            "Solomon Islands",
            0.0007660300470888615
          ],
          [
            "Comoros",
            0.0007578987278975546
          ],
          [
            "Isle of Man",
            0.0007451530545949936
          ],
          [
            "Kenya",
            0.0007428413955494761
          ],
          [
            "Indonesia",
            0.0007354693952947855
          ],
          [
            "Guam",
            0.0007284568273462355
          ],
          [
            "Iceland",
            0.000713252171408385
          ],
          [
            "Jordan",
            0.0007130522280931473
          ],
          [
            "Syria",
            0.0006794550572521985
          ],
          [
            "Libya",
            0.0006424993043765426
          ],
          [
            "Burkina Faso",
            0.0006334607023745775
          ],
          [
            "Liberia",
            0.0006180800264701247
          ],
          [
            "Bosnia & Herzegovina",
            0.0006105926004238427
          ],
          [
            "Nigeria",
            0.000604195345658809
          ],
          [
            "Guinea-Bissau",
            0.0005985646275803447
          ],
          [
            "Turkey",
            0.0005829595029354095
          ],
          [
            "South Africa",
            0.0005804519751109183
          ],
          [
            "Falkland Islands",
            0.0005804021493531764
          ],
          [
            "Kiribati",
            0.0005802217638120055
          ],
          [
            "Niger",
            0.0005731371929869056
          ],
          [
            "Palau",
            0.0005635319976136088
          ],
          [
            "Montenegro",
            0.0005611337255686522
          ],
          [
            "Germany",
            0.0005550269852392375
          ],
          [
            "Madagascar",
            0.0005520402337424457
          ],
          [
            "Mauritania",
            0.0005355130997486413
          ],
          [
            "Suriname",
            0.0005342969670891762
          ],
          [
            "Eswatini",
            0.0005227140500210226
          ],
          [
            "India",
            0.0005137578118592501
          ],
          [
            "Brunei",
            0.0005007933359593153
          ],
          [
            "Lesotho",
            0.0004770143423229456
          ],
          [
            "Slovakia",
            0.0004765769117511809
          ],
          [
            "Azerbaijan",
            0.0004728916101157665
          ],
          [
            "Botswana",
            0.00044989827438257635
          ],
          [
            "Zambia",
            0.00043928532977588475
          ],
          [
            "North Korea",
            0.00043244680273346603
          ],
          [
            "South Sudan",
            0.0004322637105360627
          ],
          [
            "Puerto Rico",
            0.00041261373553425074
          ],
          [
            "Sierra Leone",
            0.00040811553481034935
          ],
          [
            "Pakistan",
            0.0003950177924707532
          ],
          [
            "Jamaica",
            0.00039210973773151636
          ],
          [
            "Estonia",
            0.000386353291105479
          ],
          [
            "Mongolia",
            0.00038540823152288795
          ],
          [
            "Sao Tome and Principe",
            0.00037471146788448095
          ],
          [
            "Ecuador",
            0.0003680362715385854
          ],
          [
            "Lebanon",
            0.00034273689379915595
          ],
          [
            "Egypt",
            0.0003333522181492299
          ],
          [
            "Haiti",
            0.0003290277090854943
          ],
          [
            "Yemen",
            0.00031288794707506895
          ],
          [
            "Bhutan",
            0.00030467723263427615
          ],
          [
            "Djibouti",
            0.00030158055596984923
          ],
          [
            "Belarus",
            0.00029449499561451375
          ],
          [
            "China",
            0.00028736976673826575
          ],
          [
            "United Arab Emirates",
            0.00028200671658851206
          ],
          [
            "Belgium",
            0.000276779115665704
          ],
          [
            "Kyrgyzstan",
            0.0002738536859396845
          ],
          [
            "Côte d'Ivoire",
            0.0002652362745720893
          ],
          [
            "Algeria",
            0.0002631069510243833
          ],
          [
            "Uruguay",
            0.0002521742426324636
          ],
          [
            "Poland",
            0.00024517529527656734
          ],
          [
            "Panama",
            0.00024372294137720019
          ],
          [
            "Nicaragua",
            0.00023178088304121047
          ],
          [
            "Bulgaria",
            0.0002115031093126163
          ],
          [
            "Honduras",
            0.00020340755872894078
          ],
          [
            "Austria",
            0.00018657326290849596
          ],
          [
            "Morocco",
            0.0001800668687792495
          ],
          [
            "Kuwait",
            0.00017468465375714004
          ],
          [
            "Western Sahara",
            0.00016928078548517078
          ],
          [
            "Madeira Islands",
            0.000166235986398533
          ],
          [
            "DR Congo",
            0.00016137887723743916
          ],
          [
            "Cyprus",
            0.00015788698510732502
          ],
          [
            "Gambia",
            0.00012713464093394578
          ],
          [
            "Zimbabwe",
            0.00012044581671943888
          ],
          [
            "Hungary",
            0.00011564353189896792
          ],
          [
            "Netherlands Antilles",
            0.00011101471318397671
          ],
          [
            "Tanzania",
            9.930835949489847e-05
          ],
          [
            "Malaysia",
            9.884537575999275e-05
          ],
          [
            "Slovenia",
            9.64089558692649e-05
          ],
          [
            "Afghanistan",
            8.084036380751058e-05
          ]
        ]
      },
      "geometry": {
        "type": "MultiLineString",
        "coordinates": [
          [
            [
              9.177033492822972,
              62.0
            ],
            [
              9.177033492822972,
              60.85167464114832
            ],
            [
              8.889952153110059,
              59.416267942583744
            ],
            [
              8.889952153110059,
              58.267942583732065
            ],
            [
              8.602870813397132,
              57.40669856459331
            ],
            [
              8.602870813397132,
              56.258373205741634
            ],
            [
              8.602870813397132,
              55.110047846889955
            ],
            [
              9.177033492822972,
              54.2488038277512
            ],
            [
              9.464114832535884,
              53.38755980861242
            ],
            [
              9.464114832535884,
              52.23923444976077
            ],
            [
              10.038277511961724,
              51.37799043062199
            ],
            [
              10.89952153110049,
              50.51674641148327
            ],
            [
              11.760765550239242,
              50.22966507177034
            ],
            [
              12.90909090909092,
              50.22966507177034
            ],
            [
              14.344497607655512,
              50.22966507177034
            ],
            [
              15.205741626794264,
              49.942583732057415
            ],
            [
              16.066985645933016,
              49.65550239234449
            ],
            [
              18.076555023923447,
              49.36842105263156
            ],
            [
              18.937799043062213,
              49.08133971291866
            ],
            [
              19.799043062200965,
              48.794258373205736
            ],
            [
              20.947368421052644,
              48.794258373205736
            ],
            [
              21.808612440191396,
              48.50717703349284
            ],
            [
              22.956937799043075,
              48.22009569377991
            ],
            [
              23.818181818181827,
              47.933014354066984
            ],
            [
              24.67942583732058,
              47.64593301435406
            ],
            [
              25.25358851674642,
              46.784688995215305
            ],
            [
              25.25358851674642,
              45.636363636363626
            ],
            [
              25.25358851674642,
              44.20095693779905
            ],
            [
              25.25358851674642,
              42.76555023923444
            ],
            [
              25.54066985645933,
              41.90430622009569
            ],
            [
              26.11483253588517,
              41.04306220095694
            ],
            [
              26.401913875598083,
              40.18181818181819
            ],
            [
              26.976076555023937,
              39.03349282296651
            ],
            [
              27.550239234449762,
              37.5980861244019
            ],
            [
              28.1244019138756,
              36.44976076555025
            ],
            [
              28.69856459330144,
              35.014354066985646
            ],
            [
              29.27272727272728,
              33.57894736842104
            ],
            [
              29.559808612440193,
              32.43062200956939
            ],
            [
              30.133971291866033,
              31.56937799043061
            ],
            [
              31.28229665071771,
              30.42105263157896
            ],
            [
              32.14354066985646,
              29.27272727272728
            ],
            [
              33.00478468899523,
              28.41148325358853
            ],
            [
              33.578947368421055,
              27.550239234449748
            ],
            [
              34.44019138755981,
              26.688995215310996
            ],
            [
              35.30143540669856,
              25.827751196172244
            ],
            [
              36.16267942583734,
              24.679425837320593
            ],
            [
              37.31100478468899,
              23.818181818181813
            ],
            [
              38.17224880382777,
              23.24401913875596
            ],
            [
              39.32057416267942,
              22.09569377990431
            ],
            [
              40.1818181818182,
              21.521531100478455
            ],
            [
              41.33014354066985,
              20.373205741626805
            ],
            [
              40.755980861244026,
              18.9377990430622
            ],
            [
              39.60765550239235,
              17.215311004784695
            ],
            [
              39.03349282296652,
              15.77990430622009
            ],
            [
              38.746411483253596,
              13.770334928229659
            ],
            [
              38.45933014354067,
              12.909090909090907
            ],
            [
              37.88516746411484,
              12.047846889952154
            ],
            [
              37.59808612440192,
              10.32535885167465
            ],
            [
              37.02392344497609,
              9.46411483253587
            ],
            [
              38.17224880382777,
              9.177033492822972
            ],
            [
              39.32057416267942,
              9.177033492822972
            ],
            [
              40.4688995215311,
              9.46411483253587
            ],
            [
              41.33014354066985,
              10.038277511961724
            ],
            [
              42.76555023923446,
              10.899521531100476
            ],
            [
              43.33971291866028,
              11.760765550239228
            ],
            [
              43.913875598086136,
              12.622009569378008
            ],
            [
              44.20095693779906,
              13.483253588516732
            ],
            [
              44.20095693779906,
              14.918660287081337
            ],
            [
              44.77511961722489,
              16.066985645933016
            ],
            [
              45.34928229665071,
              16.92822966507177
            ],
            [
              45.92344497607657,
              17.78947368421052
            ],
            [
              46.210526315789494,
              18.6507177033493
            ],
            [
              46.49760765550239,
              19.511961722488024
            ],
            [
              46.78468899521532,
              20.66028708133973
            ],
            [
              47.64593301435407,
              21.808612440191382
            ],
            [
              48.79425837320575,
              21.808612440191382
            ],
            [
              49.6555023923445,
              22.09569377990431
            ],
            [
              51.377990430622006,
              21.521531100478455
            ],
            [
              52.526315789473685,
              20.373205741626805
            ],
            [
              53.38755980861244,
              19.79904306220095
            ],
            [
              55.39712918660287,
              19.511961722488024
            ],
            [
              53.10047846889951,
              20.94736842105263
            ],
            [
              52.23923444976079,
              21.521531100478455
            ],
            [
              51.95215311004786,
              22.382775119617236
            ],
            [
              51.377990430622006,
              23.24401913875596
            ],
            [
              50.80382775119618,
              24.10526315789474
            ],
            [
              50.516746411483254,
              24.966507177033492
            ],
            [
              49.94258373205743,
              25.827751196172244
            ],
            [
              49.08133971291865,
              26.401913875598098
            ],
            [
              48.220095693779925,
              26.976076555023923
            ],
            [
              47.358851674641144,
              27.550239234449748
            ],
            [
              46.49760765550239,
              27.837320574162675
            ],
            [
              45.34928229665071,
              28.41148325358853
            ],
            [
              44.48803827751196,
              29.27272727272728
            ],
            [
              43.62679425837321,
              30.133971291866033
            ],
            [
              42.76555023923446,
              31.28229665071771
            ],
            [
              42.19138755980863,
              32.43062200956939
            ],
            [
              41.33014354066985,
              33.29186602870814
            ],
            [
              40.755980861244026,
              34.153110047846894
            ],
            [
              40.1818181818182,
              35.014354066985646
            ],
            [
              39.894736842105274,
              35.8755980861244
            ],
            [
              39.03349282296652,
              36.73684210526315
            ],
            [
              38.746411483253596,
              37.5980861244019
            ],
            [
              38.17224880382777,
              38.45933014354068
            ],
            [
              37.88516746411484,
              39.320574162679435
            ],
            [
              37.02392344497609,
              40.468899521531114
            ],
            [
              36.736842105263165,
              41.330143540669866
            ],
            [
              36.16267942583734,
              42.19138755980862
            ],
            [
              36.16267942583734,
              43.3397129186603
            ],
            [
              36.16267942583734,
              44.488038277511976
            ],
            [
              36.16267942583734,
              45.636363636363626
            ],
            [
              36.736842105263165,
              46.49760765550241
            ],
            [
              37.59808612440192,
              47.07177033492823
            ],
            [
              38.17224880382777,
              47.933014354066984
            ],
            [
              39.32057416267942,
              47.933014354066984
            ],
            [
              40.4688995215311,
              47.933014354066984
            ],
            [
              41.61722488038278,
              47.933014354066984
            ],
            [
              42.19138755980863,
              49.36842105263156
            ],
            [
              42.19138755980863,
              50.80382775119617
            ],
            [
              42.19138755980863,
              52.23923444976077
            ],
            [
              41.904306220095705,
              53.100478468899524
            ],
            [
              41.61722488038278,
              53.961722488038276
            ],
            [
              41.04306220095695,
              54.82296650717703
            ],
            [
              40.755980861244026,
              55.97129186602871
            ],
            [
              40.4688995215311,
              56.83253588516746
            ],
            [
              40.1818181818182,
              57.69377990430621
            ],
            [
              40.1818181818182,
              58.84210526315789
            ],
            [
              39.32057416267942,
              59.416267942583744
            ],
            [
              37.88516746411484,
              59.99043062200957
            ],
            [
              36.736842105263165,
              59.99043062200957
            ],
            [
              35.588516746411486,
              59.99043062200957
            ],
            [
              34.44019138755981,
              59.99043062200957
            ],
            [
              33.29186602870814,
              59.99043062200957
            ],
            [
              32.14354066985646,
              59.99043062200957
            ],
            [
              30.9952153110048,
              59.99043062200957
            ],
            [
              29.84688995215312,
              59.99043062200957
            ],
            [
              28.69856459330144,
              59.99043062200957
            ],
            [
              27.550239234449762,
              59.99043062200957
            ],
            [
              26.401913875598083,
              59.99043062200957
            ],
            [
              25.25358851674642,
              59.99043062200957
            ],
            [
              23.818181818181827,
              59.99043062200957
            ],
            [
              22.66985645933015,
              59.99043062200957
            ],
            [
              21.52153110047847,
              59.99043062200957
            ],
            [
              20.660287081339717,
              59.70334928229664
            ],
            [
              19.799043062200965,
              59.416267942583744
            ],
            [
              18.650717703349287,
              59.416267942583744
            ],
            [
              17.215311004784695,
              59.70334928229664
            ],
            [
              15.779904306220104,
              59.99043062200957
            ],
            [
              14.631578947368425,
              59.99043062200957
            ],
            [
              13.770334928229673,
              60.277511961722496
            ],
            [
              12.622009569377994,
              60.564593301435394
            ],
            [
              11.760765550239242,
              60.85167464114832
            ]
          ],
          [
            [
              15.205741626794264,
              15.205741626794264
            ],
            [
              16.641148325358856,
              14.631578947368439
            ],
            [
              18.076555023923447,
              14.057416267942585
            ],
            [
              19.51196172248804,
              13.770334928229659
            ],
            [
              20.37320574162679,
              13.483253588516732
            ],
            [
              21.234449760765557,
              13.196172248803833
            ],
            [
              22.09569377990431,
              12.909090909090907
            ],
            [
              22.956937799043075,
              12.622009569378008
            ],
            [
              24.67942583732058,
              12.622009569378008
            ],
            [
              25.827751196172258,
              12.622009569378008
            ],
            [
              26.976076555023937,
              12.622009569378008
            ],
            [
              27.83732057416269,
              12.047846889952154
            ],
            [
              28.69856459330144,
              11.186602870813402
            ],
            [
              29.559808612440193,
              10.612440191387577
            ],
            [
              30.708133971291872,
              10.612440191387577
            ],
            [
              32.430622009569376,
              10.612440191387577
            ],
            [
              34.15311004784691,
              10.612440191387577
            ],
            [
              35.30143540669856,
              10.612440191387577
            ]
          ],
          [
            [
              16.354066985645943,
              13.770334928229659
            ],
            [
              16.066985645933016,
              12.909090909090907
            ],
            [
              16.641148325358856,
              11.186602870813402
            ],
            [
              17.502392344497608,
              9.46411483253587
            ],
            [
              18.076555023923447,
              8.602870813397146
            ],
            [
              18.650717703349287,
              7.741626794258366
            ],
            [
              19.51196172248804,
              7.167464114832541
            ],
            [
              20.660287081339717,
              6.019138755980862
            ],
            [
              21.52153110047847,
              4.870813397129183
            ],
            [
              22.38277511961722,
              4.009569377990431
            ],
            [
              23.244019138755988,
              2.861244019138752
            ],
            [
              24.10526315789474,
              2.0
            ],
            [
              25.54066985645933,
              2.287081339712927
            ],
            [
              26.11483253588517,
              3.148325358851679
            ],
            [
              26.68899521531101,
              4.009569377990431
            ],
            [
              26.976076555023937,
              4.870813397129183
            ],
            [
              27.83732057416269,
              5.732057416267935
            ],
            [
              28.69856459330144,
              6.593301435406715
            ],
            [
              29.559808612440193,
              7.167464114832541
            ],
            [
              30.9952153110048,
              7.167464114832541
            ],
            [
              32.430622009569376,
              7.741626794258366
            ],
            [
              33.00478468899523,
              8.602870813397146
            ],
            [
              34.15311004784691,
              9.46411483253587
            ],
            [
              34.727272727272734,
              10.32535885167465
            ]
          ],
          [
            [
              15.779904306220104,
              28.698564593301427
            ],
            [
              15.779904306220104,
              26.976076555023923
            ],
            [
              15.779904306220104,
              25.827751196172244
            ],
            [
              15.779904306220104,
              24.679425837320593
            ],
            [
              16.066985645933016,
              23.531100478468886
            ],
            [
              16.354066985645943,
              22.382775119617236
            ],
            [
              18.937799043062213,
              21.234449760765557
            ],
            [
              21.52153110047847,
              20.94736842105263
            ],
            [
              22.66985645933015,
              20.94736842105263
            ],
            [
              24.10526315789474,
              21.234449760765557
            ],
            [
              24.392344497607652,
              22.09569377990431
            ],
            [
              24.392344497607652,
              23.24401913875596
            ],
            [
              24.392344497607652,
              24.392344497607667
            ],
            [
              24.392344497607652,
              25.540669856459317
            ],
            [
              24.10526315789474,
              27.26315789473685
            ],
            [
              23.818181818181827,
              28.41148325358853
            ],
            [
              23.244019138755988,
              29.55980861244018
            ],
            [
              23.244019138755988,
              30.708133971291858
            ],
            [
              23.244019138755988,
              31.856459330143537
            ],
            [
              22.38277511961722,
              32.14354066985646
            ],
            [
              21.52153110047847,
              32.43062200956939
            ],
            [
              20.660287081339717,
              32.71770334928229
            ],
            [
              19.799043062200965,
              32.43062200956939
            ],
            [
              19.224880382775126,
              31.56937799043061
            ],
            [
              18.650717703349287,
              30.708133971291858
            ],
            [
              18.076555023923447,
              29.55980861244018
            ],
            [
              18.076555023923447,
              28.41148325358853
            ],
            [
              16.928229665071783,
              28.1244019138756
            ]
          ]
        ]
      }
    }
  ]
}