{
  "type": "FeatureCollection",
  "crs": {
    "type": "name",
    "properties": {
      "name": "urn:ogc:def:crs:OGC:1.3:CRS84"
    }
  },
  "features": [
    {
      "type": "Feature",
      "properties": {
        "timestamp": "2026-07-04T16:27:26.233411",
        "country_name": "Italy",
        "author": "",
        "author_id": "1da0f222-4a94-47fe-8d60-41319baa6671",
        "validated": false,
        "ranking": [
          [
            "South Georgia Islands",
            0.10827960073947906
          ],
          [
            "Moldova",
            0.049676332622766495
          ],
          [
            "Bangladesh",
            0.03487043082714081
          ],
          [
            "Malawi",
            0.03346862271428108
          ],
          [
            "Uzbekistan",
            0.029253438115119934
          ],
          [
            "Myanmar",
            0.02841430902481079
          ],
          [
            "Svalbard",
            0.026211287826299667
          ],
          [
            "Guyana",
            0.02456318400800228
          ],
          [
            "Faroe Islands",
            0.02198151685297489
          ],
          [
            "Thailand",
            0.02144722267985344
          ],
          [
            "Laos",
            0.02078954316675663
          ],
          [
            "Vanuatu",
            0.02003788948059082
          ],
          [
            "Italy",
            0.018898574635386467
          ],
          [
            "Turkmenistan",
            0.016675135120749474
          ],
          [
            "Armenia",
            0.016185803338885307
          ],
          [
            "New Caledonia",
            0.01601719856262207
          ],
          [
            "Togo",
            0.015435103327035904
          ],
          [
            "Benin",
            0.015308546833693981
          ],
          [
            "Bahamas",
            0.015035534277558327
          ],
          [
            "Papua New Guinea",
            0.01470007374882698
          ],
          [
            "Tunisia",
            0.01429458986967802
          ],
          [
            "Costa Rica",
            0.013999471440911293
          ],
          [
            "Vietnam",
            0.013814366422593594
          ],
          [
            "South Korea",
            0.012414192780852318
          ],
          [
            "Falkland Islands",
            0.01204085722565651
          ],
          [
            "Somalia",
            0.011589854024350643
          ],
          [
            "Peru",
            0.011434460990130901
          ],
          [
            "Bahrain",
            0.011183620430529118
          ],
          [
            "Spain",
            0.010220092721283436
          ],
          [
            "Mexico",
            0.00954810343682766
          ],
          [
            "Dominica",
            0.00912863202393055
          ],
          [
            "Cuba",
            0.008587152697145939
          ],
          [
            "Indonesia",
            0.008194457739591599
          ],
          [
            "Guadeloupe",
            0.007983622141182423
          ],
          [
            "Russia",
            0.007764663081616163
          ],
          [
            "Serbia",
            0.007657737471163273
          ],
          [
            "Belize",
            0.007575888652354479
          ],
          [
            "Mozambique",
            0.0075413743034005165
          ],
          [
            "United States of America",
            0.006795724853873253
          ],
          [
            "Albania",
            0.00673192972317338
          ],
          [
            "Eritrea",
            0.0061902692541480064
          ],
          [
            "Croatia",
            0.0061179520562291145
          ],
          [
            "Finland",
            0.006023389287292957
          ],
          [
            "Turks and Caicos Islands",
            0.005844229832291603
          ],
          [
            "Mayotte",
            0.005628236569464207
          ],
          [
            "Saudi Arabia",
            0.005568939261138439
          ],
          [
            "Guinea",
            0.005339175928384066
          ],
          [
            "Ukraine",
            0.0053066061809659
          ],
          [
            "Heard and McDonald Islands",
            0.005149248521775007
          ],
          [
            "Burundi",
            0.004980657249689102
          ],
          [
            "Philippines",
            0.004750826861709356
          ],
          [
            "El Salvador",
            0.0047463164664804935
          ],
          [
            "Tajikistan",
            0.004548393189907074
          ],
          [
            "Martinique",
            0.004288299474865198
          ],
          [
            "Israel",
            0.004251106642186642
          ],
          [
            "Ecuador",
            0.004165449179708958
          ],
          [
            "Latvia",
            0.004118208307772875
          ],
          [
            "Dominican Republic",
            0.004086479544639587
          ],
          [
            "Greenland",
            0.004072264302521944
          ],
          [
            "Georgia",
            0.003937229514122009
          ],
          [
            "Hong Kong",
            0.0038226863835006952
          ],
          [
            "Jamaica",
            0.003618439193814993
          ],
          [
            "Nepal",
            0.003552813781425357
          ],
          [
            "United Kingdom",
            0.003371482715010643
          ],
          [
            "Timor-Leste",
            0.003371424740180373
          ],
          [
            "Paraguay",
            0.00336319743655622
          ],
          [
            "Portugal",
            0.0031019295565783978
          ],
          [
            "Qatar",
            0.0030920470599085093
          ],
          [
            "Colombia",
            0.0028179949149489403
          ],
          [
            "Greece",
            0.002806237665936351
          ],
          [
            "Sri Lanka",
            0.002777069341391325
          ],
          [
            "Turkey",
            0.002749221632257104
          ],
          [
            "Samoa",
            0.002730210777372122
          ],
          [
            "Belgium",
            0.0026758876629173756
          ],
          [
            "Switzerland",
            0.00262685539200902
          ],
          [
            "Puerto Rico",
            0.0025864308699965477
          ],
          [
            "Czech Republic",
            0.0025013431441038847
          ],
          [
            "New Zealand",
            0.002463540295138955
          ],
          [
            "Lithuania",
            0.002327402587980032
          ],
          [
            "Argentina",
            0.0023113794159144163
          ],
          [
            "Guatemala",
            0.002295571379363537
          ],
          [
            "Angola",
            0.0022481330670416355
          ],
          [
            "Mongolia",
            0.0021856711246073246
          ],
          [
            "Montenegro",
            0.002183429431170225
          ],
          [
            "Kyrgyzstan",
            0.0021614888682961464
          ],
          [
            "Kazakhstan",
            0.0021305528935045004
          ],
          [
            "Honduras",
            0.0020740816835314035
          ],
          [
            "Liberia",
            0.0020475145429372787
          ],
          [
            "Sweden",
            0.0020037267822772264
          ],
          [
            "Slovakia",
            0.0019260281696915627
          ],
          [
            "Solomon Islands",
            0.0019094692543148994
          ],
          [
            "Canada",
            0.0019025185611099005
          ],
          [
            "Bolivia",
            0.0018850360065698624
          ],
          [
            "Guinea-Bissau",
            0.0018090219236910343
          ],
          [
            "Congo",
            0.0018049860373139381
          ],
          [
            "Central African Republic",
            0.001770307426340878
          ],
          [
            "Syria",
            0.0017190314829349518
          ],
          [
            "India",
            0.0017148396000266075
          ],
          [
            "Namibia",
            0.0016146402340382338
          ],
          [
            "Cape Verde",
            0.001597001450136304
          ],
          [
            "Australia",
            0.0015548114897683263
          ],
          [
            "Venezuela",
            0.0015196666354313493
          ],
          [
            "Panama",
            0.001455420977436006
          ],
          [
            "Chile",
            0.001445842208340764
          ],
          [
            "Brazil",
            0.0013891751877963543
          ],
          [
            "Mali",
            0.0012740471865981817
          ],
          [
            "France",
            0.0012391594937071204
          ],
          [
            "Burkina Faso",
            0.0012225429527461529
          ],
          [
            "West Bank",
            0.001187624060548842
          ],
          [
            "Iran",
            0.001164284534752369
          ],
          [
            "Antigua & Barbuda",
            0.0011611332884058356
          ],
          [
            "Malaysia",
            0.001139991800300777
          ],
          [
            "French Guiana",
            0.001137591665610671
          ],
          [
            "Saint Lucia",
            0.0011358399642631412
          ],
          [
            "Yemen",
            0.0011207627831026912
          ],
          [
            "Egypt",
            0.0011178443673998117
          ],
          [
            "Oman",
            0.001115563209168613
          ],
          [
            "Estonia",
            0.001081401715055108
          ],
          [
            "Jordan",
            0.0010072258301079273
          ],
          [
            "Romania",
            0.0009965285426005721
          ],
          [
            "Ethiopia",
            0.0009815673111006618
          ],
          [
            "Ireland",
            0.0009775279322639108
          ],
          [
            "Netherlands",
            0.0008454895578324795
          ],
          [
            "Rwanda",
            0.0007993735489435494
          ],
          [
            "Taiwan",
            0.000786507735028863
          ],
          [
            "Ghana",
            0.0007692883373238146
          ],
          [
            "Luxembourg",
            0.0007691651117056608
          ],
          [
            "North Macedonia",
            0.0007600184762850404
          ],
          [
            "Senegal",
            0.000759004382416606
          ],
          [
            "Cyprus",
            0.0007340936572290957
          ],
          [
            "Bhutan",
            0.0007329268264584243
          ],
          [
            "Gabon",
            0.0006835226668044925
          ],
          [
            "Guam",
            0.0006828971672803164
          ],
          [
            "Fiji",
            0.0006794165819883347
          ],
          [
            "Iraq",
            0.000671825313474983
          ],
          [
            "Kuwait",
            0.0006703622057102621
          ],
          [
            "Botswana",
            0.0006642680964432657
          ],
          [
            "Djibouti",
            0.0006442287121899426
          ],
          [
            "Nigeria",
            0.0006339747924357653
          ],
          [
            "Madeira Islands",
            0.0006294312188401818
          ],
          [
            "Gambia",
            0.0006213226006366313
          ],
          [
            "Uruguay",
            0.0006140570621937513
          ],
          [
            "Cameroon",
            0.000611534749623388
          ],
          [
            "Reunion",
            0.0005966363241896033
          ],
          [
            "Bosnia & Herzegovina",
            0.0005524512962438166
          ],
          [
            "Equatorial Guinea",
            0.0005142748123034835
          ],
          [
            "Brunei",
            0.0005101977731101215
          ],
          [
            "Japan",
            0.0004976941272616386
          ],
          [
            "Iceland",
            0.0004942573723383248
          ],
          [
            "Libya",
            0.00046132190618664026
          ],
          [
            "Isle of Man",
            0.00045820706873200834
          ],
          [
            "United States Virgin Islands",
            0.00045092173968441784
          ],
          [
            "Uganda",
            0.00044022081419825554
          ],
          [
            "Chad",
            0.0004133622860535979
          ],
          [
            "Barbados",
            0.0003979180473834276
          ],
          [
            "South Sudan",
            0.00039721510256640613
          ],
          [
            "Norway",
            0.00037937029264867306
          ],
          [
            "Netherlands Antilles",
            0.00037777022225782275
          ],
          [
            "Cambodia",
            0.0003643966338131577
          ],
          [
            "Eswatini",
            0.0003639034985098988
          ],
          [
            "Suriname",
            0.0003576861054170877
          ],
          [
            "Afghanistan",
            0.00035059123183600605
          ],
          [
            "Germany",
            0.0003484871704131365
          ],
          [
            "Sudan",
            0.000344092957675457
          ],
          [
            "Lesotho",
            0.00032497014035470784
          ],
          [
            "China",
            0.0003230463189538568
          ],
          [
            "Madagascar",
            0.0003229489957448095
          ],
          [
            "Lebanon",
            0.00032099123927764595
          ],
          [
            "Azerbaijan",
            0.00030090101063251495
          ],
          [
            "Slovenia",
            0.00029317589360289276
          ],
          [
            "Zambia",
            0.00028849963564425707
          ],
          [
            "South Africa",
            0.0002852881152648479
          ],
          [
            "Comoros",
            0.00027616549050435424
          ],
          [
            "Denmark",
            0.00025908584939315915
          ],
          [
            "Mauritania",
            0.0002526259340811521
          ],
          [
            "North Korea",
            0.0002497046662028879
          ],
          [
            "Algeria",
            0.0002464511780999601
          ],
          [
            "Kiribati",
            0.00024411622143816203
          ],
          [
            "Bulgaria",
            0.00024346013378817588
          ],
          [
            "Trinidad and Tobago",
            0.00023134202638175339
          ],
          [
            "Kenya",
            0.00021610262047033757
          ],
          [
            "Hungary",
            0.000209838108276017
          ],
          [
            "Palau",
            0.00020383800438139588
          ],
          [
            "Tanzania",
            0.00019849612726829946
          ],
          [
            "Belarus",
            0.00019758993585128337
          ],
          [
            "Poland",
            0.0001844904909376055
          ],
          [
            "DR Congo",
            0.0001806786603992805
          ],
          [
            "Côte d'Ivoire",
            0.0001713315286906436
          ],
          [
            "Sierra Leone",
            0.00016727934416849166
          ],
          [
            "Western Sahara",
            0.00016199050878640264
          ],
          [
            "Austria",
            0.0001458930637454614
          ],
          [
            "Sao Tome and Principe",
            0.00013050659617874771
          ],
          [
            "United Arab Emirates",
            0.00011581068974919617
          ],
          [
            "Nicaragua",
            0.0001143085173680447
          ],
          [
            "Niger",
            0.00010646782902767882
          ],
          [
            "Zimbabwe",
            6.868823402328417e-05
          ],
          [
            "Pakistan",
            6.43539460725151e-05
          ],
          [
            "Haiti",
            6.415601092157885e-05
          ],
          [
            "Morocco",
            6.215462781256065e-05
          ]
        ]
      },
      "geometry": {
        "type": "MultiLineString",
        "coordinates": [
          [
            [
              16.777594728171323,
              57.25535420098845
            ],
            [
              15.492586490939061,
              57.25535420098845
            ],
            [
              14.701812191103784,
              57.25535420098845
            ],
            [
              14.108731466227368,
              57.25535420098845
            ],
            [
              13.515650741350896,
              57.25535420098845
            ],
            [
              13.120263591433286,
              57.057660626029644
            ],
            [
              13.515650741350896,
              56.5634266886326
            ],
            [
              13.219110378912717,
              56.26688632619437
            ],
            [
              12.82372322899505,
              56.26688632619437
            ],
            [
              12.230642504118634,
              56.26688632619437
            ],
            [
              11.637561779242162,
              56.26688632619437
            ],
            [
              11.143327841845121,
              56.26688632619437
            ],
            [
              10.550247116968706,
              56.26688632619437
            ],
            [
              9.95716639209229,
              56.26688632619437
            ],
            [
              9.561779242174623,
              55.97034596375619
            ],
            [
              9.759472817133428,
              55.377265238879716
            ],
            [
              9.95716639209229,
              54.981878088962105
            ],
            [
              10.25370675453047,
              54.19110378912683
            ],
            [
              11.439868204283357,
              53.59802306425041
            ],
            [
              11.835255354200967,
              53.49917627677098
            ],
            [
              12.626029654036245,
              53.00494233937394
            ],
            [
              12.92257001647448,
              52.70840197693576
            ],
            [
              12.527182866556814,
              52.411861614497525
            ],
            [
              12.230642504118634,
              52.11532125205929
            ],
            [
              12.329489291598009,
              51.71993410214168
            ],
            [
              12.329489291598009,
              51.22570016474464
            ],
            [
              12.724876441515676,
              50.53377265238879
            ],
            [
              13.317957166392091,
              49.940691927512376
            ],
            [
              13.812191103789132,
              49.446457990115334
            ],
            [
              14.504118616144979,
              48.75453047775949
            ],
            [
              14.99835255354202,
              48.26029654036245
            ],
            [
              15.294892915980256,
              47.96375617792421
            ],
            [
              15.887973640856671,
              47.370675453047795
            ],
            [
              16.184514003294908,
              47.07413509060956
            ],
            [
              16.481054365733144,
              46.77759472817132
            ],
            [
              16.876441515650754,
              46.77759472817132
            ],
            [
              17.370675453047795,
              46.77759472817132
            ],
            [
              17.667215815485974,
              47.07413509060956
            ],
            [
              17.96375617792421,
              47.17298187808893
            ],
            [
              18.260296540362447,
              47.46952224052717
            ],
            [
              18.853377265238862,
              48.06260296540364
            ],
            [
              19.149917627677098,
              48.35914332784182
            ],
            [
              19.54530477759471,
              48.35914332784182
            ],
            [
              20.336079077429986,
              48.35914332784182
            ],
            [
              20.929159802306458,
              48.35914332784182
            ],
            [
              21.225700164744637,
              48.65568369028006
            ],
            [
              21.522240527182873,
              48.95222405271829
            ],
            [
              22.11532125205929,
              48.95222405271829
            ],
            [
              22.70840197693576,
              48.95222405271829
            ],
            [
              23.598023064250413,
              48.95222405271829
            ],
            [
              24.586490939044495,
              48.556836902800626
            ],
            [
              25.080724876441536,
              48.556836902800626
            ],
            [
              25.67380560131795,
              48.556836902800626
            ],
            [
              26.06919275123562,
              48.556836902800626
            ],
            [
              26.563426688632603,
              48.26029654036245
            ],
            [
              26.85996705107084,
              47.96375617792421
            ],
            [
              27.156507413509075,
              47.667215815485974
            ],
            [
              27.156507413509075,
              47.271828665568364
            ],
            [
              27.45304777594731,
              46.77759472817132
            ],
            [
              27.74958813838549,
              46.48105436573309
            ],
            [
              28.046128500823727,
              46.18451400329491
            ],
            [
              28.342668863261963,
              45.78912685337724
            ],
            [
              28.738056013179573,
              44.60296540362435
            ],
            [
              28.93574958813838,
              44.10873146622737
            ],
            [
              29.133443163097184,
              43.41680395387152
            ],
            [
              29.52883031301485,
              42.82372322899505
            ],
            [
              29.33113673805599,
              42.32948929159801
            ],
            [
              29.52883031301485,
              41.341021416803926
            ],
            [
              29.52883031301485,
              40.550247116968706
            ],
            [
              29.82537067545303,
              40.25370675453047
            ],
            [
              30.121911037891266,
              39.95716639209223
            ],
            [
              30.418451400329502,
              39.660626029654054
            ],
            [
              30.71499176276774,
              39.36408566721582
            ],
            [
              31.011532125205918,
              39.06754530477758
            ],
            [
              31.703459637561764,
              38.771004942339346
            ],
            [
              32.197693574958805,
              38.474464579901166
            ],
            [
              32.59308072487647,
              38.474464579901166
            ],
            [
              33.68039538714993,
              38.474464579901166
            ],
            [
              34.07578253706754,
              38.474464579901166
            ],
            [
              34.66886326194401,
              38.0790774299835
            ],
            [
              34.96540362438219,
              37.881383855024694
            ],
            [
              35.55848434925866,
              37.881383855024694
            ],
            [
              36.052718286655704,
              37.485996705107084
            ],
            [
              36.34925864909394,
              36.99176276771004
            ],
            [
              36.64579901153212,
              36.69522240527181
            ],
            [
              36.942339373970356,
              36.39868204283363
            ],
            [
              37.23887973640859,
              36.10214168039539
            ],
            [
              37.53542009884677,
              35.805601317957155
            ],
            [
              37.83196046128501,
              35.50906095551892
            ],
            [
              38.22734761120262,
              35.21252059308074
            ],
            [
              39.018121911037895,
              34.61943986820427
            ],
            [
              39.413509060955505,
              34.32289950576603
            ],
            [
              40.20428336079078,
              34.02635914332785
            ],
            [
              40.59967051070839,
              33.729818780889616
            ],
            [
              41.192751235584865,
              33.43327841845138
            ],
            [
              41.686985172981906,
              33.1367380560132
            ],
            [
              42.082372322899516,
              33.1367380560132
            ],
            [
              42.97199341021417,
              33.1367380560132
            ],
            [
              43.56507413509064,
              32.840197693574964
            ],
            [
              43.762767710049445,
              32.24711696869849
            ],
            [
              43.762767710049445,
              31.654036243822077
            ],
            [
              43.762767710049445,
              31.25864909390441
            ],
            [
              43.36738056013178,
              30.46787479406919
            ],
            [
              43.36738056013178,
              29.775947281713343
            ],
            [
              43.36738056013178,
              29.18286655683687
            ],
            [
              43.36738056013178,
              28.589785831960455
            ],
            [
              43.36738056013178,
              28.095551894563414
            ],
            [
              43.36738056013178,
              27.502471169687
            ],
            [
              43.0708401976936,
              27.205930807248762
            ],
            [
              42.77429983525536,
              26.909390444810526
            ],
            [
              42.97199341021417,
              26.31630971993411
            ],
            [
              43.16968698517297,
              25.920922570016444
            ],
            [
              43.56507413509064,
              25.031301482701792
            ],
            [
              44.059308072487624,
              24.53706754530475
            ],
            [
              44.75123558484347,
              23.845140032948905
            ],
            [
              45.24546952224051,
              23.6474464579901
            ],
            [
              45.838550247116984,
              23.6474464579901
            ],
            [
              46.13509060955522,
              23.943986820428336
            ],
            [
              46.4316309719934,
              24.53706754530475
            ],
            [
              46.728171334431636,
              24.932454695222418
            ],
            [
              46.728171334431636,
              25.426688632619403
            ],
            [
              47.02471169686987,
              25.82207578253707
            ],
            [
              47.32125205930811,
              26.11861614497525
            ],
            [
              47.61779242174629,
              26.415156507413485
            ],
            [
              48.50741350906094,
              26.909390444810526
            ],
            [
              48.50741350906094,
              27.502471169687
            ],
            [
              48.803953871499175,
              27.601317957166373
            ],
            [
              49.10049423393741,
              27.89785831960461
            ],
            [
              48.803953871499175,
              28.194398682042845
            ],
            [
              48.21087314662276,
              28.490939044481024
            ],
            [
              47.81548599670509,
              28.78747940691926
            ],
            [
              47.51894563426691,
              29.084019769357496
            ],
            [
              47.22240527182868,
              29.380560131795733
            ],
            [
              46.92586490939044,
              29.874794069192717
            ],
            [
              46.92586490939044,
              30.270181219110384
            ],
            [
              46.92586490939044,
              30.8632619439868
            ],
            [
              47.123558484349246,
              31.159802306425036
            ],
            [
              47.32125205930811,
              31.654036243822077
            ],
            [
              47.32125205930811,
              32.24711696869849
            ],
            [
              46.92586490939044,
              32.840197693574964
            ],
            [
              46.92586490939044,
              33.43327841845138
            ],
            [
              46.92586490939044,
              33.82866556836905
            ],
            [
              46.92586490939044,
              34.42174629324546
            ],
            [
              46.92586490939044,
              35.01482701812188
            ],
            [
              46.92586490939044,
              35.60790774299835
            ],
            [
              47.123558484349246,
              35.904448105436586
            ],
            [
              47.71663920922572,
              35.904448105436586
            ],
            [
              48.21087314662276,
              35.904448105436586
            ],
            [
              48.803953871499175,
              35.904448105436586
            ],
            [
              49.39703459637565,
              35.904448105436586
            ],
            [
              50.088962108731494,
              35.904448105436586
            ],
            [
              50.68204283360791,
              35.50906095551892
            ],
            [
              51.472817133443186,
              35.21252059308074
            ],
            [
              51.76935749588142,
              34.915980230642504
            ],
            [
              52.0658978583196,
              34.61943986820427
            ],
            [
              52.46128500823727,
              34.32289950576603
            ],
            [
              52.95551894563425,
              34.02635914332785
            ],
            [
              53.25205930807249,
              33.729818780889616
            ],
            [
              53.943986820428336,
              33.729818780889616
            ],
            [
              54.43822075782538,
              34.02635914332785
            ],
            [
              54.43822075782538,
              34.915980230642504
            ],
            [
              54.43822075782538,
              35.50906095551892
            ],
            [
              54.43822075782538,
              36.10214168039539
            ],
            [
              54.14168039538714,
              36.79406919275124
            ],
            [
              53.74629324546953,
              37.090609555189474
            ],
            [
              53.449752883031294,
              37.38714991762765
            ],
            [
              53.153212520593115,
              37.68369028006589
            ],
            [
              52.56013179571664,
              37.68369028006589
            ],
            [
              51.76935749588142,
              37.980230642504125
            ],
            [
              51.373970345963755,
              38.27677100494236
            ],
            [
              50.78088962108734,
              38.27677100494236
            ],
            [
              50.18780889621087,
              38.27677100494236
            ],
            [
              49.69357495881383,
              38.27677100494236
            ],
            [
              49.10049423393741,
              38.27677100494236
            ],
            [
              48.7051070840198,
              38.57331136738054
            ],
            [
              48.408566721581565,
              38.86985172981878
            ],
            [
              48.50741350906094,
              39.16639209225701
            ],
            [
              48.11202635914333,
              39.75947281713343
            ],
            [
              48.11202635914333,
              40.3525535420099
            ],
            [
              48.309719934102134,
              40.64909390444808
            ],
            [
              48.902800658978606,
              41.14332784184512
            ],
            [
              48.408566721581565,
              41.24217462932455
            ],
            [
              47.91433278418452,
              41.24217462932455
            ],
            [
              47.32125205930811,
              41.24217462932455
            ],
            [
              46.92586490939044,
              41.53871499176273
            ],
            [
              46.62932454695226,
              41.83525535420097
            ],
            [
              46.13509060955522,
              41.83525535420097
            ],
            [
              45.73970345963755,
              42.1317957166392
            ],
            [
              45.44316309719932,
              42.42833607907744
            ],
            [
              44.8500823723229,
              42.92257001647448
            ],
            [
              44.059308072487624,
              43.515650741350896
            ],
            [
              43.46622734761121,
              44.10873146622737
            ],
            [
              42.873146622734794,
              44.701812191103784
            ],
            [
              42.57660626029656,
              44.800658978583215
            ],
            [
              41.88467874794071,
              45.097199341021394
            ],
            [
              41.588138385502475,
              45.39373970345963
            ],
            [
              41.093904448105434,
              45.39373970345963
            ],
            [
              40.50082372322902,
              45.88797364085667
            ],
            [
              39.907742998352546,
              46.28336079077428
            ],
            [
              39.512355848434936,
              46.876441515650754
            ],
            [
              39.2158154859967,
              47.17298187808893
            ],
            [
              38.32619439868205,
              47.46952224052717
            ],
            [
              38.02965403624381,
              47.766062602965405
            ],
            [
              37.53542009884677,
              48.06260296540364
            ],
            [
              37.14003294892916,
              48.65568369028006
            ],
            [
              36.843492586490925,
              48.95222405271829
            ],
            [
              36.34925864909394,
              49.24876441515653
            ],
            [
              35.75617792421747,
              49.54530477759471
            ],
            [
              35.163097199340996,
              50.03953871499175
            ],
            [
              34.57001647446458,
              50.63261943986822
            ],
            [
              33.976935749588165,
              51.22570016474464
            ],
            [
              33.5815485996705,
              51.62108731466225
            ],
            [
              33.28500823723232,
              51.917627677100484
            ],
            [
              33.28500823723232,
              52.411861614497525
            ],
            [
              33.28500823723232,
              53.00494233937394
            ],
            [
              33.28500823723232,
              53.40032948929161
            ],
            [
              33.482701812191124,
              53.69686985172979
            ],
            [
              33.976935749588165,
              53.69686985172979
            ],
            [
              34.57001647446458,
              53.69686985172979
            ],
            [
              35.163097199340996,
              53.69686985172979
            ],
            [
              35.75617792421747,
              53.69686985172979
            ],
            [
              36.34925864909394,
              53.69686985172979
            ],
            [
              36.74464579901155,
              53.69686985172979
            ],
            [
              37.23887973640859,
              53.99341021416802
            ],
            [
              37.53542009884677,
              54.28995057660626
            ],
            [
              38.12850082372324,
              54.586490939044495
            ],
            [
              38.42504118616148,
              54.883031301482674
            ],
            [
              38.72158154859966,
              55.47611202635915
            ],
            [
              39.018121911037895,
              55.77265238879738
            ],
            [
              39.018121911037895,
              56.26688632619437
            ],
            [
              38.42504118616148,
              56.662273476112034
            ],
            [
              37.73311367380563,
              56.95881383855021
            ],
            [
              37.4365733113674,
              57.25535420098845
            ],
            [
              36.942339373970356,
              57.25535420098845
            ],
            [
              36.546952224052745,
              57.25535420098845
            ],
            [
              35.95387149917627,
              57.551894563426686
            ],
            [
              35.657331136738094,
              57.84843492586492
            ],
            [
              35.36079077429986,
              58.34266886326196
            ],
            [
              35.06425041186162,
              58.73805601317957
            ],
            [
              34.767710049423385,
              59.03459637561781
            ],
            [
              33.976935749588165,
              59.528830313014794
            ],
            [
              33.5815485996705,
              60.121911037891266
            ],
            [
              33.28500823723232,
              60.517298187808876
            ],
            [
              32.98846787479408,
              61.11037891268535
            ],
            [
              32.691927512355846,
              61.40691927512353
            ],
            [
              32.197693574958805,
              61.40691927512353
            ],
            [
              31.308072487644154,
              61.40691927512353
            ],
            [
              30.616144975288307,
              61.40691927512353
            ],
            [
              30.31960461285007,
              61.20922570016472
            ],
            [
              30.023064250411892,
              61.01153212520592
            ],
            [
              29.42998352553542,
              61.01153212520592
            ],
            [
              28.836902800659004,
              61.01153212520592
            ],
            [
              27.947281713344296,
              61.01153212520592
            ],
            [
              26.761120263591465,
              61.01153212520592
            ],
            [
              25.871499176276757,
              61.308072487644154
            ],
            [
              25.27841845140034,
              61.40691927512353
            ],
            [
              24.7841845140033,
              61.40691927512353
            ],
            [
              24.191103789126885,
              61.40691927512353
            ],
            [
              23.004942339373997,
              61.40691927512353
            ],
            [
              22.60955518945633,
              61.90115321252057
            ],
            [
              22.31301482701815,
              62.0
            ],
            [
              21.522240527182873,
              61.60461285008239
            ],
            [
              21.126853377265263,
              61.60461285008239
            ],
            [
              20.53377265238879,
              61.308072487644154
            ],
            [
              20.23723228995061,
              61.01153212520592
            ],
            [
              19.74299835255357,
              60.61614497528831
            ],
            [
              19.051070840197724,
              59.82537067545303
            ],
            [
              19.446457990115334,
              59.528830313014794
            ],
            [
              19.841845140032945,
              58.93574958813838
            ],
            [
              20.434925864909417,
              58.34266886326196
            ],
            [
              20.929159802306458,
              58.04612850082373
            ],
            [
              21.225700164744637,
              57.65074135090612
            ],
            [
              20.929159802306458,
              57.453047775947255
            ],
            [
              20.53377265238879,
              57.453047775947255
            ],
            [
              20.03953871499175,
              57.453047775947255
            ],
            [
              19.347611202635903,
              57.453047775947255
            ],
            [
              18.754530477759488,
              57.453047775947255
            ],
            [
              17.96375617792421,
              57.156507413509075
            ],
            [
              17.5683690280066,
              56.85996705107084
            ],
            [
              17.271828665568364,
              56.5634266886326
            ]
          ],
          [
            [
              40.50082372322902,
              24.833607907742987
            ],
            [
              40.59967051070839,
              25.228995057660597
            ],
            [
              41.093904448105434,
              25.525535420098834
            ],
            [
              41.686985172981906,
              25.82207578253707
            ],
            [
              42.28006589785832,
              25.82207578253707
            ],
            [
              42.57660626029656,
              26.11861614497525
            ],
            [
              42.873146622734794,
              26.21746293245468
            ],
            [
              43.46622734761121,
              26.019769357495875
            ],
            [
              44.158154859967055,
              26.019769357495875
            ],
            [
              44.35584843492586,
              25.72322899505764
            ],
            [
              44.75123558484347,
              25.031301482701792
            ],
            [
              45.34431630971994,
              24.438220757825377
            ],
            [
              45.54200988467875,
              23.943986820428336
            ],
            [
              45.93739703459636,
              23.350906095551863
            ],
            [
              46.4316309719934,
              22.757825370675448
            ],
            [
              46.728171334431636,
              22.461285008237212
            ],
            [
              46.728171334431636,
              21.57166392092256
            ],
            [
              46.728171334431636,
              20.978583196046145
            ],
            [
              46.728171334431636,
              20.385502471169673
            ],
            [
              46.4316309719934,
              20.088962108731437
            ],
            [
              46.332784184514026,
              19.792421746293257
            ],
            [
              46.03624382207579,
              19.49588138385502
            ],
            [
              45.54200988467875,
              19.49588138385502
            ],
            [
              44.553542009884666,
              19.49588138385502
            ],
            [
              42.873146622734794,
              19.49588138385502
            ],
            [
              41.588138385502475,
              19.89126853377263
            ],
            [
              40.10543657331135,
              20.187808896210868
            ],
            [
              38.622734761120284,
              20.780889621087283
            ],
            [
              37.4365733113674,
              21.373970345963755
            ],
            [
              36.25041186161451,
              21.96705107084017
            ],
            [
              35.45963756177923,
              22.263591433278407
            ],
            [
              35.06425041186162,
              22.757825370675448
            ],
            [
              34.767710049423385,
              22.85667215815488
            ],
            [
              34.47116968698515,
              23.15321252059306
            ],
            [
              34.47116968698515,
              23.74629324546953
            ],
            [
              34.86655683690282,
              24.635914332784182
            ],
            [
              35.163097199340996,
              25.130148270181223
            ],
            [
              35.55848434925866,
              25.228995057660597
            ],
            [
              36.15156507413508,
              25.228995057660597
            ],
            [
              36.74464579901155,
              25.228995057660597
            ],
            [
              37.337726523887966,
              25.228995057660597
            ],
            [
              38.12850082372324,
              25.228995057660597
            ],
            [
              38.52388797364085,
              25.228995057660597
            ],
            [
              39.907742998352546,
              25.031301482701792
            ],
            [
              40.7973640856672,
              24.833607907742987
            ],
            [
              41.192751235584865,
              24.833607907742987
            ],
            [
              41.686985172981906,
              24.833607907742987
            ],
            [
              42.082372322899516,
              24.833607907742987
            ],
            [
              42.67545304777593,
              24.833607907742987
            ]
          ],
          [
            [
              20.03953871499175,
              33.43327841845138
            ],
            [
              20.336079077429986,
              33.53212520593081
            ],
            [
              20.632619439868222,
              33.334431630972006
            ],
            [
              20.929159802306458,
              33.1367380560132
            ],
            [
              21.522240527182873,
              32.74135090609553
            ],
            [
              21.81878088962111,
              32.24711696869849
            ],
            [
              22.21416803953872,
              31.950576606260313
            ],
            [
              22.807248764415135,
              31.555189456342646
            ],
            [
              23.301482701812176,
              31.060955518945605
            ],
            [
              23.89456342668865,
              30.46787479406919
            ],
            [
              24.191103789126885,
              30.171334431630953
            ],
            [
              24.586490939044495,
              30.171334431630953
            ],
            [
              25.080724876441536,
              30.171334431630953
            ],
            [
              25.67380560131795,
              30.171334431630953
            ],
            [
              26.365733113673798,
              30.46787479406919
            ],
            [
              26.563426688632603,
              30.764415156507425
            ],
            [
              26.95881383855027,
              31.45634266886327
            ],
            [
              27.156507413509075,
              32.34596375617792
            ],
            [
              27.156507413509075,
              33.235584843492575
            ],
            [
              27.156507413509075,
              33.82866556836905
            ],
            [
              26.85996705107084,
              34.125205930807226
            ],
            [
              26.46457990115323,
              34.61943986820427
            ],
            [
              25.970345963756188,
              34.7182866556837
            ],
            [
              25.574958813838577,
              35.21252059308074
            ],
            [
              25.080724876441536,
              35.805601317957155
            ],
            [
              23.89456342668865,
              36.39868204283363
            ],
            [
              23.795716639209218,
              36.79406919275124
            ],
            [
              23.301482701812176,
              37.58484349258646
            ],
            [
              23.202635914332802,
              37.881383855024694
            ],
            [
              23.202635914332802,
              38.86985172981878
            ],
            [
              22.906095551894566,
              39.75947281713343
            ],
            [
              22.60955518945633,
              40.056013179571664
            ],
            [
              21.71993410214168,
              40.056013179571664
            ],
            [
              21.126853377265263,
              39.85831960461286
            ],
            [
              20.632619439868222,
              39.660626029654054
            ],
            [
              20.23723228995061,
              39.26523887973639
            ],
            [
              19.940691927512376,
              39.06754530477758
            ],
            [
              19.64415156507414,
              38.771004942339346
            ],
            [
              19.64415156507414,
              37.78253706754532
            ],
            [
              19.64415156507414,
              36.99176276771004
            ],
            [
              19.347611202635903,
              36.69522240527181
            ],
            [
              18.853377265238862,
              36.69522240527181
            ],
            [
              18.260296540362447,
              36.69522240527181
            ],
            [
              18.260296540362447,
              36.299835255354196
            ],
            [
              18.556836902800683,
              35.410214168039545
            ],
            [
              19.149917627677098,
              34.61943986820427
            ],
            [
              19.74299835255357,
              34.02635914332785
            ],
            [
              20.434925864909417,
              33.334431630972006
            ],
            [
              21.32454695222407,
              32.74135090609553
            ],
            [
              22.21416803953872,
              32.14827018121912
            ],
            [
              22.510708401976956,
              31.950576606260313
            ],
            [
              23.004942339373997,
              31.654036243822077
            ],
            [
              23.400329489291607,
              30.96210873146623
            ],
            [
              23.89456342668865,
              30.07248764415158
            ],
            [
              23.993410214168023,
              29.479406919275107
            ]
          ],
          [
            [
              45.93739703459636,
              7.04118616144973
            ],
            [
              45.73970345963755,
              6.7446457990115505
            ],
            [
              45.73970345963755,
              6.349258649093883
            ]
          ],
          [
            [
              50.2866556836903,
              9.710049423393741
            ],
            [
              50.68204283360791,
              9.413509060955505
            ]
          ],
          [
            [
              35.75617792421747,
              4.471169686985149
            ],
            [
              36.448105436573314,
              4.471169686985149
            ],
            [
              36.942339373970356,
              4.273476112026344
            ],
            [
              37.337726523887966,
              4.075782537067539
            ]
          ],
          [
            [
              52.16474464579903,
              2.8896210873146515
            ],
            [
              52.95551894563425,
              2.8896210873146515
            ],
            [
              53.25205930807249,
              2.5930807248764154
            ],
            [
              53.6474464579901,
              2.0
            ]
          ],
          [
            [
              29.33113673805599,
              40.846787479406885
            ],
            [
              28.639209225700142,
              40.846787479406885
            ],
            [
              28.540362438220768,
              41.14332784184512
            ]
          ],
          [
            [
              26.85996705107084,
              43.21911037891266
            ],
            [
              26.46457990115323,
              43.21911037891266
            ],
            [
              25.970345963756188,
              43.21911037891266
            ]
          ],
          [
            [
              32.79077429983528,
              29.973640856672148
            ],
            [
              33.38385502471169,
              29.973640856672148
            ]
          ],
          [
            [
              34.273476112026344,
              34.61943986820427
            ],
            [
              34.57001647446458,
              34.52059308072489
            ],
            [
              34.86655683690282,
              34.02635914332785
            ]
          ],
          [
            [
              25.574958813838577,
              41.14332784184512
            ],
            [
              26.266886326194424,
              41.04448105436575
            ],
            [
              26.85996705107084,
              40.846787479406885
            ],
            [
              27.551894563426686,
              40.451400329489275
            ]
          ],
          [
            [
              19.74299835255357,
              43.021416803953855
            ],
            [
              20.03953871499175,
              42.82372322899505
            ],
            [
              20.336079077429986,
              42.626029654036245
            ]
          ]
        ]
      }
    }
  ]
}