{
  "type": "FeatureCollection",
  "crs": {
    "type": "name",
    "properties": {
      "name": "urn:ogc:def:crs:OGC:1.3:CRS84"
    }
  },
  "features": [
    {
      "type": "Feature",
      "properties": {
        "timestamp": "2026-04-21T06:37:49.089231",
        "country_name": "Japan",
        "author": "xavier",
        "author_id": "2354b632-ad25-4127-87e1-c6e1c79611a5",
        "validated": false,
        "ranking": [
          [
            "Japan",
            0.7865734100341797
          ],
          [
            "New Zealand",
            0.01510822307318449
          ],
          [
            "Spain",
            0.013630423694849014
          ],
          [
            "Palau",
            0.013351790606975555
          ],
          [
            "Timor-Leste",
            0.010334993712604046
          ],
          [
            "Ecuador",
            0.009613917209208012
          ],
          [
            "Guam",
            0.00919092446565628
          ],
          [
            "Yemen",
            0.00854947417974472
          ],
          [
            "Cyprus",
            0.00765638705343008
          ],
          [
            "Somalia",
            0.007224249187856913
          ],
          [
            "United Arab Emirates",
            0.006488583981990814
          ],
          [
            "Sao Tome and Principe",
            0.006094623357057571
          ],
          [
            "Fiji",
            0.0050855898298323154
          ],
          [
            "Trinidad and Tobago",
            0.004700603429228067
          ],
          [
            "Oman",
            0.0041639357805252075
          ],
          [
            "Cameroon",
            0.004058910999447107
          ],
          [
            "Slovenia",
            0.0033338821958750486
          ],
          [
            "Slovakia",
            0.0032962607219815254
          ],
          [
            "Israel",
            0.002626138972118497
          ],
          [
            "Mali",
            0.002493839943781495
          ],
          [
            "Chile",
            0.0024354569613933563
          ],
          [
            "Thailand",
            0.0023222765885293484
          ],
          [
            "Panama",
            0.0022428608499467373
          ],
          [
            "North Korea",
            0.0022269904147833586
          ],
          [
            "Equatorial Guinea",
            0.002221492351964116
          ],
          [
            "Puerto Rico",
            0.002175995847210288
          ],
          [
            "Lebanon",
            0.002114485017955303
          ],
          [
            "Malaysia",
            0.0020706388168036938
          ],
          [
            "Sweden",
            0.0020519637037068605
          ],
          [
            "Austria",
            0.0020061014220118523
          ],
          [
            "Indonesia",
            0.0019049621187150478
          ],
          [
            "India",
            0.00181725958827883
          ],
          [
            "Afghanistan",
            0.0018043802119791508
          ],
          [
            "Argentina",
            0.0017576401587575674
          ],
          [
            "Pakistan",
            0.0016588650178164244
          ],
          [
            "Turkey",
            0.0015726621495559812
          ],
          [
            "Belize",
            0.001504287007264793
          ],
          [
            "Congo",
            0.0014340105699375272
          ],
          [
            "Mozambique",
            0.0014261358883231878
          ],
          [
            "Central African Republic",
            0.0013357987627387047
          ],
          [
            "Namibia",
            0.0012915212428197265
          ],
          [
            "Morocco",
            0.001284211059100926
          ],
          [
            "Hungary",
            0.001226373016834259
          ],
          [
            "Honduras",
            0.0011672084219753742
          ],
          [
            "Mayotte",
            0.0011365723330527544
          ],
          [
            "Syria",
            0.0010370620293542743
          ],
          [
            "Kyrgyzstan",
            0.0009386855526827276
          ],
          [
            "Burkina Faso",
            0.0009040224831551313
          ],
          [
            "Jordan",
            0.0008975965902209282
          ],
          [
            "China",
            0.0008740470511838794
          ],
          [
            "Guadeloupe",
            0.0008544791489839554
          ],
          [
            "Niger",
            0.0008465626160614192
          ],
          [
            "Benin",
            0.0007898722542449832
          ],
          [
            "New Caledonia",
            0.0007571247406303883
          ],
          [
            "Brunei",
            0.0007476705359295011
          ],
          [
            "Norway",
            0.0007359568262472749
          ],
          [
            "Egypt",
            0.0007283114246092737
          ],
          [
            "Hong Kong",
            0.0006436649709939957
          ],
          [
            "Netherlands Antilles",
            0.000637969234958291
          ],
          [
            "Isle of Man",
            0.0005801446386612952
          ],
          [
            "Guinea-Bissau",
            0.0005506923189386725
          ],
          [
            "Solomon Islands",
            0.000546310911886394
          ],
          [
            "South Sudan",
            0.0005281068151816726
          ],
          [
            "Switzerland",
            0.0005244759959168732
          ],
          [
            "Kazakhstan",
            0.00047664265730418265
          ],
          [
            "Portugal",
            0.0004756146518047899
          ],
          [
            "Dominican Republic",
            0.00046186160761862993
          ],
          [
            "Papua New Guinea",
            0.00044907722622156143
          ],
          [
            "Moldova",
            0.00042146045598201454
          ],
          [
            "Western Sahara",
            0.0004084303800482303
          ],
          [
            "Nigeria",
            0.00040771972271613777
          ],
          [
            "Madagascar",
            0.00040703752893023193
          ],
          [
            "West Bank",
            0.00039163162000477314
          ],
          [
            "Montenegro",
            0.00038486707489937544
          ],
          [
            "Rwanda",
            0.0003799489059019834
          ],
          [
            "Falkland Islands",
            0.00036974484100937843
          ],
          [
            "Antigua & Barbuda",
            0.00035502715036273
          ],
          [
            "Bulgaria",
            0.0003347905585542321
          ],
          [
            "Finland",
            0.0003345613949932158
          ],
          [
            "Botswana",
            0.0003231461741961539
          ],
          [
            "Taiwan",
            0.00030163192423060536
          ],
          [
            "Jamaica",
            0.0002949538757093251
          ],
          [
            "Gambia",
            0.0002947036409750581
          ],
          [
            "Togo",
            0.0002934836084023118
          ],
          [
            "Mongolia",
            0.00028969344566576183
          ],
          [
            "Georgia",
            0.0002894167264457792
          ],
          [
            "Zambia",
            0.0002883043489418924
          ],
          [
            "Cape Verde",
            0.00028005309286527336
          ],
          [
            "Czech Republic",
            0.00027454158407635987
          ],
          [
            "Myanmar",
            0.00025700440164655447
          ],
          [
            "South Korea",
            0.0002563087618909776
          ],
          [
            "Latvia",
            0.00025224173441529274
          ],
          [
            "Ukraine",
            0.0002287685201736167
          ],
          [
            "Bangladesh",
            0.00022406278003472835
          ],
          [
            "Libya",
            0.0002123788435710594
          ],
          [
            "Turkmenistan",
            0.00020793249132111669
          ],
          [
            "Dominica",
            0.00020256212155800313
          ],
          [
            "Bhutan",
            0.0002003110566874966
          ],
          [
            "Paraguay",
            0.00018028072372544557
          ],
          [
            "Russia",
            0.00017871578165795654
          ],
          [
            "Mauritania",
            0.0001753634278429672
          ],
          [
            "Greenland",
            0.00016738977865315974
          ],
          [
            "Burundi",
            0.00016691537166479975
          ],
          [
            "Malawi",
            0.0001599292882019654
          ],
          [
            "Philippines",
            0.00015774289204273373
          ],
          [
            "Kuwait",
            0.00015425140736624599
          ],
          [
            "North Macedonia",
            0.00014813628513365984
          ],
          [
            "South Africa",
            0.0001477226469432935
          ],
          [
            "Canada",
            0.00013979537470731884
          ],
          [
            "Heard and McDonald Islands",
            0.00013692007632926106
          ],
          [
            "Vietnam",
            0.00013212305202614516
          ],
          [
            "Uzbekistan",
            0.0001300600270042196
          ],
          [
            "Faroe Islands",
            0.00012890742800664157
          ],
          [
            "Tanzania",
            0.00012284419790375978
          ],
          [
            "Qatar",
            0.00012185335071990266
          ],
          [
            "Madeira Islands",
            0.00012131162657169625
          ],
          [
            "French Guiana",
            0.00011902380356332287
          ],
          [
            "Lithuania",
            0.00011712042760336772
          ],
          [
            "Svalbard",
            0.0001114129408961162
          ],
          [
            "Azerbaijan",
            0.00011083007848355919
          ],
          [
            "Comoros",
            0.00010828625090653077
          ],
          [
            "Tunisia",
            0.00010769510117825121
          ],
          [
            "Poland",
            0.00010564070544205606
          ],
          [
            "Saint Lucia",
            0.00010514879249967635
          ],
          [
            "Cuba",
            0.00010509325511520728
          ],
          [
            "Armenia",
            0.00010395648132544011
          ],
          [
            "Senegal",
            0.0001036642279359512
          ],
          [
            "Iceland",
            9.473310637986287e-05
          ],
          [
            "United States Virgin Islands",
            8.991057256935164e-05
          ],
          [
            "Iran",
            8.884545241016895e-05
          ],
          [
            "Vanuatu",
            8.682692714501172e-05
          ],
          [
            "Netherlands",
            8.349378913408145e-05
          ],
          [
            "Brazil",
            8.286536467494443e-05
          ],
          [
            "Cambodia",
            8.219792653108016e-05
          ],
          [
            "Angola",
            8.05277013569139e-05
          ],
          [
            "Martinique",
            7.810418901499361e-05
          ],
          [
            "Estonia",
            7.729693606961519e-05
          ],
          [
            "Bosnia & Herzegovina",
            7.460248161805794e-05
          ],
          [
            "Reunion",
            7.179091335274279e-05
          ],
          [
            "Saudi Arabia",
            7.055815513012931e-05
          ],
          [
            "Albania",
            7.053326407913119e-05
          ],
          [
            "Venezuela",
            7.01724347891286e-05
          ],
          [
            "Australia",
            6.960894825169817e-05
          ],
          [
            "Croatia",
            6.829905760241672e-05
          ],
          [
            "Suriname",
            6.732320616720244e-05
          ],
          [
            "Haiti",
            6.685232074232772e-05
          ],
          [
            "Romania",
            6.610182754229754e-05
          ],
          [
            "Sudan",
            6.591926648980007e-05
          ],
          [
            "El Salvador",
            6.58247881801799e-05
          ],
          [
            "Sierra Leone",
            6.253729952732101e-05
          ],
          [
            "Belgium",
            6.202790973475203e-05
          ],
          [
            "United Kingdom",
            6.174685404403135e-05
          ],
          [
            "Kenya",
            6.036355989635922e-05
          ],
          [
            "Bahrain",
            5.830874215462245e-05
          ],
          [
            "Turks and Caicos Islands",
            5.829261863254942e-05
          ],
          [
            "Gabon",
            5.724150832975283e-05
          ],
          [
            "Eritrea",
            5.527409302885644e-05
          ],
          [
            "Chad",
            5.0352595280855894e-05
          ],
          [
            "Iraq",
            4.9415906687499955e-05
          ],
          [
            "Tajikistan",
            4.866360904998146e-05
          ],
          [
            "Peru",
            4.726058614323847e-05
          ],
          [
            "Guinea",
            4.244904266670346e-05
          ],
          [
            "Serbia",
            4.240898124407977e-05
          ],
          [
            "Guyana",
            4.01412216888275e-05
          ],
          [
            "Ghana",
            3.900472802342847e-05
          ],
          [
            "Uruguay",
            3.850783468806185e-05
          ],
          [
            "Barbados",
            3.5712964745471254e-05
          ],
          [
            "Côte d'Ivoire",
            3.561718403943814e-05
          ],
          [
            "Colombia",
            3.516512515489012e-05
          ],
          [
            "Nepal",
            3.3635340514592826e-05
          ],
          [
            "Eswatini",
            3.3397082006558776e-05
          ],
          [
            "Bolivia",
            3.3003150747390464e-05
          ],
          [
            "South Georgia Islands",
            3.281841054558754e-05
          ],
          [
            "Guatemala",
            2.717868483159691e-05
          ],
          [
            "Samoa",
            2.625430170155596e-05
          ],
          [
            "Lesotho",
            2.5963332518585958e-05
          ],
          [
            "Ireland",
            2.4613585992483422e-05
          ],
          [
            "Djibouti",
            2.326925277884584e-05
          ],
          [
            "Liberia",
            2.2670599719276652e-05
          ],
          [
            "France",
            2.2652575353276916e-05
          ],
          [
            "Bahamas",
            2.199708433181513e-05
          ],
          [
            "Belarus",
            2.176819725718815e-05
          ],
          [
            "Costa Rica",
            2.1034971723565832e-05
          ],
          [
            "Ethiopia",
            2.0561810742947273e-05
          ],
          [
            "Mexico",
            1.9688934116857126e-05
          ],
          [
            "Uganda",
            1.911533581733238e-05
          ],
          [
            "United States of America",
            1.7797139662434347e-05
          ],
          [
            "Algeria",
            1.7635416952543892e-05
          ],
          [
            "Nicaragua",
            1.4007583558850456e-05
          ],
          [
            "Sri Lanka",
            1.2862517905887216e-05
          ],
          [
            "DR Congo",
            1.1994650776614435e-05
          ],
          [
            "Zimbabwe",
            1.1441534297773615e-05
          ],
          [
            "Italy",
            1.1313543836877216e-05
          ],
          [
            "Germany",
            9.574303476256318e-06
          ],
          [
            "Greece",
            7.884264050517231e-06
          ],
          [
            "Laos",
            7.399280548270326e-06
          ],
          [
            "Luxembourg",
            5.633812634187052e-06
          ],
          [
            "Denmark",
            2.5543688479956472e-06
          ],
          [
            "Kiribati",
            3.1850248660703073e-07
          ]
        ]
      },
      "geometry": {
        "type": "MultiLineString",
        "coordinates": [
          [
            [
              43.63934426229508,
              41.50819672131149
            ],
            [
              44.29508196721312,
              41.50819672131149
            ],
            [
              44.95081967213116,
              41.50819672131149
            ],
            [
              45.44262295081967,
              41.672131147540995
            ],
            [
              46.26229508196724,
              41.50819672131149
            ],
            [
              46.91803278688525,
              41.18032786885246
            ],
            [
              47.57377049180329,
              40.68852459016395
            ],
            [
              47.90163934426232,
              40.196721311475414
            ],
            [
              48.55737704918033,
              39.70491803278691
            ],
            [
              49.21311475409834,
              38.885245901639365
            ],
            [
              49.86885245901641,
              38.39344262295083
            ],
            [
              50.03278688524591,
              37.90163934426232
            ],
            [
              50.196721311475414,
              37.409836065573785
            ],
            [
              50.36065573770492,
              36.59016393442624
            ],
            [
              50.68852459016392,
              35.6065573770492
            ],
            [
              50.85245901639348,
              34.95081967213116
            ],
            [
              50.85245901639348,
              34.29508196721312
            ],
            [
              50.85245901639348,
              33.63934426229508
            ],
            [
              50.36065573770492,
              32.81967213114754
            ],
            [
              50.196721311475414,
              32.327868852459034
            ],
            [
              49.70491803278691,
              31.836065573770497
            ],
            [
              48.88524590163934,
              31.672131147540995
            ],
            [
              48.229508196721326,
              31.508196721311492
            ],
            [
              47.57377049180329,
              31.18032786885246
            ],
            [
              46.91803278688525,
              30.852459016393453
            ],
            [
              46.26229508196724,
              30.524590163934448
            ],
            [
              45.6065573770492,
              30.360655737704917
            ],
            [
              44.95081967213116,
              30.032786885245912
            ],
            [
              44.29508196721312,
              29.704918032786907
            ],
            [
              43.63934426229508,
              29.377049180327873
            ],
            [
              42.98360655737707,
              28.885245901639365
            ],
            [
              42.491803278688536,
              28.55737704918033
            ],
            [
              42.0,
              28.229508196721326
            ],
            [
              41.50819672131149,
              27.73770491803279
            ],
            [
              40.68852459016395,
              27.08196721311475
            ],
            [
              39.70491803278691,
              26.754098360655746
            ],
            [
              38.39344262295083,
              25.770491803278702
            ],
            [
              37.57377049180329,
              25.278688524590166
            ],
            [
              36.91803278688525,
              24.786885245901658
            ],
            [
              36.42622950819674,
              24.459016393442653
            ],
            [
              35.7704918032787,
              23.967213114754117
            ],
            [
              35.11475409836066,
              23.47540983606558
            ],
            [
              34.45901639344265,
              23.147540983606575
            ],
            [
              33.96721311475412,
              22.81967213114757
            ],
            [
              32.81967213114757,
              22.0
            ],
            [
              32.327868852459034,
              21.672131147540995
            ],
            [
              31.836065573770497,
              21.34426229508199
            ],
            [
              31.34426229508199,
              20.852459016393453
            ],
            [
              30.68852459016395,
              20.524590163934448
            ],
            [
              30.032786885245912,
              20.032786885245912
            ],
            [
              29.049180327868868,
              19.704918032786907
            ],
            [
              27.245901639344282,
              18.885245901639365
            ],
            [
              25.770491803278702,
              18.39344262295083
            ],
            [
              24.13114754098362,
              17.90163934426232
            ],
            [
              22.81967213114757,
              17.409836065573785
            ],
            [
              22.0,
              17.08196721311475
            ],
            [
              21.508196721311492,
              16.754098360655746
            ],
            [
              21.34426229508199,
              17.245901639344282
            ],
            [
              21.508196721311492,
              18.065573770491824
            ],
            [
              21.672131147540995,
              18.55737704918033
            ],
            [
              21.836065573770497,
              19.049180327868868
            ],
            [
              22.0,
              19.86885245901641
            ],
            [
              22.327868852459034,
              20.524590163934448
            ],
            [
              22.491803278688536,
              21.34426229508199
            ],
            [
              22.491803278688536,
              22.327868852459034
            ],
            [
              22.65573770491804,
              23.147540983606575
            ],
            [
              23.311475409836078,
              23.967213114754117
            ],
            [
              23.967213114754117,
              24.459016393442653
            ],
            [
              24.29508196721312,
              24.95081967213116
            ],
            [
              25.114754098360663,
              25.44262295081967
            ],
            [
              25.770491803278702,
              26.098360655737707
            ],
            [
              25.278688524590166,
              26.26229508196724
            ],
            [
              26.098360655737736,
              27.08196721311475
            ],
            [
              27.409836065573785,
              28.065573770491824
            ],
            [
              28.39344262295083,
              29.049180327868868
            ],
            [
              29.21311475409837,
              29.704918032786907
            ],
            [
              29.86885245901641,
              30.360655737704917
            ],
            [
              30.032786885245912,
              30.852459016393453
            ],
            [
              30.524590163934448,
              31.18032786885246
            ],
            [
              30.852459016393453,
              32.0
            ],
            [
              31.180327868852487,
              32.65573770491804
            ],
            [
              31.34426229508199,
              33.147540983606575
            ],
            [
              31.672131147540995,
              33.63934426229508
            ],
            [
              32.16393442622953,
              34.13114754098362
            ],
            [
              32.65573770491804,
              34.95081967213116
            ],
            [
              33.31147540983608,
              35.44262295081967
            ],
            [
              33.803278688524614,
              35.7704918032787
            ],
            [
              34.29508196721312,
              36.26229508196724
            ],
            [
              34.622950819672155,
              36.754098360655746
            ],
            [
              35.11475409836066,
              37.08196721311475
            ],
            [
              35.7704918032787,
              37.73770491803279
            ],
            [
              36.098360655737736,
              38.229508196721326
            ],
            [
              36.59016393442624,
              38.55737704918033
            ],
            [
              37.08196721311475,
              38.885245901639365
            ],
            [
              37.57377049180329,
              39.21311475409837
            ],
            [
              38.065573770491824,
              39.540983606557404
            ],
            [
              38.885245901639365,
              40.03278688524591
            ],
            [
              39.37704918032787,
              40.196721311475414
            ],
            [
              39.86885245901641,
              40.36065573770492
            ],
            [
              40.36065573770492,
              40.68852459016395
            ],
            [
              41.016393442622956,
              41.34426229508199
            ],
            [
              41.672131147540995,
              41.672131147540995
            ]
          ],
          [
            [
              53.63934426229508,
              53.31147540983608
            ],
            [
              54.13114754098365,
              53.47540983606558
            ],
            [
              54.622950819672155,
              53.31147540983608
            ],
            [
              56.59016393442624,
              52.0
            ],
            [
              58.065573770491824,
              50.52459016393445
            ],
            [
              59.3770491803279,
              49.04918032786887
            ],
            [
              61.50819672131149,
              46.754098360655746
            ],
            [
              62.0,
              46.09836065573771
            ],
            [
              61.34426229508199,
              46.26229508196724
            ],
            [
              60.68852459016398,
              46.754098360655746
            ],
            [
              60.03278688524591,
              46.91803278688525
            ],
            [
              59.3770491803279,
              47.24590163934428
            ],
            [
              58.721311475409834,
              47.90163934426229
            ],
            [
              58.229508196721326,
              48.065573770491824
            ],
            [
              57.573770491803316,
              47.409836065573785
            ],
            [
              57.08196721311475,
              46.91803278688525
            ],
            [
              56.42622950819674,
              46.26229508196724
            ],
            [
              55.93442622950823,
              46.09836065573771
            ],
            [
              55.11475409836066,
              46.09836065573771
            ],
            [
              54.45901639344265,
              46.09836065573771
            ],
            [
              53.96721311475409,
              46.26229508196724
            ],
            [
              53.47540983606558,
              46.59016393442624
            ],
            [
              52.98360655737707,
              46.754098360655746
            ],
            [
              52.1639344262295,
              47.24590163934428
            ],
            [
              51.016393442622984,
              47.90163934426229
            ],
            [
              49.86885245901641,
              48.55737704918033
            ],
            [
              48.88524590163934,
              49.21311475409837
            ],
            [
              48.39344262295083,
              49.37704918032787
            ],
            [
              47.90163934426232,
              49.540983606557376
            ],
            [
              47.409836065573785,
              49.04918032786887
            ],
            [
              46.91803278688525,
              48.39344262295083
            ],
            [
              46.26229508196724,
              47.73770491803279
            ],
            [
              46.09836065573771,
              48.55737704918033
            ],
            [
              46.09836065573771,
              49.86885245901641
            ],
            [
              46.42622950819674,
              51.34426229508199
            ],
            [
              46.91803278688525,
              52.81967213114754
            ],
            [
              47.90163934426232,
              54.459016393442624
            ],
            [
              49.70491803278691,
              56.59016393442624
            ],
            [
              50.196721311475414,
              57.409836065573785
            ],
            [
              50.68852459016392,
              57.90163934426229
            ],
            [
              51.016393442622984,
              58.39344262295083
            ],
            [
              51.50819672131149,
              57.90163934426229
            ],
            [
              52.1639344262295,
              57.24590163934428
            ],
            [
              53.31147540983608,
              56.09836065573771
            ],
            [
              54.13114754098365,
              55.6065573770492
            ],
            [
              54.78688524590166,
              54.95081967213116
            ],
            [
              55.278688524590166,
              54.459016393442624
            ],
            [
              55.770491803278674,
              54.13114754098362
            ],
            [
              56.42622950819674,
              53.47540983606558
            ],
            [
              56.91803278688525,
              52.81967213114754
            ],
            [
              57.40983606557381,
              52.65573770491804
            ],
            [
              57.40983606557381,
              52.0
            ]
          ],
          [
            [
              2.163934426229531,
              13.967213114754117
            ],
            [
              2.163934426229531,
              13.311475409836078
            ],
            [
              3.147540983606575,
              10.852459016393453
            ],
            [
              4.295081967213122,
              8.393442622950829
            ],
            [
              4.622950819672155,
              7.409836065573785
            ],
            [
              4.950819672131161,
              6.918032786885249
            ],
            [
              5.278688524590166,
              6.426229508196741
            ],
            [
              6.262295081967238,
              6.426229508196741
            ],
            [
              6.918032786885249,
              6.262295081967238
            ],
            [
              7.5737704918032875,
              6.098360655737736
            ],
            [
              8.229508196721326,
              6.098360655737736
            ],
            [
              9.049180327868868,
              5.770491803278702
            ],
            [
              9.540983606557404,
              5.606557377049199
            ],
            [
              9.86885245901641,
              6.098360655737736
            ],
            [
              10.196721311475414,
              6.5901639344262435
            ],
            [
              10.68852459016395,
              7.081967213114751
            ],
            [
              10.852459016393453,
              7.73770491803279
            ],
            [
              10.852459016393453,
              8.557377049180332
            ],
            [
              10.852459016393453,
              9.21311475409837
            ],
            [
              10.360655737704946,
              10.196721311475414
            ],
            [
              10.032786885245912,
              10.68852459016395
            ],
            [
              9.540983606557404,
              11.180327868852487
            ],
            [
              9.377049180327873,
              11.672131147540995
            ],
            [
              8.885245901639365,
              12.0
            ],
            [
              8.229508196721326,
              12.81967213114757
            ],
            [
              7.5737704918032875,
              13.311475409836078
            ],
            [
              7.08196721311478,
              13.639344262295083
            ],
            [
              6.426229508196741,
              14.13114754098362
            ],
            [
              5.934426229508205,
              14.622950819672155
            ],
            [
              5.606557377049199,
              15.114754098360663
            ],
            [
              5.114754098360663,
              15.278688524590166
            ],
            [
              4.622950819672155,
              15.442622950819668
            ],
            [
              4.131147540983619,
              15.770491803278702
            ],
            [
              3.639344262295083,
              15.6065573770492
            ],
            [
              2.9836065573770725,
              15.442622950819668
            ],
            [
              2.4918032786885362,
              15.278688524590166
            ],
            [
              2.0000000000000284,
              14.786885245901658
            ]
          ]
        ]
      }
    }
  ]
}