{
  "type": "FeatureCollection",
  "crs": {
    "type": "name",
    "properties": {
      "name": "urn:ogc:def:crs:OGC:1.3:CRS84"
    }
  },
  "features": [
    {
      "type": "Feature",
      "properties": {
        "timestamp": "2026-05-07T18:00:31.614539",
        "country_name": "Kazakhstan",
        "author": "",
        "author_id": "354684da-e6b0-45cb-88cd-8cd60c9ddb9e",
        "validated": false,
        "ranking": [
          [
            "Kazakhstan",
            0.11398448795080185
          ],
          [
            "Turkey",
            0.10564909875392914
          ],
          [
            "Austria",
            0.06539881974458694
          ],
          [
            "Hungary",
            0.0647103562951088
          ],
          [
            "Puerto Rico",
            0.05718740075826645
          ],
          [
            "Yemen",
            0.05125756561756134
          ],
          [
            "Slovakia",
            0.04360715299844742
          ],
          [
            "Central African Republic",
            0.03189168870449066
          ],
          [
            "Mongolia",
            0.02805604226887226
          ],
          [
            "Latvia",
            0.026560140773653984
          ],
          [
            "Madeira Islands",
            0.026422906666994095
          ],
          [
            "Burkina Faso",
            0.021929478272795677
          ],
          [
            "Czech Republic",
            0.021693700924515724
          ],
          [
            "Switzerland",
            0.02018682286143303
          ],
          [
            "Panama",
            0.017961861565709114
          ],
          [
            "Honduras",
            0.017454732209444046
          ],
          [
            "Bulgaria",
            0.015187600627541542
          ],
          [
            "Ecuador",
            0.015115871094167233
          ],
          [
            "Bhutan",
            0.01409003883600235
          ],
          [
            "Slovenia",
            0.013981042429804802
          ],
          [
            "Kyrgyzstan",
            0.012827560305595398
          ],
          [
            "Jamaica",
            0.012379254214465618
          ],
          [
            "Ukraine",
            0.011514835990965366
          ],
          [
            "Georgia",
            0.010867055505514145
          ],
          [
            "Indonesia",
            0.008757518604397774
          ],
          [
            "Iceland",
            0.007602687459439039
          ],
          [
            "China",
            0.007330179214477539
          ],
          [
            "Guinea-Bissau",
            0.007040347903966904
          ],
          [
            "Estonia",
            0.006407754961401224
          ],
          [
            "Malaysia",
            0.00622880132868886
          ],
          [
            "Cyprus",
            0.005930139683187008
          ],
          [
            "Hong Kong",
            0.005783963017165661
          ],
          [
            "Falkland Islands",
            0.005464981775730848
          ],
          [
            "Niger",
            0.005161602515727282
          ],
          [
            "New Caledonia",
            0.005038069095462561
          ],
          [
            "South Sudan",
            0.004606397822499275
          ],
          [
            "Turkmenistan",
            0.004313811659812927
          ],
          [
            "Timor-Leste",
            0.004231924656778574
          ],
          [
            "Zambia",
            0.004206991754472256
          ],
          [
            "Uzbekistan",
            0.004078364931046963
          ],
          [
            "Rwanda",
            0.0039506410248577595
          ],
          [
            "Papua New Guinea",
            0.003619004273787141
          ],
          [
            "Russia",
            0.0034340396523475647
          ],
          [
            "Mali",
            0.0031855227425694466
          ],
          [
            "Cuba",
            0.0029028700664639473
          ],
          [
            "Heard and McDonald Islands",
            0.0028727741446346045
          ],
          [
            "Azerbaijan",
            0.0025805465411394835
          ],
          [
            "Solomon Islands",
            0.0025782345328480005
          ],
          [
            "Netherlands Antilles",
            0.002518543042242527
          ],
          [
            "El Salvador",
            0.0025079732295125723
          ],
          [
            "Guadeloupe",
            0.0024227523244917393
          ],
          [
            "North Macedonia",
            0.0024002103600651026
          ],
          [
            "United Arab Emirates",
            0.0022052680142223835
          ],
          [
            "Fiji",
            0.0019739712588489056
          ],
          [
            "Brunei",
            0.0018597653834149241
          ],
          [
            "Lithuania",
            0.0015535247512161732
          ],
          [
            "Dominican Republic",
            0.0014065556460991502
          ],
          [
            "Tajikistan",
            0.001338374218903482
          ],
          [
            "South Africa",
            0.0012760653626173735
          ],
          [
            "Romania",
            0.001149427960626781
          ],
          [
            "Nigeria",
            0.0011003833496943116
          ],
          [
            "Brazil",
            0.0010617077350616455
          ],
          [
            "Venezuela",
            0.0010229835752397776
          ],
          [
            "Gabon",
            0.0009973059641197324
          ],
          [
            "Belgium",
            0.0009704387048259377
          ],
          [
            "Comoros",
            0.0009047259809449315
          ],
          [
            "Oman",
            0.0008257161825895309
          ],
          [
            "Pakistan",
            0.0008228328078985214
          ],
          [
            "Montenegro",
            0.0008194622932933271
          ],
          [
            "Syria",
            0.0007525777909904718
          ],
          [
            "Nepal",
            0.000718310649972409
          ],
          [
            "New Zealand",
            0.0007017392781563103
          ],
          [
            "Turks and Caicos Islands",
            0.0007008684915490448
          ],
          [
            "Gambia",
            0.0006635955069214106
          ],
          [
            "India",
            0.0006257155328057706
          ],
          [
            "Japan",
            0.0006213319138623774
          ],
          [
            "Australia",
            0.0006044976180419326
          ],
          [
            "Morocco",
            0.0005709595861844718
          ],
          [
            "Spain",
            0.0005607465864159167
          ],
          [
            "Mexico",
            0.0005568999331444502
          ],
          [
            "Burundi",
            0.0005490717594511807
          ],
          [
            "Guam",
            0.0005404953262768686
          ],
          [
            "Cambodia",
            0.0005397453205659986
          ],
          [
            "Senegal",
            0.0005391845479607582
          ],
          [
            "Lesotho",
            0.0005311534041538835
          ],
          [
            "United States of America",
            0.00052304333075881
          ],
          [
            "Botswana",
            0.0005161280278116465
          ],
          [
            "Samoa",
            0.0005080089322291315
          ],
          [
            "Bangladesh",
            0.0005042719421908259
          ],
          [
            "Cape Verde",
            0.00048239080933853984
          ],
          [
            "Sudan",
            0.0004621144034899771
          ],
          [
            "Guinea",
            0.00045999771100468934
          ],
          [
            "Equatorial Guinea",
            0.00045585507177747786
          ],
          [
            "Saudi Arabia",
            0.00045386661076918244
          ],
          [
            "Bosnia & Herzegovina",
            0.0004513269232120365
          ],
          [
            "Afghanistan",
            0.00043607401312328875
          ],
          [
            "Iran",
            0.0004026038805022836
          ],
          [
            "Paraguay",
            0.00040099219768308103
          ],
          [
            "North Korea",
            0.00039219215977936983
          ],
          [
            "Sierra Leone",
            0.00038853491423651576
          ],
          [
            "Moldova",
            0.0003883170720655471
          ],
          [
            "Angola",
            0.00037332551437430084
          ],
          [
            "Somalia",
            0.0003635003522504121
          ],
          [
            "Cameroon",
            0.00035608638427220285
          ],
          [
            "Chile",
            0.0003536665462888777
          ],
          [
            "Nicaragua",
            0.00032145308796316385
          ],
          [
            "Ethiopia",
            0.0003188791743014008
          ],
          [
            "Costa Rica",
            0.00031262380070984364
          ],
          [
            "Israel",
            0.0003059339942410588
          ],
          [
            "Sao Tome and Principe",
            0.0002950219204649329
          ],
          [
            "Colombia",
            0.000289609917672351
          ],
          [
            "Tanzania",
            0.0002894956269301474
          ],
          [
            "Belize",
            0.0002680222096387297
          ],
          [
            "Uruguay",
            0.0002640008460730314
          ],
          [
            "Armenia",
            0.00025200939853675663
          ],
          [
            "Thailand",
            0.0002493956999387592
          ],
          [
            "Bahamas",
            0.00024484781897626817
          ],
          [
            "Mozambique",
            0.00024140745517797768
          ],
          [
            "Haiti",
            0.000240328285144642
          ],
          [
            "Palau",
            0.00023900900851003826
          ],
          [
            "Belarus",
            0.00023269347730092704
          ],
          [
            "Trinidad and Tobago",
            0.00022906971571501344
          ],
          [
            "Congo",
            0.00022701761918142438
          ],
          [
            "Croatia",
            0.00022662998526357114
          ],
          [
            "Algeria",
            0.00022559920034836978
          ],
          [
            "Sweden",
            0.00022410033852793276
          ],
          [
            "Egypt",
            0.00022389183868654072
          ],
          [
            "Jordan",
            0.00021487774210982025
          ],
          [
            "Suriname",
            0.00021017414110247046
          ],
          [
            "Vanuatu",
            0.00020339677575975657
          ],
          [
            "Malawi",
            0.00019526889082044363
          ],
          [
            "Isle of Man",
            0.0001875001471489668
          ],
          [
            "Eswatini",
            0.00018593067943584174
          ],
          [
            "Côte d'Ivoire",
            0.0001856734015746042
          ],
          [
            "Poland",
            0.000180143877514638
          ],
          [
            "Libya",
            0.00016542317462153733
          ],
          [
            "South Korea",
            0.00016276257520075887
          ],
          [
            "Kenya",
            0.0001598652161192149
          ],
          [
            "Bolivia",
            0.00015917696873657405
          ],
          [
            "Benin",
            0.00015730479208286852
          ],
          [
            "Svalbard",
            0.00015678659838158637
          ],
          [
            "Myanmar",
            0.00015604373766109347
          ],
          [
            "Namibia",
            0.00015349416935350746
          ],
          [
            "Kuwait",
            0.0001508656278019771
          ],
          [
            "Togo",
            0.0001507215347373858
          ],
          [
            "France",
            0.0001473702723160386
          ],
          [
            "Mauritania",
            0.00014478666707873344
          ],
          [
            "Reunion",
            0.00014370652206707746
          ],
          [
            "Uganda",
            0.00013830115494783968
          ],
          [
            "Argentina",
            0.00013658643001690507
          ],
          [
            "Greenland",
            0.00013220999971963465
          ],
          [
            "Iraq",
            0.00012921290181111544
          ],
          [
            "Canada",
            0.00012557828449644148
          ],
          [
            "South Georgia Islands",
            0.0001222329883603379
          ],
          [
            "Zimbabwe",
            0.00012104141933377832
          ],
          [
            "Guatemala",
            0.00011880490637850016
          ],
          [
            "French Guiana",
            0.00011821990483440459
          ],
          [
            "Peru",
            0.00011534046643646434
          ],
          [
            "Serbia",
            0.00010512731387279928
          ],
          [
            "Faroe Islands",
            0.00010447605745866895
          ],
          [
            "Dominica",
            0.00010420559556223452
          ],
          [
            "Netherlands",
            0.0001036582762026228
          ],
          [
            "Antigua & Barbuda",
            0.00010191076580667868
          ],
          [
            "Eritrea",
            9.942078031599522e-05
          ],
          [
            "Mayotte",
            9.485892223892733e-05
          ],
          [
            "Italy",
            9.327541192760691e-05
          ],
          [
            "DR Congo",
            9.238410711986944e-05
          ],
          [
            "Martinique",
            8.959539263742045e-05
          ],
          [
            "Liberia",
            8.673388219904155e-05
          ],
          [
            "Ireland",
            8.320332563016564e-05
          ],
          [
            "Taiwan",
            7.929388812044635e-05
          ],
          [
            "Philippines",
            7.755402475595474e-05
          ],
          [
            "Western Sahara",
            7.685134187340736e-05
          ],
          [
            "Vietnam",
            7.551396993221715e-05
          ],
          [
            "Djibouti",
            7.19474337529391e-05
          ],
          [
            "Guyana",
            7.030424603726715e-05
          ],
          [
            "Norway",
            6.879337161080912e-05
          ],
          [
            "Barbados",
            6.640940409852192e-05
          ],
          [
            "Madagascar",
            6.636913167312741e-05
          ],
          [
            "Lebanon",
            6.511399988085032e-05
          ],
          [
            "United Kingdom",
            6.280156958382577e-05
          ],
          [
            "Portugal",
            6.219469651114196e-05
          ],
          [
            "Bahrain",
            6.130653491709381e-05
          ],
          [
            "Finland",
            5.9261648857500404e-05
          ],
          [
            "Qatar",
            5.446728755487129e-05
          ],
          [
            "Albania",
            5.1165818149456754e-05
          ],
          [
            "Germany",
            5.102693830849603e-05
          ],
          [
            "West Bank",
            5.0253183871973306e-05
          ],
          [
            "Tunisia",
            4.408935637911782e-05
          ],
          [
            "Saint Lucia",
            4.0419639844913036e-05
          ],
          [
            "Denmark",
            3.5220022255089134e-05
          ],
          [
            "Luxembourg",
            3.073562402278185e-05
          ],
          [
            "Ghana",
            3.0731989681953564e-05
          ],
          [
            "United States Virgin Islands",
            2.9882807211834006e-05
          ],
          [
            "Sri Lanka",
            2.7622058041743003e-05
          ],
          [
            "Laos",
            2.731493987084832e-05
          ],
          [
            "Chad",
            2.3879518266767263e-05
          ],
          [
            "Greece",
            1.4986949281592388e-05
          ],
          [
            "Kiribati",
            5.949458227405557e-06
          ]
        ]
      },
      "geometry": {
        "type": "MultiLineString",
        "coordinates": [
          [
            [
              51.363619756332525,
              25.86554726814819
            ],
            [
              50.81818309566674,
              23.411775543630142
            ],
            [
              48.363615072221194,
              22.321211373646875
            ],
            [
              46.4545399187775,
              22.321211373646875
            ],
            [
              45.90908452166636,
              19.867420912683485
            ],
            [
              44.54544602888848,
              18.23156997359723
            ],
            [
              41.27271364622156,
              18.50422272637138
            ],
            [
              38.5454366606658,
              19.594786896354663
            ],
            [
              34.4545399187775,
              21.230637835440916
            ],
            [
              32.27271833033291,
              22.04855862087271
            ],
            [
              30.363624440443857,
              22.321211373646875
            ],
            [
              28.454568023445546,
              22.593845389975684
            ],
            [
              26.5454366606658,
              22.593845389975684
            ],
            [
              23.818178411555394,
              20.412707681786458
            ],
            [
              21.909103258111713,
              19.04950012725169
            ],
            [
              19.181826272555952,
              17.6863019409396
            ],
            [
              16.18182158844462,
              17.14100580361395
            ],
            [
              13.72727230144443,
              17.14100580361395
            ],
            [
              10.727267617333084,
              17.95893595726841
            ],
            [
              8.818173727444048,
              20.412707681786458
            ],
            [
              7.999990631777322,
              22.321211373646875
            ],
            [
              6.636352138999442,
              25.86554726814819
            ],
            [
              5.272732382666916,
              29.409901899094876
            ],
            [
              3.636366191333458,
              32.95425653004155
            ],
            [
              2.8181830956667255,
              34.86274148545661
            ],
            [
              2.0,
              37.31651320997466
            ],
            [
              3.9090751534436805,
              40.04293768726686
            ],
            [
              6.363643176889219,
              40.58823382459252
            ],
            [
              9.090901425999633,
              40.58823382459252
            ],
            [
              11.54545071299981,
              40.58823382459252
            ],
            [
              13.72727230144443,
              40.58823382459252
            ],
            [
              15.909093889889036,
              40.58823382459252
            ],
            [
              17.818169043332716,
              40.58823382459252
            ],
            [
              21.36364786100056,
              40.58823382459252
            ],
            [
              24.63636150722212,
              40.04293768726686
            ],
            [
              28.181802851999265,
              39.225016901835076
            ],
            [
              30.090915478333642,
              38.407096116403295
            ],
            [
              33.09090142599962,
              37.31651320997466
            ],
            [
              35.27272301444424,
              37.043879193645836
            ],
            [
              37.181816904333274,
              38.67973013273209
            ],
            [
              36.909070469332335,
              41.67878862635311
            ],
            [
              35.27272301444424,
              44.13256971909385
            ],
            [
              35.81815967511004,
              46.041073410954255
            ],
            [
              37.72727230144443,
              46.58636018005723
            ],
            [
              39.636347454888096,
              46.85899419638605
            ],
            [
              41.818169043332716,
              46.85899419638605
            ],
            [
              43.99999063177732,
              46.85899419638605
            ],
            [
              46.72724888088774,
              46.31370742728308
            ],
            [
              48.909070469332335,
              46.31370742728308
            ],
            [
              51.090892057776955,
              46.31370742728308
            ],
            [
              53.00000468411133,
              45.495777273628605
            ],
            [
              53.818169043332716,
              43.31463956543938
            ],
            [
              55.45453523466617,
              40.86086784092133
            ],
            [
              57.36361038810986,
              39.497650918163885
            ],
            [
              59.27270427799888,
              38.407096116403295
            ],
            [
              61.18181690433326,
              38.407096116403295
            ],
            [
              62.0,
              36.22594903999138
            ],
            [
              62.0,
              33.77217731547333
            ],
            [
              62.0,
              31.863673623612925
            ],
            [
              58.99999531588867,
              27.774050960008623
            ],
            [
              56.27269959388755,
              25.04762648271641
            ],
            [
              52.727258249110406,
              22.321211373646875
            ],
            [
              49.72727230144443,
              20.95799445088943
            ]
          ]
        ]
      }
    }
  ]
}