{
  "type": "FeatureCollection",
  "crs": {
    "type": "name",
    "properties": {
      "name": "urn:ogc:def:crs:OGC:1.3:CRS84"
    }
  },
  "features": [
    {
      "type": "Feature",
      "properties": {
        "timestamp": "2026-05-17T14:01:23.427837",
        "country_name": "Latvia",
        "author": "FelixGeograhyExpert",
        "author_id": "8b16f210-3083-470c-903f-ba93b4193321",
        "validated": false,
        "ranking": [
          [
            "Turkey",
            0.11421023309230804
          ],
          [
            "Indonesia",
            0.1134578064084053
          ],
          [
            "Austria",
            0.09891370683908463
          ],
          [
            "Panama",
            0.09830863028764725
          ],
          [
            "Puerto Rico",
            0.07458164542913437
          ],
          [
            "Madeira Islands",
            0.042532313615083694
          ],
          [
            "Netherlands Antilles",
            0.03793780505657196
          ],
          [
            "Latvia",
            0.034199442714452744
          ],
          [
            "New Caledonia",
            0.03210204467177391
          ],
          [
            "Jamaica",
            0.03208117187023163
          ],
          [
            "Kazakhstan",
            0.03167552873492241
          ],
          [
            "Timor-Leste",
            0.026158856227993965
          ],
          [
            "Georgia",
            0.018364254385232925
          ],
          [
            "Kyrgyzstan",
            0.01603967510163784
          ],
          [
            "Mongolia",
            0.015339973382651806
          ],
          [
            "Gambia",
            0.014599806629121304
          ],
          [
            "Malaysia",
            0.014509044587612152
          ],
          [
            "Ecuador",
            0.012510131113231182
          ],
          [
            "Turkmenistan",
            0.009725077077746391
          ],
          [
            "Papua New Guinea",
            0.009297715499997139
          ],
          [
            "Solomon Islands",
            0.009288533590734005
          ],
          [
            "El Salvador",
            0.009197136387228966
          ],
          [
            "Slovakia",
            0.008527515456080437
          ],
          [
            "Guinea-Bissau",
            0.007324977312237024
          ],
          [
            "Czech Republic",
            0.005581744946539402
          ],
          [
            "Cyprus",
            0.005376211367547512
          ],
          [
            "Uzbekistan",
            0.005373853258788586
          ],
          [
            "Falkland Islands",
            0.005222633481025696
          ],
          [
            "Hong Kong",
            0.005031723994761705
          ],
          [
            "Estonia",
            0.004926051013171673
          ],
          [
            "Ukraine",
            0.004613707307726145
          ],
          [
            "Central African Republic",
            0.004424046725034714
          ],
          [
            "Russia",
            0.0043196105398237705
          ],
          [
            "Nepal",
            0.003949287347495556
          ],
          [
            "Cuba",
            0.0035323146730661392
          ],
          [
            "Turks and Caicos Islands",
            0.00341547722928226
          ],
          [
            "Paraguay",
            0.003100109053775668
          ],
          [
            "Bhutan",
            0.0030861622653901577
          ],
          [
            "Honduras",
            0.002923486055806279
          ],
          [
            "Samoa",
            0.0026408424600958824
          ],
          [
            "Heard and McDonald Islands",
            0.0025851938407868147
          ],
          [
            "Dominican Republic",
            0.002459306502714753
          ],
          [
            "United Arab Emirates",
            0.0022656365763396025
          ],
          [
            "Yemen",
            0.0022573634050786495
          ],
          [
            "Burkina Faso",
            0.0018503617029637098
          ],
          [
            "Switzerland",
            0.0017521748086437583
          ],
          [
            "Comoros",
            0.0016220553079620004
          ],
          [
            "Belgium",
            0.0015821339329704642
          ],
          [
            "Mexico",
            0.0013373364927247167
          ],
          [
            "Japan",
            0.0011520867701619864
          ],
          [
            "Mali",
            0.0011214218102395535
          ],
          [
            "Lithuania",
            0.0011163958115503192
          ],
          [
            "Armenia",
            0.0010764447506517172
          ],
          [
            "Tajikistan",
            0.0010482989018782973
          ],
          [
            "New Zealand",
            0.0010428207460790873
          ],
          [
            "Niger",
            0.0009499592124484479
          ],
          [
            "Eritrea",
            0.0008699591853655875
          ],
          [
            "Guinea",
            0.0008581919828429818
          ],
          [
            "Iceland",
            0.0007641599513590336
          ],
          [
            "Hungary",
            0.0006966014625504613
          ],
          [
            "Fiji",
            0.0006530786049552262
          ],
          [
            "Senegal",
            0.0006389741902239621
          ],
          [
            "Venezuela",
            0.0006127831293269992
          ],
          [
            "China",
            0.0005993740051053464
          ],
          [
            "Equatorial Guinea",
            0.0005417816573753953
          ],
          [
            "South Sudan",
            0.0005171492230147123
          ],
          [
            "Costa Rica",
            0.0005115640815347433
          ],
          [
            "Bahamas",
            0.0005029994063079357
          ],
          [
            "Azerbaijan",
            0.0004818338493350893
          ],
          [
            "United States of America",
            0.00048040683032013476
          ],
          [
            "Slovenia",
            0.0004460588388610631
          ],
          [
            "Rwanda",
            0.0004411161062307656
          ],
          [
            "Australia",
            0.0004000154440291226
          ],
          [
            "India",
            0.0003897754359059036
          ],
          [
            "Saudi Arabia",
            0.00038583375862799585
          ],
          [
            "Bangladesh",
            0.00037143079680390656
          ],
          [
            "Zambia",
            0.0003486967470962554
          ],
          [
            "Guadeloupe",
            0.000339754915330559
          ],
          [
            "Croatia",
            0.00032021288643591106
          ],
          [
            "Malawi",
            0.00030845950823277235
          ],
          [
            "Colombia",
            0.00030519108986482024
          ],
          [
            "Bulgaria",
            0.000302250002278015
          ],
          [
            "Bosnia & Herzegovina",
            0.0002960553392767906
          ],
          [
            "DR Congo",
            0.00028975875466130674
          ],
          [
            "Brazil",
            0.0002849064767360687
          ],
          [
            "Chile",
            0.00028038083110004663
          ],
          [
            "Israel",
            0.0002769309503491968
          ],
          [
            "Guam",
            0.00027558417059481144
          ],
          [
            "Myanmar",
            0.00027507057529874146
          ],
          [
            "Iran",
            0.0002743082295637578
          ],
          [
            "Somalia",
            0.0002659183519426733
          ],
          [
            "Moldova",
            0.0002552000805735588
          ],
          [
            "Romania",
            0.00025319671840406954
          ],
          [
            "Thailand",
            0.00024633051361888647
          ],
          [
            "Spain",
            0.00024407859018538147
          ],
          [
            "Liberia",
            0.00024404229770880193
          ],
          [
            "Serbia",
            0.00023314009013120085
          ],
          [
            "Trinidad and Tobago",
            0.00023143655562307686
          ],
          [
            "Argentina",
            0.000224164585233666
          ],
          [
            "South Korea",
            0.0002201624447479844
          ],
          [
            "Cape Verde",
            0.0002071523485938087
          ],
          [
            "Montenegro",
            0.00020559830591082573
          ],
          [
            "Martinique",
            0.00019668832828756422
          ],
          [
            "Benin",
            0.00019485826487652957
          ],
          [
            "Brunei",
            0.00019432084809523076
          ],
          [
            "Cameroon",
            0.00018799946701619774
          ],
          [
            "Mozambique",
            0.0001859173207776621
          ],
          [
            "Pakistan",
            0.00018257260671816766
          ],
          [
            "Svalbard",
            0.00017367287364322692
          ],
          [
            "Gabon",
            0.00017199986905325204
          ],
          [
            "Kuwait",
            0.0001695158425718546
          ],
          [
            "Oman",
            0.00016879409668035805
          ],
          [
            "Sweden",
            0.00016229023458436131
          ],
          [
            "United Kingdom",
            0.00015051565424073488
          ],
          [
            "Angola",
            0.00014875215128995478
          ],
          [
            "Sao Tome and Principe",
            0.0001415277656633407
          ],
          [
            "South Africa",
            0.00013703142758458853
          ],
          [
            "Belize",
            0.00013611734902951866
          ],
          [
            "Sierra Leone",
            0.00013596322969533503
          ],
          [
            "Guyana",
            0.00013544969260692596
          ],
          [
            "North Macedonia",
            0.00013392195978667587
          ],
          [
            "Italy",
            0.00013050937559455633
          ],
          [
            "Canada",
            0.00012772610352840275
          ],
          [
            "Namibia",
            0.00012740858073811978
          ],
          [
            "Ethiopia",
            0.00011757975880755112
          ],
          [
            "Togo",
            0.00011305508087389171
          ],
          [
            "Mayotte",
            0.00011145527969347313
          ],
          [
            "Suriname",
            0.00011094434012193233
          ],
          [
            "Laos",
            0.0001082493326975964
          ],
          [
            "Uruguay",
            0.00010790691885631531
          ],
          [
            "Vanuatu",
            0.00010677229875000194
          ],
          [
            "Philippines",
            0.00010575242049526423
          ],
          [
            "Portugal",
            0.00010222366836387664
          ],
          [
            "Dominica",
            0.00010209973697783425
          ],
          [
            "West Bank",
            9.973155829356983e-05
          ],
          [
            "Tunisia",
            9.901567682391033e-05
          ],
          [
            "Botswana",
            9.515181591268629e-05
          ],
          [
            "Syria",
            9.052128734765574e-05
          ],
          [
            "Iraq",
            8.916974911699072e-05
          ],
          [
            "Nicaragua",
            8.864118717610836e-05
          ],
          [
            "Peru",
            8.820168295642361e-05
          ],
          [
            "Bahrain",
            8.626307680970058e-05
          ],
          [
            "Palau",
            8.492196502629668e-05
          ],
          [
            "Greenland",
            8.268210513051599e-05
          ],
          [
            "Guatemala",
            8.070333569776267e-05
          ],
          [
            "North Korea",
            7.944244134705514e-05
          ],
          [
            "Uganda",
            7.722372538410127e-05
          ],
          [
            "Burundi",
            7.49859755160287e-05
          ],
          [
            "Egypt",
            7.493365410482511e-05
          ],
          [
            "Barbados",
            7.376755092991516e-05
          ],
          [
            "Albania",
            7.225498120533302e-05
          ],
          [
            "South Georgia Islands",
            7.130388985387981e-05
          ],
          [
            "Kenya",
            6.885616312501952e-05
          ],
          [
            "Algeria",
            6.821576243964955e-05
          ],
          [
            "Isle of Man",
            6.781127740396187e-05
          ],
          [
            "Haiti",
            6.733081681886688e-05
          ],
          [
            "Djibouti",
            6.683538958895952e-05
          ],
          [
            "Nigeria",
            6.648434646194801e-05
          ],
          [
            "Bolivia",
            6.289462908171117e-05
          ],
          [
            "Zimbabwe",
            6.122174090705812e-05
          ],
          [
            "Morocco",
            6.113830022513866e-05
          ],
          [
            "Congo",
            5.984883682685904e-05
          ],
          [
            "Ireland",
            5.9669429901987314e-05
          ],
          [
            "French Guiana",
            5.791572402813472e-05
          ],
          [
            "Tanzania",
            5.743028668803163e-05
          ],
          [
            "Libya",
            5.398102439357899e-05
          ],
          [
            "Eswatini",
            5.23733178852126e-05
          ],
          [
            "Vietnam",
            5.010400855098851e-05
          ],
          [
            "Lesotho",
            4.7907069529173896e-05
          ],
          [
            "Norway",
            4.711066503659822e-05
          ],
          [
            "Jordan",
            4.645845910999924e-05
          ],
          [
            "Belarus",
            4.6073535486357287e-05
          ],
          [
            "Western Sahara",
            4.599337262334302e-05
          ],
          [
            "Cambodia",
            4.557412466965616e-05
          ],
          [
            "Antigua & Barbuda",
            4.4932479795534164e-05
          ],
          [
            "Sudan",
            4.430544504430145e-05
          ],
          [
            "Poland",
            4.227211684337817e-05
          ],
          [
            "Mauritania",
            4.210562474327162e-05
          ],
          [
            "Côte d'Ivoire",
            4.14098467445001e-05
          ],
          [
            "Reunion",
            4.076729965163395e-05
          ],
          [
            "Finland",
            4.043593071401119e-05
          ],
          [
            "Luxembourg",
            4.0125392843037844e-05
          ],
          [
            "Kiribati",
            3.9656628359807655e-05
          ],
          [
            "Ghana",
            3.908316284650937e-05
          ],
          [
            "Netherlands",
            3.865686812787317e-05
          ],
          [
            "Afghanistan",
            3.838457996607758e-05
          ],
          [
            "France",
            3.822756843874231e-05
          ],
          [
            "Lebanon",
            3.760318941203877e-05
          ],
          [
            "Taiwan",
            3.634262611740269e-05
          ],
          [
            "Faroe Islands",
            3.608532642829232e-05
          ],
          [
            "Sri Lanka",
            3.554783688741736e-05
          ],
          [
            "Greece",
            3.5209701309213415e-05
          ],
          [
            "Qatar",
            3.500045932014473e-05
          ],
          [
            "United States Virgin Islands",
            2.6308600354241207e-05
          ],
          [
            "Saint Lucia",
            2.6189642085228115e-05
          ],
          [
            "Madagascar",
            2.3918322767713107e-05
          ],
          [
            "Denmark",
            1.6504121958860196e-05
          ],
          [
            "Germany",
            1.3458074135996867e-05
          ],
          [
            "Chad",
            7.4388913162692916e-06
          ]
        ]
      },
      "geometry": {
        "type": "MultiLineString",
        "coordinates": [
          [
            [
              13.186440677966104,
              39.881355932203405
            ],
            [
              11.152542372881356,
              39.881355932203405
            ],
            [
              9.118644067796623,
              39.881355932203405
            ],
            [
              7.0847457627118615,
              38.86440677966101
            ],
            [
              5.559322033898297,
              37.847457627118644
            ],
            [
              4.0338983050847474,
              36.83050847457628
            ],
            [
              4.0338983050847474,
              34.796610169491544
            ],
            [
              3.525423728813564,
              32.76271186440678
            ],
            [
              3.525423728813564,
              30.22033898305085
            ],
            [
              3.0169491525423666,
              28.694915254237287
            ],
            [
              2.5084745762711975,
              27.169491525423723
            ],
            [
              2.0,
              25.13559322033899
            ],
            [
              3.0169491525423666,
              23.610169491525426
            ],
            [
              5.050847457627128,
              24.627118644067792
            ],
            [
              6.576271186440678,
              25.64406779661016
            ],
            [
              8.101694915254242,
              26.152542372881356
            ],
            [
              10.13559322033899,
              26.152542372881356
            ],
            [
              12.169491525423723,
              26.152542372881356
            ],
            [
              15.220338983050851,
              25.64406779661016
            ],
            [
              16.745762711864415,
              24.627118644067792
            ],
            [
              20.305084745762713,
              24.118644067796595
            ],
            [
              21.830508474576277,
              23.610169491525426
            ],
            [
              24.372881355932208,
              23.610169491525426
            ],
            [
              25.898305084745772,
              23.101694915254257
            ],
            [
              27.932203389830505,
              22.59322033898303
            ],
            [
              29.966101694915253,
              22.59322033898303
            ],
            [
              32.5084745762712,
              22.59322033898303
            ],
            [
              34.54237288135593,
              22.59322033898303
            ],
            [
              37.59322033898306,
              22.59322033898303
            ],
            [
              39.62711864406779,
              22.08474576271186
            ],
            [
              41.661016949152554,
              21.576271186440692
            ],
            [
              43.69491525423729,
              21.576271186440692
            ],
            [
              45.72881355932205,
              21.067796610169495
            ],
            [
              48.27118644067798,
              21.067796610169495
            ],
            [
              50.30508474576271,
              21.067796610169495
            ],
            [
              53.35593220338984,
              21.067796610169495
            ],
            [
              55.89830508474577,
              21.576271186440692
            ],
            [
              57.423728813559336,
              23.101694915254257
            ],
            [
              57.932203389830505,
              24.627118644067792
            ],
            [
              57.932203389830505,
              26.661016949152554
            ],
            [
              58.4406779661017,
              28.694915254237287
            ],
            [
              59.45762711864407,
              32.76271186440678
            ],
            [
              59.96610169491527,
              35.81355932203388
            ],
            [
              60.98305084745763,
              38.86440677966101
            ],
            [
              60.98305084745763,
              41.40677966101694
            ],
            [
              62.0,
              42.932203389830505
            ],
            [
              59.96610169491527,
              42.932203389830505
            ],
            [
              58.4406779661017,
              42.42372881355931
            ],
            [
              56.91525423728814,
              41.91525423728814
            ],
            [
              54.88135593220338,
              41.91525423728814
            ],
            [
              53.35593220338984,
              40.89830508474574
            ],
            [
              51.32203389830508,
              40.89830508474574
            ],
            [
              49.796610169491515,
              41.40677966101694
            ],
            [
              47.76271186440678,
              41.40677966101694
            ],
            [
              45.72881355932205,
              41.40677966101694
            ],
            [
              43.69491525423729,
              41.91525423728814
            ],
            [
              41.661016949152554,
              42.42372881355931
            ],
            [
              39.62711864406779,
              42.42372881355931
            ],
            [
              37.59322033898306,
              42.42372881355931
            ],
            [
              36.067796610169495,
              41.91525423728814
            ],
            [
              34.03389830508475,
              41.40677966101694
            ],
            [
              33.01694915254237,
              39.881355932203405
            ],
            [
              33.01694915254237,
              37.847457627118644
            ],
            [
              33.525423728813564,
              36.32203389830508
            ],
            [
              33.525423728813564,
              33.77966101694915
            ],
            [
              33.525423728813564,
              31.745762711864415
            ],
            [
              32.5084745762712,
              29.711864406779654
            ],
            [
              30.474576271186436,
              29.711864406779654
            ],
            [
              27.932203389830505,
              29.711864406779654
            ],
            [
              25.898305084745772,
              30.22033898305085
            ],
            [
              24.372881355932208,
              30.72881355932202
            ],
            [
              21.830508474576277,
              31.745762711864415
            ],
            [
              19.79661016949153,
              32.76271186440678
            ],
            [
              18.271186440677965,
              33.77966101694915
            ],
            [
              16.745762711864415,
              34.796610169491544
            ],
            [
              15.220338983050851,
              35.81355932203388
            ],
            [
              14.203389830508485,
              37.338983050847446
            ],
            [
              13.694915254237287,
              38.86440677966101
            ],
            [
              13.186440677966104,
              40.389830508474574
            ]
          ]
        ]
      }
    }
  ]
}