{
  "type": "FeatureCollection",
  "crs": {
    "type": "name",
    "properties": {
      "name": "urn:ogc:def:crs:OGC:1.3:CRS84"
    }
  },
  "features": [
    {
      "type": "Feature",
      "properties": {
        "timestamp": "2026-06-22T16:54:48.805233",
        "country_name": "Libya",
        "author": "",
        "author_id": "1c464dfc-d8a9-42b2-8b6f-72ecd219fc18",
        "validated": false,
        "ranking": [
          [
            "Libya",
            0.6417131423950195
          ],
          [
            "Poland",
            0.032062042504549026
          ],
          [
            "Cape Verde",
            0.02901311032474041
          ],
          [
            "Iran",
            0.017854508012533188
          ],
          [
            "Reunion",
            0.01726454868912697
          ],
          [
            "Romania",
            0.01653098315000534
          ],
          [
            "Suriname",
            0.014051783829927444
          ],
          [
            "Cambodia",
            0.012979983352124691
          ],
          [
            "Egypt",
            0.009885193780064583
          ],
          [
            "Antigua & Barbuda",
            0.00972889456897974
          ],
          [
            "Saudi Arabia",
            0.009689079597592354
          ],
          [
            "Namibia",
            0.00847262516617775
          ],
          [
            "Lithuania",
            0.008429217152297497
          ],
          [
            "North Macedonia",
            0.00791954342275858
          ],
          [
            "Rwanda",
            0.007226777728646994
          ],
          [
            "United States Virgin Islands",
            0.007126090582460165
          ],
          [
            "Côte d'Ivoire",
            0.005736398044973612
          ],
          [
            "Sao Tome and Principe",
            0.0054313610307872295
          ],
          [
            "Nigeria",
            0.005395017564296722
          ],
          [
            "Azerbaijan",
            0.005306130275130272
          ],
          [
            "Syria",
            0.004830439109355211
          ],
          [
            "Spain",
            0.0041390759870409966
          ],
          [
            "Sudan",
            0.0034316503442823887
          ],
          [
            "Martinique",
            0.0032570871990174055
          ],
          [
            "Kenya",
            0.0031525089871138334
          ],
          [
            "South Sudan",
            0.002742774086073041
          ],
          [
            "Guadeloupe",
            0.0027262456715106964
          ],
          [
            "Vietnam",
            0.0025190769229084253
          ],
          [
            "Tanzania",
            0.002395778661593795
          ],
          [
            "Nicaragua",
            0.002360327634960413
          ],
          [
            "Belize",
            0.0023255653213709593
          ],
          [
            "Australia",
            0.0022921848576515913
          ],
          [
            "Gabon",
            0.002197815105319023
          ],
          [
            "Zimbabwe",
            0.0021916613914072514
          ],
          [
            "Mauritania",
            0.002152105327695608
          ],
          [
            "Burundi",
            0.002149369101971388
          ],
          [
            "Niger",
            0.0020369584672152996
          ],
          [
            "Togo",
            0.0018553085392341018
          ],
          [
            "Somalia",
            0.0018058674177154899
          ],
          [
            "Comoros",
            0.0018010585336014628
          ],
          [
            "Uruguay",
            0.0017782464856281877
          ],
          [
            "Vanuatu",
            0.001654217136092484
          ],
          [
            "Botswana",
            0.0016121630324050784
          ],
          [
            "Faroe Islands",
            0.0015743698459118605
          ],
          [
            "Bulgaria",
            0.0015658915508538485
          ],
          [
            "Switzerland",
            0.001545444829389453
          ],
          [
            "Ecuador",
            0.001543315127491951
          ],
          [
            "India",
            0.0015093021793290973
          ],
          [
            "Czech Republic",
            0.0014671633252874017
          ],
          [
            "Bosnia & Herzegovina",
            0.0014574488159269094
          ],
          [
            "Angola",
            0.0014506318839266896
          ],
          [
            "New Zealand",
            0.0014392139855772257
          ],
          [
            "Jordan",
            0.0014306746888905764
          ],
          [
            "Fiji",
            0.001382121117785573
          ],
          [
            "Sierra Leone",
            0.0013068747939541936
          ],
          [
            "Algeria",
            0.0011545609449967742
          ],
          [
            "Ethiopia",
            0.0011506149312481284
          ],
          [
            "Heard and McDonald Islands",
            0.001108768628910184
          ],
          [
            "Eswatini",
            0.0009804221335798502
          ],
          [
            "Malawi",
            0.0009700150694698095
          ],
          [
            "Lesotho",
            0.0009590085246600211
          ],
          [
            "Yemen",
            0.000953551207203418
          ],
          [
            "Bhutan",
            0.0009479477885179222
          ],
          [
            "Chile",
            0.000932278111577034
          ],
          [
            "Dominica",
            0.0009205664973706007
          ],
          [
            "Barbados",
            0.0008760899072512984
          ],
          [
            "Bahrain",
            0.0008686124929226935
          ],
          [
            "Peru",
            0.0008560010464861989
          ],
          [
            "Ukraine",
            0.0007784410263411701
          ],
          [
            "Equatorial Guinea",
            0.0007501473883166909
          ],
          [
            "Burkina Faso",
            0.0007454519509337842
          ],
          [
            "Qatar",
            0.0007172620389610529
          ],
          [
            "Venezuela",
            0.0007083150558173656
          ],
          [
            "Bolivia",
            0.0007036049501039088
          ],
          [
            "Uganda",
            0.0006748342420905828
          ],
          [
            "Thailand",
            0.000669912260491401
          ],
          [
            "France",
            0.000634778116364032
          ],
          [
            "Iraq",
            0.0006324010901153088
          ],
          [
            "Israel",
            0.0006291455356404185
          ],
          [
            "Liberia",
            0.0006197838811203837
          ],
          [
            "Iceland",
            0.0006164885708130896
          ],
          [
            "Solomon Islands",
            0.0006079839658923447
          ],
          [
            "Guinea",
            0.0006074519478715956
          ],
          [
            "Svalbard",
            0.0006018321728333831
          ],
          [
            "Latvia",
            0.0005923015996813774
          ],
          [
            "Belgium",
            0.000588401104323566
          ],
          [
            "Hungary",
            0.000588016293477267
          ],
          [
            "Mali",
            0.0005847304128110409
          ],
          [
            "Argentina",
            0.0005808664718642831
          ],
          [
            "Mozambique",
            0.0005808653659187257
          ],
          [
            "Brazil",
            0.0005757802864536643
          ],
          [
            "Moldova",
            0.0005478949751704931
          ],
          [
            "Benin",
            0.0005462452536448836
          ],
          [
            "Portugal",
            0.0005187889910303056
          ],
          [
            "Sweden",
            0.0005135934916324914
          ],
          [
            "South Africa",
            0.0005123636219650507
          ],
          [
            "Turkey",
            0.0005107020842842758
          ],
          [
            "Belarus",
            0.0005013355403207242
          ],
          [
            "Turkmenistan",
            0.0004981081583537161
          ],
          [
            "Montenegro",
            0.0004942026571370661
          ],
          [
            "Brunei",
            0.0004906018148176372
          ],
          [
            "Finland",
            0.0004869909898843616
          ],
          [
            "French Guiana",
            0.0004709386848844588
          ],
          [
            "Guam",
            0.00044379112659953535
          ],
          [
            "Saint Lucia",
            0.0004300287982914597
          ],
          [
            "Bahamas",
            0.00042099040001630783
          ],
          [
            "Guyana",
            0.00041017046896740794
          ],
          [
            "Japan",
            0.0004089081776328385
          ],
          [
            "Serbia",
            0.0004036550526507199
          ],
          [
            "Mayotte",
            0.00039766839472576976
          ],
          [
            "Bangladesh",
            0.0003962419868912548
          ],
          [
            "Zambia",
            0.00039620796451345086
          ],
          [
            "Estonia",
            0.0003885498153977096
          ],
          [
            "Congo",
            0.0003847444604616612
          ],
          [
            "Croatia",
            0.00038063651300035417
          ],
          [
            "Norway",
            0.0003786950546782464
          ],
          [
            "Afghanistan",
            0.0003769086906686425
          ],
          [
            "Germany",
            0.0003738457744475454
          ],
          [
            "Paraguay",
            0.0003595589369069785
          ],
          [
            "Albania",
            0.0003577024908736348
          ],
          [
            "Senegal",
            0.0003473251999821514
          ],
          [
            "Greenland",
            0.00032883716630749404
          ],
          [
            "El Salvador",
            0.00032466286211274564
          ],
          [
            "Sri Lanka",
            0.00031912929262034595
          ],
          [
            "DR Congo",
            0.0003178820770699531
          ],
          [
            "Colombia",
            0.00030455071828328073
          ],
          [
            "Slovenia",
            0.00029737610020674765
          ],
          [
            "Cameroon",
            0.0002954696537926793
          ],
          [
            "United Arab Emirates",
            0.00029324187198653817
          ],
          [
            "Costa Rica",
            0.0002916966623160988
          ],
          [
            "Honduras",
            0.00028892693808302283
          ],
          [
            "North Korea",
            0.00027739975485019386
          ],
          [
            "Myanmar",
            0.00027635725564323366
          ],
          [
            "Canada",
            0.00027012129430659115
          ],
          [
            "West Bank",
            0.00026433091261424124
          ],
          [
            "Papua New Guinea",
            0.00026212434750050306
          ],
          [
            "Slovakia",
            0.0002580088039394468
          ],
          [
            "Armenia",
            0.000256396277109161
          ],
          [
            "Kazakhstan",
            0.00024058835697360337
          ],
          [
            "Dominican Republic",
            0.00024040807329583913
          ],
          [
            "United Kingdom",
            0.00022183112741913646
          ],
          [
            "China",
            0.00022075943707022816
          ],
          [
            "Taiwan",
            0.00021869500051252544
          ],
          [
            "Tunisia",
            0.0002172092645196244
          ],
          [
            "South Georgia Islands",
            0.00021184884826652706
          ],
          [
            "Palau",
            0.0002070775954052806
          ],
          [
            "Eritrea",
            0.00020605830650310963
          ],
          [
            "Uzbekistan",
            0.00019545562099665403
          ],
          [
            "South Korea",
            0.00019461564079392701
          ],
          [
            "Italy",
            0.0001919345377245918
          ],
          [
            "Puerto Rico",
            0.00018834788352251053
          ],
          [
            "Guatemala",
            0.00018757421639747918
          ],
          [
            "Mongolia",
            0.00017863228276837617
          ],
          [
            "Netherlands Antilles",
            0.0001754159457050264
          ],
          [
            "Chad",
            0.00016755075193941593
          ],
          [
            "Timor-Leste",
            0.0001673734950600192
          ],
          [
            "Trinidad and Tobago",
            0.00016628873709123582
          ],
          [
            "Oman",
            0.00016257178504019976
          ],
          [
            "Central African Republic",
            0.00015870256174821407
          ],
          [
            "Ghana",
            0.00015505135525017977
          ],
          [
            "Kuwait",
            0.00014678511070087552
          ],
          [
            "Isle of Man",
            0.00014645513147115707
          ],
          [
            "Malaysia",
            0.00014383131929207593
          ],
          [
            "Laos",
            0.00014259364979807287
          ],
          [
            "Georgia",
            0.0001354041596641764
          ],
          [
            "Philippines",
            0.00012939221051055938
          ],
          [
            "Mexico",
            0.00012816922389902174
          ],
          [
            "United States of America",
            0.00012739880185108632
          ],
          [
            "Cyprus",
            0.0001259349810425192
          ],
          [
            "Western Sahara",
            0.00011382421507732943
          ],
          [
            "Pakistan",
            0.00010836042201844975
          ],
          [
            "Haiti",
            0.00010661108535714447
          ],
          [
            "Russia",
            0.00010597064829198644
          ],
          [
            "Greece",
            0.00010477760952198878
          ],
          [
            "Hong Kong",
            0.00010267188918078318
          ],
          [
            "Madagascar",
            9.480377048021182e-05
          ],
          [
            "Tajikistan",
            9.345832222606987e-05
          ],
          [
            "Indonesia",
            9.300327656092122e-05
          ],
          [
            "Luxembourg",
            9.061522723641247e-05
          ],
          [
            "Netherlands",
            8.204489131458104e-05
          ],
          [
            "Guinea-Bissau",
            8.014722698135301e-05
          ],
          [
            "Morocco",
            7.701981667196378e-05
          ],
          [
            "Madeira Islands",
            7.474890298908576e-05
          ],
          [
            "New Caledonia",
            7.249072950799018e-05
          ],
          [
            "Austria",
            6.839851994300261e-05
          ],
          [
            "Kyrgyzstan",
            6.730998575221747e-05
          ],
          [
            "Djibouti",
            6.352162745315582e-05
          ],
          [
            "Falkland Islands",
            6.234673492144793e-05
          ],
          [
            "Ireland",
            6.016412953613326e-05
          ],
          [
            "Cuba",
            5.9027915995102376e-05
          ],
          [
            "Nepal",
            4.565475319395773e-05
          ],
          [
            "Panama",
            4.5412274630507454e-05
          ],
          [
            "Turks and Caicos Islands",
            4.3997628381475806e-05
          ],
          [
            "Jamaica",
            3.742665285244584e-05
          ],
          [
            "Lebanon",
            3.7352481740526855e-05
          ],
          [
            "Samoa",
            2.8454343919293024e-05
          ],
          [
            "Denmark",
            2.085877895297017e-05
          ],
          [
            "Gambia",
            1.2430497918103356e-05
          ],
          [
            "Kiribati",
            9.679182767285965e-06
          ]
        ]
      },
      "geometry": {
        "type": "MultiLineString",
        "coordinates": [
          [
            [
              2.0,
              53.063829787234
            ],
            [
              3.276595744680833,
              53.702127659574444
            ],
            [
              4.234042553191472,
              54.34042553191489
            ],
            [
              5.191489361702111,
              54.65957446808511
            ],
            [
              6.468085106382972,
              55.2978723404255
            ],
            [
              7.425531914893611,
              55.61702127659572
            ],
            [
              8.38297872340425,
              56.25531914893617
            ],
            [
              9.340425531914889,
              56.57446808510633
            ],
            [
              10.297872340425528,
              57.21276595744678
            ],
            [
              11.255319148936167,
              57.531914893617
            ],
            [
              12.212765957446805,
              58.170212765957444
            ],
            [
              13.80851063829786,
              58.170212765957444
            ],
            [
              14.7659574468085,
              58.48936170212767
            ],
            [
              15.723404255319139,
              59.127659574468055
            ],
            [
              17.0,
              59.44680851063828
            ],
            [
              18.595744680851055,
              59.44680851063828
            ],
            [
              19.87234042553189,
              59.44680851063828
            ],
            [
              20.829787234042556,
              59.127659574468055
            ],
            [
              21.468085106382972,
              58.170212765957444
            ],
            [
              21.468085106382972,
              56.893617021276555
            ],
            [
              21.787234042553166,
              55.2978723404255
            ],
            [
              21.787234042553166,
              54.021276595744666
            ],
            [
              22.42553191489361,
              52.10638297872339
            ],
            [
              22.744680851063833,
              51.14893617021278
            ],
            [
              23.702127659574444,
              50.19148936170211
            ],
            [
              24.65957446808511,
              49.553191489361666
            ],
            [
              25.61702127659572,
              49.23404255319144
            ],
            [
              27.212765957446777,
              48.595744680851055
            ],
            [
              28.489361702127667,
              48.595744680851055
            ],
            [
              30.085106382978722,
              48.595744680851055
            ],
            [
              31.361702127659555,
              48.595744680851055
            ],
            [
              32.95744680851061,
              48.595744680851055
            ],
            [
              34.23404255319147,
              48.595744680851055
            ],
            [
              35.829787234042556,
              48.595744680851055
            ],
            [
              37.10638297872339,
              48.595744680851055
            ],
            [
              38.06382978723403,
              48.91489361702128
            ],
            [
              39.021276595744666,
              49.553191489361666
            ],
            [
              39.65957446808511,
              50.51063829787233
            ],
            [
              39.978723404255305,
              51.468085106382944
            ],
            [
              40.936170212765944,
              52.42553191489361
            ],
            [
              41.89361702127658,
              53.38297872340422
            ],
            [
              42.85106382978722,
              54.34042553191489
            ],
            [
              43.80851063829786,
              54.65957446808511
            ],
            [
              44.44680851063828,
              55.61702127659572
            ],
            [
              45.404255319148945,
              56.25531914893617
            ],
            [
              45.72340425531914,
              57.21276595744678
            ],
            [
              47.31914893617022,
              57.531914893617
            ],
            [
              48.595744680851055,
              57.531914893617
            ],
            [
              50.19148936170211,
              57.531914893617
            ],
            [
              51.46808510638297,
              57.531914893617
            ],
            [
              52.42553191489361,
              57.21276595744678
            ],
            [
              54.021276595744666,
              56.893617021276555
            ],
            [
              55.29787234042553,
              56.893617021276555
            ],
            [
              56.25531914893617,
              56.25531914893617
            ],
            [
              57.21276595744678,
              55.936170212765944
            ],
            [
              57.85106382978722,
              54.978723404255334
            ],
            [
              58.170212765957444,
              54.021276595744666
            ],
            [
              59.127659574468055,
              53.38297872340422
            ],
            [
              60.08510638297872,
              52.42553191489361
            ],
            [
              61.04255319148933,
              52.10638297872339
            ],
            [
              62.0,
              51.468085106382944
            ],
            [
              61.361702127659555,
              50.51063829787233
            ],
            [
              60.72340425531914,
              49.553191489361666
            ],
            [
              60.72340425531914,
              48.27659574468083
            ],
            [
              60.72340425531914,
              46.68085106382978
            ],
            [
              60.72340425531914,
              45.40425531914889
            ],
            [
              61.04255319148933,
              44.44680851063828
            ],
            [
              61.04255319148933,
              42.85106382978722
            ],
            [
              61.04255319148933,
              40.936170212765944
            ],
            [
              61.04255319148933,
              39.65957446808511
            ],
            [
              61.04255319148933,
              38.063829787234
            ],
            [
              61.04255319148933,
              36.787234042553166
            ],
            [
              61.04255319148933,
              35.19148936170211
            ],
            [
              60.72340425531914,
              34.23404255319144
            ],
            [
              60.72340425531914,
              32.95744680851061
            ],
            [
              60.72340425531914,
              31.361702127659555
            ],
            [
              60.72340425531914,
              30.085106382978722
            ],
            [
              60.72340425531914,
              28.170212765957444
            ],
            [
              60.72340425531914,
              26.255319148936167
            ],
            [
              60.72340425531914,
              24.65957446808511
            ],
            [
              60.404255319148945,
              22.744680851063777
            ],
            [
              60.404255319148945,
              21.468085106382944
            ],
            [
              60.404255319148945,
              19.87234042553189
            ],
            [
              60.404255319148945,
              17.95744680851061
            ],
            [
              60.404255319148945,
              16.680851063829778
            ],
            [
              60.404255319148945,
              15.085106382978665
            ],
            [
              60.404255319148945,
              13.170212765957444
            ],
            [
              60.404255319148945,
              11.893617021276555
            ],
            [
              60.404255319148945,
              10.2978723404255
            ],
            [
              59.7659574468085,
              9.340425531914889
            ],
            [
              59.7659574468085,
              8.063829787233999
            ],
            [
              59.44680851063828,
              7.1063829787233885
            ],
            [
              58.80851063829786,
              6.148936170212778
            ],
            [
              58.48936170212767,
              5.191489361702111
            ],
            [
              57.531914893617,
              4.553191489361666
            ],
            [
              56.89361702127658,
              5.510638297872333
            ],
            [
              56.57446808510639,
              6.4680851063830005
            ],
            [
              55.936170212765944,
              7.425531914893611
            ],
            [
              54.978723404255305,
              7.744680851063777
            ],
            [
              54.021276595744666,
              8.382978723404221
            ],
            [
              53.06382978723403,
              8.702127659574444
            ],
            [
              52.10638297872339,
              9.340425531914889
            ],
            [
              50.829787234042556,
              9.340425531914889
            ],
            [
              49.87234042553189,
              9.659574468085111
            ],
            [
              48.91489361702128,
              10.2978723404255
            ],
            [
              47.95744680851061,
              10.617021276595722
            ],
            [
              46.361702127659555,
              11.25531914893611
            ],
            [
              45.404255319148945,
              11.574468085106332
            ],
            [
              44.44680851063828,
              12.212765957446777
            ],
            [
              43.170212765957444,
              12.531914893617
            ],
            [
              41.57446808510639,
              13.170212765957444
            ],
            [
              39.65957446808511,
              13.489361702127667
            ],
            [
              38.38297872340425,
              13.489361702127667
            ],
            [
              36.787234042553166,
              14.127659574468055
            ],
            [
              35.51063829787233,
              14.127659574468055
            ],
            [
              33.91489361702128,
              14.127659574468055
            ],
            [
              32.63829787234042,
              14.446808510638277
            ],
            [
              31.042553191489333,
              14.446808510638277
            ],
            [
              30.085106382978722,
              15.085106382978665
            ],
            [
              28.80851063829786,
              15.404255319148888
            ],
            [
              27.851063829787222,
              15.085106382978665
            ],
            [
              26.893617021276583,
              14.127659574468055
            ],
            [
              26.255319148936167,
              13.170212765957444
            ],
            [
              25.297872340425528,
              12.212765957446777
            ],
            [
              24.34042553191489,
              11.893617021276555
            ],
            [
              23.063829787234027,
              11.893617021276555
            ],
            [
              21.468085106382972,
              11.893617021276555
            ],
            [
              20.19148936170211,
              11.893617021276555
            ],
            [
              19.234042553191472,
              12.212765957446777
            ],
            [
              17.638297872340416,
              12.212765957446777
            ],
            [
              17.319148936170194,
              13.170212765957444
            ],
            [
              16.680851063829778,
              14.127659574468055
            ],
            [
              16.361702127659555,
              15.085106382978665
            ],
            [
              15.404255319148916,
              16.042553191489333
            ],
            [
              14.7659574468085,
              17.0
            ],
            [
              13.80851063829786,
              17.319148936170222
            ],
            [
              13.489361702127638,
              18.276595744680833
            ],
            [
              12.531914893617,
              19.234042553191443
            ],
            [
              11.893617021276583,
              20.19148936170211
            ],
            [
              10.936170212765944,
              20.829787234042556
            ],
            [
              10.617021276595722,
              21.787234042553166
            ],
            [
              9.978723404255305,
              22.744680851063777
            ],
            [
              9.659574468085083,
              23.702127659574444
            ],
            [
              9.021276595744666,
              24.65957446808511
            ],
            [
              8.702127659574444,
              25.61702127659572
            ],
            [
              8.063829787234027,
              26.574468085106332
            ],
            [
              7.744680851063833,
              27.531914893617
            ],
            [
              7.1063829787233885,
              28.489361702127667
            ],
            [
              6.787234042553166,
              29.446808510638277
            ],
            [
              6.14893617021275,
              30.404255319148888
            ],
            [
              5.829787234042556,
              31.361702127659555
            ],
            [
              5.191489361702111,
              32.31914893617022
            ],
            [
              5.191489361702111,
              33.595744680851055
            ],
            [
              5.191489361702111,
              35.19148936170211
            ],
            [
              5.191489361702111,
              36.468085106382944
            ],
            [
              5.191489361702111,
              38.063829787234
            ],
            [
              4.872340425531888,
              39.021276595744666
            ],
            [
              4.234042553191472,
              39.978723404255334
            ],
            [
              4.234042553191472,
              41.25531914893617
            ],
            [
              4.234042553191472,
              42.85106382978722
            ],
            [
              4.234042553191472,
              44.127659574468055
            ],
            [
              4.234042553191472,
              45.72340425531911
            ],
            [
              4.553191489361694,
              47.0
            ],
            [
              4.553191489361694,
              48.595744680851055
            ],
            [
              4.553191489361694,
              49.87234042553189
            ],
            [
              4.553191489361694,
              51.468085106382944
            ],
            [
              4.553191489361694,
              52.74468085106383
            ]
          ]
        ]
      }
    }
  ]
}