{
  "type": "FeatureCollection",
  "crs": {
    "type": "name",
    "properties": {
      "name": "urn:ogc:def:crs:OGC:1.3:CRS84"
    }
  },
  "features": [
    {
      "type": "Feature",
      "properties": {
        "timestamp": "2026-06-21T11:23:41.207563",
        "country_name": "Lithuania",
        "author": "",
        "author_id": "9fffe021-52bc-4015-96a9-4a87ca6b5443",
        "validated": false,
        "ranking": [
          [
            "Lithuania",
            0.04475675895810127
          ],
          [
            "Egypt",
            0.04246862605214119
          ],
          [
            "Suriname",
            0.03894977644085884
          ],
          [
            "Uganda",
            0.03153470158576965
          ],
          [
            "Iran",
            0.030093921348452568
          ],
          [
            "France",
            0.028201958164572716
          ],
          [
            "Burundi",
            0.028115322813391685
          ],
          [
            "Martinique",
            0.025583090260624886
          ],
          [
            "Angola",
            0.025310756638646126
          ],
          [
            "Sri Lanka",
            0.02499184012413025
          ],
          [
            "Cape Verde",
            0.0234117042273283
          ],
          [
            "Côte d'Ivoire",
            0.020536288619041443
          ],
          [
            "Peru",
            0.02002757415175438
          ],
          [
            "Bosnia & Herzegovina",
            0.019005538895726204
          ],
          [
            "Sierra Leone",
            0.018989484757184982
          ],
          [
            "Algeria",
            0.018351152539253235
          ],
          [
            "Saudi Arabia",
            0.01805792935192585
          ],
          [
            "Brazil",
            0.017924783751368523
          ],
          [
            "Namibia",
            0.017659546807408333
          ],
          [
            "Eswatini",
            0.01614324003458023
          ],
          [
            "Venezuela",
            0.014297782443463802
          ],
          [
            "Serbia",
            0.013666373677551746
          ],
          [
            "Uruguay",
            0.01352192647755146
          ],
          [
            "Spain",
            0.013068881817162037
          ],
          [
            "South Georgia Islands",
            0.012576085515320301
          ],
          [
            "Gabon",
            0.012315893545746803
          ],
          [
            "Costa Rica",
            0.012236353941261768
          ],
          [
            "Reunion",
            0.01006673276424408
          ],
          [
            "Poland",
            0.009999943897128105
          ],
          [
            "Nicaragua",
            0.009999601170420647
          ],
          [
            "Guyana",
            0.009988583624362946
          ],
          [
            "Belarus",
            0.009375641122460365
          ],
          [
            "Guadeloupe",
            0.009274456650018692
          ],
          [
            "Mauritania",
            0.00925946794450283
          ],
          [
            "Sudan",
            0.00921165943145752
          ],
          [
            "North Macedonia",
            0.00847367662936449
          ],
          [
            "Syria",
            0.008111697621643543
          ],
          [
            "Dominica",
            0.008103501051664352
          ],
          [
            "Romania",
            0.008103176951408386
          ],
          [
            "Nigeria",
            0.007896632887423038
          ],
          [
            "Belgium",
            0.007645114790648222
          ],
          [
            "Bangladesh",
            0.007358407601714134
          ],
          [
            "Germany",
            0.0072861891239881516
          ],
          [
            "Guinea",
            0.007131809368729591
          ],
          [
            "Heard and McDonald Islands",
            0.0068501741625368595
          ],
          [
            "Bahrain",
            0.006770044099539518
          ],
          [
            "Cambodia",
            0.006640328094363213
          ],
          [
            "Lesotho",
            0.00646210415288806
          ],
          [
            "Zimbabwe",
            0.005842279642820358
          ],
          [
            "Svalbard",
            0.005528448149561882
          ],
          [
            "Iraq",
            0.005462935194373131
          ],
          [
            "Greenland",
            0.005411786492913961
          ],
          [
            "Laos",
            0.005285535007715225
          ],
          [
            "French Guiana",
            0.005015586502850056
          ],
          [
            "Bahamas",
            0.00495928106829524
          ],
          [
            "Kenya",
            0.00492694228887558
          ],
          [
            "Benin",
            0.004731267690658569
          ],
          [
            "Qatar",
            0.0044902353547513485
          ],
          [
            "Vanuatu",
            0.004261230584233999
          ],
          [
            "Croatia",
            0.004246131516993046
          ],
          [
            "South Korea",
            0.004130118060857058
          ],
          [
            "Comoros",
            0.004091253038495779
          ],
          [
            "Barbados",
            0.004084422718733549
          ],
          [
            "Australia",
            0.004040211904793978
          ],
          [
            "Italy",
            0.004003849811851978
          ],
          [
            "Colombia",
            0.003924536053091288
          ],
          [
            "Guatemala",
            0.0038401009514927864
          ],
          [
            "Tanzania",
            0.0037380962166935205
          ],
          [
            "Ecuador",
            0.003680219640955329
          ],
          [
            "Moldova",
            0.0035264298785477877
          ],
          [
            "Ethiopia",
            0.003463741159066558
          ],
          [
            "Mozambique",
            0.0030611283145844936
          ],
          [
            "DR Congo",
            0.0030374396592378616
          ],
          [
            "United States of America",
            0.0029850148130208254
          ],
          [
            "United States Virgin Islands",
            0.002877781866118312
          ],
          [
            "Iceland",
            0.002857778687030077
          ],
          [
            "Ghana",
            0.002820689231157303
          ],
          [
            "Turkmenistan",
            0.0027472872752696276
          ],
          [
            "Botswana",
            0.0026634326204657555
          ],
          [
            "Faroe Islands",
            0.0026611173525452614
          ],
          [
            "Rwanda",
            0.0026190211065113544
          ],
          [
            "Djibouti",
            0.0024964006152004004
          ],
          [
            "Liberia",
            0.002417126437649131
          ],
          [
            "India",
            0.0023523459676653147
          ],
          [
            "Ukraine",
            0.0022994366008788347
          ],
          [
            "Bolivia",
            0.002151268534362316
          ],
          [
            "Mexico",
            0.0021343803964555264
          ],
          [
            "Belize",
            0.0020714960992336273
          ],
          [
            "Albania",
            0.0020270482636988163
          ],
          [
            "Libya",
            0.0019104421371594071
          ],
          [
            "Togo",
            0.0019037092570215464
          ],
          [
            "Azerbaijan",
            0.0018797690281644464
          ],
          [
            "Antigua & Barbuda",
            0.0018111971439793706
          ],
          [
            "Kuwait",
            0.0018088323995471
          ],
          [
            "Greece",
            0.0017643645405769348
          ],
          [
            "Saint Lucia",
            0.0017553652869537473
          ],
          [
            "Luxembourg",
            0.0017499965615570545
          ],
          [
            "Turks and Caicos Islands",
            0.0016811522655189037
          ],
          [
            "Armenia",
            0.0016702278517186642
          ],
          [
            "Malawi",
            0.0016600044909864664
          ],
          [
            "Chad",
            0.0016536934999749064
          ],
          [
            "Vietnam",
            0.001512956921942532
          ],
          [
            "Paraguay",
            0.0014506126753985882
          ],
          [
            "Estonia",
            0.0014324989169836044
          ],
          [
            "Solomon Islands",
            0.0014274421846494079
          ],
          [
            "Uzbekistan",
            0.0013994378969073296
          ],
          [
            "Mayotte",
            0.0013971521984785795
          ],
          [
            "Jordan",
            0.0013501148205250502
          ],
          [
            "Tunisia",
            0.0013075432507321239
          ],
          [
            "Somalia",
            0.001263136975467205
          ],
          [
            "Thailand",
            0.0012224497040733695
          ],
          [
            "South Africa",
            0.001157643855549395
          ],
          [
            "Czech Republic",
            0.0011368347331881523
          ],
          [
            "West Bank",
            0.0011368239065632224
          ],
          [
            "Myanmar",
            0.0010635199723765254
          ],
          [
            "Montenegro",
            0.0009793794015422463
          ],
          [
            "South Sudan",
            0.0009583375649526715
          ],
          [
            "Tajikistan",
            0.0009472176898270845
          ],
          [
            "Congo",
            0.0008546764147467911
          ],
          [
            "Switzerland",
            0.0008453089976683259
          ],
          [
            "Ireland",
            0.000822602363768965
          ],
          [
            "Argentina",
            0.0008206121856346726
          ],
          [
            "Eritrea",
            0.0008171821245923638
          ],
          [
            "Burkina Faso",
            0.0008123754523694515
          ],
          [
            "Netherlands Antilles",
            0.000801274087280035
          ],
          [
            "Bulgaria",
            0.0007946125115267932
          ],
          [
            "Sao Tome and Principe",
            0.000789432437159121
          ],
          [
            "Cuba",
            0.0007833279087208211
          ],
          [
            "Finland",
            0.0007726292824372649
          ],
          [
            "Georgia",
            0.0007563338149338961
          ],
          [
            "Equatorial Guinea",
            0.0006950325332581997
          ],
          [
            "Turkey",
            0.0006932835094630718
          ],
          [
            "Portugal",
            0.0006871959194540977
          ],
          [
            "New Caledonia",
            0.0006761420518159866
          ],
          [
            "Malaysia",
            0.0006612078286707401
          ],
          [
            "Mali",
            0.0006598471663892269
          ],
          [
            "Canada",
            0.0006511231185868382
          ],
          [
            "El Salvador",
            0.0006070223171263933
          ],
          [
            "Nepal",
            0.0005877584335394204
          ],
          [
            "Norway",
            0.000562319066375494
          ],
          [
            "Samoa",
            0.0005602389574050903
          ],
          [
            "Latvia",
            0.0005580622237175703
          ],
          [
            "Hong Kong",
            0.0005528382025659084
          ],
          [
            "Senegal",
            0.000551890057977289
          ],
          [
            "Falkland Islands",
            0.0005325931124389172
          ],
          [
            "United Arab Emirates",
            0.0004933032905682921
          ],
          [
            "Netherlands",
            0.00048790316213853657
          ],
          [
            "Zambia",
            0.0004840342153329402
          ],
          [
            "Papua New Guinea",
            0.0004787702637258917
          ],
          [
            "Yemen",
            0.0004783366748597473
          ],
          [
            "Fiji",
            0.0004767618083860725
          ],
          [
            "Russia",
            0.00046498540905304253
          ],
          [
            "Bhutan",
            0.00046126035158522427
          ],
          [
            "New Zealand",
            0.0004436963645275682
          ],
          [
            "Dominican Republic",
            0.00043884763726964593
          ],
          [
            "Guinea-Bissau",
            0.0004276005201973021
          ],
          [
            "United Kingdom",
            0.00040828943019732833
          ],
          [
            "Mongolia",
            0.00040820063441060483
          ],
          [
            "Kazakhstan",
            0.0004063518135808408
          ],
          [
            "Chile",
            0.000385527586331591
          ],
          [
            "Slovakia",
            0.00037201063241809607
          ],
          [
            "Niger",
            0.0003681242815218866
          ],
          [
            "Isle of Man",
            0.00035140063846483827
          ],
          [
            "Sweden",
            0.0003227223933208734
          ],
          [
            "Western Sahara",
            0.00030566807254217565
          ],
          [
            "Taiwan",
            0.00030097851413302124
          ],
          [
            "Puerto Rico",
            0.00029100594110786915
          ],
          [
            "Jamaica",
            0.0002881878172047436
          ],
          [
            "Philippines",
            0.00026855806936509907
          ],
          [
            "Honduras",
            0.0002669794193934649
          ],
          [
            "Indonesia",
            0.0002538271655794233
          ],
          [
            "Kyrgyzstan",
            0.0002522816648706794
          ],
          [
            "China",
            0.00024310374283231795
          ],
          [
            "Timor-Leste",
            0.00024193113495130092
          ],
          [
            "Hungary",
            0.0002418970107100904
          ],
          [
            "Israel",
            0.00023768251412548125
          ],
          [
            "Guam",
            0.00022153601457830518
          ],
          [
            "Cameroon",
            0.00020290512475185096
          ],
          [
            "Brunei",
            0.00019194005290046334
          ],
          [
            "Madeira Islands",
            0.00018516065028961748
          ],
          [
            "Trinidad and Tobago",
            0.0001671623031143099
          ],
          [
            "Panama",
            0.00016635027714073658
          ],
          [
            "Cyprus",
            0.0001605760771781206
          ],
          [
            "Japan",
            0.0001415266451658681
          ],
          [
            "Denmark",
            0.0001392766716890037
          ],
          [
            "Afghanistan",
            0.00013602724357042462
          ],
          [
            "Oman",
            0.00012056242121616378
          ],
          [
            "Central African Republic",
            0.00010913201549556106
          ],
          [
            "Slovenia",
            9.572793351253495e-05
          ],
          [
            "North Korea",
            9.124932694248855e-05
          ],
          [
            "Lebanon",
            8.924867142923176e-05
          ],
          [
            "Kiribati",
            7.70218757679686e-05
          ],
          [
            "Madagascar",
            6.300531094893813e-05
          ],
          [
            "Gambia",
            6.019925785949454e-05
          ],
          [
            "Morocco",
            4.720428114524111e-05
          ],
          [
            "Pakistan",
            4.000837725470774e-05
          ],
          [
            "Austria",
            3.0116443667793646e-05
          ],
          [
            "Palau",
            2.377422606514301e-05
          ],
          [
            "Haiti",
            2.019139901676681e-05
          ]
        ]
      },
      "geometry": {
        "type": "MultiLineString",
        "coordinates": [
          [
            [
              2.857142857142861,
              50.00000000000003
            ],
            [
              3.48051948051949,
              50.00000000000003
            ],
            [
              5.038961038961048,
              50.00000000000003
            ],
            [
              7.376623376623371,
              50.00000000000003
            ],
            [
              9.090909090909093,
              50.00000000000003
            ],
            [
              9.714285714285722,
              50.00000000000003
            ],
            [
              10.337662337662323,
              50.155844155844164
            ],
            [
              10.961038961038952,
              50.155844155844164
            ],
            [
              11.740259740259745,
              50.155844155844164
            ],
            [
              13.298701298701303,
              50.155844155844164
            ],
            [
              14.077922077922068,
              50.31168831168833
            ],
            [
              14.701298701298697,
              50.31168831168833
            ],
            [
              16.72727272727272,
              49.844155844155864
            ],
            [
              18.285714285714278,
              49.844155844155864
            ],
            [
              19.06493506493507,
              49.844155844155864
            ],
            [
              19.532467532467535,
              49.6883116883117
            ],
            [
              20.467532467532465,
              48.909090909090935
            ],
            [
              21.090909090909093,
              48.44155844155847
            ],
            [
              21.714285714285722,
              47.974025974026006
            ],
            [
              21.87012987012986,
              47.50649350649351
            ],
            [
              22.337662337662323,
              46.883116883116884
            ],
            [
              22.493506493506487,
              46.10389610389612
            ],
            [
              22.64935064935065,
              45.48051948051949
            ],
            [
              22.64935064935065,
              44.85714285714289
            ],
            [
              21.87012987012986,
              44.23376623376626
            ],
            [
              21.246753246753258,
              44.077922077922096
            ],
            [
              20.3116883116883,
              44.077922077922096
            ],
            [
              19.6883116883117,
              44.077922077922096
            ],
            [
              19.220779220779207,
              43.92207792207793
            ],
            [
              19.532467532467535,
              42.987012987013
            ],
            [
              20.0,
              41.740259740259745
            ],
            [
              20.779220779220793,
              40.64935064935065
            ],
            [
              21.246753246753258,
              40.33766233766235
            ],
            [
              20.93506493506493,
              39.71428571428572
            ],
            [
              19.220779220779207,
              39.09090909090912
            ],
            [
              17.974025974025977,
              38.62337662337663
            ],
            [
              17.35064935064935,
              38.46753246753249
            ],
            [
              18.441558441558442,
              38.31168831168833
            ],
            [
              19.06493506493507,
              38.00000000000003
            ],
            [
              19.532467532467535,
              37.6883116883117
            ],
            [
              20.155844155844164,
              37.3766233766234
            ],
            [
              20.155844155844164,
              36.12987012987014
            ],
            [
              19.532467532467535,
              35.50649350649351
            ],
            [
              19.06493506493507,
              34.88311688311691
            ],
            [
              19.844155844155836,
              34.41558441558442
            ],
            [
              20.3116883116883,
              34.10389610389612
            ],
            [
              20.3116883116883,
              33.48051948051949
            ],
            [
              20.0,
              33.012987012987026
            ],
            [
              19.844155844155836,
              32.54545454545456
            ],
            [
              19.37662337662337,
              31.610389610389632
            ],
            [
              19.220779220779207,
              31.142857142857167
            ],
            [
              19.06493506493507,
              30.207792207792238
            ],
            [
              18.909090909090907,
              28.64935064935065
            ],
            [
              18.753246753246742,
              28.181818181818187
            ],
            [
              18.753246753246742,
              27.246753246753258
            ],
            [
              18.909090909090907,
              26.779220779220793
            ],
            [
              18.909090909090907,
              26.155844155844164
            ],
            [
              18.909090909090907,
              25.220779220779235
            ],
            [
              18.909090909090907,
              24.285714285714306
            ],
            [
              18.909090909090907,
              23.662337662337677
            ],
            [
              18.909090909090907,
              22.883116883116884
            ],
            [
              18.753246753246742,
              22.41558441558442
            ],
            [
              18.597402597402606,
              21.16883116883119
            ],
            [
              18.597402597402606,
              20.23376623376626
            ],
            [
              18.597402597402606,
              19.142857142857167
            ],
            [
              18.597402597402606,
              18.51948051948054
            ],
            [
              18.753246753246742,
              18.051948051948074
            ],
            [
              18.909090909090907,
              17.58441558441561
            ],
            [
              19.06493506493507,
              16.805194805194816
            ],
            [
              19.06493506493507,
              16.02597402597405
            ],
            [
              19.220779220779207,
              14.311688311688329
            ],
            [
              19.220779220779207,
              12.44155844155847
            ],
            [
              19.220779220779207,
              11.506493506493541
            ],
            [
              19.220779220779207,
              10.259740259740283
            ],
            [
              19.37662337662337,
              9.48051948051949
            ],
            [
              19.532467532467535,
              8.85714285714289
            ],
            [
              19.6883116883117,
              8.23376623376626
            ],
            [
              19.6883116883117,
              7.298701298701303
            ],
            [
              19.844155844155836,
              5.896103896103909
            ],
            [
              20.0,
              5.2727272727272805
            ],
            [
              20.155844155844164,
              4.649350649350652
            ],
            [
              20.3116883116883,
              4.025974025974051
            ],
            [
              20.779220779220793,
              3.5584415584415865
            ],
            [
              20.93506493506493,
              3.090909090909122
            ],
            [
              21.402597402597394,
              2.7792207792207932
            ],
            [
              22.181818181818187,
              2.6233766233766573
            ],
            [
              22.961038961038952,
              2.6233766233766573
            ],
            [
              23.58441558441558,
              3.090909090909122
            ],
            [
              24.051948051948045,
              3.246753246753258
            ],
            [
              24.675324675324674,
              3.402597402597422
            ],
            [
              25.14285714285714,
              3.7142857142857224
            ],
            [
              25.610389610389603,
              3.8701298701298867
            ],
            [
              26.233766233766232,
              3.402597402597422
            ],
            [
              26.701298701298697,
              3.246753246753258
            ],
            [
              27.948051948051955,
              3.246753246753258
            ],
            [
              29.662337662337677,
              3.7142857142857224
            ],
            [
              31.532467532467535,
              4.025974025974051
            ],
            [
              33.55844155844156,
              4.181818181818187
            ],
            [
              36.20779220779221,
              3.8701298701298867
            ],
            [
              36.987012987012974,
              3.8701298701298867
            ],
            [
              37.6103896103896,
              3.402597402597422
            ],
            [
              38.07792207792207,
              3.246753246753258
            ],
            [
              38.85714285714286,
              3.246753246753258
            ],
            [
              39.636363636363626,
              3.402597402597422
            ],
            [
              40.259740259740255,
              3.7142857142857224
            ],
            [
              40.72727272727272,
              3.8701298701298867
            ],
            [
              41.35064935064935,
              3.8701298701298867
            ],
            [
              42.12987012987014,
              3.8701298701298867
            ],
            [
              42.597402597402606,
              3.402597402597422
            ],
            [
              43.06493506493507,
              3.246753246753258
            ],
            [
              42.90909090909091,
              2.7792207792207932
            ],
            [
              43.22077922077921,
              2.3116883116883287
            ],
            [
              43.68831168831167,
              2.0
            ],
            [
              44.155844155844164,
              2.1558441558441643
            ],
            [
              44.467532467532465,
              2.7792207792207932
            ],
            [
              44.467532467532465,
              3.402597402597422
            ],
            [
              44.93506493506493,
              3.7142857142857224
            ],
            [
              45.55844155844156,
              3.7142857142857224
            ],
            [
              46.80519480519479,
              3.7142857142857224
            ],
            [
              48.83116883116884,
              4.181818181818187
            ],
            [
              48.987012987012974,
              4.805194805194816
            ],
            [
              48.83116883116884,
              5.2727272727272805
            ],
            [
              49.922077922077904,
              6.051948051948074
            ],
            [
              51.16883116883116,
              6.8311688311688386
            ],
            [
              52.10389610389609,
              7.298701298701303
            ],
            [
              52.571428571428555,
              6.987012987013003
            ],
            [
              53.03896103896102,
              6.675324675324703
            ],
            [
              53.19480519480521,
              8.077922077922096
            ],
            [
              53.35064935064935,
              8.85714285714289
            ],
            [
              53.506493506493484,
              9.636363636363654
            ],
            [
              53.66233766233768,
              10.103896103896119
            ],
            [
              53.66233766233768,
              10.883116883116884
            ],
            [
              53.81818181818181,
              11.350649350649377
            ],
            [
              54.44155844155841,
              11.506493506493541
            ],
            [
              54.90909090909088,
              11.662337662337677
            ],
            [
              55.22077922077921,
              12.129870129870142
            ],
            [
              55.532467532467535,
              12.597402597402606
            ],
            [
              55.68831168831167,
              13.220779220779235
            ],
            [
              56.0,
              13.6883116883117
            ],
            [
              56.0,
              14.311688311688329
            ],
            [
              56.0,
              15.090909090909122
            ],
            [
              56.0,
              15.870129870129887
            ],
            [
              56.0,
              16.493506493506516
            ],
            [
              56.0,
              17.428571428571445
            ],
            [
              56.0,
              18.051948051948074
            ],
            [
              55.3766233766234,
              17.89610389610391
            ],
            [
              53.97402597402595,
              19.454545454545467
            ],
            [
              53.03896103896102,
              20.701298701298725
            ],
            [
              52.25974025974028,
              22.10389610389612
            ],
            [
              51.948051948051955,
              22.571428571428584
            ],
            [
              51.948051948051955,
              23.194805194805213
            ],
            [
              52.10389610389609,
              24.44155844155847
            ],
            [
              52.25974025974028,
              25.844155844155864
            ],
            [
              52.41558441558442,
              28.96103896103898
            ],
            [
              52.41558441558442,
              29.740259740259773
            ],
            [
              52.41558441558442,
              30.83116883116884
            ],
            [
              52.25974025974028,
              31.298701298701303
            ],
            [
              52.10389610389609,
              31.922077922077932
            ],
            [
              51.948051948051955,
              33.012987012987026
            ],
            [
              51.79220779220782,
              33.948051948051955
            ],
            [
              51.636363636363626,
              34.88311688311691
            ],
            [
              51.324675324675354,
              36.12987012987014
            ],
            [
              51.324675324675354,
              36.909090909090935
            ],
            [
              51.324675324675354,
              37.844155844155864
            ],
            [
              51.948051948051955,
              37.844155844155864
            ],
            [
              53.35064935064935,
              37.220779220779235
            ],
            [
              54.28571428571428,
              36.75324675324677
            ],
            [
              55.3766233766234,
              36.44155844155847
            ],
            [
              56.0,
              36.12987012987014
            ],
            [
              56.6233766233766,
              35.81818181818184
            ],
            [
              57.402597402597394,
              35.66233766233768
            ],
            [
              58.18181818181819,
              35.66233766233768
            ],
            [
              58.96103896103898,
              35.81818181818184
            ],
            [
              59.27272727272725,
              36.44155844155847
            ],
            [
              59.58441558441558,
              36.909090909090935
            ],
            [
              59.89610389610391,
              37.6883116883117
            ],
            [
              60.20779220779218,
              38.46753246753249
            ],
            [
              60.83116883116884,
              39.55844155844159
            ],
            [
              61.14285714285711,
              40.493506493506516
            ],
            [
              61.14285714285711,
              41.27272727272728
            ],
            [
              60.987012987012974,
              42.051948051948074
            ],
            [
              60.675324675324646,
              42.83116883116884
            ],
            [
              60.363636363636374,
              43.61038961038963
            ],
            [
              60.20779220779218,
              44.077922077922096
            ],
            [
              59.74025974025972,
              43.92207792207793
            ],
            [
              59.27272727272725,
              43.61038961038963
            ],
            [
              57.87012987012986,
              42.987012987013
            ],
            [
              57.24675324675326,
              42.987012987013
            ],
            [
              56.467532467532465,
              43.76623376623377
            ],
            [
              55.844155844155864,
              44.54545454545456
            ],
            [
              55.22077922077921,
              45.48051948051949
            ],
            [
              54.597402597402606,
              46.25974025974028
            ],
            [
              54.12987012987014,
              46.883116883116884
            ],
            [
              54.597402597402606,
              47.50649350649351
            ],
            [
              55.68831168831167,
              48.285714285714306
            ],
            [
              56.6233766233766,
              48.909090909090935
            ],
            [
              56.93506493506493,
              49.3766233766234
            ],
            [
              57.090909090909065,
              50.00000000000003
            ],
            [
              57.24675324675326,
              50.46753246753249
            ],
            [
              57.55844155844159,
              50.93506493506496
            ],
            [
              57.71428571428572,
              51.40259740259742
            ],
            [
              57.87012987012986,
              51.87012987012989
            ],
            [
              57.87012987012986,
              52.64935064935065
            ],
            [
              57.71428571428572,
              53.116883116883145
            ],
            [
              57.24675324675326,
              53.740259740259745
            ],
            [
              56.467532467532465,
              54.6753246753247
            ],
            [
              56.0,
              55.14285714285717
            ],
            [
              55.68831168831167,
              56.23376623376626
            ],
            [
              55.844155844155864,
              56.701298701298725
            ],
            [
              55.844155844155864,
              57.48051948051949
            ],
            [
              55.844155844155864,
              58.41558441558442
            ],
            [
              55.844155844155864,
              59.35064935064938
            ],
            [
              55.844155844155864,
              59.97402597402598
            ],
            [
              55.844155844155864,
              60.597402597402606
            ],
            [
              55.3766233766234,
              60.285714285714306
            ],
            [
              54.90909090909088,
              59.97402597402598
            ],
            [
              54.44155844155841,
              59.50649350649351
            ],
            [
              54.44155844155841,
              58.41558441558442
            ],
            [
              54.44155844155841,
              57.79220779220782
            ],
            [
              54.28571428571428,
              57.16883116883119
            ],
            [
              54.12987012987014,
              58.10389610389612
            ],
            [
              54.28571428571428,
              58.571428571428584
            ],
            [
              54.75324675324674,
              59.03896103896105
            ],
            [
              55.22077922077921,
              59.50649350649351
            ],
            [
              55.68831168831167,
              59.81818181818184
            ],
            [
              56.155844155844136,
              60.285714285714306
            ],
            [
              56.6233766233766,
              60.44155844155847
            ],
            [
              57.24675324675326,
              60.75324675324677
            ],
            [
              58.02597402597405,
              60.75324675324677
            ],
            [
              58.80519480519479,
              60.75324675324677
            ],
            [
              60.363636363636374,
              60.75324675324677
            ],
            [
              60.987012987012974,
              60.75324675324677
            ],
            [
              60.987012987012974,
              61.3766233766234
            ],
            [
              60.83116883116884,
              62.00000000000003
            ],
            [
              60.51948051948051,
              61.532467532467535
            ],
            [
              60.051948051948045,
              61.06493506493507
            ],
            [
              59.58441558441558,
              60.909090909090935
            ],
            [
              59.116883116883116,
              60.285714285714306
            ],
            [
              58.96103896103898,
              59.50649350649351
            ],
            [
              59.428571428571445,
              59.35064935064938
            ],
            [
              59.74025974025972,
              59.81818181818184
            ],
            [
              60.051948051948045,
              60.285714285714306
            ],
            [
              59.58441558441558,
              59.97402597402598
            ],
            [
              58.493506493506516,
              59.66233766233768
            ],
            [
              57.55844155844159,
              59.81818181818184
            ],
            [
              56.77922077922079,
              59.97402597402598
            ],
            [
              56.155844155844136,
              60.12987012987014
            ],
            [
              55.3766233766234,
              60.597402597402606
            ],
            [
              54.597402597402606,
              60.75324675324677
            ],
            [
              53.97402597402595,
              60.75324675324677
            ],
            [
              53.19480519480521,
              60.909090909090935
            ],
            [
              52.25974025974028,
              60.909090909090935
            ],
            [
              51.636363636363626,
              60.909090909090935
            ],
            [
              50.85714285714283,
              61.06493506493507
            ],
            [
              49.45454545454544,
              60.285714285714306
            ],
            [
              46.96103896103895,
              58.571428571428584
            ],
            [
              42.28571428571428,
              54.987012987013
            ],
            [
              39.636363636363626,
              53.116883116883145
            ],
            [
              37.92207792207793,
              51.87012987012989
            ],
            [
              38.07792207792207,
              53.116883116883145
            ],
            [
              38.3896103896104,
              53.89610389610391
            ],
            [
              38.54545454545456,
              54.51948051948054
            ],
            [
              38.54545454545456,
              55.45454545454547
            ],
            [
              38.3896103896104,
              56.23376623376626
            ],
            [
              37.6103896103896,
              56.54545454545456
            ],
            [
              36.83116883116884,
              56.54545454545456
            ],
            [
              36.20779220779221,
              56.54545454545456
            ],
            [
              35.58441558441558,
              56.3896103896104
            ],
            [
              34.96103896103895,
              56.077922077922096
            ],
            [
              34.49350649350649,
              55.61038961038963
            ],
            [
              33.402597402597394,
              55.2987012987013
            ],
            [
              32.155844155844164,
              55.2987012987013
            ],
            [
              30.909090909090907,
              55.2987012987013
            ],
            [
              29.506493506493513,
              55.45454545454547
            ],
            [
              29.038961038961048,
              55.61038961038963
            ],
            [
              28.571428571428555,
              55.92207792207793
            ],
            [
              28.10389610389609,
              56.3896103896104
            ],
            [
              27.636363636363626,
              56.701298701298725
            ],
            [
              27.16883116883116,
              57.16883116883119
            ],
            [
              26.54545454545456,
              57.324675324675354
            ],
            [
              25.766233766233768,
              56.701298701298725
            ],
            [
              24.83116883116884,
              56.077922077922096
            ],
            [
              23.58441558441558,
              55.2987012987013
            ],
            [
              23.116883116883116,
              54.987012987013
            ],
            [
              20.467532467532465,
              55.76623376623377
            ],
            [
              17.194805194805184,
              56.54545454545456
            ],
            [
              14.857142857142861,
              56.85714285714286
            ],
            [
              14.233766233766232,
              57.012987012987026
            ],
            [
              13.298701298701303,
              57.012987012987026
            ],
            [
              12.675324675324674,
              56.85714285714286
            ],
            [
              11.89610389610391,
              56.3896103896104
            ],
            [
              10.961038961038952,
              55.92207792207793
            ],
            [
              10.181818181818187,
              55.14285714285717
            ],
            [
              9.558441558441558,
              54.6753246753247
            ],
            [
              9.090909090909093,
              54.363636363636374
            ],
            [
              8.0,
              53.740259740259745
            ],
            [
              7.220779220779207,
              53.27272727272728
            ],
            [
              6.753246753246742,
              52.96103896103898
            ],
            [
              6.129870129870142,
              52.33766233766235
            ],
            [
              5.818181818181813,
              51.87012987012989
            ],
            [
              5.350649350649348,
              51.24675324675326
            ],
            [
              4.883116883116884,
              50.31168831168833
            ],
            [
              4.415584415584419,
              49.220779220779235
            ],
            [
              4.103896103896091,
              48.44155844155847
            ]
          ]
        ]
      }
    }
  ]
}