{
  "type": "FeatureCollection",
  "crs": {
    "type": "name",
    "properties": {
      "name": "urn:ogc:def:crs:OGC:1.3:CRS84"
    }
  },
  "features": [
    {
      "type": "Feature",
      "properties": {
        "timestamp": "2026-07-19T13:41:47.228449",
        "country_name": "Lithuania",
        "author": "",
        "author_id": "ffb16113-f6d4-4193-a396-5fa38c9f81ce",
        "validated": false,
        "ranking": [
          [
            "Lithuania",
            0.1461125910282135
          ],
          [
            "Kenya",
            0.10228455066680908
          ],
          [
            "Iran",
            0.07841246575117111
          ],
          [
            "Bosnia & Herzegovina",
            0.05986084043979645
          ],
          [
            "Saudi Arabia",
            0.055900510400533676
          ],
          [
            "Namibia",
            0.038187164813280106
          ],
          [
            "Suriname",
            0.03557446599006653
          ],
          [
            "Sierra Leone",
            0.029193269088864326
          ],
          [
            "Reunion",
            0.025867775082588196
          ],
          [
            "Poland",
            0.023114953190088272
          ],
          [
            "Romania",
            0.019522950053215027
          ],
          [
            "Eswatini",
            0.019393127411603928
          ],
          [
            "Côte d'Ivoire",
            0.01593383215367794
          ],
          [
            "France",
            0.01392076350748539
          ],
          [
            "Sudan",
            0.012883505783975124
          ],
          [
            "Martinique",
            0.012593415565788746
          ],
          [
            "Serbia",
            0.012084733694791794
          ],
          [
            "Burundi",
            0.009921991266310215
          ],
          [
            "Cape Verde",
            0.00960538536310196
          ],
          [
            "Brazil",
            0.009450869634747505
          ],
          [
            "Peru",
            0.008790631778538227
          ],
          [
            "Syria",
            0.008256947621703148
          ],
          [
            "Egypt",
            0.008082007057964802
          ],
          [
            "Algeria",
            0.007476381491869688
          ],
          [
            "Nicaragua",
            0.007390279322862625
          ],
          [
            "Heard and McDonald Islands",
            0.007311003282666206
          ],
          [
            "Cambodia",
            0.0071930247358977795
          ],
          [
            "Zimbabwe",
            0.007150796242058277
          ],
          [
            "French Guiana",
            0.006872756406664848
          ],
          [
            "Venezuela",
            0.0066569214686751366
          ],
          [
            "Comoros",
            0.006623915396630764
          ],
          [
            "Gabon",
            0.006580885034054518
          ],
          [
            "Nigeria",
            0.006531266029924154
          ],
          [
            "Tanzania",
            0.005947596859186888
          ],
          [
            "Angola",
            0.005779928527772427
          ],
          [
            "Uganda",
            0.0053310454823076725
          ],
          [
            "Libya",
            0.005313574802130461
          ],
          [
            "North Macedonia",
            0.004480901174247265
          ],
          [
            "Sri Lanka",
            0.004389483015984297
          ],
          [
            "Dominica",
            0.003982212394475937
          ],
          [
            "Belgium",
            0.0036124675534665585
          ],
          [
            "South Sudan",
            0.0035075463820248842
          ],
          [
            "Germany",
            0.0034951784182339907
          ],
          [
            "Ethiopia",
            0.003259704215452075
          ],
          [
            "Spain",
            0.0032026611734181643
          ],
          [
            "Bangladesh",
            0.0031558480113744736
          ],
          [
            "Ecuador",
            0.003044556826353073
          ],
          [
            "Lesotho",
            0.0029760042671114206
          ],
          [
            "Iraq",
            0.002961118705570698
          ],
          [
            "United States Virgin Islands",
            0.0029133318457752466
          ],
          [
            "Greenland",
            0.002864174311980605
          ],
          [
            "Mauritania",
            0.002816995372995734
          ],
          [
            "Qatar",
            0.002759955357760191
          ],
          [
            "Uruguay",
            0.002747119637206197
          ],
          [
            "Moldova",
            0.0026607010513544083
          ],
          [
            "Belarus",
            0.0025511884596198797
          ],
          [
            "Barbados",
            0.0024397950619459152
          ],
          [
            "Australia",
            0.002390383742749691
          ],
          [
            "Guyana",
            0.0022787239868193865
          ],
          [
            "India",
            0.002203363925218582
          ],
          [
            "Guinea",
            0.0021752158645540476
          ],
          [
            "Antigua & Barbuda",
            0.0020344271324574947
          ],
          [
            "Botswana",
            0.0019858067389577627
          ],
          [
            "Colombia",
            0.0019539124332368374
          ],
          [
            "Azerbaijan",
            0.001921580987982452
          ],
          [
            "Croatia",
            0.0018087391508743167
          ],
          [
            "Iceland",
            0.0017769212136045098
          ],
          [
            "Rwanda",
            0.0016641700640320778
          ],
          [
            "Guadeloupe",
            0.0016609008889645338
          ],
          [
            "DR Congo",
            0.0016149514121934772
          ],
          [
            "Bolivia",
            0.0014952991623431444
          ],
          [
            "Saint Lucia",
            0.001462779357098043
          ],
          [
            "Bahrain",
            0.0014055609935894608
          ],
          [
            "Svalbard",
            0.0013659305404871702
          ],
          [
            "Faroe Islands",
            0.0013365327613428235
          ],
          [
            "Italy",
            0.0013109444407746196
          ],
          [
            "Vietnam",
            0.001274866284802556
          ],
          [
            "Belize",
            0.0012664251262322068
          ],
          [
            "Costa Rica",
            0.001266036182641983
          ],
          [
            "Bulgaria",
            0.0012535152491182089
          ],
          [
            "Ukraine",
            0.0012120369356125593
          ],
          [
            "Czech Republic",
            0.001168672228232026
          ],
          [
            "Montenegro",
            0.0011575444368645549
          ],
          [
            "Benin",
            0.0011475246865302324
          ],
          [
            "Liberia",
            0.0011394701432436705
          ],
          [
            "Togo",
            0.0011155866086483002
          ],
          [
            "Chad",
            0.0010891290148720145
          ],
          [
            "Turkmenistan",
            0.0010829353705048561
          ],
          [
            "Kuwait",
            0.0010552495950832963
          ],
          [
            "Albania",
            0.0010284932795912027
          ],
          [
            "Bahamas",
            0.0010184614220634103
          ],
          [
            "Luxembourg",
            0.0009977895533666015
          ],
          [
            "Armenia",
            0.0009723565890453756
          ],
          [
            "Vanuatu",
            0.0009372453205287457
          ],
          [
            "Switzerland",
            0.0009250284056179225
          ],
          [
            "Sao Tome and Principe",
            0.0009152722195722163
          ],
          [
            "Solomon Islands",
            0.0008776102913543582
          ],
          [
            "South Korea",
            0.0008583227172493935
          ],
          [
            "Guatemala",
            0.0008331311983056366
          ],
          [
            "Paraguay",
            0.0008181959274224937
          ],
          [
            "Ghana",
            0.0008112962241284549
          ],
          [
            "Laos",
            0.0008085109875537455
          ],
          [
            "Jordan",
            0.0007852980634197593
          ],
          [
            "Thailand",
            0.000773633539211005
          ],
          [
            "United Arab Emirates",
            0.0007086543482728302
          ],
          [
            "Mozambique",
            0.0006825767923146486
          ],
          [
            "Equatorial Guinea",
            0.0006305812275968492
          ],
          [
            "Tunisia",
            0.000621053681243211
          ],
          [
            "Argentina",
            0.0006131757399998605
          ],
          [
            "South Georgia Islands",
            0.0005836062482558191
          ],
          [
            "South Africa",
            0.0005820498918183148
          ],
          [
            "Fiji",
            0.0005500446422956884
          ],
          [
            "United States of America",
            0.0005486469017341733
          ],
          [
            "Somalia",
            0.0005482462584041059
          ],
          [
            "Burkina Faso",
            0.000531027908436954
          ],
          [
            "Uzbekistan",
            0.0005295158480294049
          ],
          [
            "Finland",
            0.0005201702006161213
          ],
          [
            "Malawi",
            0.0005121682770550251
          ],
          [
            "Mayotte",
            0.0005095986998640001
          ],
          [
            "Estonia",
            0.0005074802902527153
          ],
          [
            "Latvia",
            0.000491194543428719
          ],
          [
            "Senegal",
            0.0004911692813038826
          ],
          [
            "Bhutan",
            0.0004773359396494925
          ],
          [
            "Niger",
            0.00047530271694995463
          ],
          [
            "Georgia",
            0.00046752256457693875
          ],
          [
            "Turkey",
            0.00045333203161135316
          ],
          [
            "Greece",
            0.00043803727021440864
          ],
          [
            "West Bank",
            0.0004243150178808719
          ],
          [
            "Hungary",
            0.00042042473796755075
          ],
          [
            "Netherlands Antilles",
            0.000417617877246812
          ],
          [
            "Mongolia",
            0.0004148163425270468
          ],
          [
            "Papua New Guinea",
            0.0004066286201123148
          ],
          [
            "Portugal",
            0.00040150200948119164
          ],
          [
            "Mexico",
            0.00039540245779789984
          ],
          [
            "Yemen",
            0.0003906691854353994
          ],
          [
            "China",
            0.0003896987473126501
          ],
          [
            "Myanmar",
            0.000387396925361827
          ],
          [
            "El Salvador",
            0.0003749555326066911
          ],
          [
            "Chile",
            0.0003638112102635205
          ],
          [
            "Malaysia",
            0.000333655858412385
          ],
          [
            "Turks and Caicos Islands",
            0.00033194644493050873
          ],
          [
            "Eritrea",
            0.0003228978894185275
          ],
          [
            "Congo",
            0.00030978722497820854
          ],
          [
            "Djibouti",
            0.0002973415539599955
          ],
          [
            "New Zealand",
            0.00029300706228241324
          ],
          [
            "Kazakhstan",
            0.00028444486088119447
          ],
          [
            "New Caledonia",
            0.00027102965395897627
          ],
          [
            "Honduras",
            0.00026936965878121555
          ],
          [
            "Mali",
            0.0002598350984044373
          ],
          [
            "Ireland",
            0.0002594443503767252
          ],
          [
            "Zambia",
            0.0002592929813545197
          ],
          [
            "United Kingdom",
            0.00023850449360907078
          ],
          [
            "Dominican Republic",
            0.00023548316676169634
          ],
          [
            "Madeira Islands",
            0.0002341301878914237
          ],
          [
            "Brunei",
            0.00021892540098633617
          ],
          [
            "Taiwan",
            0.0002188694488722831
          ],
          [
            "Israel",
            0.00021449085033964366
          ],
          [
            "Cameroon",
            0.00021417115931399167
          ],
          [
            "Puerto Rico",
            0.0001994087506318465
          ],
          [
            "Tajikistan",
            0.00019711037748493254
          ],
          [
            "Slovakia",
            0.00019317149417474866
          ],
          [
            "Japan",
            0.00017805300012696534
          ],
          [
            "Sweden",
            0.00017521031259093434
          ],
          [
            "Indonesia",
            0.00016507809050381184
          ],
          [
            "Slovenia",
            0.00015417639224324375
          ],
          [
            "Guinea-Bissau",
            0.000151355066918768
          ],
          [
            "Cuba",
            0.00014795924653299153
          ],
          [
            "Hong Kong",
            0.00014494643255602568
          ],
          [
            "Russia",
            0.00014024139090906829
          ],
          [
            "Isle of Man",
            0.00013745675096288323
          ],
          [
            "Guam",
            0.00012956460705026984
          ],
          [
            "Jamaica",
            0.00012858648551627994
          ],
          [
            "Falkland Islands",
            0.00012808077735826373
          ],
          [
            "Netherlands",
            0.00012783671263605356
          ],
          [
            "Canada",
            0.0001247644395334646
          ],
          [
            "Panama",
            0.00012355502985883504
          ],
          [
            "Samoa",
            0.00011917419760720804
          ],
          [
            "Trinidad and Tobago",
            0.00011790669668698683
          ],
          [
            "Afghanistan",
            0.00011456127685960382
          ],
          [
            "Nepal",
            0.00010887399548664689
          ],
          [
            "Norway",
            0.00010240024130325764
          ],
          [
            "Oman",
            0.00010087460395880044
          ],
          [
            "Kyrgyzstan",
            9.602856880519539e-05
          ],
          [
            "Philippines",
            9.012038208311424e-05
          ],
          [
            "Western Sahara",
            8.62071174196899e-05
          ],
          [
            "North Korea",
            8.073147910181433e-05
          ],
          [
            "Cyprus",
            7.937623013276607e-05
          ],
          [
            "Central African Republic",
            7.203630229923874e-05
          ],
          [
            "Timor-Leste",
            7.054833258735016e-05
          ],
          [
            "Pakistan",
            5.572844384005293e-05
          ],
          [
            "Palau",
            4.722526136902161e-05
          ],
          [
            "Denmark",
            4.6693592594238e-05
          ],
          [
            "Austria",
            4.2931726056849584e-05
          ],
          [
            "Madagascar",
            3.4997308830497786e-05
          ],
          [
            "Gambia",
            2.321282408956904e-05
          ],
          [
            "Lebanon",
            2.0229523215675727e-05
          ],
          [
            "Morocco",
            1.9169152437825687e-05
          ],
          [
            "Kiribati",
            1.784571577445604e-05
          ],
          [
            "Haiti",
            1.5316103599616326e-05
          ]
        ]
      },
      "geometry": {
        "type": "MultiLineString",
        "coordinates": [
          [
            [
              3.2903225806451246,
              54.47311827956992
            ],
            [
              3.8279569892472978,
              54.47311827956992
            ],
            [
              4.47311827956986,
              54.47311827956992
            ],
            [
              5.010752688172033,
              54.47311827956992
            ],
            [
              5.44086021505376,
              54.47311827956992
            ],
            [
              6.193548387096769,
              54.47311827956992
            ],
            [
              6.838709677419331,
              54.47311827956992
            ],
            [
              7.591397849462339,
              54.580645161290306
            ],
            [
              8.451612903225794,
              54.580645161290306
            ],
            [
              9.526881720430083,
              54.580645161290306
            ],
            [
              10.387096774193537,
              54.68817204301075
            ],
            [
              11.462365591397827,
              54.68817204301075
            ],
            [
              12.645161290322562,
              54.68817204301075
            ],
            [
              13.720430107526852,
              54.7956989247312
            ],
            [
              14.795698924731141,
              54.7956989247312
            ],
            [
              15.978494623655877,
              54.7956989247312
            ],
            [
              17.053763440860166,
              54.90322580645159
            ],
            [
              18.2365591397849,
              54.90322580645159
            ],
            [
              19.419354838709637,
              54.90322580645159
            ],
            [
              20.494623655913983,
              55.01075268817203
            ],
            [
              21.677419354838662,
              55.01075268817203
            ],
            [
              22.860215053763397,
              55.01075268817203
            ],
            [
              23.827956989247298,
              55.01075268817203
            ],
            [
              25.010752688172033,
              55.01075268817203
            ],
            [
              25.978494623655877,
              55.01075268817203
            ],
            [
              27.161290322580612,
              55.11827956989248
            ],
            [
              28.2365591397849,
              55.11827956989248
            ],
            [
              29.204301075268802,
              55.11827956989248
            ],
            [
              30.064516129032256,
              55.11827956989248
            ],
            [
              30.817204301075265,
              55.11827956989248
            ],
            [
              31.677419354838662,
              55.11827956989248
            ],
            [
              32.43010752688167,
              55.11827956989248
            ],
            [
              33.290322580645125,
              55.11827956989248
            ],
            [
              33.935483870967744,
              55.11827956989248
            ],
            [
              34.68817204301075,
              55.11827956989248
            ],
            [
              35.333333333333314,
              55.11827956989248
            ],
            [
              35.97849462365588,
              55.01075268817203
            ],
            [
              36.731182795698885,
              55.01075268817203
            ],
            [
              37.376344086021504,
              55.01075268817203
            ],
            [
              38.12903225806451,
              55.01075268817203
            ],
            [
              38.774193548387075,
              55.01075268817203
            ],
            [
              39.52688172043008,
              55.01075268817203
            ],
            [
              40.27956989247309,
              55.01075268817203
            ],
            [
              41.24731182795699,
              55.01075268817203
            ],
            [
              42.0,
              55.01075268817203
            ],
            [
              42.8602150537634,
              55.11827956989248
            ],
            [
              43.50537634408602,
              55.11827956989248
            ],
            [
              44.258064516129025,
              55.11827956989248
            ],
            [
              45.11827956989248,
              55.225806451612925
            ],
            [
              45.655913978494596,
              55.225806451612925
            ],
            [
              46.408602150537604,
              55.333333333333314
            ],
            [
              47.16129032258061,
              55.333333333333314
            ],
            [
              47.91397849462362,
              55.44086021505376
            ],
            [
              48.66666666666663,
              55.44086021505376
            ],
            [
              49.2043010752688,
              55.44086021505376
            ],
            [
              49.849462365591364,
              55.548387096774206
            ],
            [
              50.60215053763437,
              55.548387096774206
            ],
            [
              51.24731182795699,
              55.548387096774206
            ],
            [
              51.78494623655911,
              55.548387096774206
            ],
            [
              52.32258064516128,
              55.655913978494596
            ],
            [
              52.8602150537634,
              55.655913978494596
            ],
            [
              53.39784946236557,
              55.655913978494596
            ],
            [
              53.93548387096769,
              55.655913978494596
            ],
            [
              54.580645161290306,
              55.76344086021504
            ],
            [
              55.01075268817203,
              55.76344086021504
            ],
            [
              55.44086021505376,
              55.76344086021504
            ],
            [
              55.87096774193549,
              55.76344086021504
            ],
            [
              56.30107526881716,
              55.87096774193549
            ],
            [
              56.731182795698885,
              55.87096774193549
            ],
            [
              58.12903225806451,
              55.97849462365593
            ],
            [
              58.774193548387075,
              55.97849462365593
            ],
            [
              59.41935483870964,
              55.97849462365593
            ],
            [
              59.849462365591364,
              56.08602150537632
            ],
            [
              60.49462365591398,
              56.08602150537632
            ],
            [
              60.924731182795654,
              56.08602150537632
            ],
            [
              61.35483870967738,
              56.08602150537632
            ],
            [
              61.67741935483866,
              56.19354838709677
            ],
            [
              61.78494623655911,
              55.76344086021504
            ],
            [
              61.78494623655911,
              55.333333333333314
            ],
            [
              61.892473118279554,
              55.01075268817203
            ],
            [
              61.892473118279554,
              54.580645161290306
            ],
            [
              62.0,
              54.258064516129025
            ],
            [
              62.0,
              53.8279569892473
            ],
            [
              62.0,
              53.39784946236557
            ],
            [
              62.0,
              52.9677419354839
            ],
            [
              61.78494623655911,
              52.64516129032256
            ],
            [
              61.67741935483866,
              52.32258064516134
            ],
            [
              61.35483870967738,
              51.892473118279554
            ],
            [
              60.924731182795654,
              51.35483870967744
            ],
            [
              60.60215053763437,
              50.924731182795654
            ],
            [
              60.172043010752645,
              50.49462365591398
            ],
            [
              59.95698924731181,
              50.172043010752645
            ],
            [
              59.41935483870964,
              49.741935483870975
            ],
            [
              58.98924731182797,
              49.41935483870964
            ],
            [
              58.55913978494618,
              49.09677419354841
            ],
            [
              58.02150537634407,
              48.774193548387075
            ],
            [
              57.48387096774189,
              48.55913978494618
            ],
            [
              57.053763440860166,
              48.344086021505404
            ],
            [
              56.731182795698885,
              48.12903225806451
            ],
            [
              56.408602150537604,
              47.91397849462362
            ],
            [
              56.08602150537632,
              47.69892473118284
            ],
            [
              55.87096774193549,
              47.376344086021504
            ],
            [
              55.655913978494596,
              47.053763440860166
            ],
            [
              55.44086021505376,
              46.73118279569894
            ],
            [
              55.22580645161287,
              46.408602150537604
            ],
            [
              55.11827956989248,
              46.08602150537638
            ],
            [
              54.90322580645159,
              45.655913978494596
            ],
            [
              54.688172043010695,
              45.225806451612925
            ],
            [
              54.580645161290306,
              44.90322580645159
            ],
            [
              54.47311827956986,
              44.47311827956992
            ],
            [
              54.36559139784947,
              44.15053763440858
            ],
            [
              54.258064516129025,
              43.72043010752691
            ],
            [
              54.15053763440858,
              43.18279569892468
            ],
            [
              54.04301075268813,
              42.860215053763454
            ],
            [
              54.04301075268813,
              42.43010752688167
            ],
            [
              54.04301075268813,
              42.0
            ],
            [
              54.04301075268813,
              41.56989247311833
            ],
            [
              54.04301075268813,
              41.139784946236546
            ],
            [
              54.04301075268813,
              40.60215053763443
            ],
            [
              54.04301075268813,
              40.0645161290322
            ],
            [
              54.15053763440858,
              39.63440860215053
            ],
            [
              54.15053763440858,
              39.09677419354841
            ],
            [
              54.258064516129025,
              38.774193548387075
            ],
            [
              54.258064516129025,
              38.344086021505404
            ],
            [
              54.36559139784947,
              37.806451612903174
            ],
            [
              54.36559139784947,
              37.26881720430106
            ],
            [
              54.36559139784947,
              36.73118279569894
            ],
            [
              54.47311827956986,
              36.408602150537604
            ],
            [
              54.47311827956986,
              35.97849462365593
            ],
            [
              54.47311827956986,
              35.54838709677415
            ],
            [
              54.47311827956986,
              35.11827956989248
            ],
            [
              54.47311827956986,
              34.58064516129036
            ],
            [
              54.47311827956986,
              34.15053763440858
            ],
            [
              54.36559139784947,
              33.61290322580646
            ],
            [
              54.258064516129025,
              33.075268817204346
            ],
            [
              54.15053763440858,
              32.43010752688167
            ],
            [
              54.04301075268813,
              31.892473118279554
            ],
            [
              53.93548387096769,
              31.56989247311833
            ],
            [
              53.8279569892473,
              30.924731182795654
            ],
            [
              53.72043010752685,
              30.27956989247309
            ],
            [
              53.61290322580646,
              29.956989247311867
            ],
            [
              53.39784946236557,
              29.419354838709637
            ],
            [
              53.290322580645125,
              29.096774193548413
            ],
            [
              53.18279569892468,
              28.45161290322585
            ],
            [
              52.96774193548384,
              27.91397849462362
            ],
            [
              52.8602150537634,
              27.376344086021504
            ],
            [
              52.75268817204301,
              27.053763440860166
            ],
            [
              52.64516129032256,
              26.51612903225805
            ],
            [
              52.537634408602116,
              25.978494623655934
            ],
            [
              52.537634408602116,
              25.54838709677415
            ],
            [
              52.43010752688167,
              25.225806451612925
            ],
            [
              52.43010752688167,
              24.68817204301081
            ],
            [
              52.32258064516128,
              24.258064516129025
            ],
            [
              52.32258064516128,
              23.827956989247355
            ],
            [
              52.32258064516128,
              23.39784946236557
            ],
            [
              52.215053763440835,
              22.9677419354839
            ],
            [
              52.215053763440835,
              22.43010752688167
            ],
            [
              52.10752688172039,
              22.0
            ],
            [
              52.0,
              21.569892473118216
            ],
            [
              51.892473118279554,
              21.0322580645161
            ],
            [
              51.78494623655911,
              20.387096774193537
            ],
            [
              51.67741935483866,
              19.63440860215053
            ],
            [
              51.56989247311827,
              18.989247311827967
            ],
            [
              51.56989247311827,
              18.559139784946183
            ],
            [
              51.46236559139783,
              18.23655913978496
            ],
            [
              51.35483870967738,
              17.806451612903174
            ],
            [
              51.24731182795699,
              17.161290322580612
            ],
            [
              51.24731182795699,
              16.731182795698942
            ],
            [
              51.139784946236546,
              16.408602150537604
            ],
            [
              51.139784946236546,
              15.763440860215042
            ],
            [
              51.0322580645161,
              15.333333333333371
            ],
            [
              51.0322580645161,
              14.795698924731141
            ],
            [
              50.924731182795654,
              14.365591397849471
            ],
            [
              50.817204301075265,
              13.827956989247355
            ],
            [
              50.70967741935482,
              13.39784946236557
            ],
            [
              50.49462365591398,
              13.075268817204346
            ],
            [
              50.38709677419354,
              12.752688172043008
            ],
            [
              50.172043010752645,
              12.43010752688167
            ],
            [
              49.849462365591364,
              12.107526881720446
            ],
            [
              49.41935483870964,
              11.677419354838662
            ],
            [
              49.096774193548356,
              11.569892473118216
            ],
            [
              48.774193548387075,
              11.354838709677438
            ],
            [
              48.451612903225794,
              11.139784946236546
            ],
            [
              48.12903225806451,
              10.924731182795654
            ],
            [
              47.698924731182785,
              10.709677419354875
            ],
            [
              47.26881720430106,
              10.494623655913983
            ],
            [
              46.83870967741933,
              10.279569892473091
            ],
            [
              46.30107526881716,
              10.0645161290322
            ],
            [
              45.87096774193549,
              9.956989247311867
            ],
            [
              45.54838709677415,
              9.741935483870975
            ],
            [
              45.01075268817203,
              9.526881720430083
            ],
            [
              44.47311827956986,
              9.311827956989191
            ],
            [
              44.04301075268813,
              9.204301075268859
            ],
            [
              43.72043010752685,
              9.096774193548413
            ],
            [
              43.290322580645125,
              8.88172043010752
            ],
            [
              42.75268817204301,
              8.774193548387075
            ],
            [
              42.32258064516128,
              8.666666666666629
            ],
            [
              41.78494623655911,
              8.45161290322585
            ],
            [
              41.35483870967738,
              8.344086021505404
            ],
            [
              40.70967741935482,
              8.236559139784958
            ],
            [
              40.172043010752645,
              8.129032258064512
            ],
            [
              39.52688172043008,
              8.021505376344066
            ],
            [
              38.774193548387075,
              8.021505376344066
            ],
            [
              38.02150537634407,
              7.9139784946236205
            ],
            [
              37.376344086021504,
              7.9139784946236205
            ],
            [
              36.83870967741933,
              7.8064516129031745
            ],
            [
              36.19354838709677,
              7.8064516129031745
            ],
            [
              35.54838709677415,
              7.8064516129031745
            ],
            [
              34.90322580645159,
              7.8064516129031745
            ],
            [
              34.36559139784947,
              7.8064516129031745
            ],
            [
              33.8279569892473,
              7.8064516129031745
            ],
            [
              33.290322580645125,
              7.8064516129031745
            ],
            [
              32.75268817204301,
              7.8064516129031745
            ],
            [
              32.32258064516128,
              7.8064516129031745
            ],
            [
              31.892473118279554,
              7.9139784946236205
            ],
            [
              31.24731182795699,
              7.9139784946236205
            ],
            [
              30.817204301075265,
              8.021505376344066
            ],
            [
              30.387096774193537,
              8.021505376344066
            ],
            [
              29.95698924731181,
              8.129032258064512
            ],
            [
              29.419354838709637,
              8.129032258064512
            ],
            [
              28.98924731182791,
              8.129032258064512
            ],
            [
              28.559139784946183,
              8.129032258064512
            ],
            [
              28.129032258064512,
              8.129032258064512
            ],
            [
              27.806451612903174,
              8.236559139784958
            ],
            [
              27.483870967741893,
              8.666666666666629
            ],
            [
              27.483870967741893,
              9.096774193548413
            ],
            [
              27.483870967741893,
              9.634408602150529
            ],
            [
              27.483870967741893,
              10.279569892473091
            ],
            [
              27.483870967741893,
              10.924731182795654
            ],
            [
              27.376344086021504,
              11.462365591397884
            ],
            [
              27.268817204301058,
              12.0
            ],
            [
              27.161290322580612,
              12.43010752688167
            ],
            [
              27.053763440860166,
              12.860215053763454
            ],
            [
              26.83870967741933,
              13.182795698924792
            ],
            [
              26.731182795698885,
              13.505376344086017
            ],
            [
              26.408602150537604,
              13.827956989247355
            ],
            [
              26.19354838709677,
              14.150537634408579
            ],
            [
              25.870967741935488,
              14.473118279569917
            ],
            [
              25.54838709677415,
              14.688172043010809
            ],
            [
              25.22580645161287,
              14.903225806451587
            ],
            [
              24.903225806451587,
              15.010752688172033
            ],
            [
              24.47311827956986,
              15.225806451612925
            ],
            [
              24.15053763440858,
              15.333333333333371
            ],
            [
              23.827956989247298,
              15.440860215053817
            ],
            [
              23.505376344086017,
              15.54838709677415
            ],
            [
              23.07526881720429,
              15.54838709677415
            ],
            [
              22.215053763440835,
              15.54838709677415
            ],
            [
              21.677419354838662,
              15.655913978494596
            ],
            [
              21.139784946236546,
              15.655913978494596
            ],
            [
              20.70967741935482,
              15.655913978494596
            ],
            [
              20.387096774193537,
              15.763440860215042
            ],
            [
              20.172043010752645,
              16.08602150537638
            ],
            [
              19.849462365591364,
              16.51612903225805
            ],
            [
              19.63440860215053,
              16.838709677419388
            ],
            [
              19.311827956989248,
              17.268817204301058
            ],
            [
              19.204301075268802,
              17.591397849462396
            ],
            [
              18.88172043010752,
              18.021505376344066
            ],
            [
              18.774193548387075,
              18.344086021505404
            ],
            [
              18.559139784946183,
              18.66666666666663
            ],
            [
              18.451612903225794,
              18.989247311827967
            ],
            [
              18.2365591397849,
              19.31182795698919
            ],
            [
              18.129032258064512,
              19.63440860215053
            ],
            [
              17.806451612903174,
              20.172043010752645
            ],
            [
              17.483870967741893,
              20.709677419354875
            ],
            [
              17.268817204301058,
              21.139784946236546
            ],
            [
              17.161290322580612,
              21.462365591397884
            ],
            [
              16.946236559139777,
              21.784946236559108
            ],
            [
              16.83870967741933,
              22.107526881720446
            ],
            [
              16.731182795698885,
              22.43010752688167
            ],
            [
              16.51612903225805,
              22.860215053763454
            ],
            [
              16.408602150537604,
              23.39784946236557
            ],
            [
              16.301075268817158,
              23.72043010752691
            ],
            [
              16.19354838709677,
              24.15053763440858
            ],
            [
              15.978494623655877,
              24.68817204301081
            ],
            [
              15.870967741935488,
              25.010752688172033
            ],
            [
              15.763440860215042,
              25.440860215053817
            ],
            [
              15.54838709677415,
              25.978494623655934
            ],
            [
              15.44086021505376,
              26.51612903225805
            ],
            [
              15.225806451612868,
              26.946236559139834
            ],
            [
              15.11827956989248,
              27.48387096774195
            ],
            [
              15.010752688172033,
              28.021505376344066
            ],
            [
              14.903225806451587,
              28.66666666666663
            ],
            [
              14.795698924731141,
              29.419354838709637
            ],
            [
              14.688172043010752,
              30.172043010752645
            ],
            [
              14.688172043010752,
              30.60215053763443
            ],
            [
              14.580645161290306,
              31.0322580645161
            ],
            [
              14.580645161290306,
              31.462365591397884
            ],
            [
              14.47311827956986,
              31.892473118279554
            ],
            [
              14.47311827956986,
              32.32258064516134
            ],
            [
              14.47311827956986,
              32.75268817204301
            ],
            [
              14.365591397849414,
              33.290322580645125
            ],
            [
              14.365591397849414,
              33.72043010752691
            ],
            [
              14.258064516129025,
              34.15053763440858
            ],
            [
              14.258064516129025,
              34.68817204301081
            ],
            [
              14.258064516129025,
              35.11827956989248
            ],
            [
              14.150537634408579,
              35.655913978494596
            ],
            [
              14.150537634408579,
              36.08602150537638
            ],
            [
              14.043010752688133,
              36.408602150537604
            ],
            [
              13.935483870967744,
              36.946236559139834
            ],
            [
              13.827956989247298,
              37.376344086021504
            ],
            [
              13.827956989247298,
              37.806451612903174
            ],
            [
              13.720430107526852,
              38.23655913978496
            ],
            [
              13.612903225806406,
              38.55913978494618
            ],
            [
              13.505376344086017,
              38.98924731182797
            ],
            [
              13.39784946236557,
              39.31182795698919
            ],
            [
              13.290322580645125,
              39.63440860215053
            ],
            [
              13.182795698924679,
              39.95698924731187
            ],
            [
              12.967741935483843,
              40.49462365591398
            ],
            [
              12.860215053763397,
              41.0322580645161
            ],
            [
              12.645161290322562,
              41.462365591397884
            ],
            [
              12.537634408602116,
              41.78494623655911
            ],
            [
              12.43010752688167,
              42.21505376344089
            ],
            [
              12.43010752688167,
              42.64516129032256
            ],
            [
              12.322580645161281,
              42.9677419354839
            ],
            [
              12.322580645161281,
              43.39784946236557
            ],
            [
              12.215053763440835,
              43.72043010752691
            ],
            [
              12.215053763440835,
              44.15053763440858
            ],
            [
              12.10752688172039,
              44.47311827956992
            ],
            [
              12.0,
              44.79569892473114
            ],
            [
              11.892473118279554,
              45.11827956989248
            ],
            [
              11.677419354838662,
              45.44086021505382
            ],
            [
              11.247311827956992,
              45.655913978494596
            ],
            [
              10.924731182795654,
              45.76344086021504
            ],
            [
              10.387096774193537,
              45.87096774193549
            ],
            [
              9.95698924731181,
              45.87096774193549
            ],
            [
              9.526881720430083,
              45.87096774193549
            ],
            [
              9.096774193548356,
              45.87096774193549
            ],
            [
              8.55913978494624,
              45.97849462365593
            ],
            [
              8.129032258064512,
              46.08602150537638
            ],
            [
              7.698924731182785,
              46.08602150537638
            ],
            [
              7.268817204301058,
              46.193548387096826
            ],
            [
              6.731182795698885,
              46.193548387096826
            ],
            [
              6.408602150537604,
              46.30107526881716
            ],
            [
              5.7634408602150415,
              46.30107526881716
            ],
            [
              5.44086021505376,
              46.408602150537604
            ],
            [
              4.903225806451587,
              46.51612903225805
            ],
            [
              4.580645161290306,
              46.623655913978496
            ],
            [
              3.9354838709677438,
              46.73118279569894
            ],
            [
              3.3978494623655706,
              46.83870967741939
            ],
            [
              2.9677419354838435,
              46.946236559139834
            ],
            [
              2.5376344086021163,
              47.053763440860166
            ],
            [
              2.322580645161281,
              47.376344086021504
            ],
            [
              2.107526881720389,
              47.69892473118284
            ],
            [
              2.0,
              48.12903225806451
            ],
            [
              2.0,
              48.55913978494618
            ],
            [
              2.0,
              48.98924731182797
            ],
            [
              2.107526881720389,
              49.41935483870964
            ],
            [
              2.215053763440835,
              49.84946236559142
            ],
            [
              2.322580645161281,
              50.172043010752645
            ],
            [
              2.5376344086021163,
              50.49462365591398
            ],
            [
              2.7526881720430083,
              50.924731182795654
            ],
            [
              2.8602150537633975,
              51.24731182795699
            ],
            [
              3.0752688172042895,
              51.56989247311833
            ],
            [
              3.1827956989246786,
              51.892473118279554
            ],
            [
              3.2903225806451246,
              52.21505376344089
            ],
            [
              3.5053763440860166,
              52.537634408602116
            ]
          ]
        ]
      }
    }
  ]
}