{
  "type": "FeatureCollection",
  "crs": {
    "type": "name",
    "properties": {
      "name": "urn:ogc:def:crs:OGC:1.3:CRS84"
    }
  },
  "features": [
    {
      "type": "Feature",
      "properties": {
        "timestamp": "2026-06-15T19:35:13.827303",
        "country_name": "Luxembourg",
        "author": "Hi",
        "author_id": "82eb82af-ba18-4f50-b91f-ad9a9585603c",
        "validated": false,
        "ranking": [
          [
            "Sri Lanka",
            0.7523317933082581
          ],
          [
            "Luxembourg",
            0.07626260071992874
          ],
          [
            "Serbia",
            0.04068350791931152
          ],
          [
            "Guyana",
            0.019199412316083908
          ],
          [
            "Qatar",
            0.01250123418867588
          ],
          [
            "Barbados",
            0.00837132427841425
          ],
          [
            "Albania",
            0.008304768241941929
          ],
          [
            "Martinique",
            0.007295062765479088
          ],
          [
            "Bahrain",
            0.004830145742744207
          ],
          [
            "South Korea",
            0.0035099501255899668
          ],
          [
            "Ghana",
            0.0030107006896287203
          ],
          [
            "Ethiopia",
            0.002826821757480502
          ],
          [
            "Saudi Arabia",
            0.0027505336329340935
          ],
          [
            "Eswatini",
            0.0027429135516285896
          ],
          [
            "Iraq",
            0.00236730114556849
          ],
          [
            "West Bank",
            0.002215839456766844
          ],
          [
            "Dominica",
            0.0021463753655552864
          ],
          [
            "Bahamas",
            0.0019714513327926397
          ],
          [
            "Peru",
            0.0015440871939063072
          ],
          [
            "Finland",
            0.0013794616097584367
          ],
          [
            "Vanuatu",
            0.001375591498799622
          ],
          [
            "Togo",
            0.0013619557721540332
          ],
          [
            "Malawi",
            0.001340155373327434
          ],
          [
            "Tunisia",
            0.0013185279676690698
          ],
          [
            "Guatemala",
            0.0013047832762822509
          ],
          [
            "Heard and McDonald Islands",
            0.0012506211642175913
          ],
          [
            "Saint Lucia",
            0.0011897647054865956
          ],
          [
            "United States Virgin Islands",
            0.0010704436572268605
          ],
          [
            "Germany",
            0.0009988828096538782
          ],
          [
            "Angola",
            0.0009788585593923926
          ],
          [
            "Namibia",
            0.0009729263838380575
          ],
          [
            "Belize",
            0.0009511593380011618
          ],
          [
            "Romania",
            0.0009250693256035447
          ],
          [
            "Uganda",
            0.0007977105560712516
          ],
          [
            "Colombia",
            0.0007949613500386477
          ],
          [
            "Algeria",
            0.0007942808442749083
          ],
          [
            "Myanmar",
            0.0007900185883045197
          ],
          [
            "Laos",
            0.0007483212975785136
          ],
          [
            "French Guiana",
            0.0007306672632694244
          ],
          [
            "Guadeloupe",
            0.0007071760483086109
          ],
          [
            "Turkmenistan",
            0.0006894003599882126
          ],
          [
            "Chad",
            0.0006805983721278608
          ],
          [
            "Comoros",
            0.0006381312850862741
          ],
          [
            "Argentina",
            0.000591581454500556
          ],
          [
            "Benin",
            0.0005842545651830733
          ],
          [
            "Uruguay",
            0.0005651104147545993
          ],
          [
            "Italy",
            0.000546953349839896
          ],
          [
            "Ireland",
            0.0005377756897360086
          ],
          [
            "Czech Republic",
            0.0005255225696600974
          ],
          [
            "Portugal",
            0.0005113065126352012
          ],
          [
            "Greenland",
            0.0005054643843322992
          ],
          [
            "Bangladesh",
            0.00047091906890273094
          ],
          [
            "Vietnam",
            0.0004510861763264984
          ],
          [
            "Philippines",
            0.0004442748904693872
          ],
          [
            "Belarus",
            0.0004305681795813143
          ],
          [
            "Bolivia",
            0.00042010421748273075
          ],
          [
            "Mauritania",
            0.00041604938451200724
          ],
          [
            "El Salvador",
            0.00041074369801208377
          ],
          [
            "Antigua & Barbuda",
            0.0004086712724529207
          ],
          [
            "United States of America",
            0.0003907252103090286
          ],
          [
            "Cape Verde",
            0.0003902410971932113
          ],
          [
            "Suriname",
            0.00037381239235401154
          ],
          [
            "Djibouti",
            0.00035413994919508696
          ],
          [
            "Ecuador",
            0.00032626642496325076
          ],
          [
            "France",
            0.0003157852333970368
          ],
          [
            "Sierra Leone",
            0.00028976149042136967
          ],
          [
            "Lithuania",
            0.00028786322218365967
          ],
          [
            "Mozambique",
            0.0002802979142870754
          ],
          [
            "DR Congo",
            0.0002625783090479672
          ],
          [
            "Thailand",
            0.00025832897517830133
          ],
          [
            "Cuba",
            0.00025494949659332633
          ],
          [
            "Spain",
            0.0002537381660658866
          ],
          [
            "South Georgia Islands",
            0.0002469377941451967
          ],
          [
            "Sao Tome and Principe",
            0.0002355501492274925
          ],
          [
            "Kenya",
            0.00022449575772043318
          ],
          [
            "Zimbabwe",
            0.0002080837293760851
          ],
          [
            "Nicaragua",
            0.0002077585377264768
          ],
          [
            "United Kingdom",
            0.00020745796791743487
          ],
          [
            "Georgia",
            0.0002058882819255814
          ],
          [
            "Liberia",
            0.0002040558902081102
          ],
          [
            "Solomon Islands",
            0.00020208983914926648
          ],
          [
            "Eritrea",
            0.00019394389528315514
          ],
          [
            "Tajikistan",
            0.00018494398682378232
          ],
          [
            "Burundi",
            0.00018265339895151556
          ],
          [
            "Egypt",
            0.0001760494924383238
          ],
          [
            "Paraguay",
            0.00017235486302524805
          ],
          [
            "Mexico",
            0.00016794371185824275
          ],
          [
            "Reunion",
            0.000164323253557086
          ],
          [
            "Moldova",
            0.00015973576228134334
          ],
          [
            "Somalia",
            0.00014508806634694338
          ],
          [
            "Mongolia",
            0.0001446539827156812
          ],
          [
            "Cameroon",
            0.00014236489369068295
          ],
          [
            "Senegal",
            0.00013945081445854157
          ],
          [
            "Chile",
            0.00013500293425749987
          ],
          [
            "Puerto Rico",
            0.00013481741189025342
          ],
          [
            "Armenia",
            0.0001333245454588905
          ],
          [
            "Lesotho",
            0.00012973675620742142
          ],
          [
            "Uzbekistan",
            0.00012956143473275006
          ],
          [
            "Faroe Islands",
            0.0001264882303075865
          ],
          [
            "Bhutan",
            0.0001242157450178638
          ],
          [
            "Iran",
            0.0001225622254423797
          ],
          [
            "Rwanda",
            0.00012137299927417189
          ],
          [
            "Trinidad and Tobago",
            0.00011859917140100151
          ],
          [
            "India",
            0.00011597187403822318
          ],
          [
            "Samoa",
            0.000112506742880214
          ],
          [
            "Jamaica",
            0.00011212563549634069
          ],
          [
            "New Zealand",
            0.00010984583059325814
          ],
          [
            "Dominican Republic",
            0.00010511373693589121
          ],
          [
            "Russia",
            0.00010289619967807084
          ],
          [
            "Côte d'Ivoire",
            0.00010241472773486748
          ],
          [
            "Indonesia",
            0.00010014347935793921
          ],
          [
            "Netherlands Antilles",
            9.627379040466622e-05
          ],
          [
            "Svalbard",
            9.341077384306118e-05
          ],
          [
            "Kuwait",
            8.971907664090395e-05
          ],
          [
            "Turkey",
            8.861869719112292e-05
          ],
          [
            "Turks and Caicos Islands",
            8.760246419114992e-05
          ],
          [
            "Mayotte",
            8.724945655558258e-05
          ],
          [
            "Nepal",
            8.54478930705227e-05
          ],
          [
            "Taiwan",
            8.313848229590803e-05
          ],
          [
            "Equatorial Guinea",
            8.239227463491261e-05
          ],
          [
            "Latvia",
            8.214184344979003e-05
          ],
          [
            "Timor-Leste",
            8.061917469603941e-05
          ],
          [
            "Slovakia",
            7.964210089994594e-05
          ],
          [
            "Gabon",
            7.843084313208237e-05
          ],
          [
            "Switzerland",
            7.735787221463397e-05
          ],
          [
            "Sweden",
            7.692852523177862e-05
          ],
          [
            "South Sudan",
            6.887534254929051e-05
          ],
          [
            "Australia",
            6.80958983139135e-05
          ],
          [
            "Bosnia & Herzegovina",
            6.610374111915007e-05
          ],
          [
            "Hong Kong",
            6.34761163382791e-05
          ],
          [
            "Canada",
            6.0972466599196196e-05
          ],
          [
            "Croatia",
            5.8795340009965e-05
          ],
          [
            "Israel",
            5.790589420939796e-05
          ],
          [
            "North Macedonia",
            5.7358465710422024e-05
          ],
          [
            "Costa Rica",
            5.5503678595414385e-05
          ],
          [
            "Burkina Faso",
            5.517309546121396e-05
          ],
          [
            "Kazakhstan",
            5.499249527929351e-05
          ],
          [
            "Oman",
            5.1092803914798424e-05
          ],
          [
            "Western Sahara",
            4.962872844771482e-05
          ],
          [
            "Sudan",
            4.932401861879043e-05
          ],
          [
            "Syria",
            4.918038030155003e-05
          ],
          [
            "Papua New Guinea",
            4.897920734947547e-05
          ],
          [
            "Montenegro",
            4.744168109027669e-05
          ],
          [
            "Mali",
            4.716307739727199e-05
          ],
          [
            "Malaysia",
            4.57669812021777e-05
          ],
          [
            "Azerbaijan",
            4.030395211884752e-05
          ],
          [
            "Congo",
            3.9396305510308594e-05
          ],
          [
            "Estonia",
            3.916412606486119e-05
          ],
          [
            "Honduras",
            3.7912861444056034e-05
          ],
          [
            "New Caledonia",
            3.713378100655973e-05
          ],
          [
            "Kyrgyzstan",
            3.709909287863411e-05
          ],
          [
            "United Arab Emirates",
            3.70070047210902e-05
          ],
          [
            "Poland",
            3.674150138976984e-05
          ],
          [
            "Norway",
            3.59347031917423e-05
          ],
          [
            "Botswana",
            3.462437598500401e-05
          ],
          [
            "Fiji",
            3.227223351132125e-05
          ],
          [
            "Cambodia",
            3.0066919862292707e-05
          ],
          [
            "Belgium",
            2.997678893734701e-05
          ],
          [
            "Guam",
            2.9891316444263794e-05
          ],
          [
            "Guinea",
            2.894194403779693e-05
          ],
          [
            "Yemen",
            2.8747897886205465e-05
          ],
          [
            "Ukraine",
            2.7928277631872334e-05
          ],
          [
            "South Africa",
            2.7793515982921235e-05
          ],
          [
            "Central African Republic",
            2.709251748456154e-05
          ],
          [
            "Japan",
            2.626547939144075e-05
          ],
          [
            "Libya",
            2.4571705580456182e-05
          ],
          [
            "Falkland Islands",
            2.382766433584038e-05
          ],
          [
            "Cyprus",
            2.276089981023688e-05
          ],
          [
            "Niger",
            2.2423759219236672e-05
          ],
          [
            "Madeira Islands",
            2.1410209228633903e-05
          ],
          [
            "Zambia",
            2.138478339475114e-05
          ],
          [
            "Jordan",
            2.0393401428009383e-05
          ],
          [
            "Panama",
            2.032311931543518e-05
          ],
          [
            "Netherlands",
            1.803002851374913e-05
          ],
          [
            "Isle of Man",
            1.7668486179900356e-05
          ],
          [
            "Tanzania",
            1.678856642683968e-05
          ],
          [
            "Venezuela",
            1.6761210645199753e-05
          ],
          [
            "Brazil",
            1.6673746358719654e-05
          ],
          [
            "Denmark",
            1.581540891493205e-05
          ],
          [
            "Gambia",
            1.531108318886254e-05
          ],
          [
            "Greece",
            1.3929071428719908e-05
          ],
          [
            "Nigeria",
            1.3819199011777528e-05
          ],
          [
            "Afghanistan",
            1.3472969840222504e-05
          ],
          [
            "Madagascar",
            1.1096840353275184e-05
          ],
          [
            "Kiribati",
            1.049492129823193e-05
          ],
          [
            "North Korea",
            1.039324706653133e-05
          ],
          [
            "Iceland",
            1.0321378795197234e-05
          ],
          [
            "China",
            9.488444447924849e-06
          ],
          [
            "Brunei",
            8.852775863488205e-06
          ],
          [
            "Lebanon",
            8.326762326760218e-06
          ],
          [
            "Hungary",
            7.998549335752614e-06
          ],
          [
            "Palau",
            7.677091161895078e-06
          ],
          [
            "Guinea-Bissau",
            7.137638021958992e-06
          ],
          [
            "Slovenia",
            6.232603936950909e-06
          ],
          [
            "Bulgaria",
            3.986865976912668e-06
          ],
          [
            "Austria",
            2.7811743166239467e-06
          ],
          [
            "Pakistan",
            1.8629303895068006e-06
          ],
          [
            "Morocco",
            1.6247063285845798e-06
          ],
          [
            "Haiti",
            4.888358944299398e-07
          ]
        ]
      },
      "geometry": {
        "type": "MultiLineString",
        "coordinates": [
          [
            [
              13.12726400996246,
              29.467016673723492
            ],
            [
              14.630753179315548,
              31.920846905094606
            ],
            [
              15.026408987112973,
              33.34564430487535
            ],
            [
              15.263800296583554,
              33.8205755630201
            ],
            [
              15.73858654087121,
              34.691293141433675
            ],
            [
              15.975977850341792,
              35.16622802492486
            ],
            [
              16.450764094629392,
              36.11609779190724
            ],
            [
              16.68815540410003,
              36.59102542470555
            ],
            [
              17.083811211897455,
              37.54089519168792
            ],
            [
              17.16294164838763,
              38.01583007517911
            ],
            [
              17.47946701969488,
              39.04485565607666
            ],
            [
              17.637731518021667,
              39.51979053956785
            ],
            [
              17.95425326398248,
              40.627964683687765
            ],
            [
              18.11252138765576,
              41.261211195009366
            ],
            [
              18.42903950827008,
              42.448548403737334
            ],
            [
              18.587300381250486,
              43.0026391011437
            ],
            [
              19.062086625538143,
              44.18997630987167
            ],
            [
              19.299477935008724,
              44.823215570500395
            ],
            [
              19.853398241132993,
              46.08971040581673
            ],
            [
              20.16991998709375,
              46.72295691713833
            ],
            [
              20.723843918564455,
              47.98944450176185
            ],
            [
              20.882097540851987,
              48.46437938525304
            ],
            [
              21.11948885032257,
              49.4934031534774
            ],
            [
              21.277753348649412,
              50.04749203821058
            ],
            [
              21.515144658119993,
              51.07651943178132
            ],
            [
              21.515144658119993,
              51.6306083165145
            ],
            [
              21.594275094610225,
              52.501318644235255
            ],
            [
              21.673409156446837,
              52.897095901138016
            ],
            [
              21.673409156446837,
              53.688654040289975
            ],
            [
              21.75254321828345,
              54.16358892378116
            ],
            [
              21.83167365477368,
              55.03430106417511
            ],
            [
              21.91080046591742,
              55.5092359476663
            ],
            [
              21.98993090240765,
              56.30079046147188
            ],
            [
              21.98993090240765,
              56.69656953104783
            ],
            [
              22.22732221187823,
              57.4881258575266
            ],
            [
              22.385586710205075,
              57.883904927102606
            ],
            [
              22.5438548338783,
              58.675461253581375
            ],
            [
              22.622978019675656,
              59.071240323157326
            ],
            [
              23.01863382747308,
              59.78364264839411
            ],
            [
              23.651684570087525,
              60.65435388245146
            ],
            [
              23.968209941394775,
              60.97097713811229
            ],
            [
              24.3638657491922,
              61.445909302593634
            ],
            [
              24.6012534333164,
              61.76253255825441
            ],
            [
              24.917778804623595,
              62.0
            ],
            [
              25.39256504891125,
              61.92084418608482
            ],
            [
              25.946478104342646,
              61.60422093042405
            ],
            [
              26.421264348630245,
              61.05013295202747
            ],
            [
              26.737789719937496,
              60.733509696366696
            ],
            [
              27.13344552773492,
              60.02110646479326
            ],
            [
              27.370844087898377,
              59.62533102056375
            ],
            [
              27.687362208512695,
              58.83377288141173
            ],
            [
              27.845623081493102,
              58.43799562450897
            ],
            [
              28.241278889290527,
              57.56728167144183
            ],
            [
              28.478673824107545,
              57.171504414539015
            ],
            [
              29.03258687953894,
              56.459102089302235
            ],
            [
              29.34911225084619,
              56.06332301972628
            ],
            [
              29.98215574276776,
              55.35092431983594
            ],
            [
              30.298684739421446,
              54.95514525025993
            ],
            [
              30.85259779485284,
              54.2427447376964
            ],
            [
              31.089989104323422,
              53.76780985420521
            ],
            [
              31.56477897395746,
              52.97625352772644
            ],
            [
              31.802177534120915,
              52.58047264547724
            ],
            [
              32.35608696420593,
              51.78891994434491
            ],
            [
              32.67261233551312,
              51.3931408747689
            ],
            [
              33.305663078127566,
              50.443272920459776
            ],
            [
              33.622188449434816,
              49.96833803696859
            ],
            [
              34.17609787951977,
              49.09762589657464
            ],
            [
              34.33436237784662,
              48.701845014325386
            ],
            [
              34.73001818564404,
              47.751980685362696
            ],
            [
              34.88827905862445,
              47.27704580187151
            ],
            [
              35.204800804585204,
              46.327176034889135
            ],
            [
              35.4422029900951,
              45.931398777986374
            ],
            [
              35.83785879789252,
              45.060686637592426
            ],
            [
              36.15437329316046,
              44.66490394266998
            ],
            [
              36.62917041348737,
              43.873353054210895
            ],
            [
              36.86655809761157,
              43.556729798550066
            ],
            [
              37.262213905409,
              42.92348328722852
            ],
            [
              37.816123335493955,
              42.052769334161326
            ],
            [
              38.449181328801274,
              41.419522822839724
            ],
            [
              39.31961250484704,
              40.944587939348594
            ],
            [
              40.26919224411512,
              40.31134867871987
            ],
            [
              40.98136254718048,
              39.75725435596701
            ],
            [
              41.614413289794925,
              39.20316728390708
            ],
            [
              41.93093503575574,
              38.965699842161484
            ],
            [
              42.563978527677364,
              38.569920772585476
            ],
            [
              42.95963433547479,
              38.253297516924704
            ],
            [
              43.51355826694544,
              37.77836263343352
            ],
            [
              43.83008001290625,
              37.54089519168792
            ],
            [
              44.30486988254029,
              37.065960308196736
            ],
            [
              45.017047436298526,
              36.43271379687519
            ],
            [
              45.8083518012005,
              35.799474536246464
            ],
            [
              46.59966341679535,
              35.087068585663246
            ],
            [
              47.232714159409795,
              34.453822074341645
            ],
            [
              47.6283627165144,
              33.583115371967324
            ],
            [
              47.86575765133142,
              32.791557232815364
            ],
            [
              48.103159836841314,
              31.84168746583299
            ],
            [
              48.103159836841314,
              31.445912021603476
            ],
            [
              48.18227939729218,
              30.496042254621102
            ],
            [
              48.261413459128846,
              30.100263185045094
            ],
            [
              48.34054752096546,
              29.229552857324336
            ],
            [
              48.49880114325299,
              28.833770162401947
            ],
            [
              48.73620332876288,
              28.279683090341962
            ],
            [
              49.13185913656031,
              27.56728439045162
            ],
            [
              49.44838088252112,
              26.8548784398684
            ],
            [
              49.76490262848188,
              25.905012298232464
            ],
            [
              49.92317075215516,
              24.875990342681348
            ],
            [
              50.1605584362793,
              23.846968387130232
            ],
            [
              50.2396852474231,
              23.451185692207787
            ],
            [
              50.3979461204035,
              22.738786992317443
            ],
            [
              50.3979461204035,
              22.343007922741435
            ],
            [
              50.55621424407673,
              21.630605597504655
            ],
            [
              50.55621424407673,
              21.155674339359905
            ],
            [
              50.63534105522052,
              20.284953135599892
            ],
            [
              50.714467866364316,
              19.810029128148017
            ],
            [
              50.87273599003754,
              18.22691284984404
            ],
            [
              50.87273599003754,
              17.51451052460726
            ],
            [
              50.79360192820093,
              16.40632550444809
            ],
            [
              50.79360192820093,
              16.010553685564958
            ],
            [
              50.63534105522052,
              15.1398433578442
            ],
            [
              50.55621424407673,
              14.664908474353012
            ],
            [
              50.3979461204035,
              14.03166196303141
            ],
            [
              50.08142437444269,
              12.923480568218679
            ],
            [
              49.76490262848188,
              11.973610801236305
            ],
            [
              49.36924682068445,
              11.02374103425393
            ],
            [
              49.29011275884784,
              10.627969215370797
            ],
            [
              49.052725074723696,
              9.836411076218837
            ],
            [
              48.73620332876288,
              8.886541309236463
            ],
            [
              48.5779352050896,
              8.411606425745276
            ],
            [
              48.34054752096546,
              7.69921135120137
            ],
            [
              48.103159836841314,
              7.303425030932544
            ],
            [
              47.78662358949475,
              6.670178519610943
            ],
            [
              47.311848221246464,
              6.19525088681263
            ],
            [
              46.678790227939146,
              5.641160189406207
            ],
            [
              45.729224990056764,
              4.928757864169484
            ],
            [
              45.33356918225934,
              4.612134608508654
            ],
            [
              44.6213916285011,
              3.8997322832718737
            ],
            [
              44.225735820703676,
              3.583116278303976
            ],
            [
              43.355290143272214,
              3.108174144119914
            ],
            [
              42.88051477502387,
              2.949869766982374
            ],
            [
              41.93093503575574,
              2.6332465113216017
            ],
            [
              41.4561451661217,
              2.4749276327983125
            ],
            [
              40.585706739383056,
              2.3166232556608293
            ],
            [
              39.6361342508078,
              2.15830437713754
            ],
            [
              38.21177914329138,
              2.0791558139152357
            ],
            [
              37.816123335493955,
              2.0
            ],
            [
              36.86655809761157,
              2.0
            ],
            [
              36.31263416614087,
              2.0
            ],
            [
              35.204800804585204,
              2.0791558139152357
            ],
            [
              34.73001818564404,
              2.0791558139152357
            ],
            [
              33.622188449434816,
              2.0791558139152357
            ],
            [
              32.989134081473935,
              2.0791558139152357
            ],
            [
              31.960431156408504,
              2.2374674417455935
            ],
            [
              30.69434054721887,
              2.395779069576008
            ],
            [
              29.98215574276776,
              2.4749276327983125
            ],
            [
              28.716065133578184,
              2.554090697406366
            ],
            [
              28.241278889290527,
              2.6332465113216017
            ],
            [
              26.896050592917845,
              2.712395074543906
            ],
            [
              26.1838766645061,
              2.8707139530671952
            ],
            [
              25.076039677604,
              3.108174144119914
            ],
            [
              24.6012534333164,
              3.1873372087279677
            ],
            [
              23.2560287622901,
              3.2664930226431466
            ],
            [
              22.622978019675656,
              3.3456415858655077
            ],
            [
              21.515144658119993,
              3.4247973997806866
            ],
            [
              20.9612316026886,
              3.50396046438874
            ],
            [
              19.774264179296324,
              3.583116278303976
            ],
            [
              19.299477935008724,
              3.66226484152628
            ],
            [
              18.74556487957733,
              3.9788880971871095
            ],
            [
              18.508166319413874,
              4.295511352847882
            ],
            [
              18.033383700472655,
              4.928757864169484
            ],
            [
              17.795988765655636,
              5.245381119830256
            ],
            [
              17.32120977206091,
              6.036932008289341
            ],
            [
              17.00468440075366,
              6.432718328558224
            ],
            [
              16.68815540410003,
              7.0659648398797685
            ],
            [
              16.292499596302605,
              8.174138983999683
            ],
            [
              16.134242348668636,
              8.569918053575691
            ],
            [
              15.975977850341792,
              9.36147619272765
            ],
            [
              15.896854664544435,
              9.757255262303659
            ],
            [
              15.896854664544435,
              10.786280843201212
            ],
            [
              15.975977850341792,
              11.261215726692399
            ],
            [
              16.055108286831967,
              12.13192242906672
            ],
            [
              16.450764094629392,
              13.081792196049093
            ],
            [
              16.68815540410003,
              13.477564014932227
            ],
            [
              17.16294164838763,
              14.189973590861825
            ],
            [
              17.558597456185055,
              14.823220102183427
            ],
            [
              17.95425326398248,
              15.614778241335387
            ],
            [
              18.19164457345306,
              16.168865313395372
            ],
            [
              18.508166319413874,
              17.039572015769636
            ],
            [
              18.74556487957733,
              17.51451052460726
            ],
            [
              18.98295618904791,
              17.91028959418327
            ],
            [
              19.457742433335568,
              18.464380291589634
            ],
            [
              19.69513374280615,
              19.018470988996
            ],
            [
              19.774264179296324,
              19.7308696888864
            ],
            [
              19.932532302969605,
              20.443268388776687
            ],
            [
              20.011655488766962,
              20.918199646921494
            ],
            [
              20.16991998709375,
              21.472293969674297
            ],
            [
              20.16991998709375,
              22.105540480995842
            ],
            [
              20.090789550603574,
              23.055410247978216
            ],
            [
              20.090789550603574,
              23.926120575698974
            ],
            [
              20.090789550603574,
              24.480204022412522
            ],
            [
              20.090789550603574,
              24.875990342681348
            ],
            [
              19.932532302969605,
              25.27176578691092
            ],
            [
              19.616006931662355,
              25.905012298232464
            ],
            [
              19.299477935008724,
              26.8548784398684
            ],
            [
              18.9038221272113,
              27.725596018282033
            ],
            [
              18.666430817740718,
              28.200523651080346
            ],
            [
              18.42903950827008,
              28.59630634600279
            ],
            [
              18.19164457345306,
              28.992078164885925
            ],
            [
              17.795988765655636,
              29.546172487638728
            ],
            [
              17.47946701969488,
              29.8627957432995
            ],
            [
              17.242075710224242,
              30.179418998960273
            ],
            [
              16.925553964263486,
              30.65435388245146
            ],
            [
              16.68815540410003,
              30.97097713811229
            ],
            [
              16.371633658139217,
              31.366752582341803
            ],
            [
              16.134242348668636,
              31.683375838002632
            ]
          ]
        ]
      }
    }
  ]
}