{
  "type": "FeatureCollection",
  "crs": {
    "type": "name",
    "properties": {
      "name": "urn:ogc:def:crs:OGC:1.3:CRS84"
    }
  },
  "features": [
    {
      "type": "Feature",
      "properties": {
        "timestamp": "2026-06-20T11:31:27.025978",
        "country_name": "Luxembourg",
        "author": "riskyzerat",
        "author_id": "55f23a75-0b26-4a5d-bdc0-d0fcf6e3ed4f",
        "validated": false,
        "ranking": [
          [
            "Barbados",
            0.11594749987125397
          ],
          [
            "United States Virgin Islands",
            0.10120520740747452
          ],
          [
            "Vanuatu",
            0.08527031540870667
          ],
          [
            "Bahamas",
            0.05115782469511032
          ],
          [
            "Vietnam",
            0.04744487628340721
          ],
          [
            "Togo",
            0.04391093924641609
          ],
          [
            "Cape Verde",
            0.029100658372044563
          ],
          [
            "Antigua & Barbuda",
            0.026778170838952065
          ],
          [
            "Bahrain",
            0.026394788175821304
          ],
          [
            "Martinique",
            0.02449813298881054
          ],
          [
            "Eritrea",
            0.024267854169011116
          ],
          [
            "Malawi",
            0.022470546886324883
          ],
          [
            "Laos",
            0.0214752908796072
          ],
          [
            "Sri Lanka",
            0.018486781045794487
          ],
          [
            "Albania",
            0.015141748823225498
          ],
          [
            "Saudi Arabia",
            0.01433382835239172
          ],
          [
            "Guyana",
            0.012376039288938046
          ],
          [
            "Belize",
            0.01160590723156929
          ],
          [
            "Comoros",
            0.011558818630874157
          ],
          [
            "Chile",
            0.010628271847963333
          ],
          [
            "Dominica",
            0.010561344213783741
          ],
          [
            "Ethiopia",
            0.009710248559713364
          ],
          [
            "Equatorial Guinea",
            0.008847793564200401
          ],
          [
            "Finland",
            0.008802799507975578
          ],
          [
            "Namibia",
            0.008779977448284626
          ],
          [
            "Bolivia",
            0.008531005121767521
          ],
          [
            "Suriname",
            0.008015451952815056
          ],
          [
            "Serbia",
            0.006890655029565096
          ],
          [
            "Uruguay",
            0.0063699339516460896
          ],
          [
            "Peru",
            0.00563903758302331
          ],
          [
            "United States of America",
            0.0054634264670312405
          ],
          [
            "Italy",
            0.005206590052694082
          ],
          [
            "Guadeloupe",
            0.005103441886603832
          ],
          [
            "Faroe Islands",
            0.005095961503684521
          ],
          [
            "Sao Tome and Principe",
            0.004984174855053425
          ],
          [
            "Luxembourg",
            0.004932829644531012
          ],
          [
            "Spain",
            0.004828524775803089
          ],
          [
            "Solomon Islands",
            0.004776396322995424
          ],
          [
            "Qatar",
            0.004521458875387907
          ],
          [
            "Ecuador",
            0.004512034356594086
          ],
          [
            "North Macedonia",
            0.0043418798595666885
          ],
          [
            "United Kingdom",
            0.004169583786278963
          ],
          [
            "Côte d'Ivoire",
            0.003896581707522273
          ],
          [
            "Philippines",
            0.0038934170734137297
          ],
          [
            "Reunion",
            0.0038620426785200834
          ],
          [
            "Egypt",
            0.0038418530020862818
          ],
          [
            "Romania",
            0.0036825798451900482
          ],
          [
            "Heard and McDonald Islands",
            0.0032958718948066235
          ],
          [
            "Israel",
            0.0031111917924135923
          ],
          [
            "Ghana",
            0.002989875851199031
          ],
          [
            "Angola",
            0.0028450314421206713
          ],
          [
            "Moldova",
            0.0027893332298845053
          ],
          [
            "Benin",
            0.0027739787474274635
          ],
          [
            "Turkmenistan",
            0.0026788502000272274
          ],
          [
            "South Georgia Islands",
            0.002524050883948803
          ],
          [
            "Guatemala",
            0.0024972204118967056
          ],
          [
            "Libya",
            0.0024618876632303
          ],
          [
            "Botswana",
            0.0024598364252597094
          ],
          [
            "Lithuania",
            0.002396560972556472
          ],
          [
            "Czech Republic",
            0.0023730762768536806
          ],
          [
            "Eswatini",
            0.002367876935750246
          ],
          [
            "Portugal",
            0.0021712700836360455
          ],
          [
            "Iraq",
            0.002060958417132497
          ],
          [
            "Paraguay",
            0.0019545727409422398
          ],
          [
            "French Guiana",
            0.0019502307986840606
          ],
          [
            "Kenya",
            0.0018723661778494716
          ],
          [
            "Sierra Leone",
            0.001842539757490158
          ],
          [
            "Mexico",
            0.001819244003854692
          ],
          [
            "Australia",
            0.0017676020506769419
          ],
          [
            "Sudan",
            0.0017431844025850296
          ],
          [
            "Tunisia",
            0.0017244735499843955
          ],
          [
            "Armenia",
            0.0017109360778704286
          ],
          [
            "Rwanda",
            0.0016494193114340305
          ],
          [
            "Uganda",
            0.0016094292514026165
          ],
          [
            "West Bank",
            0.0015552925178781152
          ],
          [
            "Gabon",
            0.0015386834274977446
          ],
          [
            "Somalia",
            0.0015318167861551046
          ],
          [
            "Myanmar",
            0.001503725303336978
          ],
          [
            "New Zealand",
            0.0014871930470690131
          ],
          [
            "Burundi",
            0.0014278755988925695
          ],
          [
            "Cameroon",
            0.001392133068293333
          ],
          [
            "Cambodia",
            0.0013789697550237179
          ],
          [
            "Saint Lucia",
            0.0013607197906821966
          ],
          [
            "Guinea",
            0.0013594642514362931
          ],
          [
            "El Salvador",
            0.0013571636518463492
          ],
          [
            "Uzbekistan",
            0.0013088660780340433
          ],
          [
            "Poland",
            0.001306877937167883
          ],
          [
            "Thailand",
            0.0012983162887394428
          ],
          [
            "Mauritania",
            0.0012874634703621268
          ],
          [
            "Jordan",
            0.0012494409456849098
          ],
          [
            "Bangladesh",
            0.0012426294852048159
          ],
          [
            "Samoa",
            0.0011826130794361234
          ],
          [
            "Argentina",
            0.0011684340424835682
          ],
          [
            "Lesotho",
            0.0011205236660316586
          ],
          [
            "India",
            0.0011146701872348785
          ],
          [
            "Costa Rica",
            0.001006580889225006
          ],
          [
            "Cuba",
            0.0010021403431892395
          ],
          [
            "Iran",
            0.0009726722491905093
          ],
          [
            "Nepal",
            0.0009608874097466469
          ],
          [
            "Germany",
            0.0009136050357483327
          ],
          [
            "Liberia",
            0.0008794554159976542
          ],
          [
            "South Korea",
            0.0008313630823977292
          ],
          [
            "Algeria",
            0.0007554488256573677
          ],
          [
            "Nigeria",
            0.0007433764403685927
          ],
          [
            "Oman",
            0.0007429270772263408
          ],
          [
            "Turks and Caicos Islands",
            0.0007396722794510424
          ],
          [
            "Bosnia & Herzegovina",
            0.0007167125586420298
          ],
          [
            "Mozambique",
            0.000708791078068316
          ],
          [
            "Syria",
            0.0007053076406009495
          ],
          [
            "Turkey",
            0.0007007605745457113
          ],
          [
            "Sweden",
            0.0006655200268141925
          ],
          [
            "Latvia",
            0.0006575582665391266
          ],
          [
            "Dominican Republic",
            0.0006224496173672378
          ],
          [
            "Timor-Leste",
            0.0006207554251886904
          ],
          [
            "Zimbabwe",
            0.0005853096954524517
          ],
          [
            "Tajikistan",
            0.0005638927104882896
          ],
          [
            "Azerbaijan",
            0.0005618046270683408
          ],
          [
            "Trinidad and Tobago",
            0.0005554119125008583
          ],
          [
            "Malaysia",
            0.0005451037432067096
          ],
          [
            "Nicaragua",
            0.0005387736018747091
          ],
          [
            "Greenland",
            0.0005356709589250386
          ],
          [
            "Puerto Rico",
            0.0005328594706952572
          ],
          [
            "Tanzania",
            0.0005328299594111741
          ],
          [
            "Djibouti",
            0.0005284898797981441
          ],
          [
            "France",
            0.0005004624836146832
          ],
          [
            "Papua New Guinea",
            0.0004858546599280089
          ],
          [
            "Georgia",
            0.0004809211823157966
          ],
          [
            "Canada",
            0.0004742342862300575
          ],
          [
            "Mali",
            0.000448090024292469
          ],
          [
            "Senegal",
            0.0004333769320510328
          ],
          [
            "Colombia",
            0.00042711972491815686
          ],
          [
            "Mayotte",
            0.0004253547522239387
          ],
          [
            "Indonesia",
            0.0004247693868819624
          ],
          [
            "Belarus",
            0.00041372206760570407
          ],
          [
            "Netherlands Antilles",
            0.0004005513619631529
          ],
          [
            "Montenegro",
            0.0003984057402703911
          ],
          [
            "Guam",
            0.0003795817610807717
          ],
          [
            "Zambia",
            0.000365744112059474
          ],
          [
            "Brazil",
            0.0003647374687716365
          ],
          [
            "Switzerland",
            0.00036348323919810355
          ],
          [
            "Svalbard",
            0.0003610537969507277
          ],
          [
            "Bhutan",
            0.0003480594896245748
          ],
          [
            "Ukraine",
            0.00033364066621288657
          ],
          [
            "New Caledonia",
            0.0003307060105726123
          ],
          [
            "Croatia",
            0.00032454283791594207
          ],
          [
            "South Sudan",
            0.0003244320396333933
          ],
          [
            "Japan",
            0.0003216397308278829
          ],
          [
            "Fiji",
            0.00031722805579192936
          ],
          [
            "United Arab Emirates",
            0.0003128780808765441
          ],
          [
            "Yemen",
            0.0003098741581197828
          ],
          [
            "Belgium",
            0.00030616705771535635
          ],
          [
            "Russia",
            0.00029670936055481434
          ],
          [
            "Taiwan",
            0.00029503784026019275
          ],
          [
            "Chad",
            0.00029249012004584074
          ],
          [
            "Venezuela",
            0.0002688292588572949
          ],
          [
            "Mongolia",
            0.00025494417059235275
          ],
          [
            "Kuwait",
            0.0002529148187022656
          ],
          [
            "South Africa",
            0.00022679701214656234
          ],
          [
            "Congo",
            0.00022378437279257923
          ],
          [
            "Slovakia",
            0.00022066944802645594
          ],
          [
            "Kiribati",
            0.00020916965149808675
          ],
          [
            "Denmark",
            0.0002061039995169267
          ],
          [
            "DR Congo",
            0.00019474679720588028
          ],
          [
            "Honduras",
            0.00017650439986027777
          ],
          [
            "Palau",
            0.00016678939573466778
          ],
          [
            "Kazakhstan",
            0.00016313190280925483
          ],
          [
            "Jamaica",
            0.00016004683857318014
          ],
          [
            "Norway",
            0.00015720201190561056
          ],
          [
            "Niger",
            0.00014728435780853033
          ],
          [
            "Isle of Man",
            0.00014468930021394044
          ],
          [
            "Western Sahara",
            0.0001258589036297053
          ],
          [
            "Cyprus",
            0.00012493139365687966
          ],
          [
            "Burkina Faso",
            0.00012277771020308137
          ],
          [
            "Slovenia",
            0.00011186972551513463
          ],
          [
            "Estonia",
            0.0001086222255253233
          ],
          [
            "Greece",
            0.00010692656360333785
          ],
          [
            "Madeira Islands",
            0.00010534976900089532
          ],
          [
            "Kyrgyzstan",
            0.00010387544898549095
          ],
          [
            "Hong Kong",
            9.86904269666411e-05
          ],
          [
            "Afghanistan",
            8.737634925637394e-05
          ],
          [
            "Bulgaria",
            8.469193562632427e-05
          ],
          [
            "Ireland",
            8.388025889871642e-05
          ],
          [
            "North Korea",
            7.879670738475397e-05
          ],
          [
            "Brunei",
            7.727897900622338e-05
          ],
          [
            "Gambia",
            7.654052751604468e-05
          ],
          [
            "China",
            7.440952322212979e-05
          ],
          [
            "Iceland",
            7.393488340312615e-05
          ],
          [
            "Hungary",
            6.836633110651746e-05
          ],
          [
            "Falkland Islands",
            6.460989970946684e-05
          ],
          [
            "Panama",
            6.116151052992791e-05
          ],
          [
            "Central African Republic",
            6.092550393077545e-05
          ],
          [
            "Madagascar",
            5.2777140808757395e-05
          ],
          [
            "Pakistan",
            5.251826223684475e-05
          ],
          [
            "Guinea-Bissau",
            4.981014717486687e-05
          ],
          [
            "Netherlands",
            4.7673351218691096e-05
          ],
          [
            "Lebanon",
            4.160325261182152e-05
          ],
          [
            "Austria",
            3.402125366847031e-05
          ],
          [
            "Haiti",
            2.1720839868066832e-05
          ],
          [
            "Morocco",
            1.0068602023238782e-05
          ]
        ]
      },
      "geometry": {
        "type": "MultiLineString",
        "coordinates": [
          [
            [
              11.519230769230774,
              62.0
            ],
            [
              11.519230769230774,
              59.69230769230768
            ],
            [
              11.519230769230774,
              57.38461538461536
            ],
            [
              11.519230769230774,
              54.5
            ],
            [
              10.942307692307708,
              52.19230769230768
            ],
            [
              10.365384615384642,
              49.88461538461536
            ],
            [
              10.365384615384642,
              45.84615384615381
            ],
            [
              10.365384615384642,
              42.96153846153845
            ],
            [
              10.365384615384642,
              40.65384615384613
            ],
            [
              10.365384615384642,
              38.34615384615381
            ],
            [
              10.365384615384642,
              35.46153846153845
            ],
            [
              10.365384615384642,
              33.15384615384613
            ],
            [
              10.365384615384642,
              29.69230769230768
            ],
            [
              10.365384615384642,
              25.653846153846132
            ],
            [
              10.365384615384642,
              21.61538461538464
            ],
            [
              10.365384615384642,
              18.153846153846132
            ],
            [
              10.365384615384642,
              15.269230769230717
            ],
            [
              10.365384615384642,
              11.230769230769226
            ],
            [
              10.365384615384642,
              7.769230769230717
            ],
            [
              10.365384615384642,
              4.307692307692264
            ],
            [
              11.519230769230774,
              2.5769230769230944
            ],
            [
              13.826923076923094,
              2.0
            ],
            [
              16.134615384615415,
              2.0
            ],
            [
              18.442307692307708,
              2.0
            ],
            [
              21.326923076923094,
              3.7307692307692264
            ],
            [
              23.05769230769232,
              6.038461538461547
            ],
            [
              24.21153846153848,
              7.769230769230717
            ],
            [
              25.942307692307708,
              8.923076923076906
            ],
            [
              27.673076923076934,
              8.346153846153811
            ],
            [
              30.55769230769232,
              6.615384615384642
            ],
            [
              32.86538461538461,
              4.884615384615358
            ],
            [
              34.59615384615387,
              4.307692307692264
            ],
            [
              36.90384615384616,
              4.307692307692264
            ],
            [
              39.78846153846155,
              4.307692307692264
            ],
            [
              42.09615384615387,
              4.307692307692264
            ],
            [
              43.826923076923094,
              4.884615384615358
            ],
            [
              45.55769230769232,
              6.038461538461547
            ],
            [
              50.173076923076934,
              7.192307692307679
            ],
            [
              52.480769230769226,
              8.346153846153811
            ],
            [
              53.63461538461536,
              10.076923076923094
            ],
            [
              53.05769230769232,
              11.807692307692264
            ],
            [
              51.326923076923094,
              12.961538461538453
            ],
            [
              49.59615384615387,
              14.69230769230768
            ],
            [
              47.28846153846155,
              15.846153846153811
            ],
            [
              44.980769230769226,
              17.576923076923094
            ],
            [
              43.25,
              18.730769230769226
            ],
            [
              41.519230769230774,
              19.88461538461536
            ],
            [
              39.78846153846155,
              20.461538461538453
            ],
            [
              39.21153846153848,
              23.34615384615381
            ],
            [
              38.63461538461539,
              27.38461538461536
            ],
            [
              35.75,
              32.0
            ],
            [
              34.59615384615387,
              34.307692307692264
            ],
            [
              33.44230769230771,
              37.76923076923072
            ],
            [
              31.71153846153848,
              42.38461538461536
            ],
            [
              30.55769230769232,
              44.11538461538464
            ],
            [
              29.980769230769255,
              45.84615384615381
            ],
            [
              29.40384615384616,
              48.15384615384613
            ],
            [
              28.826923076923094,
              50.46153846153845
            ],
            [
              28.25,
              53.923076923076906
            ],
            [
              27.673076923076934,
              55.65384615384613
            ],
            [
              27.096153846153868,
              57.38461538461536
            ],
            [
              26.519230769230774,
              59.11538461538464
            ],
            [
              24.788461538461547,
              59.69230769230768
            ],
            [
              23.05769230769232,
              60.26923076923072
            ],
            [
              21.326923076923094,
              60.84615384615381
            ],
            [
              19.019230769230774,
              61.423076923076906
            ],
            [
              17.288461538461547,
              62.0
            ],
            [
              16.134615384615415,
              60.26923076923072
            ]
          ]
        ]
      }
    }
  ]
}