{
  "type": "FeatureCollection",
  "crs": {
    "type": "name",
    "properties": {
      "name": "urn:ogc:def:crs:OGC:1.3:CRS84"
    }
  },
  "features": [
    {
      "type": "Feature",
      "properties": {
        "timestamp": "2026-05-08T19:53:04.757790",
        "country_name": "Madagascar",
        "author": "",
        "author_id": "93760cca-f161-431e-a478-7579de3b4c09",
        "validated": false,
        "ranking": [
          [
            "Madagascar",
            0.3173956573009491
          ],
          [
            "Taiwan",
            0.15004223585128784
          ],
          [
            "Mozambique",
            0.05833021551370621
          ],
          [
            "Benin",
            0.04808846116065979
          ],
          [
            "Belize",
            0.041930221021175385
          ],
          [
            "Lebanon",
            0.03723324090242386
          ],
          [
            "Guam",
            0.022963598370552063
          ],
          [
            "Mayotte",
            0.019937824457883835
          ],
          [
            "Somalia",
            0.019635027274489403
          ],
          [
            "North Korea",
            0.018674936145544052
          ],
          [
            "Portugal",
            0.017060931771993637
          ],
          [
            "Sweden",
            0.01674090325832367
          ],
          [
            "Congo",
            0.015145175158977509
          ],
          [
            "Palau",
            0.013532072305679321
          ],
          [
            "Oman",
            0.009554211050271988
          ],
          [
            "Thailand",
            0.008714918047189713
          ],
          [
            "Brunei",
            0.008037944324314594
          ],
          [
            "South Korea",
            0.007929947227239609
          ],
          [
            "Israel",
            0.007790627423673868
          ],
          [
            "Isle of Man",
            0.00720055028796196
          ],
          [
            "Myanmar",
            0.0063730282709002495
          ],
          [
            "Greenland",
            0.00573975034058094
          ],
          [
            "Afghanistan",
            0.004882466979324818
          ],
          [
            "Argentina",
            0.004691725131124258
          ],
          [
            "Spain",
            0.004683570936322212
          ],
          [
            "Fiji",
            0.004648284055292606
          ],
          [
            "New Zealand",
            0.004469205625355244
          ],
          [
            "Saint Lucia",
            0.0044091916643083096
          ],
          [
            "Yemen",
            0.0043801055289804935
          ],
          [
            "Tunisia",
            0.0038678706623613834
          ],
          [
            "Norway",
            0.0034720739349722862
          ],
          [
            "Western Sahara",
            0.003431969787925482
          ],
          [
            "Central African Republic",
            0.0031631866004318
          ],
          [
            "Jordan",
            0.003151179291307926
          ],
          [
            "Qatar",
            0.003098132088780403
          ],
          [
            "Japan",
            0.0027260989882051945
          ],
          [
            "Switzerland",
            0.0025184082332998514
          ],
          [
            "Canada",
            0.0024723513051867485
          ],
          [
            "Slovakia",
            0.0024356648791581392
          ],
          [
            "Slovenia",
            0.0023267758078873158
          ],
          [
            "Hong Kong",
            0.002135645831003785
          ],
          [
            "Cameroon",
            0.001983239548280835
          ],
          [
            "Svalbard",
            0.0019699237309396267
          ],
          [
            "Rwanda",
            0.0019680385012179613
          ],
          [
            "Burundi",
            0.0019060554914176464
          ],
          [
            "Namibia",
            0.0018520551966503263
          ],
          [
            "Burkina Faso",
            0.0018087245989590883
          ],
          [
            "Morocco",
            0.0018082554452121258
          ],
          [
            "Kyrgyzstan",
            0.0018055879045277834
          ],
          [
            "United Kingdom",
            0.0017963715363293886
          ],
          [
            "Honduras",
            0.0016822003526613116
          ],
          [
            "Faroe Islands",
            0.001646080520004034
          ],
          [
            "West Bank",
            0.0016311504878103733
          ],
          [
            "Albania",
            0.001604490214958787
          ],
          [
            "Timor-Leste",
            0.0015984391793608665
          ],
          [
            "Malawi",
            0.0015891279326751828
          ],
          [
            "Philippines",
            0.0015577198937535286
          ],
          [
            "Trinidad and Tobago",
            0.001461746753193438
          ],
          [
            "Vietnam",
            0.001385678886435926
          ],
          [
            "Moldova",
            0.0012707217829301953
          ],
          [
            "Ireland",
            0.0012126353103667498
          ],
          [
            "Falkland Islands",
            0.0011311112903058529
          ],
          [
            "Montenegro",
            0.0011253290576860309
          ],
          [
            "Mali",
            0.0011029740562662482
          ],
          [
            "Bangladesh",
            0.0011022610124200583
          ],
          [
            "Papua New Guinea",
            0.0010946369729936123
          ],
          [
            "Netherlands",
            0.0010639455867931247
          ],
          [
            "Kazakhstan",
            0.0010436654556542635
          ],
          [
            "Cyprus",
            0.0010364644695073366
          ],
          [
            "Turkmenistan",
            0.001018528826534748
          ],
          [
            "Chile",
            0.0009641490178182721
          ],
          [
            "Syria",
            0.0008806230616755784
          ],
          [
            "Togo",
            0.0008606304763816297
          ],
          [
            "Guadeloupe",
            0.0008465445134788752
          ],
          [
            "Turkey",
            0.0007740597357042134
          ],
          [
            "Indonesia",
            0.0007437361055053771
          ],
          [
            "Latvia",
            0.0007243503932841122
          ],
          [
            "Guinea-Bissau",
            0.0006630842690356076
          ],
          [
            "Finland",
            0.0006618320476263762
          ],
          [
            "Puerto Rico",
            0.000638259865809232
          ],
          [
            "India",
            0.0006368905305862427
          ],
          [
            "New Caledonia",
            0.0006211161962710321
          ],
          [
            "Hungary",
            0.0006144105573184788
          ],
          [
            "Russia",
            0.0006099141319282353
          ],
          [
            "Guyana",
            0.0005985395982861519
          ],
          [
            "Pakistan",
            0.0005831464077346027
          ],
          [
            "Ecuador",
            0.0005802295636385679
          ],
          [
            "South Sudan",
            0.0005727296811528504
          ],
          [
            "Chad",
            0.000561906024813652
          ],
          [
            "South Africa",
            0.0005481916014105082
          ],
          [
            "Georgia",
            0.0005362542578950524
          ],
          [
            "Zambia",
            0.0005262804916128516
          ],
          [
            "Azerbaijan",
            0.0005067149759270251
          ],
          [
            "Antigua & Barbuda",
            0.0004976939526386559
          ],
          [
            "Heard and McDonald Islands",
            0.0004969748551957309
          ],
          [
            "Mongolia",
            0.00047722921590320766
          ],
          [
            "Colombia",
            0.00045406739809550345
          ],
          [
            "Ukraine",
            0.00045203929767012596
          ],
          [
            "Ghana",
            0.00043158908374607563
          ],
          [
            "Croatia",
            0.0004300746077205986
          ],
          [
            "Peru",
            0.0004251257050782442
          ],
          [
            "Niger",
            0.00041550109745003283
          ],
          [
            "Mauritania",
            0.00040249322773888707
          ],
          [
            "Jamaica",
            0.00038995209615677595
          ],
          [
            "Panama",
            0.0003709023876581341
          ],
          [
            "Dominica",
            0.00036988858482800424
          ],
          [
            "Sao Tome and Principe",
            0.0003460482112132013
          ],
          [
            "Estonia",
            0.0003417199768591672
          ],
          [
            "Uzbekistan",
            0.00033718717168085277
          ],
          [
            "Malaysia",
            0.0003316659131087363
          ],
          [
            "Vanuatu",
            0.00031732162460684776
          ],
          [
            "China",
            0.00030872414936311543
          ],
          [
            "Romania",
            0.0003009909996762872
          ],
          [
            "Solomon Islands",
            0.0002870646712835878
          ],
          [
            "France",
            0.0002756086178123951
          ],
          [
            "Gabon",
            0.00026991573395207524
          ],
          [
            "Iceland",
            0.00026099677779711783
          ],
          [
            "Dominican Republic",
            0.0002471053448971361
          ],
          [
            "Serbia",
            0.00024260477221105248
          ],
          [
            "Nigeria",
            0.00023571806377731264
          ],
          [
            "Bhutan",
            0.0002231563557870686
          ],
          [
            "Czech Republic",
            0.00021152939007151872
          ],
          [
            "Belgium",
            0.0002004110865527764
          ],
          [
            "Cuba",
            0.00018876823014579713
          ],
          [
            "Bahrain",
            0.00018731888849288225
          ],
          [
            "French Guiana",
            0.0001822527265176177
          ],
          [
            "Saudi Arabia",
            0.00018140580505132675
          ],
          [
            "Tajikistan",
            0.0001707497867755592
          ],
          [
            "North Macedonia",
            0.000162821845151484
          ],
          [
            "Lithuania",
            0.00015996462025213987
          ],
          [
            "Paraguay",
            0.00015734707994852215
          ],
          [
            "United Arab Emirates",
            0.00015597377205267549
          ],
          [
            "Angola",
            0.0001524873950984329
          ],
          [
            "Italy",
            0.00014865503180772066
          ],
          [
            "Gambia",
            0.0001480870705563575
          ],
          [
            "Bulgaria",
            0.00014442973770201206
          ],
          [
            "Martinique",
            0.00013837552978657186
          ],
          [
            "Sri Lanka",
            0.00013613878400065005
          ],
          [
            "Senegal",
            0.00013168649456929415
          ],
          [
            "Botswana",
            0.00012089718802599236
          ],
          [
            "Lesotho",
            0.00012022343435091898
          ],
          [
            "Austria",
            0.00011150388309033588
          ],
          [
            "South Georgia Islands",
            0.00011024223204003647
          ],
          [
            "Netherlands Antilles",
            0.00010921712964773178
          ],
          [
            "Brazil",
            0.0001047989571816288
          ],
          [
            "Iraq",
            0.00010365825437474996
          ],
          [
            "Kuwait",
            9.841721475822851e-05
          ],
          [
            "El Salvador",
            9.82622877927497e-05
          ],
          [
            "Belarus",
            9.749183664098382e-05
          ],
          [
            "Libya",
            9.483918984187767e-05
          ],
          [
            "Iran",
            9.337204392068088e-05
          ],
          [
            "Egypt",
            9.125397627940401e-05
          ],
          [
            "Armenia",
            8.806495316093788e-05
          ],
          [
            "Australia",
            8.778337360126898e-05
          ],
          [
            "Germany",
            8.746849925955757e-05
          ],
          [
            "Djibouti",
            8.560704736737534e-05
          ],
          [
            "Equatorial Guinea",
            8.393156167585403e-05
          ],
          [
            "Greece",
            8.334021549671888e-05
          ],
          [
            "Guatemala",
            8.212126704165712e-05
          ],
          [
            "Cape Verde",
            7.633592031197622e-05
          ],
          [
            "Mexico",
            7.28378799976781e-05
          ],
          [
            "Bahamas",
            7.15071801096201e-05
          ],
          [
            "Madeira Islands",
            6.780618423363194e-05
          ],
          [
            "Reunion",
            6.426448817364872e-05
          ],
          [
            "Bolivia",
            6.364846194628626e-05
          ],
          [
            "Algeria",
            6.076507270336151e-05
          ],
          [
            "Nicaragua",
            5.8663677918957546e-05
          ],
          [
            "Costa Rica",
            5.646797944791615e-05
          ],
          [
            "Guinea",
            5.2443148888414726e-05
          ],
          [
            "Venezuela",
            5.221428727963939e-05
          ],
          [
            "Cambodia",
            5.190270530874841e-05
          ],
          [
            "Turks and Caicos Islands",
            5.1304868975421414e-05
          ],
          [
            "Kenya",
            5.027628139941953e-05
          ],
          [
            "Eswatini",
            4.8977955884765834e-05
          ],
          [
            "Haiti",
            4.59344191767741e-05
          ],
          [
            "Suriname",
            4.5646640501217917e-05
          ],
          [
            "Liberia",
            4.362034815130755e-05
          ],
          [
            "United States Virgin Islands",
            4.1301198507426307e-05
          ],
          [
            "Laos",
            4.0445847844239324e-05
          ],
          [
            "Luxembourg",
            3.7856545532122254e-05
          ],
          [
            "Samoa",
            3.776632365770638e-05
          ],
          [
            "United States of America",
            3.659292633528821e-05
          ],
          [
            "Bosnia & Herzegovina",
            3.636117617134005e-05
          ],
          [
            "Zimbabwe",
            3.5367913369555026e-05
          ],
          [
            "Ethiopia",
            3.15553043037653e-05
          ],
          [
            "Comoros",
            3.0994116968940943e-05
          ],
          [
            "Nepal",
            3.072811523452401e-05
          ],
          [
            "Eritrea",
            2.6610015993355773e-05
          ],
          [
            "Uganda",
            2.6058425646624528e-05
          ],
          [
            "Tanzania",
            2.3600856366101652e-05
          ],
          [
            "Poland",
            2.274421785841696e-05
          ],
          [
            "Barbados",
            2.2076221284805797e-05
          ],
          [
            "DR Congo",
            2.09091194847133e-05
          ],
          [
            "Sudan",
            2.0298890376579948e-05
          ],
          [
            "Uruguay",
            1.9961900761700235e-05
          ],
          [
            "Sierra Leone",
            1.817132215364836e-05
          ],
          [
            "Denmark",
            1.576281647430733e-05
          ],
          [
            "Côte d'Ivoire",
            1.2111800970160402e-05
          ],
          [
            "Kiribati",
            1.6736878478695871e-06
          ]
        ]
      },
      "geometry": {
        "type": "MultiLineString",
        "coordinates": [
          [
            [
              31.278126540871426,
              3.4442039181728887
            ],
            [
              31.409375714062378,
              4.1006482183016715
            ],
            [
              31.67188608675781,
              5.413572897499762
            ],
            [
              31.93437841998292,
              6.726473524070684
            ],
            [
              32.45937511274667,
              8.039362124328022
            ],
            [
              32.85312864547632,
              9.614869334102991
            ],
            [
              33.37813135139686,
              11.452959074454839
            ],
            [
              33.90312804416067,
              13.15973349689125
            ],
            [
              34.559379923272104,
              14.997787158302344
            ],
            [
              34.95312744284496,
              16.44200310278893
            ],
            [
              35.34688698873134,
              17.75492778198702
            ],
            [
              35.740628495147405,
              18.80525790429465
            ],
            [
              36.1343760147202,
              19.986867265577075
            ],
            [
              36.3968803742589,
              21.037197387884703
            ],
            [
              36.7906278938317,
              22.218818775480713
            ],
            [
              37.315624586595504,
              23.269136871474757
            ],
            [
              37.57812894613414,
              24.450770285384465
            ],
            [
              37.84063330567284,
              25.501088381378395
            ],
            [
              38.103131652054685,
              26.28882394679556
            ],
            [
              38.36563601159338,
              27.339154069103188
            ],
            [
              38.62812834481849,
              28.12691368714752
            ],
            [
              39.284380223929986,
              28.914649252564573
            ],
            [
              40.071881276232375,
              29.57111760532041
            ],
            [
              41.253129848107676,
              30.35886519705116
            ],
            [
              42.69688879267841,
              31.146612788781795
            ],
            [
              44.27187887096966,
              31.803057088910577
            ],
            [
              45.45313345600175,
              32.45951341535283
            ],
            [
              46.10937932195645,
              32.85338721121809
            ],
            [
              46.2406345083042,
              33.77241404192375
            ],
            [
              46.2406345083042,
              34.56017365996797
            ],
            [
              46.10937932195645,
              35.47921251698722
            ],
            [
              45.9781301487655,
              36.398239347692765
            ],
            [
              45.9781301487655,
              37.57987276160236
            ],
            [
              46.2406345083042,
              38.7614821228849
            ],
            [
              46.634382027876995,
              39.811812245192414
            ],
            [
              47.02814157376338,
              40.99343363278854
            ],
            [
              47.42188308017944,
              42.043763755096165
            ],
            [
              47.94687977294319,
              42.9628026121153
            ],
            [
              48.34062729251605,
              43.750550203846046
            ],
            [
              48.603131652054685,
              44.406994503974715
            ],
            [
              48.99687917162754,
              45.58860386525714
            ],
            [
              49.259383531166236,
              46.50765474858986
            ],
            [
              49.653131050739034,
              47.6892641098724
            ],
            [
              49.91563541027767,
              48.47702372791673
            ],
            [
              50.04689059662542,
              49.26475929333378
            ],
            [
              50.04689059662542,
              50.05250688506453
            ],
            [
              50.04689059662542,
              51.10283700737216
            ],
            [
              49.91563541027767,
              52.28445839496817
            ],
            [
              49.784380223929986,
              53.3347885172758
            ],
            [
              49.653131050739034,
              54.385118639583425
            ],
            [
              49.521887890704875,
              55.43544876189105
            ],
            [
              49.521887890704875,
              56.61707014948706
            ],
            [
              49.521887890704875,
              57.66740027179469
            ],
            [
              49.521887890704875,
              58.58643311565709
            ],
            [
              49.91563541027767,
              59.636763237964715
            ],
            [
              50.44063210304148,
              60.55579006867026
            ],
            [
              51.096883982152974,
              61.34354367355775
            ],
            [
              51.49063150172577,
              61.86870873471156
            ],
            [
              50.70314247573691,
              62.0
            ],
            [
              50.04689059662542,
              62.0
            ],
            [
              49.39063871751392,
              62.0
            ],
            [
              48.73438683840243,
              62.0
            ],
            [
              47.94687977294319,
              61.73741746942312
            ],
            [
              46.89688638741569,
              61.08095512982402
            ],
            [
              44.92813075008121,
              60.03062500751639
            ],
            [
              42.30312924679197,
              58.061268054503216
            ],
            [
              40.20313044942333,
              56.354487618910184
            ],
            [
              38.23438082524564,
              55.172860218157325
            ],
            [
              37.05313225337039,
              54.25383338745178
            ],
            [
              36.528129547449794,
              53.72866832629791
            ],
            [
              36.1343760147202,
              52.94092073456727
            ],
            [
              35.87187766833836,
              52.15317314283652
            ],
            [
              35.08437661603591,
              51.10283700737216
            ],
            [
              34.42812473692442,
              50.57767194621829
            ],
            [
              34.034383230508354,
              49.92122764608962
            ],
            [
              33.50938052458781,
              48.87089752378199
            ],
            [
              33.11562699185822,
              48.214429171026154
            ],
            [
              32.59062428593762,
              47.557984870897485
            ],
            [
              31.803123233635233,
              46.77023727916685
            ],
            [
              30.621874661759932,
              45.9824896874361
            ],
            [
              28.784374210773194,
              45.06346285673055
            ],
            [
              26.81563059975224,
              44.14441197339784
            ],
            [
              24.715625789226806,
              43.619246912243966
            ],
            [
              22.746876165049116,
              43.48796767326917
            ],
            [
              21.30312924679197,
              43.619246912243966
            ],
            [
              19.859370302221237,
              44.53829779557668
            ],
            [
              18.54687255715504,
              45.71990715685922
            ],
            [
              17.365623985279797,
              46.63893398756477
            ],
            [
              16.57812293297735,
              47.03281980974373
            ],
            [
              15.921871053865857,
              47.03281980974373
            ],
            [
              15.790627893831697,
              44.93215956512847
            ],
            [
              16.44687977294319,
              42.43763755096154
            ],
            [
              17.759371504852652,
              39.811812245192414
            ],
            [
              18.809376916693736,
              37.44856947000039
            ],
            [
              19.46562879580523,
              35.47921251698722
            ],
            [
              19.728127142187134,
              33.90371733352572
            ],
            [
              19.859370302221237,
              32.722083919616125
            ],
            [
              20.121880674916724,
              31.671777849935665
            ],
            [
              20.384373008141836,
              30.884030258204916
            ],
            [
              20.646877367680474,
              30.22756190544908
            ],
            [
              20.778120527714634,
              29.57111760532041
            ],
            [
              20.778120527714634,
              28.258204952435904
            ],
            [
              20.646877367680474,
              27.470457360705268
            ],
            [
              20.253123834950884,
              26.551418503686023
            ],
            [
              19.59687195583939,
              25.63237964666689
            ],
            [
              18.809376916693736,
              24.975935346538222
            ],
            [
              17.628128344818492,
              24.319466993782385
            ],
            [
              16.18436940024776,
              23.531719402051635
            ],
            [
              14.609379321956453,
              23.00655434089788
            ],
            [
              13.559373910115369,
              22.35011004076921
            ],
            [
              12.903122031003818,
              21.95622421859025
            ],
            [
              12.640623684621971,
              21.29977991846158
            ],
            [
              12.509368498274227,
              20.64332359201933
            ],
            [
              12.509368498274227,
              19.461702204423318
            ],
            [
              12.771878870969658,
              17.75492778198702
            ],
            [
              13.165620377385721,
              16.048117280609972
            ],
            [
              13.559373910115369,
              14.603937415064138
            ],
            [
              13.95312744284496,
              13.55360729275651
            ],
            [
              14.346868949260966,
              12.765859701025875
            ],
            [
              14.47812413560871,
              11.978112109295125
            ],
            [
              14.740622481990613,
              11.321667809166456
            ],
            [
              15.265619174754363,
              10.533908191122237
            ],
            [
              15.921871053865857,
              9.877463890993454
            ],
            [
              16.57812293297735,
              9.08969224663565
            ],
            [
              17.49687315847075,
              8.170677442243687
            ],
            [
              18.54687255715504,
              6.989068080961147
            ],
            [
              19.859370302221237,
              5.676143401763056
            ],
            [
              21.434372406826128,
              4.49453404048063
            ],
            [
              23.00938052458781,
              3.4442039181728887
            ],
            [
              24.3218842828108,
              2.7877475917307493
            ],
            [
              24.978136161922293,
              2.3938737958653746
            ],
            [
              25.63437000156341,
              2.2625825305768785
            ],
            [
              26.81563059975224,
              2.131267212661328
            ],
            [
              27.60312563889795,
              2.0
            ],
            [
              28.653137063895826,
              2.0
            ],
            [
              29.57187526307564,
              2.0
            ],
            [
              30.621874661759932,
              2.0
            ],
            [
              31.278126540871426,
              2.3938737958653746
            ]
          ]
        ]
      }
    }
  ]
}