{
  "type": "FeatureCollection",
  "crs": {
    "type": "name",
    "properties": {
      "name": "urn:ogc:def:crs:OGC:1.3:CRS84"
    }
  },
  "features": [
    {
      "type": "Feature",
      "properties": {
        "timestamp": "2026-06-07T14:59:32.806252",
        "country_name": "Madagascar",
        "author": "",
        "author_id": "8a0c41f1-ddfd-4b8c-8521-0b2a4ecd1d72",
        "validated": false,
        "ranking": [
          [
            "Madagascar",
            0.6792837381362915
          ],
          [
            "Taiwan",
            0.11469682306051254
          ],
          [
            "North Korea",
            0.031235221773386
          ],
          [
            "Palau",
            0.020487802103161812
          ],
          [
            "Lebanon",
            0.015968231484293938
          ],
          [
            "Brunei",
            0.01203723344951868
          ],
          [
            "Guam",
            0.011421692557632923
          ],
          [
            "Belize",
            0.008607595227658749
          ],
          [
            "Portugal",
            0.007866261526942253
          ],
          [
            "Isle of Man",
            0.006533946841955185
          ],
          [
            "Sweden",
            0.006207373458892107
          ],
          [
            "Benin",
            0.006090946961194277
          ],
          [
            "Oman",
            0.005691058933734894
          ],
          [
            "Congo",
            0.004109402187168598
          ],
          [
            "Mozambique",
            0.003634948516264558
          ],
          [
            "Saint Lucia",
            0.003597145900130272
          ],
          [
            "Fiji",
            0.0032132624182850122
          ],
          [
            "Morocco",
            0.0026421595830470324
          ],
          [
            "Greenland",
            0.0026237841229885817
          ],
          [
            "Qatar",
            0.0024356041103601456
          ],
          [
            "Afghanistan",
            0.002355460077524185
          ],
          [
            "Somalia",
            0.0022790355142205954
          ],
          [
            "Slovenia",
            0.002143816091120243
          ],
          [
            "Israel",
            0.0019867639057338238
          ],
          [
            "Trinidad and Tobago",
            0.001974166138097644
          ],
          [
            "New Zealand",
            0.0019363996107131243
          ],
          [
            "Western Sahara",
            0.001902586198411882
          ],
          [
            "Norway",
            0.0018160457257181406
          ],
          [
            "Mayotte",
            0.001585733494721353
          ],
          [
            "Jordan",
            0.0015679649077355862
          ],
          [
            "Japan",
            0.0015001802239567041
          ],
          [
            "Myanmar",
            0.0012748290318995714
          ],
          [
            "Rwanda",
            0.001261383411474526
          ],
          [
            "Central African Republic",
            0.0012246168917044997
          ],
          [
            "Yemen",
            0.0012066570343449712
          ],
          [
            "Tunisia",
            0.0011432726169005036
          ],
          [
            "Argentina",
            0.0011416644556447864
          ],
          [
            "Cameroon",
            0.0011010735761374235
          ],
          [
            "Canada",
            0.0010497464099898934
          ],
          [
            "Pakistan",
            0.000999171519652009
          ],
          [
            "Spain",
            0.000985788181424141
          ],
          [
            "South Korea",
            0.0007946816622279584
          ],
          [
            "West Bank",
            0.0007091852021403611
          ],
          [
            "Chad",
            0.0007015435840003192
          ],
          [
            "Thailand",
            0.0006875704857520759
          ],
          [
            "Switzerland",
            0.0006577156600542367
          ],
          [
            "Burkina Faso",
            0.0005682833725586534
          ],
          [
            "Hong Kong",
            0.0005410830490291119
          ],
          [
            "Niger",
            0.0005300723132677376
          ],
          [
            "Burundi",
            0.0005067428573966026
          ],
          [
            "Hungary",
            0.0005066858720965683
          ],
          [
            "United Kingdom",
            0.00047946168342605233
          ],
          [
            "Albania",
            0.0004413353162817657
          ],
          [
            "Malawi",
            0.0004250331548973918
          ],
          [
            "Mali",
            0.00041503607644699514
          ],
          [
            "Namibia",
            0.0004084979009348899
          ],
          [
            "Slovakia",
            0.00038820807822048664
          ],
          [
            "Kazakhstan",
            0.0003777714155148715
          ],
          [
            "South Sudan",
            0.0003484603948891163
          ],
          [
            "Vietnam",
            0.00034762060386128724
          ],
          [
            "South Africa",
            0.0003456595877651125
          ],
          [
            "Netherlands",
            0.00033137877471745014
          ],
          [
            "Faroe Islands",
            0.00032100387034006417
          ],
          [
            "Philippines",
            0.0003133316640742123
          ],
          [
            "Cyprus",
            0.0003079172456637025
          ],
          [
            "Zambia",
            0.00029423783416859806
          ],
          [
            "Ireland",
            0.00029293366242200136
          ],
          [
            "Moldova",
            0.0002862325054593384
          ],
          [
            "Timor-Leste",
            0.0002658739686012268
          ],
          [
            "Svalbard",
            0.00020822923397645354
          ],
          [
            "Antigua & Barbuda",
            0.0002026918373303488
          ],
          [
            "Chile",
            0.00019421466276980937
          ],
          [
            "Kyrgyzstan",
            0.00018773446208797395
          ],
          [
            "Syria",
            0.00018694621394388378
          ],
          [
            "Togo",
            0.00018029229249805212
          ],
          [
            "Honduras",
            0.00016822888574097306
          ],
          [
            "Colombia",
            0.00016348183271475136
          ],
          [
            "Papua New Guinea",
            0.00015114380221348256
          ],
          [
            "Sao Tome and Principe",
            0.00014054520579520613
          ],
          [
            "Finland",
            0.00013621953257825226
          ],
          [
            "China",
            0.00013413067790679634
          ],
          [
            "Mauritania",
            0.00013142675743438303
          ],
          [
            "Ghana",
            0.0001234348164871335
          ],
          [
            "Turkey",
            0.0001223208528244868
          ],
          [
            "Bangladesh",
            0.00011578521662158892
          ],
          [
            "Estonia",
            0.00011498896492412314
          ],
          [
            "Ecuador",
            0.00011402906238799915
          ],
          [
            "Iceland",
            0.00011183442256879061
          ],
          [
            "Falkland Islands",
            0.00010583020775811747
          ],
          [
            "Mongolia",
            0.00010484472295502201
          ],
          [
            "Guinea-Bissau",
            9.887987107504159e-05
          ],
          [
            "Turkmenistan",
            9.632403089199215e-05
          ],
          [
            "French Guiana",
            9.575727017363533e-05
          ],
          [
            "India",
            9.009694622363895e-05
          ],
          [
            "Heard and McDonald Islands",
            8.994223753688857e-05
          ],
          [
            "Latvia",
            8.888691809261218e-05
          ],
          [
            "Ukraine",
            8.737127063795924e-05
          ],
          [
            "Guadeloupe",
            8.187663479475304e-05
          ],
          [
            "Gabon",
            8.002467075129971e-05
          ],
          [
            "United Arab Emirates",
            7.654512592125684e-05
          ],
          [
            "Croatia",
            7.652235217392445e-05
          ],
          [
            "Austria",
            7.626241131220013e-05
          ],
          [
            "Puerto Rico",
            7.47558442526497e-05
          ],
          [
            "Bulgaria",
            7.157648360589519e-05
          ],
          [
            "Montenegro",
            7.13522604200989e-05
          ],
          [
            "Indonesia",
            6.99565644026734e-05
          ],
          [
            "New Caledonia",
            6.985802610870451e-05
          ],
          [
            "Nigeria",
            6.907511124154553e-05
          ],
          [
            "Bhutan",
            6.902348104631528e-05
          ],
          [
            "Azerbaijan",
            6.786025187466294e-05
          ],
          [
            "Romania",
            6.589935946976766e-05
          ],
          [
            "Russia",
            5.885565042262897e-05
          ],
          [
            "Peru",
            5.741565837524831e-05
          ],
          [
            "Dominica",
            5.570098801399581e-05
          ],
          [
            "Vanuatu",
            5.3154210036154836e-05
          ],
          [
            "Lithuania",
            5.298628093441948e-05
          ],
          [
            "Guyana",
            5.0526792620075867e-05
          ],
          [
            "Georgia",
            4.796260691364296e-05
          ],
          [
            "North Macedonia",
            4.693965820479207e-05
          ],
          [
            "Botswana",
            4.6685276174684986e-05
          ],
          [
            "Belarus",
            4.452650682651438e-05
          ],
          [
            "Lesotho",
            4.4367046939441934e-05
          ],
          [
            "Panama",
            4.306530172470957e-05
          ],
          [
            "France",
            4.171445471001789e-05
          ],
          [
            "Angola",
            4.166586950304918e-05
          ],
          [
            "Libya",
            3.808219844358973e-05
          ],
          [
            "Belgium",
            3.643670424935408e-05
          ],
          [
            "Cambodia",
            3.45383959938772e-05
          ],
          [
            "Serbia",
            3.450369695201516e-05
          ],
          [
            "Bahrain",
            3.435652979533188e-05
          ],
          [
            "Solomon Islands",
            3.3764710678951815e-05
          ],
          [
            "Czech Republic",
            3.358006142661907e-05
          ],
          [
            "Paraguay",
            3.341337287565693e-05
          ],
          [
            "Jamaica",
            3.181207284796983e-05
          ],
          [
            "Malaysia",
            3.178289989591576e-05
          ],
          [
            "Brazil",
            3.164945155731402e-05
          ],
          [
            "Saudi Arabia",
            3.0796698410995305e-05
          ],
          [
            "Haiti",
            2.8876906071673147e-05
          ],
          [
            "Sri Lanka",
            2.625082925078459e-05
          ],
          [
            "Uzbekistan",
            2.5893188649206422e-05
          ],
          [
            "Djibouti",
            2.4684561140020378e-05
          ],
          [
            "Cape Verde",
            2.3335416699410416e-05
          ],
          [
            "Guatemala",
            2.1841962734470144e-05
          ],
          [
            "Venezuela",
            2.0971423509763554e-05
          ],
          [
            "Iran",
            2.0731447875732556e-05
          ],
          [
            "Dominican Republic",
            2.0177447368041612e-05
          ],
          [
            "Cuba",
            1.895915193017572e-05
          ],
          [
            "Australia",
            1.8936998458229937e-05
          ],
          [
            "Nicaragua",
            1.879622504930012e-05
          ],
          [
            "Martinique",
            1.8582521079224534e-05
          ],
          [
            "Germany",
            1.8511276721255854e-05
          ],
          [
            "Senegal",
            1.8359129171585664e-05
          ],
          [
            "Egypt",
            1.8227900000056252e-05
          ],
          [
            "Bolivia",
            1.75989480339922e-05
          ],
          [
            "Gambia",
            1.5970779713825323e-05
          ],
          [
            "Equatorial Guinea",
            1.531115594843868e-05
          ],
          [
            "Iraq",
            1.526613050373271e-05
          ],
          [
            "United States Virgin Islands",
            1.4802681107539684e-05
          ],
          [
            "Kuwait",
            1.4377081242855638e-05
          ],
          [
            "Madeira Islands",
            1.4085832845012192e-05
          ],
          [
            "El Salvador",
            1.4041787835594732e-05
          ],
          [
            "Italy",
            1.3452773600874934e-05
          ],
          [
            "Netherlands Antilles",
            1.300135045312345e-05
          ],
          [
            "Tajikistan",
            1.2503205653047189e-05
          ],
          [
            "Armenia",
            1.1528911272762343e-05
          ],
          [
            "Kenya",
            1.1078916031692643e-05
          ],
          [
            "Algeria",
            1.0226212907582521e-05
          ],
          [
            "Guinea",
            1.0094820936501492e-05
          ],
          [
            "Eswatini",
            1.0040439519798383e-05
          ],
          [
            "Zimbabwe",
            9.581367521604989e-06
          ],
          [
            "Suriname",
            9.543375199427828e-06
          ],
          [
            "Greece",
            9.535187928122468e-06
          ],
          [
            "Bosnia & Herzegovina",
            9.328475243819412e-06
          ],
          [
            "Uganda",
            9.138577297562733e-06
          ],
          [
            "Sudan",
            8.952424650487956e-06
          ],
          [
            "South Georgia Islands",
            8.53410892887041e-06
          ],
          [
            "Reunion",
            8.44846545078326e-06
          ],
          [
            "Costa Rica",
            8.400309525313787e-06
          ],
          [
            "Mexico",
            8.178310054063331e-06
          ],
          [
            "Luxembourg",
            7.604043730680132e-06
          ],
          [
            "Bahamas",
            7.571090463898145e-06
          ],
          [
            "Comoros",
            7.101821211108472e-06
          ],
          [
            "Liberia",
            5.698175300494768e-06
          ],
          [
            "Ethiopia",
            5.0035459935315885e-06
          ],
          [
            "United States of America",
            4.57294800071395e-06
          ],
          [
            "Samoa",
            4.466999143915018e-06
          ],
          [
            "DR Congo",
            4.369725957076298e-06
          ],
          [
            "Poland",
            4.325643203628715e-06
          ],
          [
            "Tanzania",
            3.900453521055169e-06
          ],
          [
            "Côte d'Ivoire",
            3.7148176943446742e-06
          ],
          [
            "Turks and Caicos Islands",
            3.6324618122307584e-06
          ],
          [
            "Laos",
            3.4586371384648373e-06
          ],
          [
            "Barbados",
            3.247595486755017e-06
          ],
          [
            "Nepal",
            3.081466502408148e-06
          ],
          [
            "Sierra Leone",
            2.893345481425058e-06
          ],
          [
            "Uruguay",
            2.861803295672871e-06
          ],
          [
            "Eritrea",
            2.7799517283710884e-06
          ],
          [
            "Denmark",
            2.587323251646012e-06
          ],
          [
            "Kiribati",
            1.5844756262595183e-07
          ]
        ]
      },
      "geometry": {
        "type": "MultiLineString",
        "coordinates": [
          [
            [
              46.93827160493828,
              43.97530864197532
            ],
            [
              46.69135802469134,
              42.987654320987644
            ],
            [
              46.44444444444446,
              42.0
            ],
            [
              46.19753086419752,
              40.765432098765444
            ],
            [
              45.950617283950635,
              39.77777777777777
            ],
            [
              45.703703703703695,
              38.296296296296305
            ],
            [
              45.45679012345681,
              37.06172839506172
            ],
            [
              45.20987654320987,
              36.32098765432099
            ],
            [
              44.96296296296296,
              35.580246913580254
            ],
            [
              44.71604938271605,
              34.09876543209879
            ],
            [
              43.97530864197532,
              32.8641975308642
            ],
            [
              43.728395061728406,
              31.87654320987656
            ],
            [
              43.234567901234584,
              30.888888888888914
            ],
            [
              42.74074074074076,
              29.65432098765433
            ],
            [
              42.24691358024691,
              28.666666666666686
            ],
            [
              41.75308641975309,
              27.4320987654321
            ],
            [
              41.25925925925927,
              26.691358024691368
            ],
            [
              40.765432098765444,
              25.950617283950635
            ],
            [
              40.51851851851853,
              24.71604938271605
            ],
            [
              40.02469135802471,
              23.728395061728406
            ],
            [
              39.53086419753086,
              22.740740740740762
            ],
            [
              39.03703703703704,
              22.0
            ],
            [
              38.79012345679013,
              21.259259259259267
            ],
            [
              38.543209876543216,
              20.02469135802471
            ],
            [
              37.80246913580248,
              19.037037037037067
            ],
            [
              37.30864197530866,
              17.802469135802482
            ],
            [
              36.5679012345679,
              16.5679012345679
            ],
            [
              35.827160493827165,
              15.580246913580254
            ],
            [
              35.08641975308643,
              14.34567901234567
            ],
            [
              34.83950617283949,
              13.111111111111114
            ],
            [
              34.34567901234567,
              12.370370370370381
            ],
            [
              33.85185185185185,
              11.629629629629619
            ],
            [
              33.111111111111114,
              10.395061728395092
            ],
            [
              32.61728395061729,
              9.407407407407419
            ],
            [
              32.12345679012347,
              8.419753086419746
            ],
            [
              31.62962962962962,
              7.1851851851851904
            ],
            [
              30.888888888888886,
              6.197530864197546
            ]
          ],
          [
            [
              31.382716049382736,
              5.209876543209873
            ],
            [
              30.395061728395063,
              5.209876543209873
            ],
            [
              29.160493827160508,
              5.209876543209873
            ],
            [
              28.172839506172835,
              5.209876543209873
            ],
            [
              27.4320987654321,
              4.96296296296299
            ],
            [
              26.691358024691368,
              4.716049382716051
            ],
            [
              25.950617283950635,
              4.2222222222222285
            ],
            [
              24.962962962962962,
              4.2222222222222285
            ],
            [
              24.46913580246914,
              3.481481481481495
            ],
            [
              23.481481481481495,
              3.234567901234584
            ],
            [
              22.740740740740762,
              2.9876543209876445
            ],
            [
              22.0,
              2.740740740740762
            ],
            [
              21.012345679012356,
              2.2469135802469395
            ]
          ],
          [
            [
              22.0,
              2.740740740740762
            ],
            [
              21.259259259259267,
              2.2469135802469395
            ],
            [
              20.271604938271594,
              2.2469135802469395
            ],
            [
              19.53086419753086,
              2.0
            ],
            [
              18.543209876543216,
              2.0
            ],
            [
              17.555555555555543,
              2.0
            ],
            [
              16.5679012345679,
              2.0
            ],
            [
              15.580246913580254,
              2.0
            ],
            [
              14.83950617283952,
              2.4938271604938222
            ],
            [
              14.098765432098787,
              2.740740740740762
            ],
            [
              13.604938271604937,
              3.481481481481495
            ],
            [
              13.111111111111114,
              4.46913580246914
            ],
            [
              12.864197530864203,
              5.950617283950635
            ],
            [
              12.617283950617292,
              6.691358024691368
            ],
            [
              12.370370370370381,
              7.432098765432102
            ],
            [
              12.12345679012347,
              8.172839506172863
            ],
            [
              12.12345679012347,
              9.407407407407419
            ],
            [
              12.12345679012347,
              10.641975308641975
            ],
            [
              12.12345679012347,
              11.876543209876559
            ],
            [
              12.12345679012347,
              12.864197530864203
            ],
            [
              12.12345679012347,
              13.851851851851848
            ],
            [
              12.12345679012347,
              15.086419753086432
            ],
            [
              12.370370370370381,
              15.827160493827165
            ],
            [
              12.617283950617292,
              16.5679012345679
            ],
            [
              13.111111111111114,
              17.30864197530866
            ],
            [
              13.358024691358025,
              18.049382716049394
            ],
            [
              14.098765432098787,
              18.790123456790127
            ],
            [
              14.59259259259261,
              19.53086419753089
            ],
            [
              15.333333333333343,
              20.518518518518533
            ],
            [
              16.074074074074076,
              21.012345679012356
            ],
            [
              16.5679012345679,
              21.75308641975309
            ],
            [
              17.30864197530866,
              22.24691358024694
            ],
            [
              18.049382716049394,
              22.740740740740762
            ]
          ],
          [
            [
              18.296296296296305,
              22.987654320987644
            ],
            [
              18.790123456790127,
              23.728395061728406
            ],
            [
              19.037037037037038,
              24.71604938271605
            ],
            [
              19.037037037037038,
              25.703703703703695
            ],
            [
              19.28395061728395,
              26.691358024691368
            ],
            [
              19.77777777777777,
              27.4320987654321
            ],
            [
              20.02469135802471,
              28.419753086419746
            ],
            [
              20.02469135802471,
              29.40740740740742
            ],
            [
              20.02469135802471,
              30.395061728395063
            ],
            [
              20.02469135802471,
              31.87654320987656
            ],
            [
              20.02469135802471,
              32.8641975308642
            ],
            [
              20.02469135802471,
              33.85185185185185
            ]
          ],
          [
            [
              20.271604938271594,
              34.09876543209879
            ],
            [
              20.02469135802471,
              34.83950617283952
            ],
            [
              19.53086419753086,
              36.81481481481484
            ],
            [
              19.037037037037038,
              37.80246913580248
            ],
            [
              18.790123456790127,
              38.543209876543216
            ],
            [
              19.28395061728395,
              39.53086419753089
            ],
            [
              20.02469135802471,
              40.765432098765444
            ],
            [
              20.518518518518533,
              41.50617283950618
            ],
            [
              21.012345679012356,
              42.49382716049382
            ],
            [
              21.75308641975309,
              42.74074074074076
            ],
            [
              22.493827160493822,
              43.481481481481495
            ],
            [
              23.234567901234584,
              43.97530864197532
            ],
            [
              23.975308641975317,
              44.46913580246914
            ],
            [
              24.71604938271605,
              44.71604938271605
            ],
            [
              25.950617283950635,
              45.45679012345681
            ],
            [
              26.691358024691368,
              45.950617283950635
            ],
            [
              27.4320987654321,
              46.44444444444446
            ],
            [
              28.172839506172835,
              46.69135802469137
            ],
            [
              28.91358024691357,
              46.93827160493828
            ],
            [
              29.90123456790124,
              47.18518518518519
            ],
            [
              30.888888888888886,
              47.67901234567901
            ],
            [
              31.62962962962962,
              47.925925925925924
            ],
            [
              32.37037037037038,
              48.17283950617286
            ],
            [
              33.111111111111114,
              48.419753086419746
            ],
            [
              34.59259259259261,
              48.666666666666686
            ],
            [
              35.33333333333334,
              48.9135802469136
            ],
            [
              36.074074074074076,
              49.40740740740742
            ]
          ],
          [
            [
              35.827160493827165,
              49.16049382716051
            ],
            [
              36.81481481481481,
              49.65432098765433
            ],
            [
              37.55555555555554,
              50.14814814814815
            ],
            [
              38.049382716049394,
              50.888888888888886
            ],
            [
              38.79012345679013,
              51.382716049382736
            ],
            [
              39.53086419753086,
              51.87654320987656
            ],
            [
              40.02469135802471,
              52.61728395061729
            ],
            [
              40.51851851851853,
              53.358024691358025
            ],
            [
              41.012345679012356,
              54.09876543209879
            ],
            [
              41.75308641975309,
              54.59259259259261
            ],
            [
              42.74074074074076,
              54.59259259259261
            ],
            [
              43.48148148148147,
              54.34567901234567
            ],
            [
              44.22222222222223,
              54.59259259259261
            ],
            [
              44.96296296296296,
              55.33333333333334
            ],
            [
              45.703703703703695,
              56.5679012345679
            ],
            [
              46.44444444444446,
              57.55555555555557
            ],
            [
              46.69135802469134,
              58.543209876543216
            ],
            [
              47.18518518518519,
              59.28395061728395
            ],
            [
              47.67901234567901,
              60.02469135802471
            ],
            [
              48.172839506172835,
              61.25925925925927
            ],
            [
              48.419753086419746,
              62.0
            ],
            [
              49.16049382716051,
              61.50617283950618
            ],
            [
              49.65432098765433,
              60.765432098765444
            ],
            [
              50.14814814814815,
              60.02469135802471
            ],
            [
              50.39506172839506,
              59.28395061728395
            ],
            [
              50.641975308641975,
              58.543209876543216
            ],
            [
              50.888888888888886,
              57.55555555555557
            ],
            [
              50.888888888888886,
              56.5679012345679
            ],
            [
              50.888888888888886,
              55.580246913580254
            ],
            [
              51.1358024691358,
              54.83950617283952
            ],
            [
              51.62962962962962,
              53.60493827160494
            ],
            [
              51.87654320987656,
              52.61728395061729
            ],
            [
              51.87654320987656,
              51.62962962962962
            ],
            [
              51.1358024691358,
              51.382716049382736
            ],
            [
              50.39506172839506,
              51.1358024691358
            ],
            [
              49.16049382716051,
              51.1358024691358
            ],
            [
              48.172839506172835,
              51.1358024691358
            ],
            [
              47.4320987654321,
              50.888888888888886
            ],
            [
              46.69135802469134,
              50.641975308641975
            ],
            [
              46.69135802469134,
              49.65432098765433
            ],
            [
              47.4320987654321,
              49.40740740740742
            ],
            [
              48.172839506172835,
              49.16049382716051
            ],
            [
              49.16049382716051,
              48.9135802469136
            ],
            [
              49.65432098765433,
              48.17283950617286
            ],
            [
              49.40740740740739,
              47.18518518518519
            ],
            [
              48.666666666666686,
              46.69135802469137
            ],
            [
              47.925925925925924,
              45.703703703703695
            ],
            [
              47.67901234567901,
              44.71604938271605
            ],
            [
              47.18518518518519,
              43.97530864197532
            ],
            [
              46.69135802469134,
              42.74074074074076
            ],
            [
              46.19753086419752,
              42.0
            ],
            [
              46.19753086419752,
              40.765432098765444
            ],
            [
              45.950617283950635,
              40.02469135802471
            ]
          ]
        ]
      }
    }
  ]
}