{
  "type": "FeatureCollection",
  "crs": {
    "type": "name",
    "properties": {
      "name": "urn:ogc:def:crs:OGC:1.3:CRS84"
    }
  },
  "features": [
    {
      "type": "Feature",
      "properties": {
        "timestamp": "2026-03-25T19:01:04.482237",
        "country_name": "Malaysia",
        "author": "",
        "author_id": "fc146340-33ea-4f96-94d5-f7a43febc223",
        "validated": false,
        "ranking": [
          [
            "Malaysia",
            0.15669406950473785
          ],
          [
            "Puerto Rico",
            0.15436026453971863
          ],
          [
            "Indonesia",
            0.10388777405023575
          ],
          [
            "Netherlands Antilles",
            0.09481008350849152
          ],
          [
            "Turkey",
            0.06253322958946228
          ],
          [
            "Timor-Leste",
            0.052424658089876175
          ],
          [
            "Ecuador",
            0.04313770309090614
          ],
          [
            "Georgia",
            0.030236700549721718
          ],
          [
            "Jamaica",
            0.02800884284079075
          ],
          [
            "Solomon Islands",
            0.020460501313209534
          ],
          [
            "Uzbekistan",
            0.01790384016931057
          ],
          [
            "Turks and Caicos Islands",
            0.01698240637779236
          ],
          [
            "Panama",
            0.01528338622301817
          ],
          [
            "Mongolia",
            0.013391694985330105
          ],
          [
            "Gambia",
            0.011635283939540386
          ],
          [
            "Kazakhstan",
            0.010946329683065414
          ],
          [
            "Turkmenistan",
            0.009765689261257648
          ],
          [
            "Cuba",
            0.009370359592139721
          ],
          [
            "Samoa",
            0.008969400078058243
          ],
          [
            "Slovakia",
            0.007765449117869139
          ],
          [
            "Nepal",
            0.0065513234585523605
          ],
          [
            "Comoros",
            0.005966344848275185
          ],
          [
            "Latvia",
            0.005675513297319412
          ],
          [
            "New Caledonia",
            0.005430818069726229
          ],
          [
            "El Salvador",
            0.0051328931003808975
          ],
          [
            "Kyrgyzstan",
            0.005040118005126715
          ],
          [
            "Cyprus",
            0.005006182473152876
          ],
          [
            "Dominican Republic",
            0.00495501235127449
          ],
          [
            "Equatorial Guinea",
            0.004329284653067589
          ],
          [
            "Czech Republic",
            0.0038302699103951454
          ],
          [
            "Russia",
            0.0037540048360824585
          ],
          [
            "Austria",
            0.0035758642479777336
          ],
          [
            "Central African Republic",
            0.003288819221779704
          ],
          [
            "Yemen",
            0.003161740954965353
          ],
          [
            "Hong Kong",
            0.00316013116389513
          ],
          [
            "Madeira Islands",
            0.002811088925227523
          ],
          [
            "Honduras",
            0.002305857837200165
          ],
          [
            "Papua New Guinea",
            0.0019660135731101036
          ],
          [
            "Guinea-Bissau",
            0.0019248146563768387
          ],
          [
            "Burkina Faso",
            0.0018238768680021167
          ],
          [
            "United States of America",
            0.0017398857744410634
          ],
          [
            "Switzerland",
            0.0017085486324504018
          ],
          [
            "Eritrea",
            0.001585022546350956
          ],
          [
            "Armenia",
            0.0015737967332825065
          ],
          [
            "Mexico",
            0.001523587852716446
          ],
          [
            "Falkland Islands",
            0.0015054885298013687
          ],
          [
            "Ukraine",
            0.0014357734471559525
          ],
          [
            "Tajikistan",
            0.001387905445881188
          ],
          [
            "Heard and McDonald Islands",
            0.0013837291626259685
          ],
          [
            "United Arab Emirates",
            0.0013096412876620889
          ],
          [
            "Sao Tome and Principe",
            0.001177727011963725
          ],
          [
            "Paraguay",
            0.0011664709309116006
          ],
          [
            "Mali",
            0.0011579652782529593
          ],
          [
            "Bahamas",
            0.0010888602118939161
          ],
          [
            "Chile",
            0.0010794246336445212
          ],
          [
            "New Zealand",
            0.001011985237710178
          ],
          [
            "Japan",
            0.0009161796770058572
          ],
          [
            "Bhutan",
            0.0008380808285437524
          ],
          [
            "Lithuania",
            0.0007639302057214081
          ],
          [
            "Estonia",
            0.0006898310384713113
          ],
          [
            "Saudi Arabia",
            0.0006399028352461755
          ],
          [
            "South Korea",
            0.0006219481001608074
          ],
          [
            "Israel",
            0.0006139604956842959
          ],
          [
            "Martinique",
            0.0005820760852657259
          ],
          [
            "Senegal",
            0.000559616950340569
          ],
          [
            "Malawi",
            0.0005343611119315028
          ],
          [
            "Spain",
            0.0005121072754263878
          ],
          [
            "Guadeloupe",
            0.0005026516737416387
          ],
          [
            "Moldova",
            0.0004960816586390138
          ],
          [
            "Niger",
            0.0004621238331310451
          ],
          [
            "Hungary",
            0.00046192380250431597
          ],
          [
            "Fiji",
            0.00045936176320537925
          ],
          [
            "Vanuatu",
            0.0004359390295576304
          ],
          [
            "Belgium",
            0.00043035176349803805
          ],
          [
            "South Sudan",
            0.00042912556091323495
          ],
          [
            "Barbados",
            0.000428828556323424
          ],
          [
            "Cape Verde",
            0.0004129844601266086
          ],
          [
            "Serbia",
            0.00040017368155531585
          ],
          [
            "Romania",
            0.0003628434787970036
          ],
          [
            "Guinea",
            0.00036047608591616154
          ],
          [
            "Bangladesh",
            0.0003559347242116928
          ],
          [
            "Dominica",
            0.0003449298383202404
          ],
          [
            "Bosnia & Herzegovina",
            0.0003409886558074504
          ],
          [
            "Bahrain",
            0.00034082873025909066
          ],
          [
            "Azerbaijan",
            0.0003381679707672447
          ],
          [
            "Iran",
            0.000330380949890241
          ],
          [
            "DR Congo",
            0.0003263146209064871
          ],
          [
            "Australia",
            0.00032344620558433235
          ],
          [
            "China",
            0.00030195346334949136
          ],
          [
            "Costa Rica",
            0.0002967418695334345
          ],
          [
            "Thailand",
            0.0002924948057625443
          ],
          [
            "Belize",
            0.0002844229165930301
          ],
          [
            "Togo",
            0.00027913509984500706
          ],
          [
            "Slovenia",
            0.00027750589651986957
          ],
          [
            "Italy",
            0.0002773106680251658
          ],
          [
            "Rwanda",
            0.0002618687867652625
          ],
          [
            "Argentina",
            0.00026114704087376595
          ],
          [
            "Myanmar",
            0.00026087125297635794
          ],
          [
            "Benin",
            0.0002492876083124429
          ],
          [
            "Liberia",
            0.0002425602579023689
          ],
          [
            "Oman",
            0.0002396040508756414
          ],
          [
            "Somalia",
            0.00023195687390398234
          ],
          [
            "Zambia",
            0.0002315674355486408
          ],
          [
            "Montenegro",
            0.00023006749688647687
          ],
          [
            "India",
            0.00022903422359377146
          ],
          [
            "Ethiopia",
            0.00022436535800807178
          ],
          [
            "Sierra Leone",
            0.00022212692419998348
          ],
          [
            "Iceland",
            0.00021818195818923414
          ],
          [
            "Namibia",
            0.00021581164037343115
          ],
          [
            "Kuwait",
            0.0002039144455920905
          ],
          [
            "Iraq",
            0.0002014154160860926
          ],
          [
            "Trinidad and Tobago",
            0.00019654633069876581
          ],
          [
            "Mozambique",
            0.00019606557907536626
          ],
          [
            "Guyana",
            0.0001897341280709952
          ],
          [
            "Bulgaria",
            0.00018815923249348998
          ],
          [
            "Philippines",
            0.00018543087935540825
          ],
          [
            "Guam",
            0.00018014137458521873
          ],
          [
            "Syria",
            0.00017923963605426252
          ],
          [
            "Albania",
            0.00017209647921845317
          ],
          [
            "Antigua & Barbuda",
            0.00017098893295042217
          ],
          [
            "Botswana",
            0.00016979165957309306
          ],
          [
            "Egypt",
            0.00016299236449413002
          ],
          [
            "Kenya",
            0.00015959427400957793
          ],
          [
            "Suriname",
            0.00015767087461426854
          ],
          [
            "Colombia",
            0.00015067345520947129
          ],
          [
            "Sweden",
            0.00015044573228806257
          ],
          [
            "West Bank",
            0.0001479565689805895
          ],
          [
            "Cameroon",
            0.00014666355855297297
          ],
          [
            "South Georgia Islands",
            0.0001430375559721142
          ],
          [
            "Tunisia",
            0.00014033679326530546
          ],
          [
            "Portugal",
            0.0001398174063069746
          ],
          [
            "Vietnam",
            0.00013822328764945269
          ],
          [
            "Brunei",
            0.00013641634723171592
          ],
          [
            "Peru",
            0.0001355689310003072
          ],
          [
            "Algeria",
            0.00013396241411101073
          ],
          [
            "North Macedonia",
            0.00013080603093840182
          ],
          [
            "Guatemala",
            0.00012733385665342212
          ],
          [
            "Poland",
            0.00012598630564752966
          ],
          [
            "Brazil",
            0.0001235754316439852
          ],
          [
            "Venezuela",
            0.000122882061987184
          ],
          [
            "United States Virgin Islands",
            0.00012049335782648996
          ],
          [
            "Gabon",
            0.00011584065214265138
          ],
          [
            "Luxembourg",
            0.00011052791523979977
          ],
          [
            "Laos",
            0.00011008061846951023
          ],
          [
            "Reunion",
            0.00010985178960254416
          ],
          [
            "United Kingdom",
            0.00010820441093528643
          ],
          [
            "Svalbard",
            0.00010809631930897012
          ],
          [
            "Tanzania",
            0.00010547752754064277
          ],
          [
            "Eswatini",
            0.00010357679275330156
          ],
          [
            "Uruguay",
            0.00010168857988901436
          ],
          [
            "Mayotte",
            9.744681301526725e-05
          ],
          [
            "Nicaragua",
            9.532045805826783e-05
          ],
          [
            "Djibouti",
            9.432843216927722e-05
          ],
          [
            "Finland",
            9.412785584572703e-05
          ],
          [
            "Bolivia",
            9.172597492579371e-05
          ],
          [
            "Nigeria",
            9.169169061351568e-05
          ],
          [
            "Burundi",
            9.164361836155877e-05
          ],
          [
            "Palau",
            9.067999781109393e-05
          ],
          [
            "Sudan",
            8.869029261404648e-05
          ],
          [
            "Zimbabwe",
            8.757397154113278e-05
          ],
          [
            "Greenland",
            8.613933459855616e-05
          ],
          [
            "South Africa",
            8.554645319236442e-05
          ],
          [
            "Libya",
            8.366381371160969e-05
          ],
          [
            "Angola",
            8.341731881955639e-05
          ],
          [
            "French Guiana",
            8.261564653366804e-05
          ],
          [
            "Sri Lanka",
            8.253799023805186e-05
          ],
          [
            "Congo",
            8.089217590168118e-05
          ],
          [
            "Qatar",
            8.016061474336311e-05
          ],
          [
            "Isle of Man",
            8.009612065507099e-05
          ],
          [
            "Morocco",
            7.59587055654265e-05
          ],
          [
            "Croatia",
            7.535206532338634e-05
          ],
          [
            "Ghana",
            7.230976916616783e-05
          ],
          [
            "Mauritania",
            7.198665844043717e-05
          ],
          [
            "Uganda",
            6.757053779438138e-05
          ],
          [
            "Lebanon",
            6.563454371644184e-05
          ],
          [
            "Faroe Islands",
            6.354776269290596e-05
          ],
          [
            "France",
            6.189797568367794e-05
          ],
          [
            "Norway",
            6.0603815654758364e-05
          ],
          [
            "Canada",
            5.359142960514873e-05
          ],
          [
            "Lesotho",
            5.086201417725533e-05
          ],
          [
            "Cambodia",
            4.874615842709318e-05
          ],
          [
            "Côte d'Ivoire",
            4.8105524911079556e-05
          ],
          [
            "Saint Lucia",
            4.696562609751709e-05
          ],
          [
            "North Korea",
            4.6314809878822416e-05
          ],
          [
            "Taiwan",
            4.17078408645466e-05
          ],
          [
            "Pakistan",
            4.159725722274743e-05
          ],
          [
            "Belarus",
            3.5971625038655475e-05
          ],
          [
            "Jordan",
            3.5257911804364994e-05
          ],
          [
            "Germany",
            2.9117321901139803e-05
          ],
          [
            "Afghanistan",
            2.9043219910818152e-05
          ],
          [
            "Ireland",
            2.7584294002735987e-05
          ],
          [
            "Netherlands",
            2.4737157218623906e-05
          ],
          [
            "Kiribati",
            2.20028141484363e-05
          ],
          [
            "Haiti",
            2.1253783415886573e-05
          ],
          [
            "Western Sahara",
            1.989749762287829e-05
          ],
          [
            "Chad",
            1.533818976895418e-05
          ],
          [
            "Denmark",
            1.3708843653148506e-05
          ],
          [
            "Greece",
            1.3321070582605898e-05
          ],
          [
            "Madagascar",
            1.3209491953602992e-05
          ]
        ]
      },
      "geometry": {
        "type": "MultiLineString",
        "coordinates": [
          [
            [
              2.0,
              23.484375
            ],
            [
              2.0,
              24.265625
            ],
            [
              2.0,
              25.359375
            ],
            [
              2.0,
              26.140625
            ],
            [
              2.15625,
              27.546875
            ],
            [
              2.3125,
              29.265625
            ],
            [
              2.78125,
              31.921875
            ],
            [
              3.25,
              34.890625
            ],
            [
              3.875,
              37.703125
            ],
            [
              4.03125,
              40.203125
            ],
            [
              4.1875,
              42.078125
            ],
            [
              4.1875,
              43.640625
            ],
            [
              4.1875,
              44.265625
            ],
            [
              4.1875,
              45.359375
            ],
            [
              4.1875,
              44.578125
            ],
            [
              4.1875,
              43.640625
            ],
            [
              4.1875,
              42.703125
            ],
            [
              4.1875,
              41.609375
            ],
            [
              4.1875,
              40.515625
            ],
            [
              4.1875,
              39.265625
            ],
            [
              3.875,
              37.234375
            ],
            [
              3.875,
              35.828125
            ],
            [
              3.875,
              34.421875
            ],
            [
              3.875,
              33.328125
            ],
            [
              4.03125,
              32.546875
            ],
            [
              4.03125,
              31.296875
            ],
            [
              4.03125,
              30.203125
            ],
            [
              4.03125,
              29.421875
            ],
            [
              4.34375,
              28.484375
            ],
            [
              4.5,
              27.859375
            ],
            [
              4.8125,
              27.390625
            ],
            [
              4.96875,
              26.765625
            ],
            [
              5.4375,
              26.296875
            ],
            [
              5.75,
              25.671875
            ],
            [
              6.21875,
              25.046875
            ],
            [
              6.53125,
              24.265625
            ],
            [
              6.6875,
              23.640625
            ],
            [
              7.0,
              25.203125
            ],
            [
              7.0,
              27.703125
            ],
            [
              7.0,
              31.765625
            ],
            [
              7.0,
              33.796875
            ],
            [
              7.0,
              35.984375
            ],
            [
              7.0,
              38.015625
            ],
            [
              7.3125,
              39.421875
            ],
            [
              7.3125,
              40.359375
            ],
            [
              7.3125,
              41.453125
            ],
            [
              7.3125,
              42.703125
            ],
            [
              7.3125,
              43.484375
            ]
          ],
          [
            [
              13.09375,
              41.765625
            ],
            [
              13.09375,
              41.140625
            ],
            [
              12.3125,
              39.890625
            ],
            [
              11.53125,
              37.859375
            ],
            [
              10.90625,
              35.515625
            ],
            [
              9.96875,
              31.609375
            ],
            [
              9.65625,
              28.953125
            ],
            [
              9.1875,
              27.703125
            ],
            [
              9.03125,
              26.453125
            ],
            [
              8.875,
              25.515625
            ],
            [
              8.5625,
              24.734375
            ],
            [
              8.40625,
              23.796875
            ],
            [
              8.09375,
              23.328125
            ]
          ],
          [
            [
              20.75,
              38.171875
            ],
            [
              20.28125,
              37.546875
            ],
            [
              19.8125,
              36.453125
            ],
            [
              19.1875,
              35.046875
            ],
            [
              18.71875,
              33.328125
            ],
            [
              18.40625,
              32.234375
            ],
            [
              18.40625,
              31.140625
            ],
            [
              18.25,
              29.734375
            ],
            [
              18.09375,
              28.796875
            ],
            [
              17.9375,
              27.703125
            ],
            [
              17.78125,
              25.515625
            ],
            [
              17.78125,
              24.734375
            ],
            [
              17.625,
              24.265625
            ],
            [
              17.625,
              23.640625
            ],
            [
              17.9375,
              22.703125
            ],
            [
              18.09375,
              22.234375
            ],
            [
              18.5625,
              21.765625
            ],
            [
              19.1875,
              21.609375
            ],
            [
              19.65625,
              21.453125
            ],
            [
              20.4375,
              21.296875
            ],
            [
              21.6875,
              21.453125
            ],
            [
              22.46875,
              21.765625
            ],
            [
              22.625,
              22.546875
            ],
            [
              22.625,
              23.171875
            ],
            [
              22.78125,
              23.796875
            ],
            [
              22.78125,
              24.421875
            ],
            [
              22.78125,
              25.046875
            ],
            [
              22.78125,
              25.828125
            ],
            [
              22.46875,
              26.453125
            ],
            [
              21.84375,
              26.453125
            ],
            [
              21.21875,
              26.609375
            ],
            [
              20.4375,
              26.609375
            ]
          ],
          [
            [
              32.15625,
              33.796875
            ],
            [
              30.90625,
              33.015625
            ],
            [
              30.125,
              32.234375
            ],
            [
              29.65625,
              31.296875
            ],
            [
              28.875,
              30.046875
            ],
            [
              28.40625,
              28.796875
            ],
            [
              28.09375,
              27.390625
            ],
            [
              27.625,
              26.296875
            ],
            [
              27.3125,
              25.203125
            ],
            [
              27.3125,
              24.265625
            ],
            [
              27.3125,
              23.484375
            ],
            [
              27.15625,
              22.859375
            ],
            [
              27.15625,
              22.078125
            ],
            [
              27.15625,
              21.140625
            ],
            [
              27.15625,
              20.515625
            ],
            [
              27.15625,
              19.890625
            ],
            [
              27.46875,
              19.421875
            ],
            [
              28.25,
              18.953125
            ],
            [
              29.03125,
              18.640625
            ],
            [
              29.8125,
              18.640625
            ],
            [
              30.59375,
              18.640625
            ],
            [
              31.375,
              18.640625
            ],
            [
              32.0,
              18.953125
            ],
            [
              32.78125,
              19.109375
            ],
            [
              33.25,
              19.265625
            ],
            [
              33.71875,
              19.421875
            ],
            [
              33.71875,
              20.046875
            ],
            [
              33.71875,
              20.828125
            ],
            [
              33.71875,
              21.453125
            ],
            [
              33.5625,
              22.078125
            ],
            [
              33.40625,
              22.546875
            ],
            [
              32.9375,
              22.703125
            ],
            [
              32.3125,
              22.859375
            ],
            [
              31.84375,
              23.015625
            ]
          ],
          [
            [
              39.8125,
              34.109375
            ],
            [
              39.96875,
              32.703125
            ],
            [
              40.28125,
              30.515625
            ],
            [
              40.28125,
              28.328125
            ],
            [
              40.28125,
              26.296875
            ],
            [
              40.28125,
              23.953125
            ],
            [
              40.28125,
              22.390625
            ],
            [
              40.28125,
              21.296875
            ],
            [
              40.125,
              20.671875
            ]
          ],
          [
            [
              41.84375,
              34.109375
            ],
            [
              42.625,
              34.265625
            ],
            [
              43.25,
              34.578125
            ],
            [
              43.875,
              34.578125
            ],
            [
              44.8125,
              34.421875
            ]
          ],
          [
            [
              41.6875,
              28.328125
            ],
            [
              42.625,
              28.328125
            ],
            [
              43.40625,
              28.171875
            ],
            [
              44.03125,
              28.171875
            ],
            [
              44.65625,
              27.703125
            ]
          ],
          [
            [
              41.21875,
              22.859375
            ],
            [
              42.15625,
              22.546875
            ],
            [
              43.25,
              22.234375
            ],
            [
              44.8125,
              21.765625
            ],
            [
              46.0625,
              21.609375
            ],
            [
              47.0,
              21.453125
            ]
          ],
          [
            [
              51.53125,
              20.671875
            ],
            [
              52.15625,
              21.140625
            ],
            [
              52.46875,
              21.765625
            ],
            [
              52.46875,
              23.015625
            ],
            [
              52.46875,
              24.578125
            ],
            [
              52.46875,
              26.296875
            ],
            [
              52.625,
              27.703125
            ],
            [
              52.9375,
              29.734375
            ],
            [
              53.25,
              31.453125
            ],
            [
              53.25,
              32.859375
            ],
            [
              53.5625,
              33.640625
            ],
            [
              53.71875,
              34.578125
            ],
            [
              54.03125,
              35.046875
            ],
            [
              54.5,
              35.515625
            ],
            [
              55.125,
              35.828125
            ],
            [
              55.90625,
              35.828125
            ],
            [
              57.15625,
              35.515625
            ],
            [
              57.625,
              35.046875
            ],
            [
              58.09375,
              34.421875
            ],
            [
              58.09375,
              33.796875
            ],
            [
              58.09375,
              33.015625
            ],
            [
              58.40625,
              32.234375
            ],
            [
              58.5625,
              31.609375
            ],
            [
              58.40625,
              31.140625
            ],
            [
              57.9375,
              30.671875
            ],
            [
              57.15625,
              30.203125
            ],
            [
              56.375,
              30.203125
            ],
            [
              55.59375,
              30.203125
            ],
            [
              54.8125,
              30.203125
            ],
            [
              54.8125,
              29.421875
            ],
            [
              55.75,
              27.546875
            ],
            [
              57.9375,
              24.421875
            ],
            [
              59.34375,
              22.234375
            ],
            [
              60.59375,
              20.515625
            ],
            [
              61.53125,
              19.265625
            ],
            [
              62.0,
              18.953125
            ]
          ]
        ]
      }
    }
  ]
}