{
  "type": "FeatureCollection",
  "crs": {
    "type": "name",
    "properties": {
      "name": "urn:ogc:def:crs:OGC:1.3:CRS84"
    }
  },
  "features": [
    {
      "type": "Feature",
      "properties": {
        "timestamp": "2026-05-31T07:28:53.839582",
        "country_name": "Martinique",
        "author": "",
        "author_id": "55f23a75-0b26-4a5d-bdc0-d0fcf6e3ed4f",
        "validated": false,
        "ranking": [
          [
            "Barbados",
            0.08307123929262161
          ],
          [
            "Bahamas",
            0.0732126459479332
          ],
          [
            "Equatorial Guinea",
            0.05555835738778114
          ],
          [
            "Cape Verde",
            0.04585840180516243
          ],
          [
            "Vanuatu",
            0.041022736579179764
          ],
          [
            "United States of America",
            0.04048599675297737
          ],
          [
            "Saudi Arabia",
            0.02263941802084446
          ],
          [
            "Comoros",
            0.02216823399066925
          ],
          [
            "Eritrea",
            0.022055434063076973
          ],
          [
            "Ethiopia",
            0.02083796262741089
          ],
          [
            "Samoa",
            0.01656055822968483
          ],
          [
            "Solomon Islands",
            0.014766592532396317
          ],
          [
            "Guadeloupe",
            0.014236311428248882
          ],
          [
            "Martinique",
            0.013307035900652409
          ],
          [
            "Italy",
            0.012973513454198837
          ],
          [
            "Romania",
            0.012833770364522934
          ],
          [
            "North Macedonia",
            0.012045476585626602
          ],
          [
            "Reunion",
            0.011493983678519726
          ],
          [
            "Turks and Caicos Islands",
            0.011405451223254204
          ],
          [
            "Bahrain",
            0.011244121007621288
          ],
          [
            "Vietnam",
            0.010558180510997772
          ],
          [
            "Mexico",
            0.010471820831298828
          ],
          [
            "Togo",
            0.01031277421861887
          ],
          [
            "Heard and McDonald Islands",
            0.010108775459229946
          ],
          [
            "South Georgia Islands",
            0.0100430678576231
          ],
          [
            "Guatemala",
            0.010024351999163628
          ],
          [
            "United States Virgin Islands",
            0.009992815554141998
          ],
          [
            "Malawi",
            0.008751386776566505
          ],
          [
            "Nepal",
            0.008556588552892208
          ],
          [
            "Uzbekistan",
            0.008122474886476994
          ],
          [
            "Albania",
            0.007841760292649269
          ],
          [
            "Turkmenistan",
            0.007661479525268078
          ],
          [
            "Tajikistan",
            0.007082859519869089
          ],
          [
            "Cuba",
            0.006903954315930605
          ],
          [
            "Uruguay",
            0.006230485625565052
          ],
          [
            "Sierra Leone",
            0.006157980300486088
          ],
          [
            "Czech Republic",
            0.006101266015321016
          ],
          [
            "Antigua & Barbuda",
            0.0059065381065011024
          ],
          [
            "Chile",
            0.005863760132342577
          ],
          [
            "El Salvador",
            0.005764434114098549
          ],
          [
            "Sao Tome and Principe",
            0.005745115224272013
          ],
          [
            "Laos",
            0.005537514574825764
          ],
          [
            "Moldova",
            0.005166515242308378
          ],
          [
            "Guyana",
            0.00512149091809988
          ],
          [
            "Sri Lanka",
            0.005085911136120558
          ],
          [
            "Suriname",
            0.005037946160882711
          ],
          [
            "Peru",
            0.005010281223803759
          ],
          [
            "Poland",
            0.004879556130617857
          ],
          [
            "Lithuania",
            0.004687416832894087
          ],
          [
            "Egypt",
            0.004624843131750822
          ],
          [
            "Ecuador",
            0.004606724716722965
          ],
          [
            "Azerbaijan",
            0.004586656112223864
          ],
          [
            "Dominica",
            0.0045639402233064175
          ],
          [
            "Luxembourg",
            0.0045424895361065865
          ],
          [
            "Iraq",
            0.004521605558693409
          ],
          [
            "Philippines",
            0.004409960005432367
          ],
          [
            "Finland",
            0.004358274862170219
          ],
          [
            "Sudan",
            0.00417400011792779
          ],
          [
            "Rwanda",
            0.0038479543291032314
          ],
          [
            "Serbia",
            0.0038357095327228308
          ],
          [
            "Cambodia",
            0.003801746293902397
          ],
          [
            "Iran",
            0.003714103950187564
          ],
          [
            "Spain",
            0.0036446505691856146
          ],
          [
            "Costa Rica",
            0.0035212954971939325
          ],
          [
            "Belize",
            0.0035082497633993626
          ],
          [
            "Uganda",
            0.0034520351327955723
          ],
          [
            "Bolivia",
            0.0034412734676152468
          ],
          [
            "Dominican Republic",
            0.0034112189896404743
          ],
          [
            "Libya",
            0.0033316262997686863
          ],
          [
            "Georgia",
            0.003187645459547639
          ],
          [
            "Namibia",
            0.003156884340569377
          ],
          [
            "Algeria",
            0.0031258712988346815
          ],
          [
            "Faroe Islands",
            0.0031107997056096792
          ],
          [
            "Turkey",
            0.0029617291875183582
          ],
          [
            "Belarus",
            0.002946139546111226
          ],
          [
            "Puerto Rico",
            0.002629934111610055
          ],
          [
            "Burundi",
            0.0024519292637705803
          ],
          [
            "Côte d'Ivoire",
            0.0024412802886217833
          ],
          [
            "Russia",
            0.0023862114176154137
          ],
          [
            "Ukraine",
            0.002339990809559822
          ],
          [
            "Botswana",
            0.0023042664397507906
          ],
          [
            "Mauritania",
            0.002301784697920084
          ],
          [
            "Mali",
            0.0022825219202786684
          ],
          [
            "Nigeria",
            0.002199237234890461
          ],
          [
            "Australia",
            0.0021842254791408777
          ],
          [
            "Benin",
            0.002179335802793503
          ],
          [
            "Switzerland",
            0.0021678642369806767
          ],
          [
            "Armenia",
            0.0021647282410413027
          ],
          [
            "Angola",
            0.002143086167052388
          ],
          [
            "Senegal",
            0.00213819881901145
          ],
          [
            "Indonesia",
            0.0021377583034336567
          ],
          [
            "United Kingdom",
            0.0021288800053298473
          ],
          [
            "Paraguay",
            0.0021279179491102695
          ],
          [
            "Somalia",
            0.002037468133494258
          ],
          [
            "Timor-Leste",
            0.002029524650424719
          ],
          [
            "Latvia",
            0.0019796958658844233
          ],
          [
            "Thailand",
            0.0019705151207745075
          ],
          [
            "Slovakia",
            0.0019211270846426487
          ],
          [
            "Israel",
            0.0019077662145718932
          ],
          [
            "South Korea",
            0.0019006401998922229
          ],
          [
            "Oman",
            0.001891955966129899
          ],
          [
            "Bangladesh",
            0.001877508359029889
          ],
          [
            "Gabon",
            0.001864817226305604
          ],
          [
            "Eswatini",
            0.0017320782644674182
          ],
          [
            "France",
            0.0016961649525910616
          ],
          [
            "Yemen",
            0.001631811261177063
          ],
          [
            "Malaysia",
            0.0016252478817477822
          ],
          [
            "Nicaragua",
            0.0016238597454503179
          ],
          [
            "New Caledonia",
            0.001620598486624658
          ],
          [
            "West Bank",
            0.0015838879626244307
          ],
          [
            "Lesotho",
            0.0015453892992809415
          ],
          [
            "Bhutan",
            0.0014788825064897537
          ],
          [
            "United Arab Emirates",
            0.001468258211389184
          ],
          [
            "Qatar",
            0.0014457984361797571
          ],
          [
            "Tanzania",
            0.0014319419860839844
          ],
          [
            "Syria",
            0.001397581654600799
          ],
          [
            "Guinea",
            0.0013803064357489347
          ],
          [
            "Niger",
            0.0013631251640617847
          ],
          [
            "Bulgaria",
            0.0013544921530410647
          ],
          [
            "Argentina",
            0.0013458393514156342
          ],
          [
            "Kenya",
            0.0013358347350731492
          ],
          [
            "Ghana",
            0.001321955001913011
          ],
          [
            "Papua New Guinea",
            0.0013144774129614234
          ],
          [
            "Mozambique",
            0.0012808282626792789
          ],
          [
            "Jamaica",
            0.0012505518971011043
          ],
          [
            "Congo",
            0.0012288435827940702
          ],
          [
            "Zambia",
            0.0012061288580298424
          ],
          [
            "New Zealand",
            0.0011937948875129223
          ],
          [
            "Netherlands Antilles",
            0.0011537115788087249
          ],
          [
            "Mongolia",
            0.001146737253293395
          ],
          [
            "Burkina Faso",
            0.001144582754932344
          ],
          [
            "Portugal",
            0.0011419049696996808
          ],
          [
            "South Sudan",
            0.001123018329963088
          ],
          [
            "French Guiana",
            0.0010753897950053215
          ],
          [
            "Liberia",
            0.001073983614332974
          ],
          [
            "Myanmar",
            0.0009986942168325186
          ],
          [
            "Zimbabwe",
            0.0009977289009839296
          ],
          [
            "Jordan",
            0.0009765628492459655
          ],
          [
            "Tunisia",
            0.0009745496208779514
          ],
          [
            "Kazakhstan",
            0.0009537243749946356
          ],
          [
            "Denmark",
            0.0009255898767150939
          ],
          [
            "Djibouti",
            0.0008930509211495519
          ],
          [
            "Cameroon",
            0.0008767187828198075
          ],
          [
            "India",
            0.0008555736858397722
          ],
          [
            "South Africa",
            0.0008184801554307342
          ],
          [
            "Bosnia & Herzegovina",
            0.0008138520643115044
          ],
          [
            "Canada",
            0.0007768645300529897
          ],
          [
            "Montenegro",
            0.000731156556867063
          ],
          [
            "Trinidad and Tobago",
            0.0007176016224548221
          ],
          [
            "Honduras",
            0.0007157112122513354
          ],
          [
            "Colombia",
            0.0006790669867768884
          ],
          [
            "Germany",
            0.0006746735889464617
          ],
          [
            "Hong Kong",
            0.0006433373782783747
          ],
          [
            "Brazil",
            0.0006421910948120058
          ],
          [
            "Cyprus",
            0.0006327584269456565
          ],
          [
            "Saint Lucia",
            0.0006016854313202202
          ],
          [
            "Sweden",
            0.000597899837885052
          ],
          [
            "Belgium",
            0.0005821110680699348
          ],
          [
            "Venezuela",
            0.0005711776902899146
          ],
          [
            "Central African Republic",
            0.0005521280691027641
          ],
          [
            "Hungary",
            0.0005517964600585401
          ],
          [
            "DR Congo",
            0.0005467301234602928
          ],
          [
            "Svalbard",
            0.0005396148189902306
          ],
          [
            "Iceland",
            0.0005037318915128708
          ],
          [
            "Kyrgyzstan",
            0.0004979439545422792
          ],
          [
            "Guam",
            0.00047052217996679246
          ],
          [
            "Kiribati",
            0.00046295716310851276
          ],
          [
            "Japan",
            0.00045211371616460383
          ],
          [
            "Greenland",
            0.00044641285785473883
          ],
          [
            "Mayotte",
            0.0004432752321008593
          ],
          [
            "Fiji",
            0.00040782950236462057
          ],
          [
            "Kuwait",
            0.00039170566014945507
          ],
          [
            "Madeira Islands",
            0.00035496900090947747
          ],
          [
            "Slovenia",
            0.00035489044967107475
          ],
          [
            "Panama",
            0.00035015560570172966
          ],
          [
            "Isle of Man",
            0.00034409042564220726
          ],
          [
            "Croatia",
            0.00033746083499863744
          ],
          [
            "Gambia",
            0.0003176306781824678
          ],
          [
            "Falkland Islands",
            0.0003168742696288973
          ],
          [
            "Estonia",
            0.00030549970688298345
          ],
          [
            "Palau",
            0.00029388812254182994
          ],
          [
            "Guinea-Bissau",
            0.00028668405138887465
          ],
          [
            "Chad",
            0.00027590757235884666
          ],
          [
            "Norway",
            0.000272876292001456
          ],
          [
            "Greece",
            0.0002590443764347583
          ],
          [
            "China",
            0.000251952325925231
          ],
          [
            "Afghanistan",
            0.00023863784736022353
          ],
          [
            "Haiti",
            0.00022861239267513156
          ],
          [
            "North Korea",
            0.00022660629474557936
          ],
          [
            "Brunei",
            0.00022199626255314797
          ],
          [
            "Ireland",
            0.00020928177400492132
          ],
          [
            "Taiwan",
            0.0001617352245375514
          ],
          [
            "Netherlands",
            0.0001520301157142967
          ],
          [
            "Pakistan",
            0.0001397466257913038
          ],
          [
            "Austria",
            0.00013834158016834408
          ],
          [
            "Western Sahara",
            0.00012483539467211813
          ],
          [
            "Morocco",
            7.579669181723148e-05
          ],
          [
            "Madagascar",
            7.250222552102059e-05
          ],
          [
            "Lebanon",
            7.004821964073926e-05
          ]
        ]
      },
      "geometry": {
        "type": "MultiLineString",
        "coordinates": [
          [
            [
              7.555555555555571,
              56.44444444444446
            ],
            [
              5.333333333333343,
              53.111111111111086
            ],
            [
              2.0,
              48.666666666666686
            ],
            [
              2.0,
              44.22222222222223
            ],
            [
              2.0,
              39.77777777777777
            ],
            [
              2.0,
              35.333333333333314
            ],
            [
              4.2222222222222285,
              27.555555555555543
            ],
            [
              4.2222222222222285,
              22.0
            ],
            [
              6.444444444444457,
              17.555555555555543
            ],
            [
              8.666666666666686,
              14.222222222222229
            ],
            [
              12.0,
              12.0
            ],
            [
              16.444444444444457,
              12.0
            ],
            [
              23.111111111111114,
              10.888888888888857
            ],
            [
              27.55555555555557,
              10.888888888888857
            ],
            [
              32.0,
              9.777777777777771
            ],
            [
              46.444444444444485,
              7.555555555555543
            ],
            [
              52.00000000000003,
              7.555555555555543
            ],
            [
              59.7777777777778,
              8.666666666666686
            ],
            [
              62.00000000000003,
              12.0
            ],
            [
              62.00000000000003,
              16.444444444444457
            ],
            [
              62.00000000000003,
              20.888888888888857
            ],
            [
              58.66666666666666,
              24.22222222222223
            ],
            [
              55.33333333333334,
              25.333333333333314
            ],
            [
              50.888888888888886,
              25.333333333333314
            ],
            [
              44.22222222222226,
              25.333333333333314
            ],
            [
              37.55555555555557,
              26.444444444444457
            ],
            [
              33.111111111111114,
              27.555555555555543
            ],
            [
              32.0,
              30.888888888888914
            ],
            [
              32.0,
              35.333333333333314
            ],
            [
              30.888888888888914,
              38.666666666666686
            ],
            [
              29.7777777777778,
              42.0
            ],
            [
              26.444444444444457,
              44.22222222222223
            ],
            [
              23.111111111111114,
              46.44444444444446
            ],
            [
              18.666666666666686,
              49.77777777777777
            ],
            [
              15.333333333333343,
              52.0
            ]
          ]
        ]
      }
    }
  ]
}