{
  "type": "FeatureCollection",
  "crs": {
    "type": "name",
    "properties": {
      "name": "urn:ogc:def:crs:OGC:1.3:CRS84"
    }
  },
  "features": [
    {
      "type": "Feature",
      "properties": {
        "timestamp": "2026-03-24T19:12:40.571067",
        "country_name": "Mauritania",
        "author": "",
        "author_id": "433378de-7c23-455e-9ee2-88e979986292",
        "validated": false,
        "ranking": [
          [
            "Mauritania",
            0.38772648572921753
          ],
          [
            "Nicaragua",
            0.033372052013874054
          ],
          [
            "Belarus",
            0.0289828609675169
          ],
          [
            "Spain",
            0.023169973865151405
          ],
          [
            "Guadeloupe",
            0.020714716985821724
          ],
          [
            "Egypt",
            0.018758535385131836
          ],
          [
            "Rwanda",
            0.01631155237555504
          ],
          [
            "Niger",
            0.015983616933226585
          ],
          [
            "South Africa",
            0.015119999647140503
          ],
          [
            "Azerbaijan",
            0.011392252519726753
          ],
          [
            "Guam",
            0.011240559630095959
          ],
          [
            "Estonia",
            0.0097372867166996
          ],
          [
            "Isle of Man",
            0.009642641060054302
          ],
          [
            "Zambia",
            0.009250360541045666
          ],
          [
            "Algeria",
            0.00889123510569334
          ],
          [
            "Zimbabwe",
            0.00845156330615282
          ],
          [
            "South Sudan",
            0.008360926061868668
          ],
          [
            "Latvia",
            0.008111217990517616
          ],
          [
            "Uruguay",
            0.007962985895574093
          ],
          [
            "Fiji",
            0.00763887632638216
          ],
          [
            "Iran",
            0.007621993310749531
          ],
          [
            "Lithuania",
            0.007461438421159983
          ],
          [
            "Saint Lucia",
            0.00721045583486557
          ],
          [
            "Uganda",
            0.007153348531574011
          ],
          [
            "New Zealand",
            0.007092727348208427
          ],
          [
            "Burkina Faso",
            0.006799135357141495
          ],
          [
            "Brunei",
            0.006771594285964966
          ],
          [
            "Angola",
            0.006583377718925476
          ],
          [
            "Cape Verde",
            0.006112726870924234
          ],
          [
            "Guatemala",
            0.006051302887499332
          ],
          [
            "Suriname",
            0.005231824237853289
          ],
          [
            "Romania",
            0.0051036253571510315
          ],
          [
            "Yemen",
            0.004779010079801083
          ],
          [
            "North Macedonia",
            0.004751606844365597
          ],
          [
            "Cameroon",
            0.004742832854390144
          ],
          [
            "Chile",
            0.004587714560329914
          ],
          [
            "Israel",
            0.004519371781498194
          ],
          [
            "Switzerland",
            0.0043608518317341805
          ],
          [
            "Ecuador",
            0.004118232522159815
          ],
          [
            "Kazakhstan",
            0.003927883692085743
          ],
          [
            "Canada",
            0.003896536538377404
          ],
          [
            "Eswatini",
            0.003762258915230632
          ],
          [
            "United Arab Emirates",
            0.003726748749613762
          ],
          [
            "Benin",
            0.003691024612635374
          ],
          [
            "Central African Republic",
            0.003608907340094447
          ],
          [
            "Timor-Leste",
            0.0035586399026215076
          ],
          [
            "Côte d'Ivoire",
            0.00355692976154387
          ],
          [
            "Solomon Islands",
            0.0035133182536810637
          ],
          [
            "Norway",
            0.0035009896382689476
          ],
          [
            "Malawi",
            0.003391709877178073
          ],
          [
            "Belgium",
            0.0033870101906359196
          ],
          [
            "Burundi",
            0.0031150507275015116
          ],
          [
            "Bosnia & Herzegovina",
            0.003055207896977663
          ],
          [
            "North Korea",
            0.0030533496756106615
          ],
          [
            "Lesotho",
            0.0030309001449495554
          ],
          [
            "Hong Kong",
            0.0029546930454671383
          ],
          [
            "Netherlands Antilles",
            0.0029204143211245537
          ],
          [
            "Poland",
            0.002908884547650814
          ],
          [
            "Peru",
            0.0028757464606314898
          ],
          [
            "Gabon",
            0.0026970859616994858
          ],
          [
            "Colombia",
            0.0026843377854675055
          ],
          [
            "Jordan",
            0.0025688449386507273
          ],
          [
            "Djibouti",
            0.0025540953502058983
          ],
          [
            "Paraguay",
            0.0025283098220825195
          ],
          [
            "Somalia",
            0.0025023978669196367
          ],
          [
            "Cuba",
            0.0023596887476742268
          ],
          [
            "Brazil",
            0.002335429424419999
          ],
          [
            "Qatar",
            0.0022842595353722572
          ],
          [
            "Kenya",
            0.0022545186802744865
          ],
          [
            "Reunion",
            0.0022345134057104588
          ],
          [
            "Comoros",
            0.0022225056309252977
          ],
          [
            "Indonesia",
            0.0021555114071816206
          ],
          [
            "Bahrain",
            0.0021221416536718607
          ],
          [
            "Mali",
            0.0021147513762116432
          ],
          [
            "Costa Rica",
            0.0021069447975605726
          ],
          [
            "Turkey",
            0.0021040814463049173
          ],
          [
            "Greenland",
            0.0020858405623584986
          ],
          [
            "Dominica",
            0.002074402291327715
          ],
          [
            "Heard and McDonald Islands",
            0.002070354763418436
          ],
          [
            "Turkmenistan",
            0.0020646052435040474
          ],
          [
            "Mozambique",
            0.0019907557871192694
          ],
          [
            "Belize",
            0.0019094222225248814
          ],
          [
            "Congo",
            0.0018925080075860023
          ],
          [
            "DR Congo",
            0.0018734445329755545
          ],
          [
            "Ireland",
            0.0018297703936696053
          ],
          [
            "Pakistan",
            0.00180099718272686
          ],
          [
            "Togo",
            0.0017887685680761933
          ],
          [
            "Oman",
            0.0017324050422757864
          ],
          [
            "Cyprus",
            0.0017067930893972516
          ],
          [
            "Martinique",
            0.0017024362459778786
          ],
          [
            "Venezuela",
            0.0016965949907898903
          ],
          [
            "Kyrgyzstan",
            0.0016584034310653806
          ],
          [
            "Antigua & Barbuda",
            0.0016367236385121942
          ],
          [
            "Slovakia",
            0.0016111950390040874
          ],
          [
            "France",
            0.001601928728632629
          ],
          [
            "Panama",
            0.0015315213240683079
          ],
          [
            "Myanmar",
            0.0015112899709492922
          ],
          [
            "Sierra Leone",
            0.0015018990961834788
          ],
          [
            "Ukraine",
            0.001485251123085618
          ],
          [
            "Bhutan",
            0.0014796891482546926
          ],
          [
            "Gambia",
            0.0014721475308761
          ],
          [
            "Namibia",
            0.0014677345752716064
          ],
          [
            "Sweden",
            0.00143027666490525
          ],
          [
            "Trinidad and Tobago",
            0.00142864347435534
          ],
          [
            "Barbados",
            0.001404175884090364
          ],
          [
            "Sao Tome and Principe",
            0.0013711720239371061
          ],
          [
            "Morocco",
            0.0013640248216688633
          ],
          [
            "Hungary",
            0.0013387551298364997
          ],
          [
            "Vanuatu",
            0.0013378718867897987
          ],
          [
            "Czech Republic",
            0.001329474849626422
          ],
          [
            "Tanzania",
            0.0013214658247306943
          ],
          [
            "Guinea",
            0.0013148710131645203
          ],
          [
            "Syria",
            0.001309205312281847
          ],
          [
            "Saudi Arabia",
            0.0012993094278499484
          ],
          [
            "Iraq",
            0.0012486568884924054
          ],
          [
            "Puerto Rico",
            0.0012348867021501064
          ],
          [
            "Taiwan",
            0.0012162633938714862
          ],
          [
            "Honduras",
            0.0011764192022383213
          ],
          [
            "Guinea-Bissau",
            0.0011606153566390276
          ],
          [
            "Tunisia",
            0.0011469973251223564
          ],
          [
            "United States Virgin Islands",
            0.0011397440684959292
          ],
          [
            "Papua New Guinea",
            0.0010990748414769769
          ],
          [
            "South Korea",
            0.001097306958399713
          ],
          [
            "Argentina",
            0.0010842375922948122
          ],
          [
            "West Bank",
            0.0010752460220828652
          ],
          [
            "Iceland",
            0.001069780089892447
          ],
          [
            "Falkland Islands",
            0.0010634004138410091
          ],
          [
            "Mongolia",
            0.0010401663603261113
          ],
          [
            "Uzbekistan",
            0.001037533045746386
          ],
          [
            "Sudan",
            0.00101755082141608
          ],
          [
            "Australia",
            0.0010166021529585123
          ],
          [
            "Moldova",
            0.0010114420438185334
          ],
          [
            "Russia",
            0.001008304301649332
          ],
          [
            "Croatia",
            0.0009969734819605947
          ],
          [
            "Netherlands",
            0.0009754197672009468
          ],
          [
            "Botswana",
            0.0009745662100613117
          ],
          [
            "Slovenia",
            0.0009707445278763771
          ],
          [
            "Ghana",
            0.0009539333987049758
          ],
          [
            "New Caledonia",
            0.0009518960141576827
          ],
          [
            "Western Sahara",
            0.0009316453943029046
          ],
          [
            "Malaysia",
            0.0009232147713191807
          ],
          [
            "Guyana",
            0.0009020831203088164
          ],
          [
            "United Kingdom",
            0.0008895674254745245
          ],
          [
            "Japan",
            0.000862637534737587
          ],
          [
            "French Guiana",
            0.0008538487600162625
          ],
          [
            "Austria",
            0.000818398897536099
          ],
          [
            "Vietnam",
            0.0007959959912113845
          ],
          [
            "Serbia",
            0.000792017497587949
          ],
          [
            "Bahamas",
            0.0007860773475840688
          ],
          [
            "Palau",
            0.0007797116995789111
          ],
          [
            "El Salvador",
            0.0007727103657089174
          ],
          [
            "Portugal",
            0.0007687955512665212
          ],
          [
            "Jamaica",
            0.0007510079303756356
          ],
          [
            "Ethiopia",
            0.0007344845216721296
          ],
          [
            "Thailand",
            0.0007340923184528947
          ],
          [
            "Madagascar",
            0.0007251871284097433
          ],
          [
            "Svalbard",
            0.0007136404747143388
          ],
          [
            "Georgia",
            0.0007084624958224595
          ],
          [
            "Kuwait",
            0.0007055079913698137
          ],
          [
            "Bangladesh",
            0.000704041391145438
          ],
          [
            "Lebanon",
            0.0006950445240363479
          ],
          [
            "Bolivia",
            0.0006931487587280571
          ],
          [
            "Faroe Islands",
            0.0006752670160494745
          ],
          [
            "Chad",
            0.000673602451570332
          ],
          [
            "Tajikistan",
            0.0006402207654900849
          ],
          [
            "Libya",
            0.0006349236355163157
          ],
          [
            "Bulgaria",
            0.0006314382189884782
          ],
          [
            "Armenia",
            0.0006181417847983539
          ],
          [
            "Cambodia",
            0.0006048403447493911
          ],
          [
            "Nigeria",
            0.0005895875510759652
          ],
          [
            "Germany",
            0.0005698641180060804
          ],
          [
            "Finland",
            0.0005693872226402164
          ],
          [
            "Equatorial Guinea",
            0.0005571168148890138
          ],
          [
            "South Georgia Islands",
            0.0005023003905080259
          ],
          [
            "Turks and Caicos Islands",
            0.0004795260610990226
          ],
          [
            "China",
            0.0004685867461375892
          ],
          [
            "Samoa",
            0.000466058001620695
          ],
          [
            "Liberia",
            0.0004590398748405278
          ],
          [
            "Philippines",
            0.0004578209773171693
          ],
          [
            "United States of America",
            0.0004377407894935459
          ],
          [
            "India",
            0.0004257531836628914
          ],
          [
            "Afghanistan",
            0.00041888956911861897
          ],
          [
            "Sri Lanka",
            0.00038791081169620156
          ],
          [
            "Mayotte",
            0.00034112558932974935
          ],
          [
            "Albania",
            0.0003284009580966085
          ],
          [
            "Laos",
            0.0003273784532211721
          ],
          [
            "Senegal",
            0.00032301063765771687
          ],
          [
            "Italy",
            0.00030731665901839733
          ],
          [
            "Mexico",
            0.0002674513962119818
          ],
          [
            "Madeira Islands",
            0.00024829464382492006
          ],
          [
            "Greece",
            0.00022262634593062103
          ],
          [
            "Dominican Republic",
            0.00018639519112184644
          ],
          [
            "Luxembourg",
            0.00018240722420159727
          ],
          [
            "Nepal",
            0.00017984457372222096
          ],
          [
            "Eritrea",
            0.0001595646026544273
          ],
          [
            "Montenegro",
            0.00011578133853618056
          ],
          [
            "Haiti",
            8.636182610644028e-05
          ],
          [
            "Denmark",
            7.11523971403949e-05
          ],
          [
            "Kiribati",
            1.1300583537376951e-05
          ]
        ]
      },
      "geometry": {
        "type": "MultiLineString",
        "coordinates": [
          [
            [
              51.09090909090912,
              45.78787878787881
            ],
            [
              51.84848484848487,
              45.78787878787881
            ],
            [
              52.454545454545496,
              45.78787878787881
            ],
            [
              53.21212121212125,
              45.78787878787881
            ],
            [
              53.969696969697,
              45.78787878787881
            ],
            [
              54.57575757575762,
              45.636363636363626
            ],
            [
              55.939393939393995,
              45.4848484848485
            ],
            [
              57.0,
              45.4848484848485
            ],
            [
              57.90909090909099,
              45.4848484848485
            ],
            [
              58.66666666666674,
              45.333333333333314
            ],
            [
              59.121212121212125,
              45.18181818181819
            ],
            [
              58.969696969697,
              46.090909090909065
            ],
            [
              58.66666666666674,
              46.69696969696969
            ],
            [
              58.363636363636374,
              47.30303030303031
            ],
            [
              57.90909090909099,
              48.21212121212119
            ],
            [
              57.75757575757575,
              48.969696969697
            ],
            [
              57.454545454545496,
              49.878787878787875
            ],
            [
              57.15151515151513,
              51.090909090909065
            ],
            [
              56.84848484848487,
              51.84848484848487
            ],
            [
              56.54545454545462,
              52.30303030303031
            ],
            [
              56.09090909090912,
              53.06060606060606
            ],
            [
              55.78787878787875,
              53.81818181818181
            ],
            [
              55.181818181818244,
              54.72727272727275
            ],
            [
              54.878787878787875,
              55.333333333333314
            ],
            [
              54.57575757575762,
              55.78787878787881
            ],
            [
              53.81818181818187,
              56.54545454545456
            ],
            [
              53.363636363636374,
              57.15151515151513
            ],
            [
              53.06060606060612,
              57.60606060606062
            ],
            [
              52.60606060606062,
              58.06060606060606
            ],
            [
              52.15151515151513,
              58.5151515151515
            ],
            [
              51.696969696969745,
              59.121212121212125
            ],
            [
              51.24242424242425,
              59.575757575757564
            ],
            [
              50.636363636363626,
              60.333333333333314
            ],
            [
              49.72727272727275,
              61.24242424242425
            ],
            [
              48.969696969697,
              61.84848484848487
            ],
            [
              48.51515151515156,
              62.0
            ],
            [
              48.06060606060612,
              61.39393939393938
            ],
            [
              47.909090909090935,
              60.93939393939394
            ],
            [
              47.454545454545496,
              60.333333333333314
            ],
            [
              47.0,
              59.72727272727275
            ],
            [
              46.393939393939434,
              59.121212121212125
            ],
            [
              45.78787878787881,
              58.5151515151515
            ],
            [
              45.18181818181819,
              57.75757575757575
            ],
            [
              44.57575757575762,
              56.84848484848487
            ],
            [
              43.666666666666686,
              55.78787878787881
            ],
            [
              41.84848484848487,
              54.878787878787875
            ],
            [
              40.4848484848485,
              54.575757575757564
            ],
            [
              39.424242424242436,
              54.27272727272725
            ],
            [
              38.666666666666686,
              53.969696969697
            ],
            [
              38.21212121212125,
              53.81818181818181
            ],
            [
              37.151515151515184,
              53.5151515151515
            ],
            [
              35.939393939393995,
              53.06060606060606
            ],
            [
              34.72727272727275,
              52.75757575757575
            ],
            [
              33.363636363636374,
              52.15151515151513
            ],
            [
              32.151515151515184,
              51.54545454545456
            ],
            [
              31.24242424242425,
              50.93939393939394
            ],
            [
              30.4848484848485,
              50.18181818181819
            ],
            [
              29.878787878787875,
              49.575757575757564
            ],
            [
              29.727272727272748,
              49.121212121212125
            ],
            [
              29.878787878787875,
              48.06060606060606
            ],
            [
              29.878787878787875,
              47.30303030303031
            ],
            [
              29.727272727272748,
              46.090909090909065
            ],
            [
              29.57575757575762,
              44.878787878787875
            ],
            [
              29.424242424242436,
              43.81818181818181
            ],
            [
              29.27272727272731,
              42.90909090909088
            ],
            [
              29.121212121212125,
              42.30303030303031
            ],
            [
              28.969696969696997,
              41.69696969696969
            ],
            [
              28.666666666666686,
              40.93939393939394
            ],
            [
              28.212121212121247,
              40.030303030303
            ],
            [
              27.909090909090935,
              39.121212121212125
            ],
            [
              27.606060606060623,
              38.5151515151515
            ],
            [
              27.30303030303031,
              38.06060606060606
            ],
            [
              26.696969696969745,
              37.60606060606062
            ],
            [
              26.393939393939434,
              37.15151515151513
            ],
            [
              25.939393939393995,
              36.54545454545456
            ],
            [
              25.33333333333337,
              36.24242424242425
            ],
            [
              24.424242424242436,
              35.78787878787875
            ],
            [
              23.363636363636374,
              35.333333333333314
            ],
            [
              22.606060606060623,
              35.030303030303
            ],
            [
              21.54545454545456,
              34.72727272727275
            ],
            [
              20.4848484848485,
              34.424242424242436
            ],
            [
              19.121212121212125,
              34.27272727272725
            ],
            [
              17.30303030303031,
              34.27272727272725
            ],
            [
              16.090909090909122,
              34.27272727272725
            ],
            [
              15.484848484848499,
              34.121212121212125
            ],
            [
              14.878787878787875,
              34.121212121212125
            ],
            [
              13.666666666666686,
              34.121212121212125
            ],
            [
              12.75757575757575,
              34.121212121212125
            ],
            [
              12.0,
              34.121212121212125
            ],
            [
              10.78787878787881,
              34.121212121212125
            ],
            [
              9.878787878787875,
              34.121212121212125
            ],
            [
              9.121212121212125,
              33.969696969697
            ],
            [
              8.666666666666686,
              33.81818181818181
            ],
            [
              8.060606060606062,
              33.666666666666686
            ],
            [
              7.606060606060623,
              33.21212121212119
            ],
            [
              7.454545454545496,
              32.45454545454544
            ],
            [
              7.151515151515184,
              31.54545454545456
            ],
            [
              6.696969696969745,
              30.333333333333314
            ],
            [
              6.242424242424249,
              29.272727272727252
            ],
            [
              5.78787878787881,
              28.21212121212119
            ],
            [
              5.484848484848499,
              27.45454545454544
            ],
            [
              5.333333333333371,
              26.848484848484873
            ],
            [
              5.333333333333371,
              26.090909090909122
            ],
            [
              5.181818181818187,
              25.636363636363626
            ],
            [
              5.181818181818187,
              24.878787878787875
            ],
            [
              5.181818181818187,
              23.969696969696997
            ],
            [
              5.181818181818187,
              23.21212121212119
            ],
            [
              5.181818181818187,
              22.151515151515127
            ],
            [
              5.181818181818187,
              21.24242424242425
            ],
            [
              5.181818181818187,
              20.4848484848485
            ],
            [
              5.181818181818187,
              19.424242424242436
            ],
            [
              5.181818181818187,
              18.5151515151515
            ],
            [
              5.181818181818187,
              17.909090909090878
            ],
            [
              5.181818181818187,
              17.151515151515127
            ],
            [
              5.181818181818187,
              16.393939393939377
            ],
            [
              5.181818181818187,
              15.484848484848499
            ],
            [
              5.181818181818187,
              14.57575757575762
            ],
            [
              5.181818181818187,
              13.818181818181756
            ],
            [
              5.181818181818187,
              13.060606060606005
            ],
            [
              5.03030303030306,
              12.151515151515127
            ],
            [
              4.878787878787875,
              11.393939393939377
            ],
            [
              4.878787878787875,
              10.484848484848499
            ],
            [
              4.878787878787875,
              9.878787878787875
            ],
            [
              4.878787878787875,
              9.272727272727252
            ],
            [
              5.03030303030306,
              8.212121212121247
            ],
            [
              5.78787878787881,
              7.454545454545496
            ],
            [
              6.393939393939434,
              7.0
            ],
            [
              7.303030303030312,
              6.090909090909122
            ],
            [
              8.060606060606062,
              5.484848484848499
            ],
            [
              8.81818181818187,
              5.030303030303003
            ],
            [
              9.57575757575762,
              4.5757575757576205
            ],
            [
              10.484848484848499,
              4.121212121212125
            ],
            [
              11.24242424242425,
              3.9696969696969973
            ],
            [
              12.151515151515184,
              3.818181818181756
            ],
            [
              13.060606060606062,
              3.818181818181756
            ],
            [
              13.666666666666686,
              3.818181818181756
            ],
            [
              14.57575757575762,
              3.818181818181756
            ],
            [
              15.181818181818187,
              3.818181818181756
            ],
            [
              15.636363636363683,
              3.9696969696969973
            ],
            [
              16.24242424242425,
              4.272727272727252
            ],
            [
              16.848484848484873,
              4.272727272727252
            ],
            [
              17.454545454545496,
              4.272727272727252
            ],
            [
              18.060606060606062,
              4.272727272727252
            ],
            [
              18.666666666666686,
              4.121212121212125
            ],
            [
              19.424242424242436,
              3.9696969696969973
            ],
            [
              20.03030303030306,
              3.818181818181756
            ],
            [
              21.24242424242425,
              3.5151515151515014
            ],
            [
              22.909090909090935,
              3.0606060606060055
            ],
            [
              24.424242424242436,
              2.909090909090878
            ],
            [
              25.4848484848485,
              2.7575757575757507
            ],
            [
              26.090909090909122,
              2.6060606060606233
            ],
            [
              26.54545454545456,
              2.454545454545496
            ],
            [
              27.606060606060623,
              2.1515151515151274
            ],
            [
              28.666666666666686,
              2.0
            ],
            [
              29.727272727272748,
              2.0
            ],
            [
              30.4848484848485,
              2.0
            ],
            [
              30.939393939393995,
              2.1515151515151274
            ],
            [
              31.393939393939434,
              2.303030303030255
            ],
            [
              32.0,
              2.7575757575757507
            ],
            [
              32.454545454545496,
              3.0606060606060055
            ],
            [
              33.363636363636374,
              3.818181818181756
            ],
            [
              34.27272727272731,
              4.5757575757576205
            ],
            [
              35.33333333333337,
              5.18181818181813
            ],
            [
              36.09090909090912,
              5.484848484848499
            ],
            [
              37.151515151515184,
              5.484848484848499
            ],
            [
              37.60606060606062,
              5.333333333333371
            ],
            [
              38.06060606060606,
              5.18181818181813
            ],
            [
              38.51515151515156,
              4.878787878787875
            ],
            [
              39.121212121212125,
              4.727272727272748
            ],
            [
              39.57575757575762,
              4.5757575757576205
            ],
            [
              40.18181818181819,
              4.4242424242423795
            ],
            [
              40.636363636363626,
              4.272727272727252
            ],
            [
              41.84848484848487,
              3.9696969696969973
            ],
            [
              42.60606060606062,
              3.9696969696969973
            ],
            [
              43.363636363636374,
              3.818181818181756
            ],
            [
              43.969696969697,
              3.818181818181756
            ],
            [
              44.878787878787875,
              3.818181818181756
            ],
            [
              45.4848484848485,
              3.818181818181756
            ],
            [
              46.393939393939434,
              3.818181818181756
            ],
            [
              46.84848484848487,
              3.9696969696969973
            ],
            [
              47.60606060606062,
              3.9696969696969973
            ],
            [
              48.21212121212125,
              3.818181818181756
            ],
            [
              48.666666666666686,
              3.6666666666666288
            ],
            [
              49.27272727272731,
              3.5151515151515014
            ],
            [
              49.878787878787875,
              3.5151515151515014
            ],
            [
              50.636363636363626,
              3.5151515151515014
            ],
            [
              51.39393939393938,
              3.5151515151515014
            ],
            [
              52.0,
              3.6666666666666288
            ],
            [
              52.454545454545496,
              4.121212121212125
            ],
            [
              53.06060606060612,
              4.727272727272748
            ],
            [
              53.21212121212125,
              5.18181818181813
            ],
            [
              53.363636363636374,
              5.787878787878753
            ],
            [
              53.66666666666674,
              6.696969696969745
            ],
            [
              53.81818181818187,
              7.909090909090878
            ],
            [
              53.969696969697,
              8.969696969696997
            ],
            [
              53.969696969697,
              9.57575757575762
            ],
            [
              53.81818181818187,
              10.787878787878753
            ],
            [
              53.66666666666674,
              11.545454545454504
            ],
            [
              53.5151515151515,
              12.151515151515127
            ],
            [
              53.5151515151515,
              12.909090909090878
            ],
            [
              53.66666666666674,
              13.818181818181756
            ],
            [
              54.27272727272725,
              15.333333333333314
            ],
            [
              54.878787878787875,
              16.24242424242425
            ],
            [
              55.181818181818244,
              16.848484848484873
            ],
            [
              55.78787878787875,
              17.606060606060623
            ],
            [
              56.39393939393938,
              18.21212121212119
            ],
            [
              56.696969696969745,
              18.818181818181813
            ],
            [
              57.15151515151513,
              19.424242424242436
            ],
            [
              57.454545454545496,
              20.181818181818187
            ],
            [
              57.75757575757575,
              20.636363636363626
            ],
            [
              57.90909090909099,
              21.24242424242425
            ],
            [
              58.06060606060612,
              21.69696969696969
            ],
            [
              58.06060606060612,
              22.30303030303031
            ],
            [
              58.21212121212125,
              23.060606060606062
            ],
            [
              58.21212121212125,
              24.121212121212125
            ],
            [
              58.21212121212125,
              25.181818181818187
            ],
            [
              57.60606060606062,
              26.54545454545456
            ],
            [
              57.30303030303037,
              27.151515151515127
            ],
            [
              56.84848484848487,
              27.909090909090878
            ],
            [
              56.54545454545462,
              28.363636363636374
            ],
            [
              56.39393939393938,
              28.818181818181813
            ],
            [
              55.939393939393995,
              29.272727272727252
            ],
            [
              55.4848484848485,
              29.727272727272748
            ],
            [
              54.878787878787875,
              30.4848484848485
            ],
            [
              54.27272727272725,
              30.939393939393938
            ],
            [
              53.5151515151515,
              31.69696969696969
            ],
            [
              52.75757575757575,
              32.30303030303031
            ],
            [
              52.454545454545496,
              32.75757575757575
            ],
            [
              51.84848484848487,
              33.5151515151515
            ],
            [
              51.39393939393938,
              34.121212121212125
            ],
            [
              51.09090909090912,
              34.878787878787875
            ],
            [
              50.78787878787875,
              35.78787878787875
            ],
            [
              50.636363636363626,
              36.39393939393938
            ],
            [
              50.4848484848485,
              37.45454545454544
            ],
            [
              50.4848484848485,
              38.666666666666686
            ],
            [
              50.4848484848485,
              39.575757575757564
            ],
            [
              50.4848484848485,
              40.333333333333314
            ],
            [
              50.78787878787875,
              41.09090909090912
            ],
            [
              51.09090909090912,
              41.69696969696969
            ],
            [
              51.24242424242425,
              42.30303030303031
            ],
            [
              51.39393939393938,
              43.06060606060606
            ],
            [
              51.54545454545462,
              43.5151515151515
            ],
            [
              51.54545454545462,
              44.27272727272725
            ],
            [
              51.54545454545462,
              45.030303030303
            ],
            [
              51.696969696969745,
              45.636363636363626
            ]
          ]
        ]
      }
    }
  ]
}