{
  "type": "FeatureCollection",
  "crs": {
    "type": "name",
    "properties": {
      "name": "urn:ogc:def:crs:OGC:1.3:CRS84"
    }
  },
  "features": [
    {
      "type": "Feature",
      "properties": {
        "timestamp": "2026-07-15T06:23:29.276150",
        "country_name": "Mozambique",
        "author": "Isaac",
        "author_id": "5a5bdb66-20b1-4757-a463-033ebd6dc2f8",
        "validated": false,
        "ranking": [
          [
            "Burundi",
            0.07184704393148422
          ],
          [
            "Belize",
            0.06041606143116951
          ],
          [
            "Syria",
            0.038385096937417984
          ],
          [
            "Spain",
            0.03309355676174164
          ],
          [
            "Somalia",
            0.032762859016656876
          ],
          [
            "Jordan",
            0.028544457629323006
          ],
          [
            "Benin",
            0.02522614598274231
          ],
          [
            "Congo",
            0.02334768697619438
          ],
          [
            "Namibia",
            0.023046031594276428
          ],
          [
            "Mayotte",
            0.01708415523171425
          ],
          [
            "Saudi Arabia",
            0.017052283510565758
          ],
          [
            "Nigeria",
            0.016404731199145317
          ],
          [
            "Greenland",
            0.014342546463012695
          ],
          [
            "Brunei",
            0.014255273155868053
          ],
          [
            "Montenegro",
            0.01406403724104166
          ],
          [
            "Moldova",
            0.013769027777016163
          ],
          [
            "Slovenia",
            0.013746867887675762
          ],
          [
            "Mozambique",
            0.013141718693077564
          ],
          [
            "Bangladesh",
            0.01249917782843113
          ],
          [
            "India",
            0.012482358142733574
          ],
          [
            "Ecuador",
            0.011995594948530197
          ],
          [
            "Afghanistan",
            0.011828680522739887
          ],
          [
            "Uzbekistan",
            0.011009929701685905
          ],
          [
            "Taiwan",
            0.010795577429234982
          ],
          [
            "North Korea",
            0.01031444314867258
          ],
          [
            "Thailand",
            0.0097867576405406
          ],
          [
            "Heard and McDonald Islands",
            0.009505500085651875
          ],
          [
            "Switzerland",
            0.008821889758110046
          ],
          [
            "Cape Verde",
            0.0084809185937047
          ],
          [
            "Guam",
            0.008386382833123207
          ],
          [
            "Vietnam",
            0.008266196586191654
          ],
          [
            "Yemen",
            0.008203464560210705
          ],
          [
            "Honduras",
            0.00792685803025961
          ],
          [
            "Qatar",
            0.00789054948836565
          ],
          [
            "Gabon",
            0.007641192059963942
          ],
          [
            "Slovakia",
            0.007625467609614134
          ],
          [
            "France",
            0.007179235108196735
          ],
          [
            "Botswana",
            0.006362233776599169
          ],
          [
            "Faroe Islands",
            0.006229853723198175
          ],
          [
            "Bulgaria",
            0.006070978008210659
          ],
          [
            "South Africa",
            0.005924883298575878
          ],
          [
            "Hungary",
            0.005880995653569698
          ],
          [
            "Palau",
            0.00581309013068676
          ],
          [
            "Isle of Man",
            0.005723315756767988
          ],
          [
            "Portugal",
            0.005646891891956329
          ],
          [
            "Lebanon",
            0.005586141254752874
          ],
          [
            "Zambia",
            0.005487402435392141
          ],
          [
            "Turkey",
            0.005312449298799038
          ],
          [
            "Oman",
            0.0052054161205887794
          ],
          [
            "South Korea",
            0.00517177814617753
          ],
          [
            "Guadeloupe",
            0.0051400731317698956
          ],
          [
            "Antigua & Barbuda",
            0.005119408946484327
          ],
          [
            "Malaysia",
            0.004951171111315489
          ],
          [
            "Mongolia",
            0.004797704983502626
          ],
          [
            "Fiji",
            0.0047289119102060795
          ],
          [
            "Albania",
            0.004679813049733639
          ],
          [
            "Madagascar",
            0.004663426894694567
          ],
          [
            "Sweden",
            0.004607980139553547
          ],
          [
            "Cyprus",
            0.004552514757961035
          ],
          [
            "Rwanda",
            0.00443709222599864
          ],
          [
            "South Sudan",
            0.004400019068270922
          ],
          [
            "Israel",
            0.00436949310824275
          ],
          [
            "Myanmar",
            0.0043094041757285595
          ],
          [
            "Tunisia",
            0.003839734476059675
          ],
          [
            "Lithuania",
            0.0037420119624584913
          ],
          [
            "Serbia",
            0.0036795944906771183
          ],
          [
            "Svalbard",
            0.0036491428036242723
          ],
          [
            "Croatia",
            0.0036305575631558895
          ],
          [
            "South Georgia Islands",
            0.0035776745062321424
          ],
          [
            "Czech Republic",
            0.0035664872266352177
          ],
          [
            "Iran",
            0.0034566656686365604
          ],
          [
            "Peru",
            0.0034397891722619534
          ],
          [
            "Dominican Republic",
            0.00342909200116992
          ],
          [
            "Togo",
            0.0033692969009280205
          ],
          [
            "Kyrgyzstan",
            0.0033435486257076263
          ],
          [
            "Saint Lucia",
            0.0033342125825583935
          ],
          [
            "Ukraine",
            0.0032216347754001617
          ],
          [
            "Burkina Faso",
            0.0031425494235008955
          ],
          [
            "Romania",
            0.003109410870820284
          ],
          [
            "Puerto Rico",
            0.003063785843551159
          ],
          [
            "French Guiana",
            0.0030305299442261457
          ],
          [
            "Timor-Leste",
            0.0029932984616607428
          ],
          [
            "Martinique",
            0.0029156275559216738
          ],
          [
            "Falkland Islands",
            0.002895803190767765
          ],
          [
            "Japan",
            0.0028393655084073544
          ],
          [
            "Bolivia",
            0.0028202261310070753
          ],
          [
            "Egypt",
            0.0028180594090372324
          ],
          [
            "Hong Kong",
            0.0027738455682992935
          ],
          [
            "Guyana",
            0.002769146114587784
          ],
          [
            "Argentina",
            0.002702997764572501
          ],
          [
            "Indonesia",
            0.002660548547282815
          ],
          [
            "Chile",
            0.0026168685872107744
          ],
          [
            "Cambodia",
            0.002531271893531084
          ],
          [
            "Turkmenistan",
            0.0024530887603759766
          ],
          [
            "Netherlands",
            0.0024286704137921333
          ],
          [
            "Angola",
            0.00235020206309855
          ],
          [
            "Suriname",
            0.0023378178011626005
          ],
          [
            "Malawi",
            0.0021690838038921356
          ],
          [
            "Western Sahara",
            0.0021657641045749187
          ],
          [
            "New Zealand",
            0.0021415818482637405
          ],
          [
            "Central African Republic",
            0.0021347589790821075
          ],
          [
            "Jamaica",
            0.0021188976243138313
          ],
          [
            "Finland",
            0.0020944394636899233
          ],
          [
            "Libya",
            0.0020128125324845314
          ],
          [
            "New Caledonia",
            0.00198059412650764
          ],
          [
            "China",
            0.0019632813055068254
          ],
          [
            "Vanuatu",
            0.0019576798658818007
          ],
          [
            "Iceland",
            0.0019530776189640164
          ],
          [
            "Paraguay",
            0.0019371432717889547
          ],
          [
            "Brazil",
            0.0019363232422620058
          ],
          [
            "Djibouti",
            0.0018872593063861132
          ],
          [
            "Chad",
            0.001782814273610711
          ],
          [
            "North Macedonia",
            0.001777958357706666
          ],
          [
            "Russia",
            0.0017733455169945955
          ],
          [
            "Guinea-Bissau",
            0.0017491386970505118
          ],
          [
            "Italy",
            0.0017176350811496377
          ],
          [
            "Bhutan",
            0.0016912217251956463
          ],
          [
            "Reunion",
            0.0016615279018878937
          ],
          [
            "Liberia",
            0.0015698389615863562
          ],
          [
            "Papua New Guinea",
            0.0015380579279735684
          ],
          [
            "West Bank",
            0.0015369495376944542
          ],
          [
            "Ethiopia",
            0.0015169617254287004
          ],
          [
            "Equatorial Guinea",
            0.0014890489401295781
          ],
          [
            "Georgia",
            0.0014819711213931441
          ],
          [
            "Sri Lanka",
            0.001479310798458755
          ],
          [
            "Sudan",
            0.0014766270760446787
          ],
          [
            "Dominica",
            0.0014677259605377913
          ],
          [
            "Venezuela",
            0.0013930302811786532
          ],
          [
            "Sao Tome and Principe",
            0.0013757589040324092
          ],
          [
            "Trinidad and Tobago",
            0.001316994195804
          ],
          [
            "United Arab Emirates",
            0.0013143542455509305
          ],
          [
            "Canada",
            0.0013045090017840266
          ],
          [
            "Kazakhstan",
            0.0012439190177246928
          ],
          [
            "Belgium",
            0.0012354612117633224
          ],
          [
            "Bahamas",
            0.0012067658826708794
          ],
          [
            "Armenia",
            0.0012060800800099969
          ],
          [
            "Mali",
            0.0012021345319226384
          ],
          [
            "Azerbaijan",
            0.001186405890621245
          ],
          [
            "Guatemala",
            0.001141900196671486
          ],
          [
            "Kuwait",
            0.0011401765514165163
          ],
          [
            "Morocco",
            0.0011360369389876723
          ],
          [
            "Barbados",
            0.0011248573428019881
          ],
          [
            "Luxembourg",
            0.0011211432283744216
          ],
          [
            "Solomon Islands",
            0.001109250821173191
          ],
          [
            "Germany",
            0.0010940737556666136
          ],
          [
            "Philippines",
            0.0010906400857493281
          ],
          [
            "Lesotho",
            0.0010781476739794016
          ],
          [
            "Bosnia & Herzegovina",
            0.00104323192499578
          ],
          [
            "United Kingdom",
            0.0010324101895093918
          ],
          [
            "El Salvador",
            0.0010269739432260394
          ],
          [
            "Panama",
            0.0009911941597238183
          ],
          [
            "Colombia",
            0.0009612885187380016
          ],
          [
            "Guinea",
            0.0009454757673665881
          ],
          [
            "Mexico",
            0.000937586766667664
          ],
          [
            "Kenya",
            0.0009310216992162168
          ],
          [
            "Mauritania",
            0.0009179469780065119
          ],
          [
            "Iraq",
            0.0009166329982690513
          ],
          [
            "Cuba",
            0.0009065969497896731
          ],
          [
            "Pakistan",
            0.0008793108863756061
          ],
          [
            "United States Virgin Islands",
            0.0008650742820464075
          ],
          [
            "Latvia",
            0.0008596726111136377
          ],
          [
            "Tajikistan",
            0.0008449156302958727
          ],
          [
            "Comoros",
            0.0008260219474323094
          ],
          [
            "Cameroon",
            0.0008084445726126432
          ],
          [
            "Sierra Leone",
            0.0007851122645661235
          ],
          [
            "Bahrain",
            0.0006903475150465965
          ],
          [
            "United States of America",
            0.0006612581782974303
          ],
          [
            "Netherlands Antilles",
            0.0006445420440286398
          ],
          [
            "Senegal",
            0.0006255283369682729
          ],
          [
            "Turks and Caicos Islands",
            0.0006170579581521451
          ],
          [
            "Greece",
            0.0006131406407803297
          ],
          [
            "Nicaragua",
            0.0005990937352180481
          ],
          [
            "Côte d'Ivoire",
            0.0005941028357483447
          ],
          [
            "Tanzania",
            0.0005936995730735362
          ],
          [
            "Poland",
            0.0005873639602214098
          ],
          [
            "Ireland",
            0.0005778541672043502
          ],
          [
            "Uruguay",
            0.0004920769133605063
          ],
          [
            "Norway",
            0.00048594624968245625
          ],
          [
            "Algeria",
            0.0004632546624634415
          ],
          [
            "Estonia",
            0.00045518093975260854
          ],
          [
            "Eswatini",
            0.00045241034240461886
          ],
          [
            "Niger",
            0.00044630543561652303
          ],
          [
            "Ghana",
            0.00044161092955619097
          ],
          [
            "Costa Rica",
            0.0004271619254723191
          ],
          [
            "Laos",
            0.00039752357406541705
          ],
          [
            "Madeira Islands",
            0.0003914784756489098
          ],
          [
            "Uganda",
            0.00038941038656048477
          ],
          [
            "Samoa",
            0.00035745694185607135
          ],
          [
            "Eritrea",
            0.0003493510012049228
          ],
          [
            "Nepal",
            0.00034367709304206073
          ],
          [
            "Australia",
            0.0003309216699562967
          ],
          [
            "Gambia",
            0.00028744502924382687
          ],
          [
            "Belarus",
            0.0002873710182029754
          ],
          [
            "DR Congo",
            0.00022349848586600274
          ],
          [
            "Zimbabwe",
            0.0002109400084009394
          ],
          [
            "Austria",
            0.00018180039478465915
          ],
          [
            "Denmark",
            0.0001605019497219473
          ],
          [
            "Haiti",
            5.864043123438023e-05
          ],
          [
            "Kiribati",
            2.3962284103618003e-05
          ]
        ]
      },
      "geometry": {
        "type": "MultiLineString",
        "coordinates": [
          [
            [
              8.08516079750018,
              54.557501230999094
            ],
            [
              8.77534407126501,
              54.58052980702803
            ],
            [
              9.51158449708771,
              54.718588928684426
            ],
            [
              10.374313589293763,
              54.718588928684426
            ],
            [
              11.133470256628186,
              54.718588928684426
            ],
            [
              11.95025453129358,
              54.557501230999094
            ],
            [
              12.617409229029477,
              54.304411563715206
            ],
            [
              13.319050623550169,
              54.03986377567546
            ],
            [
              14.020804352588101,
              53.62579874522345
            ],
            [
              14.791419140678386,
              53.131077531411535
            ],
            [
              15.401170900117762,
              52.659497228145796
            ],
            [
              15.999239869766853,
              52.16488834885109
            ],
            [
              16.919484234786637,
              51.3941612262436
            ],
            [
              17.529235994225985,
              50.73846464926356
            ],
            [
              18.35736605513003,
              49.71476019388939
            ],
            [
              18.967117814569406,
              49.3580981017339
            ],
            [
              19.79524787547342,
              49.19712273856575
            ],
            [
              20.784577968580038,
              49.02457692012456
            ],
            [
              21.48621936310073,
              48.65645670721318
            ],
            [
              22.130457819324903,
              48.27687837354597
            ],
            [
              22.901072607415188,
              47.81675619103609
            ],
            [
              23.70628642680751,
              47.4600940988806
            ],
            [
              24.684046064641024,
              47.299118735712455
            ],
            [
              25.546775156847076,
              47.11500246199819
            ],
            [
              26.4210747043262,
              46.89651182601631
            ],
            [
              27.14574467487583,
              46.59736500667455
            ],
            [
              28.10047573668041,
              45.84966646009599
            ],
            [
              29.009261980944302,
              44.76844673190806
            ],
            [
              29.618901405866495,
              43.88268906367307
            ],
            [
              30.2745979828465,
              43.07747524428078
            ],
            [
              30.723149710083334,
              42.46783581935861
            ],
            [
              31.298302438220702,
              41.55904957509469
            ],
            [
              31.71247980318992,
              40.83437960454506
            ],
            [
              32.17260198569983,
              39.845049511438475
            ],
            [
              32.575208895395974,
              39.09735096485991
            ],
            [
              33.03533107790585,
              38.55679726802455
            ],
            [
              33.72551435167068,
              38.39570957033919
            ],
            [
              34.79527595910275,
              38.9594041777207
            ],
            [
              35.496917353623445,
              39.362011087416846
            ],
            [
              36.16418438587655,
              39.776076117868854
            ],
            [
              36.73933711401392,
              40.17868302756503
            ],
            [
              37.348976538936085,
              40.88032442208572
            ],
            [
              37.878072115015556,
              41.858084059919236
            ],
            [
              38.16564847908424,
              42.594324485741936
            ],
            [
              38.453224843152924,
              43.77911663880147
            ],
            [
              38.499281995210794,
              44.814391549448715
            ],
            [
              38.53376869199559,
              45.96469700572345
            ],
            [
              38.53376869199559,
              46.71239555230201
            ],
            [
              38.53376869199559,
              47.66712661410659
            ],
            [
              38.3612228735544,
              48.90954637449707
            ],
            [
              37.993102660643046,
              49.99076610268497
            ],
            [
              37.544550933406214,
              50.98009619579159
            ],
            [
              37.026913478082605,
              52.16488834885109
            ],
            [
              36.601277992357495,
              53.31519380512583
            ],
            [
              36.394245477131506,
              53.99380662361759
            ],
            [
              36.233157779446145,
              54.69556035265549
            ],
            [
              36.09509865778975,
              55.37417317114725
            ],
            [
              36.02612526422013,
              56.616592931537724
            ],
            [
              36.02612526422013,
              57.51380872052857
            ],
            [
              36.129585354574544,
              58.42248263027528
            ],
            [
              36.50927602275897,
              59.10120778328425
            ],
            [
              37.41794993250568,
              59.82587775383388
            ],
            [
              38.3267361767696,
              60.25151323955899
            ],
            [
              39.32752439063205,
              60.596604876441404
            ],
            [
              40.569831816505314,
              61.11424233176501
            ],
            [
              41.628135303181494,
              61.47079208940329
            ],
            [
              42.52535109217234,
              61.63187978708865
            ],
            [
              43.641169851662255,
              61.930914271913196
            ],
            [
              44.595900913466835,
              62.0
            ],
            [
              45.72317779371264,
              62.0
            ],
            [
              46.64342215873242,
              62.0
            ],
            [
              47.44863597812471,
              62.0
            ],
            [
              48.56445473761465,
              62.0
            ],
            [
              49.427183829820706,
              61.79296748477401
            ],
            [
              50.12882522434137,
              61.51684924146119
            ],
            [
              50.8305789533793,
              61.183215725334634
            ],
            [
              51.79676813593974,
              60.79217927091153
            ],
            [
              52.57895337930313,
              60.36654378518645
            ],
            [
              53.25767853231207,
              59.94090829946137
            ],
            [
              54.05143423094853,
              59.35429745056814
            ],
            [
              54.59198792778386,
              58.79060284318663
            ],
            [
              55.0751386863227,
              57.88192893343992
            ],
            [
              55.42023032320512,
              56.731623477165215
            ],
            [
              55.58131802089048,
              55.96089635455769
            ],
            [
              55.661861869733144,
              55.21319780797913
            ],
            [
              55.776892415360635,
              54.4885278374295
            ],
            [
              55.90338108174396,
              53.10816128989981
            ],
            [
              55.91483920249982,
              52.291377015234445
            ],
            [
              55.91483920249982,
              51.532220347899994
            ],
            [
              55.91483920249982,
              50.17488237639927
            ],
            [
              55.91483920249982,
              48.90954637449707
            ],
            [
              55.7078066872738,
              47.621181796565935
            ],
            [
              55.37428550566446,
              46.240815249036274
            ],
            [
              55.00616529275311,
              44.67633242779232
            ],
            [
              54.63804507984176,
              43.43402500191905
            ],
            [
              54.40798398858681,
              42.70935503136943
            ],
            [
              54.01683519964652,
              41.60510672715256
            ],
            [
              53.72925883557784,
              40.627347089319045
            ],
            [
              53.47628150281116,
              39.362011087416846
            ],
            [
              53.073674593115015,
              38.257650448682796
            ],
            [
              52.77452777377326,
              37.39492135647674
            ],
            [
              52.486951409704574,
              36.716308537984986
            ],
            [
              52.00380065116576,
              35.75000702090733
            ],
            [
              51.62422231749855,
              35.00230847432874
            ],
            [
              51.14107155895971,
              34.20855277569231
            ],
            [
              50.61197598288021,
              33.690915320368674
            ],
            [
              49.87573555705751,
              33.15036162353334
            ],
            [
              48.633428131184246,
              32.19551822721155
            ],
            [
              47.885729584605656,
              31.53993398474873
            ],
            [
              47.195546310840825,
              30.90726598379763
            ],
            [
              46.5744487651628,
              30.27459798284653
            ],
            [
              46.06826943059505,
              29.779876769034615
            ],
            [
              45.14802506557527,
              29.032178222456054
            ],
            [
              44.41178463975257,
              28.652599888788842
            ],
            [
              43.60657082036025,
              28.11193385743627
            ],
            [
              42.83595603226996,
              27.605866857385706
            ],
            [
              42.09971560644726,
              27.134174219602755
            ],
            [
              40.35122884600622,
              26.075983067443786
            ],
            [
              39.68407414827033,
              25.61586088493388
            ],
            [
              38.9133470256628,
              25.02913770152344
            ],
            [
              38.26922090395584,
              24.35052488303168
            ],
            [
              37.76304156938809,
              23.625742577964843
            ],
            [
              37.302919386878216,
              22.70549821294506
            ],
            [
              36.923341053210976,
              21.773795727169414
            ],
            [
              36.601277992357495,
              20.6924636644643
            ],
            [
              36.31370162828881,
              19.760761178688654
            ],
            [
              36.02612526422013,
              19.00160451135423
            ],
            [
              35.62351835452398,
              18.25390596477564
            ],
            [
              35.20934098955476,
              17.57518081176667
            ],
            [
              34.36964047337764,
              16.735480295589582
            ],
            [
              33.77145916921137,
              16.010810325039927
            ],
            [
              33.77145916921137,
              14.089777746157694
            ],
            [
              34.13957938212269,
              11.133470256628215
            ],
            [
              35.03679517111354,
              8.280735191970336
            ],
            [
              36.09509865778975,
              5.796008005706597
            ],
            [
              37.01534302280953,
              4.036063124509724
            ],
            [
              39.511528329829105,
              2.3566620921554886
            ],
            [
              40.213169724349825,
              2.0
            ],
            [
              39.76461799711299,
              3.1043606387340787
            ],
            [
              38.407280025612266,
              4.231637518979852
            ],
            [
              36.923341053210976,
              5.255454308871265
            ],
            [
              35.37042868724012,
              6.1066129458042155
            ],
            [
              34.36964047337764,
              6.693336129214657
            ],
            [
              33.541398077956416,
              7.268488857351997
            ],
            [
              32.55218031936704,
              7.901156858303125
            ],
            [
              31.91951231841594,
              8.234678039912467
            ],
            [
              31.148785195808415,
              8.34970858553993
            ],
            [
              30.06756546762051,
              8.303763767999271
            ],
            [
              29.26235164822819,
              8.073702676744347
            ],
            [
              28.169561464767213,
              7.694012008559895
            ],
            [
              26.490048097895794,
              7.371948947706414
            ],
            [
              25.684834278503473,
              7.153458311724535
            ],
            [
              24.730103216698893,
              6.8773400684117405
            ],
            [
              23.924889397306572,
              6.635820856400926
            ],
            [
              23.085188881129483,
              6.451704582686631
            ],
            [
              22.07294254651117,
              6.382731189117038
            ],
            [
              21.313673544659537,
              6.382731189117038
            ],
            [
              20.439486331697623,
              6.382731189117038
            ],
            [
              19.668759209090098,
              6.635820856400926
            ],
            [
              19.289180875422886,
              7.486979493333877
            ],
            [
              19.16257987452235,
              8.798372647293945
            ],
            [
              19.16257987452235,
              9.753103709098525
            ],
            [
              19.128093177737526,
              11.329044651098343
            ],
            [
              19.093606480952758,
              12.96250086591192
            ],
            [
              19.059119784167933,
              14.434869383040109
            ],
            [
              19.001604511354202,
              15.631119656855503
            ],
            [
              18.967117814569406,
              17.184032022826386
            ],
            [
              18.94408923854047,
              18.403423207187927
            ],
            [
              18.8980320864826,
              20.243911937227466
            ],
            [
              18.852087268941943,
              21.624278484757156
            ],
            [
              18.78300154085514,
              23.085188881129483
            ],
            [
              18.72548626804138,
              24.108893336503684
            ],
            [
              18.644942419198713,
              25.259198792778392
            ],
            [
              18.610455722413917,
              26.052954491414823
            ],
            [
              18.483967056030565,
              27.042172250004228
            ],
            [
              18.276934540804575,
              27.927929918239215
            ],
            [
              17.94330102467802,
              28.767630434416304
            ],
            [
              17.50620741819705,
              29.446355587425273
            ],
            [
              16.965541386844507,
              30.15956743721904
            ],
            [
              16.12584087066739,
              30.999267953396156
            ],
            [
              15.401170900117762,
              31.76999507600368
            ],
            [
              14.81444771670732,
              32.80526998665093
            ],
            [
              14.308380716656757,
              33.898060170111904
            ],
            [
              13.963289079774341,
              34.79527595910275
            ],
            [
              13.675712715705686,
              35.68103362733774
            ],
            [
              13.353537320334965,
              36.80831050758351
            ],
            [
              13.12347622908004,
              37.832014962957714
            ],
            [
              12.90498559309816,
              38.75225932797747
            ],
            [
              12.651895925814273,
              40.33977072525036
            ],
            [
              12.548323500942672,
              41.156442665398544
            ],
            [
              12.237830895362265,
              42.50232251614341
            ],
            [
              12.007769804107312,
              43.180935334635166
            ],
            [
              11.455533317481695,
              44.41178463975257
            ],
            [
              10.880380589344327,
              45.401114732859156
            ],
            [
              10.305227861206959,
              46.59736500667455
            ],
            [
              9.89116283075495,
              47.839672432547815
            ],
            [
              9.546071193872535,
              49.001548344095625
            ],
            [
              9.224008133019026,
              50.28991292202676
            ],
            [
              8.93643176895037,
              51.63568043825441
            ],
            [
              8.71782879845128,
              52.79755634980219
            ],
            [
              8.55685343528313,
              53.78677410839157
            ],
            [
              8.464739131167391,
              54.89113474712565
            ],
            [
              8.464739131167391,
              55.63883329370421
            ],
            [
              8.625826828852752,
              56.50156238591026
            ],
            [
              9.89116283075495,
              57.76689838781246
            ]
          ]
        ]
      }
    }
  ]
}