{
  "type": "FeatureCollection",
  "crs": {
    "type": "name",
    "properties": {
      "name": "urn:ogc:def:crs:OGC:1.3:CRS84"
    }
  },
  "features": [
    {
      "type": "Feature",
      "properties": {
        "timestamp": "2026-07-07T21:27:12.863872",
        "country_name": "Nepal",
        "author": "",
        "author_id": "143475dd-968d-4876-83f0-9207e3c37bd1",
        "validated": false,
        "ranking": [
          [
            "Nepal",
            0.345559298992157
          ],
          [
            "Turks and Caicos Islands",
            0.11781778931617737
          ],
          [
            "Samoa",
            0.07552493363618851
          ],
          [
            "Solomon Islands",
            0.04708544909954071
          ],
          [
            "Mexico",
            0.04184592515230179
          ],
          [
            "Georgia",
            0.03279344365000725
          ],
          [
            "Indonesia",
            0.0280714500695467
          ],
          [
            "United States of America",
            0.02729453146457672
          ],
          [
            "Cuba",
            0.026885313913226128
          ],
          [
            "Uzbekistan",
            0.024316228926181793
          ],
          [
            "El Salvador",
            0.019784344360232353
          ],
          [
            "Puerto Rico",
            0.019438404589891434
          ],
          [
            "New Caledonia",
            0.018659623339772224
          ],
          [
            "Jamaica",
            0.012891523540019989
          ],
          [
            "Eritrea",
            0.010734261944890022
          ],
          [
            "Latvia",
            0.010534154251217842
          ],
          [
            "Bahamas",
            0.00957822147756815
          ],
          [
            "Comoros",
            0.009553380310535431
          ],
          [
            "Turkmenistan",
            0.00928599201142788
          ],
          [
            "Turkey",
            0.008945900946855545
          ],
          [
            "Netherlands Antilles",
            0.008130054920911789
          ],
          [
            "Malaysia",
            0.006643155124038458
          ],
          [
            "Madeira Islands",
            0.00603497726842761
          ],
          [
            "Papua New Guinea",
            0.00474311038851738
          ],
          [
            "Mongolia",
            0.004302306566387415
          ],
          [
            "Ukraine",
            0.003926892299205065
          ],
          [
            "Armenia",
            0.003734060563147068
          ],
          [
            "Gambia",
            0.003656711196526885
          ],
          [
            "Panama",
            0.0036154016852378845
          ],
          [
            "Tajikistan",
            0.00301480945199728
          ],
          [
            "Costa Rica",
            0.0029972705524414778
          ],
          [
            "Guinea",
            0.002940924372524023
          ],
          [
            "Kazakhstan",
            0.0027101540472358465
          ],
          [
            "Timor-Leste",
            0.002288027433678508
          ],
          [
            "Equatorial Guinea",
            0.002232222119346261
          ],
          [
            "Italy",
            0.002034295815974474
          ],
          [
            "Kiribati",
            0.0017320717452093959
          ],
          [
            "Heard and McDonald Islands",
            0.0016850404208526015
          ],
          [
            "Guinea-Bissau",
            0.001678967266343534
          ],
          [
            "Russia",
            0.001644151983782649
          ],
          [
            "Laos",
            0.0014751245034858584
          ],
          [
            "Ecuador",
            0.0013718734262511134
          ],
          [
            "Czech Republic",
            0.0013471159618347883
          ],
          [
            "Austria",
            0.0011941639240831137
          ],
          [
            "Paraguay",
            0.0011855785269290209
          ],
          [
            "Belgium",
            0.0011773892911151052
          ],
          [
            "Estonia",
            0.000987731502391398
          ],
          [
            "Kyrgyzstan",
            0.0008406401029787958
          ],
          [
            "Hong Kong",
            0.0007093807798810303
          ],
          [
            "Yemen",
            0.0007021319470368326
          ],
          [
            "Malawi",
            0.0006972275441512465
          ],
          [
            "Dominican Republic",
            0.0006917291320860386
          ],
          [
            "Falkland Islands",
            0.0006896515842527151
          ],
          [
            "Bangladesh",
            0.0006820044945925474
          ],
          [
            "Australia",
            0.0006782890995964408
          ],
          [
            "Slovakia",
            0.0006096936413086951
          ],
          [
            "Vanuatu",
            0.000590822659432888
          ],
          [
            "Martinique",
            0.0005316605092957616
          ],
          [
            "Azerbaijan",
            0.0005308630061335862
          ],
          [
            "Saudi Arabia",
            0.0005298140458762646
          ],
          [
            "Senegal",
            0.0005037348601035774
          ],
          [
            "Liberia",
            0.00045505352318286896
          ],
          [
            "Cyprus",
            0.00044571186299435794
          ],
          [
            "South Georgia Islands",
            0.00044147888547740877
          ],
          [
            "Lithuania",
            0.0004163431003689766
          ],
          [
            "Bahrain",
            0.0004047963011544198
          ],
          [
            "Barbados",
            0.0003780932747758925
          ],
          [
            "Honduras",
            0.0003759374376386404
          ],
          [
            "South Sudan",
            0.00035061343805864453
          ],
          [
            "Central African Republic",
            0.00034749036421999335
          ],
          [
            "Guadeloupe",
            0.0003382793511264026
          ],
          [
            "Romania",
            0.000305168388877064
          ],
          [
            "Switzerland",
            0.00030341328238137066
          ],
          [
            "Peru",
            0.00027319815126247704
          ],
          [
            "Guyana",
            0.00025625608395785093
          ],
          [
            "Iceland",
            0.0002486387675162405
          ],
          [
            "Cape Verde",
            0.00024495116667822003
          ],
          [
            "Bhutan",
            0.00024170568212866783
          ],
          [
            "DR Congo",
            0.00023932481417432427
          ],
          [
            "New Zealand",
            0.00022136501502245665
          ],
          [
            "Philippines",
            0.00022056551824789494
          ],
          [
            "Burkina Faso",
            0.000218173474422656
          ],
          [
            "Moldova",
            0.00020226645574439317
          ],
          [
            "Togo",
            0.00020221284648869187
          ],
          [
            "United Kingdom",
            0.00019876897567883134
          ],
          [
            "Israel",
            0.00019866551156155765
          ],
          [
            "Niger",
            0.00019642327970359474
          ],
          [
            "Chile",
            0.00019486383826006204
          ],
          [
            "Iran",
            0.00019385255291126668
          ],
          [
            "Bosnia & Herzegovina",
            0.00019244231225457042
          ],
          [
            "Venezuela",
            0.00018864384037442505
          ],
          [
            "Svalbard",
            0.00018734869081526995
          ],
          [
            "Serbia",
            0.0001851176202762872
          ],
          [
            "South Korea",
            0.00017984323494601995
          ],
          [
            "China",
            0.00017212130478583276
          ],
          [
            "Croatia",
            0.0001560759701533243
          ],
          [
            "Ethiopia",
            0.000151974760228768
          ],
          [
            "Zambia",
            0.00014801234647165984
          ],
          [
            "Sierra Leone",
            0.00014483509585261345
          ],
          [
            "Mali",
            0.00013610176392830908
          ],
          [
            "United Arab Emirates",
            0.00013531798322219402
          ],
          [
            "Kenya",
            0.00013362520257942379
          ],
          [
            "Fiji",
            0.00013349248911254108
          ],
          [
            "Albania",
            0.00013116643822286278
          ],
          [
            "Iraq",
            0.00012961853644810617
          ],
          [
            "Brazil",
            0.00012552902626339346
          ],
          [
            "Dominica",
            0.0001250210334546864
          ],
          [
            "Myanmar",
            0.000123962017823942
          ],
          [
            "North Macedonia",
            0.00012385164154693484
          ],
          [
            "Rwanda",
            0.00011768408148782328
          ],
          [
            "Suriname",
            0.00011641733726719394
          ],
          [
            "Thailand",
            0.00011444731353549287
          ],
          [
            "Canada",
            0.00011079102841904387
          ],
          [
            "Libya",
            0.00011037361400667578
          ],
          [
            "Vietnam",
            0.00010846281656995416
          ],
          [
            "Kuwait",
            0.00010614101483952254
          ],
          [
            "Namibia",
            0.00010433871648274362
          ],
          [
            "Sao Tome and Principe",
            0.00010186632425757125
          ],
          [
            "Hungary",
            0.00010115459735970944
          ],
          [
            "India",
            9.632449655327946e-05
          ],
          [
            "Japan",
            9.596525342203677e-05
          ],
          [
            "Greece",
            9.582606435287744e-05
          ],
          [
            "Guatemala",
            9.439945279154927e-05
          ],
          [
            "Zimbabwe",
            9.180485358228907e-05
          ],
          [
            "Denmark",
            9.151987615041435e-05
          ],
          [
            "Bulgaria",
            9.058380965143442e-05
          ],
          [
            "Gabon",
            8.598742715548724e-05
          ],
          [
            "Trinidad and Tobago",
            8.49478819873184e-05
          ],
          [
            "Colombia",
            8.360616629943252e-05
          ],
          [
            "Mozambique",
            8.146251639118418e-05
          ],
          [
            "Argentina",
            8.137477561831474e-05
          ],
          [
            "Spain",
            8.035481732804328e-05
          ],
          [
            "Luxembourg",
            7.912699220469221e-05
          ],
          [
            "Somalia",
            7.70604019635357e-05
          ],
          [
            "Slovenia",
            7.423870556522161e-05
          ],
          [
            "Benin",
            7.311967056011781e-05
          ],
          [
            "Tunisia",
            7.229509355966002e-05
          ],
          [
            "France",
            7.136689237086102e-05
          ],
          [
            "Syria",
            6.836555257905275e-05
          ],
          [
            "Poland",
            6.401217251550406e-05
          ],
          [
            "Reunion",
            6.149136606836691e-05
          ],
          [
            "Uruguay",
            6.0264996136538684e-05
          ],
          [
            "Faroe Islands",
            5.971918653813191e-05
          ],
          [
            "Côte d'Ivoire",
            5.860545934410766e-05
          ],
          [
            "Montenegro",
            5.6844408391043544e-05
          ],
          [
            "Finland",
            5.617604620056227e-05
          ],
          [
            "United States Virgin Islands",
            5.584944665315561e-05
          ],
          [
            "Sri Lanka",
            5.578312266152352e-05
          ],
          [
            "Portugal",
            5.567587140831165e-05
          ],
          [
            "Algeria",
            5.407819844549522e-05
          ],
          [
            "Djibouti",
            5.3803705668542534e-05
          ],
          [
            "West Bank",
            5.222777326707728e-05
          ],
          [
            "Nicaragua",
            5.030605825595558e-05
          ],
          [
            "Bolivia",
            4.932157389703207e-05
          ],
          [
            "Uganda",
            4.858127431361936e-05
          ],
          [
            "Sudan",
            4.719493517768569e-05
          ],
          [
            "Ghana",
            4.611837357515469e-05
          ],
          [
            "Haiti",
            4.5801829401170835e-05
          ],
          [
            "Belize",
            4.483428710955195e-05
          ],
          [
            "Guam",
            4.306197297410108e-05
          ],
          [
            "Greenland",
            4.3044892663601786e-05
          ],
          [
            "Cameroon",
            4.234466177877039e-05
          ],
          [
            "Oman",
            4.171998443780467e-05
          ],
          [
            "Antigua & Barbuda",
            4.143260230193846e-05
          ],
          [
            "Sweden",
            4.140028977417387e-05
          ],
          [
            "Egypt",
            3.987408126704395e-05
          ],
          [
            "Tanzania",
            3.887684579240158e-05
          ],
          [
            "Mauritania",
            3.710376040544361e-05
          ],
          [
            "Cambodia",
            3.6989997170167044e-05
          ],
          [
            "Angola",
            3.47579043591395e-05
          ],
          [
            "Eswatini",
            3.3908727345988154e-05
          ],
          [
            "Brunei",
            3.256172567489557e-05
          ],
          [
            "Burundi",
            3.252944225096144e-05
          ],
          [
            "South Africa",
            3.1466017389902845e-05
          ],
          [
            "Qatar",
            2.9881628506700508e-05
          ],
          [
            "Botswana",
            2.9145636290195398e-05
          ],
          [
            "Lesotho",
            2.7761832825490274e-05
          ],
          [
            "French Guiana",
            2.489157486706972e-05
          ],
          [
            "Congo",
            2.3732325644232333e-05
          ],
          [
            "Belarus",
            2.3398550183628686e-05
          ],
          [
            "Nigeria",
            2.2502208594232798e-05
          ],
          [
            "Mayotte",
            2.1579573513008654e-05
          ],
          [
            "Isle of Man",
            2.0663608665927313e-05
          ],
          [
            "Saint Lucia",
            1.9184741177014075e-05
          ],
          [
            "Norway",
            1.7034515622071922e-05
          ],
          [
            "Palau",
            1.5379955584648997e-05
          ],
          [
            "Ireland",
            1.5336190699599683e-05
          ],
          [
            "Germany",
            1.3761517038801685e-05
          ],
          [
            "Pakistan",
            1.2558045455079991e-05
          ],
          [
            "Taiwan",
            1.246157717105234e-05
          ],
          [
            "Jordan",
            1.1067353625549003e-05
          ],
          [
            "Morocco",
            1.0280708920618054e-05
          ],
          [
            "North Korea",
            9.701847375254147e-06
          ],
          [
            "Netherlands",
            9.421808499610052e-06
          ],
          [
            "Afghanistan",
            8.804414392216131e-06
          ],
          [
            "Lebanon",
            7.97098437033128e-06
          ],
          [
            "Chad",
            5.2419663916225545e-06
          ],
          [
            "Western Sahara",
            5.0768326218531e-06
          ],
          [
            "Madagascar",
            4.8754836825537495e-06
          ]
        ]
      },
      "geometry": {
        "type": "MultiLineString",
        "coordinates": [
          [
            [
              7.368421052631618,
              47.78947368421052
            ],
            [
              8.31578947368422,
              46.84210526315792
            ],
            [
              9.263157894736878,
              46.21052631578948
            ],
            [
              10.21052631578948,
              45.26315789473682
            ],
            [
              11.157894736842138,
              43.68421052631578
            ],
            [
              12.42105263157896,
              42.10526315789474
            ],
            [
              12.736842105263179,
              41.15789473684208
            ],
            [
              13.684210526315837,
              39.89473684210526
            ],
            [
              14.631578947368439,
              38.9473684210526
            ],
            [
              15.57894736842104,
              38.0
            ],
            [
              16.84210526315792,
              37.68421052631578
            ],
            [
              18.42105263157896,
              37.36842105263156
            ],
            [
              19.684210526315837,
              36.73684210526318
            ],
            [
              21.57894736842104,
              36.10526315789474
            ],
            [
              23.473684210526358,
              35.78947368421052
            ],
            [
              25.368421052631618,
              35.4736842105263
            ],
            [
              26.31578947368422,
              35.15789473684208
            ],
            [
              27.57894736842104,
              35.15789473684208
            ],
            [
              28.84210526315792,
              35.15789473684208
            ],
            [
              30.10526315789474,
              34.84210526315792
            ],
            [
              31.36842105263156,
              33.89473684210526
            ],
            [
              32.31578947368422,
              33.26315789473682
            ],
            [
              33.26315789473688,
              32.31578947368422
            ],
            [
              34.21052631578948,
              31.36842105263156
            ],
            [
              35.15789473684214,
              30.73684210526318
            ],
            [
              36.10526315789474,
              30.10526315789474
            ],
            [
              37.36842105263156,
              29.4736842105263
            ],
            [
              38.63157894736844,
              28.84210526315792
            ],
            [
              40.21052631578948,
              28.5263157894737
            ],
            [
              42.10526315789474,
              28.21052631578948
            ],
            [
              43.36842105263156,
              27.89473684210526
            ],
            [
              44.31578947368422,
              27.57894736842104
            ],
            [
              45.89473684210532,
              27.57894736842104
            ],
            [
              47.47368421052636,
              27.263157894736878
            ],
            [
              49.0526315789474,
              27.263157894736878
            ],
            [
              50.94736842105266,
              26.9473684210526
            ],
            [
              52.5263157894737,
              26.63157894736844
            ],
            [
              53.78947368421052,
              26.63157894736844
            ],
            [
              54.73684210526318,
              26.31578947368422
            ],
            [
              56.0,
              26.31578947368422
            ],
            [
              56.94736842105266,
              26.0
            ],
            [
              58.21052631578948,
              25.0526315789474
            ],
            [
              59.47368421052636,
              24.73684210526318
            ],
            [
              60.42105263157896,
              24.42105263157896
            ],
            [
              61.68421052631584,
              24.42105263157896
            ],
            [
              62.0,
              23.4736842105263
            ],
            [
              61.36842105263156,
              22.5263157894737
            ],
            [
              60.73684210526318,
              21.263157894736878
            ],
            [
              60.42105263157896,
              20.31578947368422
            ],
            [
              60.10526315789474,
              19.36842105263156
            ],
            [
              59.15789473684208,
              18.10526315789474
            ],
            [
              58.84210526315792,
              17.15789473684208
            ],
            [
              57.89473684210532,
              16.21052631578948
            ],
            [
              56.31578947368422,
              16.21052631578948
            ],
            [
              55.0526315789474,
              16.21052631578948
            ],
            [
              53.47368421052636,
              16.21052631578948
            ],
            [
              51.26315789473688,
              16.21052631578948
            ],
            [
              50.0,
              16.21052631578948
            ],
            [
              48.42105263157896,
              16.21052631578948
            ],
            [
              47.15789473684208,
              16.5263157894737
            ],
            [
              45.89473684210532,
              16.5263157894737
            ],
            [
              44.63157894736844,
              16.5263157894737
            ],
            [
              43.0526315789474,
              16.5263157894737
            ],
            [
              41.78947368421052,
              16.5263157894737
            ],
            [
              40.84210526315792,
              16.84210526315792
            ],
            [
              39.57894736842104,
              17.4736842105263
            ],
            [
              38.31578947368422,
              18.10526315789474
            ],
            [
              36.42105263157896,
              19.0526315789474
            ],
            [
              35.15789473684214,
              19.36842105263156
            ],
            [
              33.89473684210526,
              20.0
            ],
            [
              32.94736842105266,
              20.63157894736844
            ],
            [
              31.684210526315837,
              21.263157894736878
            ],
            [
              30.73684210526318,
              21.57894736842104
            ],
            [
              29.78947368421052,
              22.21052631578948
            ],
            [
              28.84210526315792,
              22.84210526315792
            ],
            [
              27.89473684210526,
              23.15789473684208
            ],
            [
              26.31578947368422,
              23.15789473684208
            ],
            [
              24.42105263157896,
              23.15789473684208
            ],
            [
              22.5263157894737,
              23.15789473684208
            ],
            [
              21.57894736842104,
              23.4736842105263
            ],
            [
              19.684210526315837,
              23.78947368421052
            ],
            [
              18.42105263157896,
              24.10526315789474
            ],
            [
              17.473684210526358,
              24.42105263157896
            ],
            [
              16.5263157894737,
              24.73684210526318
            ],
            [
              15.57894736842104,
              25.0526315789474
            ],
            [
              14.31578947368422,
              25.36842105263156
            ],
            [
              13.368421052631618,
              25.68421052631578
            ],
            [
              12.10526315789474,
              26.63157894736844
            ],
            [
              10.842105263157919,
              27.57894736842104
            ],
            [
              9.57894736842104,
              28.5263157894737
            ],
            [
              8.631578947368439,
              29.78947368421052
            ],
            [
              8.0,
              30.73684210526318
            ],
            [
              7.368421052631618,
              32.0
            ],
            [
              6.736842105263179,
              33.26315789473682
            ],
            [
              6.10526315789474,
              34.5263157894737
            ],
            [
              5.473684210526358,
              35.78947368421052
            ],
            [
              5.157894736842138,
              36.73684210526318
            ],
            [
              4.21052631578948,
              38.0
            ],
            [
              3.5789473684210407,
              39.57894736842104
            ],
            [
              2.631578947368439,
              40.5263157894737
            ],
            [
              2.0,
              41.4736842105263
            ],
            [
              2.3157894736842195,
              42.42105263157896
            ],
            [
              3.5789473684210407,
              43.68421052631578
            ],
            [
              4.526315789473699,
              44.0
            ],
            [
              5.78947368421052,
              44.9473684210526
            ],
            [
              6.736842105263179,
              45.26315789473682
            ],
            [
              7.684210526315837,
              45.89473684210526
            ],
            [
              8.947368421052659,
              46.21052631578948
            ],
            [
              10.21052631578948,
              46.21052631578948
            ]
          ]
        ]
      }
    }
  ]
}