{
  "type": "FeatureCollection",
  "crs": {
    "type": "name",
    "properties": {
      "name": "urn:ogc:def:crs:OGC:1.3:CRS84"
    }
  },
  "features": [
    {
      "type": "Feature",
      "properties": {
        "timestamp": "2026-07-28T22:56:04.348876",
        "country_name": "Nepal",
        "author": "",
        "author_id": "7a05bd27-e2bb-47ee-a68d-8c186544300b",
        "validated": false,
        "ranking": [
          [
            "Nepal",
            0.26402515172958374
          ],
          [
            "Georgia",
            0.11987879872322083
          ],
          [
            "Cuba",
            0.10751421749591827
          ],
          [
            "Turks and Caicos Islands",
            0.06337715685367584
          ],
          [
            "Indonesia",
            0.051750313490629196
          ],
          [
            "Samoa",
            0.0369451530277729
          ],
          [
            "Mexico",
            0.03639235347509384
          ],
          [
            "Jamaica",
            0.03362617641687393
          ],
          [
            "Uzbekistan",
            0.02517286129295826
          ],
          [
            "Puerto Rico",
            0.021463444456458092
          ],
          [
            "Turkey",
            0.017827486619353294
          ],
          [
            "Turkmenistan",
            0.01759592816233635
          ],
          [
            "United States of America",
            0.01396543812006712
          ],
          [
            "El Salvador",
            0.012004587799310684
          ],
          [
            "Tajikistan",
            0.011485114693641663
          ],
          [
            "Russia",
            0.01137881726026535
          ],
          [
            "New Caledonia",
            0.011226607486605644
          ],
          [
            "Solomon Islands",
            0.010895146057009697
          ],
          [
            "Bahamas",
            0.010695894248783588
          ],
          [
            "Eritrea",
            0.009980305097997189
          ],
          [
            "Latvia",
            0.009938087314367294
          ],
          [
            "Mongolia",
            0.007761728949844837
          ],
          [
            "Panama",
            0.0070905196480453014
          ],
          [
            "Papua New Guinea",
            0.005686075426638126
          ],
          [
            "Heard and McDonald Islands",
            0.004775650799274445
          ],
          [
            "Kazakhstan",
            0.004634205251932144
          ],
          [
            "Madeira Islands",
            0.003863753518089652
          ],
          [
            "Gambia",
            0.003667881479486823
          ],
          [
            "Timor-Leste",
            0.003643880132585764
          ],
          [
            "Czech Republic",
            0.003516166005283594
          ],
          [
            "Falkland Islands",
            0.003451104974374175
          ],
          [
            "South Georgia Islands",
            0.003282917197793722
          ],
          [
            "Italy",
            0.0032079084776341915
          ],
          [
            "Guinea-Bissau",
            0.0028607365675270557
          ],
          [
            "Kyrgyzstan",
            0.0023327860981225967
          ],
          [
            "Slovakia",
            0.002085408428683877
          ],
          [
            "Dominican Republic",
            0.0019633278716355562
          ],
          [
            "Ukraine",
            0.001913484768010676
          ],
          [
            "Comoros",
            0.0016476089367642999
          ],
          [
            "Netherlands Antilles",
            0.001343818730674684
          ],
          [
            "Laos",
            0.0013201463734731078
          ],
          [
            "Armenia",
            0.0013137862551957369
          ],
          [
            "Malaysia",
            0.0012352854246273637
          ],
          [
            "Honduras",
            0.0011210008524358273
          ],
          [
            "Central African Republic",
            0.0010538966162130237
          ],
          [
            "Estonia",
            0.0010502785444259644
          ],
          [
            "Yemen",
            0.0010492373257875443
          ],
          [
            "Bangladesh",
            0.001015565823763609
          ],
          [
            "Saudi Arabia",
            0.0009226625552400947
          ],
          [
            "Hong Kong",
            0.0008891642210073769
          ],
          [
            "Costa Rica",
            0.0007473916048184037
          ],
          [
            "Guinea",
            0.0007473216974176466
          ],
          [
            "Malawi",
            0.0007088061538524926
          ],
          [
            "Ecuador",
            0.0006699958466924727
          ],
          [
            "Kiribati",
            0.000668526568915695
          ],
          [
            "Switzerland",
            0.0006615223828703165
          ],
          [
            "Guadeloupe",
            0.0006558700115419924
          ],
          [
            "Bhutan",
            0.0006129094981588423
          ],
          [
            "Equatorial Guinea",
            0.0005873945774510503
          ],
          [
            "Austria",
            0.0005660729366354644
          ],
          [
            "Azerbaijan",
            0.0005421519163064659
          ],
          [
            "Cyprus",
            0.0005050559411756694
          ],
          [
            "Philippines",
            0.0004668972687795758
          ],
          [
            "Vanuatu",
            0.00045930728083476424
          ],
          [
            "South Sudan",
            0.0004315385303925723
          ],
          [
            "Svalbard",
            0.0004141667450312525
          ],
          [
            "Belgium",
            0.00039231745176948607
          ],
          [
            "Barbados",
            0.0003910727973561734
          ],
          [
            "South Korea",
            0.0003890677180606872
          ],
          [
            "Senegal",
            0.0003577750758267939
          ],
          [
            "Peru",
            0.00035414681769907475
          ],
          [
            "Paraguay",
            0.00034173662425018847
          ],
          [
            "Iceland",
            0.0003343415737617761
          ],
          [
            "Martinique",
            0.0003158239123877138
          ],
          [
            "Ethiopia",
            0.0003054066328331828
          ],
          [
            "Burkina Faso",
            0.00030115959816612303
          ],
          [
            "Serbia",
            0.00029730488313362
          ],
          [
            "Guyana",
            0.000279908039374277
          ],
          [
            "Australia",
            0.0002720942138694227
          ],
          [
            "United Kingdom",
            0.00026666102348826826
          ],
          [
            "China",
            0.00025402443134225905
          ],
          [
            "Liberia",
            0.0002507754252292216
          ],
          [
            "New Zealand",
            0.00024415177176706493
          ],
          [
            "Fiji",
            0.00023403657542075962
          ],
          [
            "Israel",
            0.00021732338063884526
          ],
          [
            "Niger",
            0.00020375418534968048
          ],
          [
            "Zambia",
            0.00019955766038037837
          ],
          [
            "Myanmar",
            0.00019802017777692527
          ],
          [
            "Albania",
            0.0001944146933965385
          ],
          [
            "Romania",
            0.00019377977878320962
          ],
          [
            "Luxembourg",
            0.00018593865388538688
          ],
          [
            "Thailand",
            0.00017804191156756133
          ],
          [
            "Mozambique",
            0.00017013489559758455
          ],
          [
            "Greece",
            0.0001678531407378614
          ],
          [
            "Lithuania",
            0.0001654331135796383
          ],
          [
            "Bahrain",
            0.0001614342036191374
          ],
          [
            "Togo",
            0.0001595908688614145
          ],
          [
            "Hungary",
            0.00015573702694382519
          ],
          [
            "Canada",
            0.00015093428373802453
          ],
          [
            "Somalia",
            0.00014649686636403203
          ],
          [
            "Iraq",
            0.00014618952991440892
          ],
          [
            "Bulgaria",
            0.0001447997783543542
          ],
          [
            "Sri Lanka",
            0.00013687524187844247
          ],
          [
            "Chile",
            0.00013679460971616209
          ],
          [
            "Moldova",
            0.0001271088549401611
          ],
          [
            "Tunisia",
            0.00012509811494965106
          ],
          [
            "Rwanda",
            0.00012108863302273676
          ],
          [
            "Cape Verde",
            0.00012005216558463871
          ],
          [
            "India",
            0.00011623943282756954
          ],
          [
            "Mali",
            0.00011444167466834188
          ],
          [
            "Spain",
            0.00010891541023738682
          ],
          [
            "Croatia",
            0.00010782795288832858
          ],
          [
            "Denmark",
            0.00010780266165966168
          ],
          [
            "Vietnam",
            0.00010554369509918615
          ],
          [
            "Iran",
            0.00010385092900833115
          ],
          [
            "Argentina",
            9.676408080849797e-05
          ],
          [
            "Colombia",
            9.544103522785008e-05
          ],
          [
            "Slovenia",
            9.505099296802655e-05
          ],
          [
            "Japan",
            9.367522579850629e-05
          ],
          [
            "North Macedonia",
            9.181188215734437e-05
          ],
          [
            "Guatemala",
            9.158311149803922e-05
          ],
          [
            "Faroe Islands",
            8.9454602857586e-05
          ],
          [
            "France",
            8.826060366118327e-05
          ],
          [
            "Kuwait",
            8.760851778788492e-05
          ],
          [
            "Brunei",
            8.189141954062507e-05
          ],
          [
            "Benin",
            7.99667977844365e-05
          ],
          [
            "Finland",
            7.742492016404867e-05
          ],
          [
            "DR Congo",
            7.281601574504748e-05
          ],
          [
            "Dominica",
            7.125103729777038e-05
          ],
          [
            "Venezuela",
            6.951572140678763e-05
          ],
          [
            "Bolivia",
            6.846892938483506e-05
          ],
          [
            "Trinidad and Tobago",
            6.530099199153483e-05
          ],
          [
            "Belize",
            6.06537469138857e-05
          ],
          [
            "Montenegro",
            5.8786281442735344e-05
          ],
          [
            "Sweden",
            5.819933721795678e-05
          ],
          [
            "Brazil",
            5.817813871544786e-05
          ],
          [
            "Sierra Leone",
            5.719353066524491e-05
          ],
          [
            "Namibia",
            5.718971078749746e-05
          ],
          [
            "Gabon",
            5.664765922119841e-05
          ],
          [
            "Guam",
            5.53412210138049e-05
          ],
          [
            "Ireland",
            5.213742042542435e-05
          ],
          [
            "Angola",
            5.20195098943077e-05
          ],
          [
            "Syria",
            5.158556086826138e-05
          ],
          [
            "United Arab Emirates",
            5.101559872855432e-05
          ],
          [
            "Nicaragua",
            5.0869366532424465e-05
          ],
          [
            "South Africa",
            5.0300604925723746e-05
          ],
          [
            "Haiti",
            4.895036545349285e-05
          ],
          [
            "Portugal",
            4.6463079343084246e-05
          ],
          [
            "Uruguay",
            4.390285175759345e-05
          ],
          [
            "Oman",
            4.3223521061008796e-05
          ],
          [
            "Bosnia & Herzegovina",
            4.3115407606819645e-05
          ],
          [
            "Algeria",
            4.295715189073235e-05
          ],
          [
            "Zimbabwe",
            4.264708695700392e-05
          ],
          [
            "Cameroon",
            4.220035043545067e-05
          ],
          [
            "Djibouti",
            3.643890522653237e-05
          ],
          [
            "Qatar",
            3.629213460953906e-05
          ],
          [
            "Kenya",
            3.5014159948332235e-05
          ],
          [
            "Libya",
            3.4473945561330765e-05
          ],
          [
            "Sao Tome and Principe",
            3.399175693630241e-05
          ],
          [
            "Congo",
            3.3172371331602335e-05
          ],
          [
            "Greenland",
            3.231893788324669e-05
          ],
          [
            "Burundi",
            3.193711017956957e-05
          ],
          [
            "Uganda",
            3.1351784855360165e-05
          ],
          [
            "Norway",
            3.030014704563655e-05
          ],
          [
            "West Bank",
            2.984267848660238e-05
          ],
          [
            "Suriname",
            2.9576855013146996e-05
          ],
          [
            "Mauritania",
            2.6383886506664567e-05
          ],
          [
            "Reunion",
            2.3835444153519347e-05
          ],
          [
            "Belarus",
            2.188924372603651e-05
          ],
          [
            "Egypt",
            2.1608409952023067e-05
          ],
          [
            "Ghana",
            2.1264680981403217e-05
          ],
          [
            "Poland",
            2.0897821741527878e-05
          ],
          [
            "Sudan",
            1.966875424841419e-05
          ],
          [
            "Eswatini",
            1.941596383403521e-05
          ],
          [
            "Antigua & Barbuda",
            1.9307944967295043e-05
          ],
          [
            "Mayotte",
            1.8933194951387122e-05
          ],
          [
            "Netherlands",
            1.8526878193370067e-05
          ],
          [
            "Cambodia",
            1.8312150132260285e-05
          ],
          [
            "Morocco",
            1.8219790945295244e-05
          ],
          [
            "Saint Lucia",
            1.8182992789661512e-05
          ],
          [
            "Taiwan",
            1.741275809763465e-05
          ],
          [
            "Tanzania",
            1.73888274730416e-05
          ],
          [
            "Palau",
            1.6986956325126812e-05
          ],
          [
            "Côte d'Ivoire",
            1.6337568013113923e-05
          ],
          [
            "Lesotho",
            1.606673868081998e-05
          ],
          [
            "Nigeria",
            1.5554755009361543e-05
          ],
          [
            "Afghanistan",
            1.5526624338235706e-05
          ],
          [
            "Jordan",
            1.4810636457696091e-05
          ],
          [
            "North Korea",
            1.4361397006723564e-05
          ],
          [
            "Isle of Man",
            1.4290079889178742e-05
          ],
          [
            "United States Virgin Islands",
            1.3088626474200282e-05
          ],
          [
            "French Guiana",
            1.2882020200777333e-05
          ],
          [
            "Botswana",
            1.1317587450321298e-05
          ],
          [
            "Pakistan",
            9.710348422231618e-06
          ],
          [
            "Lebanon",
            9.278730431105942e-06
          ],
          [
            "Germany",
            9.137613233178854e-06
          ],
          [
            "Western Sahara",
            7.1167196438182145e-06
          ],
          [
            "Madagascar",
            6.9772063397977035e-06
          ],
          [
            "Chad",
            3.912305601261323e-06
          ]
        ]
      },
      "geometry": {
        "type": "MultiLineString",
        "coordinates": [
          [
            [
              13.441860465116292,
              43.02325581395348
            ],
            [
              14.279069767441854,
              42.46511627906975
            ],
            [
              14.558139534883708,
              41.627906976744185
            ]
          ],
          [
            [
              15.39534883720927,
              40.51162790697674
            ],
            [
              16.232558139534888,
              40.23255813953489
            ],
            [
              17.627906976744157,
              40.23255813953489
            ],
            [
              18.74418604651163,
              40.790697674418595
            ],
            [
              19.023255813953483,
              39.67441860465115
            ],
            [
              19.860465116279045,
              39.3953488372093
            ],
            [
              20.976744186046517,
              39.3953488372093
            ],
            [
              21.81395348837208,
              39.67441860465115
            ],
            [
              22.93023255813955,
              39.116279069767415
            ],
            [
              24.32558139534882,
              39.116279069767415
            ],
            [
              25.16279069767438,
              38.83720930232556
            ],
            [
              25.441860465116292,
              38.0
            ],
            [
              26.279069767441854,
              37.720930232558146
            ],
            [
              27.116279069767415,
              37.441860465116264
            ],
            [
              27.953488372093034,
              37.16279069767441
            ],
            [
              28.51162790697674,
              36.32558139534882
            ],
            [
              29.906976744186068,
              35.48837209302326
            ],
            [
              31.023255813953483,
              35.48837209302326
            ],
            [
              32.1395348837209,
              35.48837209302326
            ],
            [
              32.97674418604652,
              35.209302325581405
            ],
            [
              33.81395348837208,
              34.65116279069767
            ],
            [
              34.93023255813955,
              34.09302325581393
            ],
            [
              35.48837209302326,
              33.25581395348837
            ],
            [
              35.76744186046511,
              32.41860465116278
            ],
            [
              36.604651162790674,
              32.1395348837209
            ],
            [
              37.720930232558146,
              32.1395348837209
            ],
            [
              38.83720930232556,
              32.1395348837209
            ],
            [
              39.67441860465112,
              31.860465116279045
            ],
            [
              41.3488372093023,
              31.860465116279045
            ],
            [
              42.186046511627865,
              31.58139534883719
            ],
            [
              43.30232558139534,
              31.302325581395337
            ],
            [
              46.372093023255786,
              30.74418604651163
            ],
            [
              47.20930232558135,
              29.906976744186068
            ],
            [
              48.046511627906966,
              29.627906976744157
            ],
            [
              49.16279069767438,
              29.348837209302303
            ],
            [
              50.0,
              28.790697674418595
            ],
            [
              50.83720930232556,
              28.51162790697674
            ],
            [
              51.953488372093034,
              28.232558139534888
            ],
            [
              53.3488372093023,
              27.674418604651123
            ],
            [
              54.186046511627865,
              27.116279069767415
            ],
            [
              55.30232558139534,
              26.83720930232556
            ],
            [
              56.1395348837209,
              26.558139534883708
            ],
            [
              57.534883720930225,
              26.279069767441854
            ],
            [
              58.65116279069764,
              26.279069767441854
            ],
            [
              59.76744186046511,
              26.279069767441854
            ],
            [
              60.604651162790674,
              26.83720930232556
            ],
            [
              60.88372093023253,
              26.0
            ],
            [
              61.16279069767438,
              24.883720930232528
            ],
            [
              61.44186046511629,
              23.48837209302326
            ],
            [
              61.720930232558146,
              22.65116279069764
            ],
            [
              62.0,
              21.534883720930225
            ],
            [
              62.0,
              20.41860465116281
            ],
            [
              62.0,
              19.302325581395337
            ],
            [
              62.0,
              17.906976744186068
            ],
            [
              61.720930232558146,
              17.06976744186045
            ],
            [
              61.720930232558146,
              15.953488372093034
            ],
            [
              61.16279069767438,
              15.116279069767415
            ],
            [
              59.76744186046511,
              14.837209302325562
            ],
            [
              58.09302325581393,
              15.116279069767415
            ],
            [
              57.25581395348837,
              15.674418604651123
            ],
            [
              56.697674418604606,
              16.51162790697674
            ],
            [
              56.97674418604652,
              17.348837209302303
            ],
            [
              56.697674418604606,
              18.186046511627865
            ],
            [
              55.58139534883719,
              18.186046511627865
            ],
            [
              54.465116279069775,
              18.465116279069775
            ],
            [
              53.06976744186045,
              19.023255813953483
            ],
            [
              51.953488372093034,
              19.58139534883719
            ],
            [
              50.55813953488371,
              19.58139534883719
            ],
            [
              49.44186046511629,
              19.58139534883719
            ],
            [
              48.046511627906966,
              19.58139534883719
            ],
            [
              47.20930232558135,
              19.302325581395337
            ],
            [
              46.09302325581393,
              19.302325581395337
            ],
            [
              45.25581395348837,
              19.58139534883719
            ],
            [
              43.860465116279045,
              19.58139534883719
            ],
            [
              42.74418604651163,
              19.58139534883719
            ],
            [
              41.62790697674416,
              19.860465116279045
            ],
            [
              40.790697674418595,
              20.41860465116281
            ],
            [
              39.953488372093034,
              20.697674418604606
            ],
            [
              39.116279069767415,
              20.976744186046517
            ],
            [
              37.44186046511629,
              20.976744186046517
            ],
            [
              36.604651162790674,
              21.25581395348837
            ],
            [
              35.48837209302326,
              21.25581395348837
            ],
            [
              33.81395348837208,
              21.25581395348837
            ],
            [
              32.1395348837209,
              21.81395348837208
            ],
            [
              30.74418604651163,
              22.093023255813932
            ],
            [
              29.906976744186068,
              22.65116279069764
            ],
            [
              29.06976744186045,
              23.209302325581405
            ],
            [
              28.232558139534888,
              23.48837209302326
            ],
            [
              27.116279069767415,
              23.48837209302326
            ],
            [
              25.720930232558146,
              22.93023255813955
            ],
            [
              22.93023255813955,
              21.81395348837208
            ],
            [
              20.697674418604606,
              21.534883720930225
            ],
            [
              18.465116279069775,
              21.534883720930225
            ],
            [
              16.790697674418595,
              21.81395348837208
            ],
            [
              15.953488372093034,
              22.093023255813932
            ],
            [
              14.837209302325562,
              23.209302325581405
            ],
            [
              14.0,
              24.046511627906966
            ],
            [
              13.441860465116292,
              24.883720930232528
            ],
            [
              13.162790697674382,
              25.720930232558146
            ],
            [
              12.883720930232528,
              26.558139534883708
            ],
            [
              12.32558139534882,
              28.232558139534888
            ],
            [
              12.046511627906966,
              29.348837209302303
            ],
            [
              11.209302325581405,
              29.906976744186068
            ],
            [
              10.093023255813932,
              30.465116279069775
            ],
            [
              8.697674418604663,
              31.302325581395337
            ],
            [
              7.302325581395337,
              32.41860465116278
            ],
            [
              6.465116279069775,
              33.25581395348837
            ],
            [
              6.186046511627865,
              34.09302325581393
            ],
            [
              5.348837209302303,
              34.93023255813952
            ],
            [
              5.069767441860449,
              35.76744186046511
            ],
            [
              4.790697674418595,
              36.604651162790674
            ],
            [
              4.5116279069767415,
              37.720930232558146
            ],
            [
              4.232558139534888,
              39.67441860465115
            ],
            [
              3.3953488372092693,
              41.90697674418604
            ],
            [
              2.5581395348837077,
              44.697674418604635
            ],
            [
              2.0,
              46.65116279069767
            ],
            [
              2.0,
              47.76744186046511
            ],
            [
              3.1162790697674154,
              48.32558139534882
            ],
            [
              4.5116279069767415,
              48.604651162790674
            ],
            [
              5.906976744186011,
              48.604651162790674
            ],
            [
              6.744186046511629,
              49.16279069767441
            ],
            [
              8.41860465116281,
              49.16279069767441
            ],
            [
              9.534883720930225,
              48.32558139534882
            ],
            [
              10.65116279069764,
              47.48837209302326
            ],
            [
              11.767441860465112,
              46.93023255813952
            ],
            [
              12.046511627906966,
              46.09302325581393
            ],
            [
              12.883720930232528,
              45.25581395348837
            ],
            [
              13.720930232558146,
              44.13953488372093
            ],
            [
              14.0,
              42.46511627906975
            ],
            [
              14.279069767441854,
              41.627906976744185
            ],
            [
              14.279069767441854,
              40.51162790697674
            ],
            [
              14.837209302325562,
              39.116279069767415
            ],
            [
              15.39534883720927,
              38.279069767441854
            ],
            [
              16.51162790697674,
              38.279069767441854
            ],
            [
              17.627906976744157,
              38.279069767441854
            ],
            [
              18.465116279069775,
              38.55813953488371
            ],
            [
              19.58139534883719,
              39.67441860465115
            ],
            [
              20.697674418604606,
              41.06976744186045
            ],
            [
              20.976744186046517,
              41.90697674418604
            ],
            [
              21.81395348837208,
              42.46511627906975
            ],
            [
              22.93023255813955,
              42.18604651162789
            ],
            [
              23.48837209302326,
              41.06976744186045
            ],
            [
              24.604651162790674,
              39.953488372093005
            ],
            [
              26.279069767441854,
              39.3953488372093
            ],
            [
              27.674418604651123,
              39.3953488372093
            ],
            [
              28.790697674418595,
              39.3953488372093
            ],
            [
              30.186046511627865,
              39.3953488372093
            ],
            [
              31.302325581395337,
              39.3953488372093
            ],
            [
              32.697674418604606,
              39.3953488372093
            ],
            [
              32.97674418604652,
              40.23255813953489
            ],
            [
              33.534883720930225,
              41.06976744186045
            ],
            [
              33.534883720930225,
              43.30232558139534
            ],
            [
              33.534883720930225,
              44.97674418604652
            ],
            [
              33.534883720930225,
              46.93023255813952
            ],
            [
              33.534883720930225,
              45.534883720930225
            ],
            [
              33.534883720930225,
              44.41860465116278
            ],
            [
              33.534883720930225,
              43.02325581395348
            ],
            [
              33.534883720930225,
              41.3488372093023
            ],
            [
              34.65116279069764,
              40.790697674418595
            ],
            [
              35.76744186046511,
              40.790697674418595
            ],
            [
              36.32558139534882,
              39.67441860465115
            ],
            [
              36.604651162790674,
              38.279069767441854
            ],
            [
              37.16279069767438,
              37.16279069767441
            ],
            [
              37.44186046511629,
              36.32558139534882
            ],
            [
              38.83720930232556,
              36.32558139534882
            ],
            [
              39.67441860465112,
              36.604651162790674
            ],
            [
              40.51162790697674,
              37.16279069767441
            ],
            [
              41.3488372093023,
              37.720930232558146
            ],
            [
              41.90697674418607,
              36.32558139534882
            ],
            [
              41.90697674418607,
              34.09302325581393
            ],
            [
              42.465116279069775,
              32.97674418604652
            ],
            [
              42.74418604651163,
              31.860465116279045
            ],
            [
              44.1395348837209,
              31.302325581395337
            ],
            [
              45.81395348837208,
              31.860465116279045
            ],
            [
              46.93023255813955,
              32.41860465116278
            ],
            [
              47.20930232558135,
              31.302325581395337
            ],
            [
              47.48837209302326,
              30.465116279069775
            ],
            [
              48.046511627906966,
              29.627906976744157
            ]
          ]
        ]
      }
    }
  ]
}