{
  "type": "FeatureCollection",
  "crs": {
    "type": "name",
    "properties": {
      "name": "urn:ogc:def:crs:OGC:1.3:CRS84"
    }
  },
  "features": [
    {
      "type": "Feature",
      "properties": {
        "timestamp": "2026-07-12T14:29:03.681498",
        "country_name": "New Zealand",
        "author": "Isaac",
        "author_id": "5a5bdb66-20b1-4757-a463-033ebd6dc2f8",
        "validated": false,
        "ranking": [
          [
            "Oman",
            0.2523113787174225
          ],
          [
            "Palau",
            0.14076805114746094
          ],
          [
            "Israel",
            0.07246636599302292
          ],
          [
            "Sweden",
            0.05728495493531227
          ],
          [
            "Japan",
            0.04134289175271988
          ],
          [
            "Chile",
            0.031367719173431396
          ],
          [
            "Thailand",
            0.030722547322511673
          ],
          [
            "Lebanon",
            0.028385544195771217
          ],
          [
            "New Zealand",
            0.028285963460803032
          ],
          [
            "Guam",
            0.024019520729780197
          ],
          [
            "Somalia",
            0.022411108016967773
          ],
          [
            "Spain",
            0.02125385031104088
          ],
          [
            "Timor-Leste",
            0.016998525708913803
          ],
          [
            "Belize",
            0.01683962531387806
          ],
          [
            "Mozambique",
            0.014591338112950325
          ],
          [
            "Argentina",
            0.01064388919621706
          ],
          [
            "Congo",
            0.00955947209149599
          ],
          [
            "Cameroon",
            0.007909406907856464
          ],
          [
            "Finland",
            0.007729686331003904
          ],
          [
            "Central African Republic",
            0.007688852492719889
          ],
          [
            "Madagascar",
            0.0074655222706496716
          ],
          [
            "Philippines",
            0.006784573197364807
          ],
          [
            "North Korea",
            0.006609319243580103
          ],
          [
            "Morocco",
            0.006542206276208162
          ],
          [
            "Isle of Man",
            0.005381122697144747
          ],
          [
            "Slovakia",
            0.004146456252783537
          ],
          [
            "Sao Tome and Principe",
            0.004020201973617077
          ],
          [
            "Togo",
            0.003858028445392847
          ],
          [
            "Yemen",
            0.0038199310656636953
          ],
          [
            "Benin",
            0.0034490260295569897
          ],
          [
            "Antigua & Barbuda",
            0.003442289773374796
          ],
          [
            "Mayotte",
            0.0034326715394854546
          ],
          [
            "Taiwan",
            0.003167981980368495
          ],
          [
            "West Bank",
            0.003002882469445467
          ],
          [
            "Myanmar",
            0.002974942559376359
          ],
          [
            "India",
            0.0029174131341278553
          ],
          [
            "Mali",
            0.002736492780968547
          ],
          [
            "Norway",
            0.002733357949182391
          ],
          [
            "Equatorial Guinea",
            0.0026712266262620687
          ],
          [
            "Honduras",
            0.0026296626310795546
          ],
          [
            "Fiji",
            0.0026143742725253105
          ],
          [
            "Malawi",
            0.0026102783158421516
          ],
          [
            "Portugal",
            0.002525427145883441
          ],
          [
            "Slovenia",
            0.002460652031004429
          ],
          [
            "Cyprus",
            0.00234989239834249
          ],
          [
            "Guadeloupe",
            0.0023314631544053555
          ],
          [
            "Ecuador",
            0.0020814407616853714
          ],
          [
            "South Korea",
            0.0020010187290608883
          ],
          [
            "Brunei",
            0.0019422562327235937
          ],
          [
            "United Kingdom",
            0.0019204302225261927
          ],
          [
            "Indonesia",
            0.0017798753688111901
          ],
          [
            "Vietnam",
            0.0017015886260196567
          ],
          [
            "Trinidad and Tobago",
            0.0016744668828323483
          ],
          [
            "Burkina Faso",
            0.001615293207578361
          ],
          [
            "Hong Kong",
            0.0015801518457010388
          ],
          [
            "Afghanistan",
            0.0014024866977706552
          ],
          [
            "Turkey",
            0.0013624801067635417
          ],
          [
            "Puerto Rico",
            0.0013127658748999238
          ],
          [
            "Switzerland",
            0.0012988308444619179
          ],
          [
            "Kazakhstan",
            0.0012689274735748768
          ],
          [
            "Moldova",
            0.0011919629760086536
          ],
          [
            "Panama",
            0.0011496212100610137
          ],
          [
            "Ireland",
            0.0010753771057352424
          ],
          [
            "Hungary",
            0.0010521744843572378
          ],
          [
            "Saint Lucia",
            0.001026830985210836
          ],
          [
            "Kyrgyzstan",
            0.0009876687545329332
          ],
          [
            "Albania",
            0.0009485988994129002
          ],
          [
            "United Arab Emirates",
            0.0008710713009350002
          ],
          [
            "Qatar",
            0.0008300998597405851
          ],
          [
            "Montenegro",
            0.0007212858181446791
          ],
          [
            "Papua New Guinea",
            0.000701343291439116
          ],
          [
            "Czech Republic",
            0.0007009367691352963
          ],
          [
            "Dominican Republic",
            0.0006887981435284019
          ],
          [
            "Pakistan",
            0.00068554503377527
          ],
          [
            "Jordan",
            0.0006802295683883131
          ],
          [
            "Austria",
            0.0006059683510102332
          ],
          [
            "Faroe Islands",
            0.0006046602502465248
          ],
          [
            "Georgia",
            0.0005958140827715397
          ],
          [
            "Tunisia",
            0.000594247889239341
          ],
          [
            "Malaysia",
            0.0005860042874701321
          ],
          [
            "Western Sahara",
            0.0005837464123032987
          ],
          [
            "Zambia",
            0.000570737523958087
          ],
          [
            "Niger",
            0.0005693719140253961
          ],
          [
            "Netherlands",
            0.0005637332797050476
          ],
          [
            "Russia",
            0.0005253489944152534
          ],
          [
            "Syria",
            0.0004992619506083429
          ],
          [
            "Turkmenistan",
            0.000467658945126459
          ],
          [
            "Falkland Islands",
            0.00046587391989305615
          ],
          [
            "Canada",
            0.00046007148921489716
          ],
          [
            "Bangladesh",
            0.00045893213246017694
          ],
          [
            "Guinea-Bissau",
            0.00045467852032743394
          ],
          [
            "Vanuatu",
            0.00042888367897830904
          ],
          [
            "Paraguay",
            0.0004287822521291673
          ],
          [
            "Latvia",
            0.0004198781680315733
          ],
          [
            "Jamaica",
            0.00040157168405130506
          ],
          [
            "Mongolia",
            0.0003968531091231853
          ],
          [
            "Bhutan",
            0.0003933038969989866
          ],
          [
            "Namibia",
            0.0003773316275328398
          ],
          [
            "New Caledonia",
            0.00037538696778938174
          ],
          [
            "Heard and McDonald Islands",
            0.0003667121345642954
          ],
          [
            "Senegal",
            0.0003658304922282696
          ],
          [
            "Colombia",
            0.00035645265597850084
          ],
          [
            "Solomon Islands",
            0.00035264005418866873
          ],
          [
            "Botswana",
            0.00035096253850497305
          ],
          [
            "Mauritania",
            0.000344563159160316
          ],
          [
            "Greenland",
            0.00034242734545841813
          ],
          [
            "Cape Verde",
            0.0003346309531480074
          ],
          [
            "Ukraine",
            0.0003335832734592259
          ],
          [
            "Rwanda",
            0.00033114897087216377
          ],
          [
            "Netherlands Antilles",
            0.00032367047970183194
          ],
          [
            "South Sudan",
            0.0003212809097021818
          ],
          [
            "Uzbekistan",
            0.0003184294328093529
          ],
          [
            "Haiti",
            0.00029475308838300407
          ],
          [
            "Dominica",
            0.0002858638181351125
          ],
          [
            "Saudi Arabia",
            0.0002839813241735101
          ],
          [
            "Burundi",
            0.00028219251544214785
          ],
          [
            "Gambia",
            0.00028062949422746897
          ],
          [
            "Nigeria",
            0.00027465992025099695
          ],
          [
            "Tajikistan",
            0.00025420018937438726
          ],
          [
            "Guyana",
            0.00024782289983704686
          ],
          [
            "French Guiana",
            0.00023266999050974846
          ],
          [
            "Bahrain",
            0.00021004151494707912
          ],
          [
            "Serbia",
            0.00020879010844510049
          ],
          [
            "Svalbard",
            0.00019466018420644104
          ],
          [
            "Egypt",
            0.00019375931879039854
          ],
          [
            "Cuba",
            0.0001854674337664619
          ],
          [
            "South Georgia Islands",
            0.00018529241788201034
          ],
          [
            "Chad",
            0.00016830793174449354
          ],
          [
            "South Africa",
            0.00016681924171280116
          ],
          [
            "Bulgaria",
            0.00015434468514285982
          ],
          [
            "United States Virgin Islands",
            0.0001494029420427978
          ],
          [
            "Bolivia",
            0.00014266411017160863
          ],
          [
            "Martinique",
            0.0001379794703098014
          ],
          [
            "Armenia",
            0.00013705827586818486
          ],
          [
            "North Macedonia",
            0.00013698299881070852
          ],
          [
            "Lithuania",
            0.0001317591522820294
          ],
          [
            "El Salvador",
            0.00012038295244565234
          ],
          [
            "Azerbaijan",
            0.0001180185136036016
          ],
          [
            "Barbados",
            0.00011568771151360124
          ],
          [
            "Romania",
            0.00011371028813300654
          ],
          [
            "Angola",
            0.00010970006405841559
          ],
          [
            "China",
            0.00010747163469204679
          ],
          [
            "Croatia",
            0.0001024045268422924
          ],
          [
            "Italy",
            9.184666851069778e-05
          ],
          [
            "Estonia",
            8.996339602163061e-05
          ],
          [
            "Libya",
            8.83943066583015e-05
          ],
          [
            "Comoros",
            8.801779040368274e-05
          ],
          [
            "Reunion",
            8.725473890081048e-05
          ],
          [
            "Peru",
            8.357360638910905e-05
          ],
          [
            "Iceland",
            7.965041731949896e-05
          ],
          [
            "Madeira Islands",
            7.433204154949635e-05
          ],
          [
            "Iran",
            7.149424345698208e-05
          ],
          [
            "Ethiopia",
            6.512270192615688e-05
          ],
          [
            "Sri Lanka",
            6.462910096161067e-05
          ],
          [
            "Uruguay",
            6.327928713290021e-05
          ],
          [
            "Brazil",
            6.058779399609193e-05
          ],
          [
            "Guatemala",
            6.0387621488189325e-05
          ],
          [
            "Ghana",
            5.666457946063019e-05
          ],
          [
            "Cambodia",
            5.455151040223427e-05
          ],
          [
            "Djibouti",
            5.316640454111621e-05
          ],
          [
            "Tanzania",
            5.252795745036565e-05
          ],
          [
            "Gabon",
            5.169603173271753e-05
          ],
          [
            "Eritrea",
            5.1588471251307055e-05
          ],
          [
            "Luxembourg",
            5.0853803259087726e-05
          ],
          [
            "Turks and Caicos Islands",
            4.7477962652919814e-05
          ],
          [
            "France",
            4.646871457225643e-05
          ],
          [
            "Liberia",
            4.568576696328819e-05
          ],
          [
            "Belgium",
            4.4781107135349885e-05
          ],
          [
            "Nepal",
            4.209676990285516e-05
          ],
          [
            "Iraq",
            4.181923213764094e-05
          ],
          [
            "Poland",
            4.1516119381412864e-05
          ],
          [
            "Venezuela",
            3.99225355067756e-05
          ],
          [
            "Samoa",
            3.9611859392607585e-05
          ],
          [
            "Kuwait",
            3.9585651393281296e-05
          ],
          [
            "Bahamas",
            3.7878948205616325e-05
          ],
          [
            "Belarus",
            3.764206849155016e-05
          ],
          [
            "Suriname",
            3.710113014676608e-05
          ],
          [
            "United States of America",
            3.356631350470707e-05
          ],
          [
            "Mexico",
            3.2308125810232013e-05
          ],
          [
            "Lesotho",
            3.131554331048392e-05
          ],
          [
            "Greece",
            3.0106961276032962e-05
          ],
          [
            "Nicaragua",
            2.999570824613329e-05
          ],
          [
            "Bosnia & Herzegovina",
            2.9988441383466125e-05
          ],
          [
            "Sierra Leone",
            2.9898488719481975e-05
          ],
          [
            "Australia",
            2.943793333542999e-05
          ],
          [
            "Sudan",
            2.9010021535214037e-05
          ],
          [
            "Denmark",
            2.8381982701830566e-05
          ],
          [
            "Kenya",
            2.6512552722124383e-05
          ],
          [
            "Eswatini",
            2.5991126676672138e-05
          ],
          [
            "Guinea",
            2.5070001356652938e-05
          ],
          [
            "Costa Rica",
            2.4853421564330347e-05
          ],
          [
            "Laos",
            2.119732198480051e-05
          ],
          [
            "Germany",
            1.9067267203354277e-05
          ],
          [
            "Algeria",
            1.844080543378368e-05
          ],
          [
            "Uganda",
            1.3889775800635107e-05
          ],
          [
            "Zimbabwe",
            1.103126851376146e-05
          ],
          [
            "Côte d'Ivoire",
            9.518149454379454e-06
          ],
          [
            "DR Congo",
            8.805502147879452e-06
          ],
          [
            "Kiribati",
            8.307654866257508e-07
          ]
        ]
      },
      "geometry": {
        "type": "MultiLineString",
        "coordinates": [
          [
            [
              34.310025426350364,
              60.300282431171524
            ],
            [
              34.387285315842576,
              58.60056486234308
            ],
            [
              34.6036733657094,
              56.808195785412636
            ],
            [
              34.74265062786236,
              55.83475135745522
            ],
            [
              35.00536443178018,
              54.07316551774437
            ],
            [
              35.268078235698,
              52.74435577776714
            ],
            [
              35.56172617505703,
              51.43093765639969
            ],
            [
              35.94802562251806,
              50.22556266174402
            ],
            [
              36.24152266365542,
              49.31398650466903
            ],
            [
              36.627822111116416,
              48.464127720254794
            ],
            [
              37.36948687059726,
              47.11977546344616
            ],
            [
              37.92584861387411,
              46.208048408149494
            ],
            [
              38.5129935943705,
              45.12640995525865
            ],
            [
              38.961161312713955,
              44.27655117084444
            ],
            [
              39.5636979118201,
              43.33404087832824
            ],
            [
              40.28997105269116,
              42.65409349150818
            ],
            [
              41.43347777646443,
              42.36059645037082
            ],
            [
              42.68502762694942,
              42.36059645037082
            ],
            [
              43.75127446123048,
              42.36059645037082
            ],
            [
              44.81737039728989,
              42.42231382303157
            ],
            [
              45.74448907119631,
              42.777830033273034
            ],
            [
              46.748867634594944,
              43.36497501376945
            ],
            [
              47.78418033343479,
              44.029379883758054
            ],
            [
              49.03573018391978,
              44.693784753746655
            ],
            [
              50.07104288275963,
              45.157344090699866
            ],
            [
              51.183615471091684,
              45.4509920300589
            ],
            [
              52.12612576360789,
              45.4509920300589
            ],
            [
              52.75974739637695,
              44.6320673810859
            ],
            [
              52.94520131080256,
              43.68940619034802
            ],
            [
              52.94520131080256,
              42.391530585812035
            ],
            [
              52.94520131080256,
              41.10889570166415
            ],
            [
              52.775139014986735,
              40.135451273706735
            ],
            [
              52.5433593465101,
              39.1310727103081
            ],
            [
              52.249862305372744,
              38.080368392858475
            ],
            [
              51.81708620563907,
              36.95240418591666
            ],
            [
              51.13728971704069,
              35.762571708092395
            ],
            [
              50.45734233022063,
              34.78912728013498
            ],
            [
              49.731069189349626,
              33.97020263116198
            ],
            [
              48.89675292176682,
              33.15112708396731
            ],
            [
              47.90776597697797,
              32.57952462030232
            ],
            [
              46.90338741357934,
              32.42500484131793
            ],
            [
              45.914551367012166,
              32.42500484131793
            ],
            [
              44.971890176274286,
              32.455788078537466
            ],
            [
              43.87486010477369,
              32.61030785752189
            ],
            [
              42.54589946657478,
              32.61030785752189
            ],
            [
              41.77330057165278,
              32.06948863107647
            ],
            [
              41.23248134520736,
              31.126978338560264
            ],
            [
              40.70720463559337,
              30.122599775161632
            ],
            [
              40.12005965509695,
              29.303675126188637
            ],
            [
              39.23926673524153,
              28.546467849876365
            ],
            [
              38.25027979045268,
              27.86667136127801
            ],
            [
              37.32316111654626,
              27.38756950749334
            ],
            [
              36.41158495947127,
              26.92401017054013
            ],
            [
              35.376272260631424,
              26.41412507953592
            ],
            [
              34.49547934077597,
              25.8733058530905
            ],
            [
              33.67655469180295,
              25.34787824525486
            ],
            [
              32.934889932322164,
              26.785032908387166
            ],
            [
              32.88841328004949,
              27.99025700482119
            ],
            [
              32.88841328004949,
              29.149155347204214
            ],
            [
              32.88841328004949,
              30.153533910602846
            ],
            [
              33.02754144042413,
              31.126978338560264
            ],
            [
              33.15112708396731,
              32.270485062333535
            ],
            [
              33.22838697345952,
              33.583903183700954
            ],
            [
              33.10480132991634,
              34.68093325520158
            ],
            [
              32.37852818904531,
              35.40720639607261
            ],
            [
              31.405083761087894,
              36.04067713062
            ],
            [
              30.32344530819705,
              36.7050820006086
            ],
            [
              29.24180685530621,
              37.29237787932669
            ],
            [
              28.206494156466363,
              37.77132883488966
            ],
            [
              27.356635372052153,
              38.17301990096044
            ],
            [
              26.970335924591126,
              39.05381282081589
            ],
            [
              27.88206297988779,
              39.84195423256935
            ],
            [
              28.809181653794212,
              40.660878881542374
            ],
            [
              29.51991227783381,
              41.89703711341761
            ],
            [
              29.90621172529484,
              43.27217260744581
            ],
            [
              30.1070572583302,
              44.44661346666027
            ],
            [
              30.32344530819705,
              45.54364353816089
            ],
            [
              30.617093247556085,
              46.64082450788317
            ],
            [
              31.17330409261126,
              47.83050608748573
            ],
            [
              31.822317343990107,
              49.28305236922782
            ],
            [
              32.3475940536041,
              50.79731602363063
            ],
            [
              32.81115339055731,
              52.14166828043929
            ],
            [
              33.32118937978316,
              53.37782651231453
            ],
            [
              33.80014033534616,
              54.53672485469758
            ],
            [
              34.310025426350364,
              55.803817222014004
            ],
            [
              34.711867390642794,
              57.148169478822666
            ],
            [
              35.08262432127236,
              58.75508464132747
            ],
            [
              35.39166387924121,
              60.00678539003417
            ],
            [
              35.654377683159,
              60.980229817991585
            ],
            [
              35.99435137656903,
              61.99999999999997
            ]
          ],
          [
            [
              26.15141127561813,
              27.109464084965737
            ],
            [
              26.1977370296691,
              26.105085521567105
            ],
            [
              26.105085521567133,
              24.652539239825046
            ],
            [
              25.780503446766886,
              23.200143856304635
            ],
            [
              25.641526184613923,
              22.195765292906003
            ],
            [
              25.641526184613923,
              20.97499867964055
            ],
            [
              25.82698009903953,
              19.816100337257524
            ],
            [
              26.506776587637916,
              18.950849934233503
            ],
            [
              27.650283311411187,
              18.487290597280293
            ],
            [
              28.97909305138839,
              18.487290597280293
            ],
            [
              30.184317147822412,
              19.028109823725714
            ],
            [
              31.358758007036897,
              19.677123075104532
            ],
            [
              32.22400841006089,
              20.217942301549954
            ],
            [
              33.22838697345952,
              20.52698185951877
            ],
            [
              33.66101217497152,
              19.46073502523771
            ],
            [
              33.66101217497152,
              18.116382768429048
            ],
            [
              33.61468642092052,
              17.189264094522628
            ],
            [
              33.24392949029095,
              15.906780108596422
            ],
            [
              32.76482763650631,
              14.90240154519779
            ],
            [
              32.131356901958924,
              14.083476896224767
            ],
            [
              31.482343650580077,
              13.110032468267349
            ],
            [
              30.9261328055249,
              12.290956921072677
            ],
            [
              30.32344530819705,
              11.472032272099653
            ],
            [
              29.64349792137699,
              10.622173487685416
            ],
            [
              29.025418805439386,
              9.926834482255629
            ],
            [
              28.25281991051736,
              9.20056134138457
            ],
            [
              27.495763532426793,
              8.489830717345
            ],
            [
              26.584036477130127,
              7.856359982797585
            ],
            [
              25.641526184613923,
              6.9755670629421616
            ],
            [
              24.776124883368254,
              5.97118849954353
            ],
            [
              24.0500026407189,
              4.889550046652687
            ],
            [
              23.50918341427348,
              4.0087571267972635
            ],
            [
              22.860170162894633,
              3.2361582318752085
            ],
            [
              22.087571267972606,
              2.633470734547359
            ],
            [
              21.222169966726938,
              2.24717128708636
            ],
            [
              19.939685980800732,
              2.12358564354318
            ],
            [
              18.99717568828453,
              2.061868270882428
            ],
            [
              17.838277345901474,
              2.0
            ],
            [
              16.61751073263602,
              2.216388049866822
            ],
            [
              15.42767825481178,
              2.9117270552966374
            ],
            [
              14.516102097736791,
              3.6378492979459907
            ],
            [
              13.403529509404734,
              4.4877080823602284
            ],
            [
              12.599996479041494,
              5.213981223231258
            ],
            [
              11.950983227662675,
              5.940254364102316
            ],
            [
              11.348446628556474,
              6.9136987920597335
            ],
            [
              11.054798689197469,
              7.949011490899579
            ],
            [
              11.31751249311526,
              8.984324189739425
            ],
            [
              12.121045523478529,
              9.895900346814415
            ],
            [
              13.079098332826163,
              10.807627402111052
            ],
            [
              14.006217006732584,
              11.595617915642833
            ],
            [
              14.995053053299785,
              12.538279106380713
            ],
            [
              15.860454354545425,
              13.542657669779345
            ],
            [
              16.509316707702624,
              14.268930810650374
            ],
            [
              17.405652144389478,
              15.056921324182184
            ],
            [
              18.255510928803716,
              15.814128600494428
            ],
            [
              18.99717568828453,
              16.60211911402621
            ],
            [
              19.707906312324127,
              17.26652398401484
            ],
            [
              20.573307613569796,
              18.147316903870262
            ],
            [
              21.17584421267597,
              18.85804752790986
            ],
            [
              21.793923328613573,
              19.58432066878089
            ],
            [
              22.427544961382637,
              20.279659674210734
            ],
            [
              23.15366720403199,
              21.222320864948585
            ],
            [
              23.802680455410837,
              21.97937724303918
            ],
            [
              24.482627842230897,
              22.70565038391021
            ],
            [
              25.162424330829253,
              23.370055253898812
            ],
            [
              25.82698009903953,
              24.08093677616006
            ],
            [
              26.630362231181095,
              25.1625752290509
            ],
            [
              27.063138330914768,
              26.01243401346514
            ],
            [
              27.449437778375795,
              26.893076035098915
            ]
          ]
        ]
      }
    }
  ]
}