{
  "type": "FeatureCollection",
  "crs": {
    "type": "name",
    "properties": {
      "name": "urn:ogc:def:crs:OGC:1.3:CRS84"
    }
  },
  "features": [
    {
      "type": "Feature",
      "properties": {
        "timestamp": "2026-04-25T11:38:56.116725",
        "country_name": "New Caledonia",
        "author": "",
        "author_id": "279c9409-1b9f-4342-bcf8-8a886d9a4141",
        "validated": false,
        "ranking": [
          [
            "Indonesia",
            0.11491739749908447
          ],
          [
            "Puerto Rico",
            0.10939382016658783
          ],
          [
            "Turkey",
            0.08132132887840271
          ],
          [
            "Timor-Leste",
            0.0803738385438919
          ],
          [
            "Solomon Islands",
            0.07790664583444595
          ],
          [
            "Malaysia",
            0.05259385704994202
          ],
          [
            "Netherlands Antilles",
            0.050557941198349
          ],
          [
            "Uzbekistan",
            0.03722338378429413
          ],
          [
            "Jamaica",
            0.03660165145993233
          ],
          [
            "Panama",
            0.024655980989336967
          ],
          [
            "Kyrgyzstan",
            0.02350909262895584
          ],
          [
            "Gambia",
            0.02071048691868782
          ],
          [
            "Georgia",
            0.020398132503032684
          ],
          [
            "Ecuador",
            0.018938301131129265
          ],
          [
            "Mongolia",
            0.017373906448483467
          ],
          [
            "Cuba",
            0.015606638975441456
          ],
          [
            "Slovakia",
            0.014908414334058762
          ],
          [
            "Turks and Caicos Islands",
            0.01393380481749773
          ],
          [
            "Cyprus",
            0.012920713052153587
          ],
          [
            "New Caledonia",
            0.01073229219764471
          ],
          [
            "Honduras",
            0.00870267953723669
          ],
          [
            "Falkland Islands",
            0.008010879158973694
          ],
          [
            "Yemen",
            0.007737430743873119
          ],
          [
            "Turkmenistan",
            0.007572731003165245
          ],
          [
            "Latvia",
            0.006448326166719198
          ],
          [
            "El Salvador",
            0.005940731149166822
          ],
          [
            "Samoa",
            0.005819202400743961
          ],
          [
            "Guinea-Bissau",
            0.005673233885318041
          ],
          [
            "Kazakhstan",
            0.005160141736268997
          ],
          [
            "Nepal",
            0.004842135589569807
          ],
          [
            "Papua New Guinea",
            0.00419963663443923
          ],
          [
            "Russia",
            0.004192553926259279
          ],
          [
            "Czech Republic",
            0.003764375578612089
          ],
          [
            "Madeira Islands",
            0.002819997491315007
          ],
          [
            "Heard and McDonald Islands",
            0.0026918151415884495
          ],
          [
            "Guadeloupe",
            0.0025554716121405363
          ],
          [
            "Hong Kong",
            0.0024876969400793314
          ],
          [
            "Dominican Republic",
            0.002434195950627327
          ],
          [
            "Comoros",
            0.0023605525493621826
          ],
          [
            "United States of America",
            0.002284871181473136
          ],
          [
            "Tajikistan",
            0.002145398175343871
          ],
          [
            "Bahamas",
            0.0020970937330275774
          ],
          [
            "Mexico",
            0.0020245173946022987
          ],
          [
            "Equatorial Guinea",
            0.0019057744648307562
          ],
          [
            "Central African Republic",
            0.0015931633533909917
          ],
          [
            "New Zealand",
            0.0015720697119832039
          ],
          [
            "Chile",
            0.0014966356102377176
          ],
          [
            "Paraguay",
            0.0014898543013259768
          ],
          [
            "Azerbaijan",
            0.0014608929632231593
          ],
          [
            "Spain",
            0.0013255689991638064
          ],
          [
            "Israel",
            0.001287719700485468
          ],
          [
            "Eritrea",
            0.0012727074790745974
          ],
          [
            "Ukraine",
            0.0012429170310497284
          ],
          [
            "Burkina Faso",
            0.0012425946770235896
          ],
          [
            "Estonia",
            0.0011690342798829079
          ],
          [
            "Switzerland",
            0.0011457912623882294
          ],
          [
            "Slovenia",
            0.001086275209672749
          ],
          [
            "Vanuatu",
            0.0010688304901123047
          ],
          [
            "Austria",
            0.0010492155561223626
          ],
          [
            "Fiji",
            0.0009864743333309889
          ],
          [
            "Benin",
            0.0009807634633034468
          ],
          [
            "Bhutan",
            0.0009782040724530816
          ],
          [
            "China",
            0.0009563572239130735
          ],
          [
            "Sao Tome and Principe",
            0.0008820160874165595
          ],
          [
            "Belize",
            0.0008699480094946921
          ],
          [
            "Japan",
            0.0008198822615668178
          ],
          [
            "South Korea",
            0.0008177909767255187
          ],
          [
            "Guam",
            0.0008177785202860832
          ],
          [
            "Hungary",
            0.0008146509062498808
          ],
          [
            "Myanmar",
            0.0008133916999213398
          ],
          [
            "Malawi",
            0.0007966405828483403
          ],
          [
            "South Sudan",
            0.0007776314741931856
          ],
          [
            "Svalbard",
            0.0007725312025286257
          ],
          [
            "Martinique",
            0.0007680252310819924
          ],
          [
            "Somalia",
            0.0007219403050839901
          ],
          [
            "Thailand",
            0.0007170343305915594
          ],
          [
            "Cape Verde",
            0.0007140645175240934
          ],
          [
            "Armenia",
            0.0006693624309264123
          ],
          [
            "Mozambique",
            0.0006641926593147218
          ],
          [
            "Namibia",
            0.0006477173883467913
          ],
          [
            "India",
            0.0006426522741094232
          ],
          [
            "United Arab Emirates",
            0.0006387429893948138
          ],
          [
            "Saudi Arabia",
            0.0006073563708923757
          ],
          [
            "Bahrain",
            0.0005506927845999599
          ],
          [
            "Croatia",
            0.000529123586602509
          ],
          [
            "Guinea",
            0.0005168674397282302
          ],
          [
            "Argentina",
            0.0005086407181806862
          ],
          [
            "Montenegro",
            0.000506859680172056
          ],
          [
            "Lithuania",
            0.0005040840478613973
          ],
          [
            "Mali",
            0.00048474143841303885
          ],
          [
            "Rwanda",
            0.00047160606482066214
          ],
          [
            "Syria",
            0.00046506201033480465
          ],
          [
            "Iceland",
            0.00046500706230290234
          ],
          [
            "Zambia",
            0.0004330565861891955
          ],
          [
            "Togo",
            0.00042886039591394365
          ],
          [
            "Costa Rica",
            0.0004270531644579023
          ],
          [
            "Dominica",
            0.00041140097891911864
          ],
          [
            "DR Congo",
            0.00040818072739057243
          ],
          [
            "Belgium",
            0.00037782819708809257
          ],
          [
            "Liberia",
            0.00037045037606731057
          ],
          [
            "Trinidad and Tobago",
            0.00035717576975002885
          ],
          [
            "South Georgia Islands",
            0.0003523660998325795
          ],
          [
            "Sweden",
            0.0003434840764384717
          ],
          [
            "Bangladesh",
            0.00034336288808844984
          ],
          [
            "Kuwait",
            0.00033202525810338557
          ],
          [
            "Moldova",
            0.00032403768273070455
          ],
          [
            "Barbados",
            0.0003209247952327132
          ],
          [
            "Mayotte",
            0.00031289856997318566
          ],
          [
            "Romania",
            0.00030992220854386687
          ],
          [
            "Bulgaria",
            0.0003092142869718373
          ],
          [
            "Serbia",
            0.0002792127779684961
          ],
          [
            "Peru",
            0.00026432357844896615
          ],
          [
            "Jordan",
            0.0002586629125289619
          ],
          [
            "Suriname",
            0.00025829460355453193
          ],
          [
            "Guyana",
            0.00025587232084944844
          ],
          [
            "Burundi",
            0.00025483444915153086
          ],
          [
            "Australia",
            0.0002495230291970074
          ],
          [
            "Brunei",
            0.00024941310402937233
          ],
          [
            "Egypt",
            0.0002460864488966763
          ],
          [
            "Senegal",
            0.00023614722886122763
          ],
          [
            "Iran",
            0.00023441323719453067
          ],
          [
            "Niger",
            0.00023195240646600723
          ],
          [
            "Faroe Islands",
            0.0002233844861621037
          ],
          [
            "Iraq",
            0.00021981388272251934
          ],
          [
            "Portugal",
            0.00021568320516962558
          ],
          [
            "Italy",
            0.00021520734298974276
          ],
          [
            "Albania",
            0.00021302246022969484
          ],
          [
            "Bosnia & Herzegovina",
            0.00021230816491879523
          ],
          [
            "South Africa",
            0.00020404590759426355
          ],
          [
            "Sierra Leone",
            0.0002021111431531608
          ],
          [
            "Afghanistan",
            0.00019594928016886115
          ],
          [
            "Laos",
            0.0001894368469947949
          ],
          [
            "Gabon",
            0.00018914332031272352
          ],
          [
            "Ethiopia",
            0.00018903151794802397
          ],
          [
            "Botswana",
            0.0001887648832052946
          ],
          [
            "North Korea",
            0.00018750250455923378
          ],
          [
            "North Macedonia",
            0.00018350135360378772
          ],
          [
            "Tunisia",
            0.0001766547211445868
          ],
          [
            "Antigua & Barbuda",
            0.00017070995818357915
          ],
          [
            "Brazil",
            0.0001628991012694314
          ],
          [
            "Guatemala",
            0.00016246190352831036
          ],
          [
            "Oman",
            0.0001581268006702885
          ],
          [
            "Tanzania",
            0.00015452687512151897
          ],
          [
            "Algeria",
            0.00015242015069816262
          ],
          [
            "Venezuela",
            0.00014990975614637136
          ],
          [
            "Western Sahara",
            0.00014904019189998507
          ],
          [
            "Cameroon",
            0.00014887853467371315
          ],
          [
            "Taiwan",
            0.0001482469233451411
          ],
          [
            "Greenland",
            0.00013982778182253242
          ],
          [
            "Palau",
            0.00013655064685735852
          ],
          [
            "Mauritania",
            0.0001358341978630051
          ],
          [
            "Philippines",
            0.00013262788706924766
          ],
          [
            "Congo",
            0.00013013582793064415
          ],
          [
            "Reunion",
            0.00012865626194979995
          ],
          [
            "United Kingdom",
            0.00012784120917785913
          ],
          [
            "West Bank",
            0.00012563903874251992
          ],
          [
            "Qatar",
            0.00012542738113552332
          ],
          [
            "Lebanon",
            0.00012472172966226935
          ],
          [
            "Poland",
            0.00012394884834066033
          ],
          [
            "Libya",
            0.00012308471195865422
          ],
          [
            "Nicaragua",
            0.00011605403415160254
          ],
          [
            "Norway",
            0.00011448317673057318
          ],
          [
            "United States Virgin Islands",
            0.00011227465438423678
          ],
          [
            "Uruguay",
            0.0001112998288590461
          ],
          [
            "Angola",
            0.00010952747834380716
          ],
          [
            "Vietnam",
            0.00010793991532409564
          ],
          [
            "Nigeria",
            0.00010315623512724414
          ],
          [
            "Djibouti",
            0.00010034238221123815
          ],
          [
            "Canada",
            9.650200081523508e-05
          ],
          [
            "Kenya",
            9.517891157884151e-05
          ],
          [
            "Zimbabwe",
            9.329739987151697e-05
          ],
          [
            "Côte d'Ivoire",
            9.252757445210591e-05
          ],
          [
            "Uganda",
            9.121825860347599e-05
          ],
          [
            "France",
            8.910246106097475e-05
          ],
          [
            "Isle of Man",
            8.401223749388009e-05
          ],
          [
            "Sudan",
            8.11748395790346e-05
          ],
          [
            "Lesotho",
            7.987991557456553e-05
          ],
          [
            "Colombia",
            7.897715113358572e-05
          ],
          [
            "Sri Lanka",
            7.57435554987751e-05
          ],
          [
            "Morocco",
            6.964008935028687e-05
          ],
          [
            "Ghana",
            6.8421293690335e-05
          ],
          [
            "Luxembourg",
            6.796372326789424e-05
          ],
          [
            "Bolivia",
            6.549672252731398e-05
          ],
          [
            "Eswatini",
            6.284369737841189e-05
          ],
          [
            "Saint Lucia",
            5.984384551993571e-05
          ],
          [
            "Finland",
            5.553304072236642e-05
          ],
          [
            "French Guiana",
            5.242181578068994e-05
          ],
          [
            "Belarus",
            5.1786777476081625e-05
          ],
          [
            "Cambodia",
            4.972350870957598e-05
          ],
          [
            "Pakistan",
            4.533494939096272e-05
          ],
          [
            "Madagascar",
            3.9821657992433757e-05
          ],
          [
            "Ireland",
            3.0011873604962602e-05
          ],
          [
            "Netherlands",
            2.8916965675307438e-05
          ],
          [
            "Greece",
            2.674239112820942e-05
          ],
          [
            "Germany",
            1.8149283278035e-05
          ],
          [
            "Kiribati",
            1.6515781680936925e-05
          ],
          [
            "Denmark",
            1.3241171473055147e-05
          ],
          [
            "Chad",
            1.0593168553896248e-05
          ],
          [
            "Haiti",
            6.013307029206771e-06
          ]
        ]
      },
      "geometry": {
        "type": "MultiLineString",
        "coordinates": [
          [
            [
              5.2122370936902485,
              45.65200764818354
            ],
            [
              5.441682600382421,
              44.848948374760994
            ],
            [
              4.9827915869981325,
              41.980879541109005
            ],
            [
              4.638623326959873,
              40.71892925430211
            ],
            [
              3.8355640535373254,
              38.08030592734224
            ],
            [
              2.6883365200765184,
              34.06500956022944
            ],
            [
              2.1147227533460864,
              31.541108986615654
            ],
            [
              2.0,
              30.62332695984702
            ],
            [
              2.0,
              31.082217973231366
            ],
            [
              2.4588910133843456,
              32.917782026768634
            ],
            [
              3.4913957934990663,
              35.671128107074594
            ],
            [
              4.9827915869981325,
              39.45697896749522
            ],
            [
              7.047801147227574,
              44.27533460803062
            ],
            [
              7.506692160611863,
              45.65200764818354
            ],
            [
              8.080305927342295,
              46.913957934990435
            ],
            [
              8.309751434034467,
              46.45506692160615
            ],
            [
              8.309751434034467,
              45.9961759082218
            ],
            [
              8.309751434034467,
              45.07839388145317
            ],
            [
              8.539196940726583,
              42.32504780114721
            ],
            [
              8.539196940726583,
              39.80114722753348
            ],
            [
              8.539196940726583,
              37.1625239005736
            ],
            [
              8.65391969407267,
              34.4091778202677
            ],
            [
              8.768642447418756,
              32.34416826003826
            ],
            [
              8.998087954110929,
              31.65583173996174
            ],
            [
              9.227533460803102,
              32.0
            ],
            [
              9.456978967495218,
              33.03250478011472
            ],
            [
              10.260038240917822,
              34.86806883365199
            ],
            [
              10.948374760994284,
              36.93307839388149
            ],
            [
              11.751434034416832,
              39.45697896749522
            ],
            [
              12.210325047801177,
              41.75143403441683
            ],
            [
              12.783938814531552,
              43.93116634799236
            ],
            [
              13.242829827915898,
              45.30783938814534
            ]
          ],
          [
            [
              18.4053537284895,
              46.225621414913974
            ],
            [
              18.520076481835588,
              45.76673040152963
            ],
            [
              18.520076481835588,
              45.07839388145317
            ],
            [
              18.290630975143415,
              44.27533460803062
            ],
            [
              16.799235181644406,
              41.17782026768646
            ],
            [
              15.652007648183599,
              38.4244741873805
            ],
            [
              13.816443594646273,
              34.75334608030596
            ],
            [
              12.898661567877639,
              32.458891013384346
            ],
            [
              8.883365200764842,
              25.231357552581244
            ],
            [
              6.9330783938814875,
              22.133843212237082
            ],
            [
              5.671128107074594,
              20.298279158699813
            ],
            [
              5.900573613766767,
              20.757170172084102
            ],
            [
              6.703632887189315,
              21.560229445506707
            ]
          ],
          [
            [
              24.48565965583174,
              39.68642447418739
            ],
            [
              23.68260038240919,
              39.571701720841304
            ],
            [
              23.108986615678816,
              39.227533460803045
            ],
            [
              21.61759082217975,
              37.96558317399615
            ],
            [
              20.92925430210329,
              36.93307839388149
            ],
            [
              20.470363288718943,
              34.982791586998076
            ],
            [
              20.470363288718943,
              33.950286806883355
            ],
            [
              20.814531548757202,
              33.606118546845096
            ],
            [
              21.847036328871923,
              33.72084130019118
            ],
            [
              23.338432122370932,
              34.75334608030596
            ],
            [
              24.256214149139623,
              35.326959847036335
            ],
            [
              25.632887189292546,
              36.359464627151056
            ],
            [
              26.43594646271515,
              37.736137667304035
            ],
            [
              26.091778202676892,
              37.1625239005736
            ],
            [
              25.977055449330805,
              36.47418738049714
            ],
            [
              25.51816443594646,
              34.86806883365199
            ],
            [
              24.944550669216085,
              32.458891013384346
            ],
            [
              24.37093690248571,
              30.049713193116645
            ],
            [
              24.02676864244745,
              27.869980879541117
            ],
            [
              23.567877629063105,
              26.03441682600385
            ],
            [
              22.879541108986643,
              23.969407265774407
            ],
            [
              22.764818355640557,
              23.51051625239006
            ],
            [
              22.420650095602298,
              23.051625239005716
            ],
            [
              21.61759082217975,
              22.592734225621427
            ],
            [
              21.043977055449375,
              22.47801147227534
            ],
            [
              20.355640535372856,
              22.93690248565963
            ],
            [
              20.355640535372856,
              23.625239005736148
            ],
            [
              20.355640535372856,
              24.084130019120494
            ],
            [
              20.92925430210329,
              24.31357552581261
            ]
          ],
          [
            [
              38.48183556405354,
              36.015296367112796
            ],
            [
              38.367112810707454,
              36.703632887189315
            ],
            [
              38.25239005736137,
              37.1625239005736
            ],
            [
              38.02294455066925,
              37.62141491395795
            ],
            [
              36.4168260038241,
              37.85086042065012
            ],
            [
              35.499043977055464,
              37.85086042065012
            ],
            [
              34.92543021032509,
              37.62141491395795
            ],
            [
              34.69598470363292,
              37.27724665391969
            ],
            [
              34.466539196940744,
              36.359464627151056
            ],
            [
              34.466539196940744,
              35.55640535372851
            ],
            [
              34.466539196940744,
              35.09751434034416
            ],
            [
              34.466539196940744,
              34.4091778202677
            ],
            [
              34.69598470363292,
              34.06500956022944
            ],
            [
              35.26959847036329,
              34.06500956022944
            ],
            [
              36.072657743785896,
              34.06500956022944
            ],
            [
              37.33460803059273,
              34.982791586998076
            ],
            [
              38.48183556405354,
              35.90057361376671
            ],
            [
              38.71128107074571,
              36.24474187380497
            ],
            [
              38.8260038240918,
              36.703632887189315
            ],
            [
              38.8260038240918,
              36.24474187380497
            ],
            [
              38.71128107074571,
              34.982791586998076
            ],
            [
              38.71128107074571,
              33.83556405353727
            ],
            [
              38.71128107074571,
              31.885277246653914
            ],
            [
              38.13766730401534,
              27.525812619502858
            ],
            [
              38.02294455066925,
              26.149139579349935
            ],
            [
              37.44933078393882,
              23.395793499043975
            ],
            [
              36.531548757170185,
              20.757170172084102
            ],
            [
              35.499043977055464,
              18.57743785850863
            ],
            [
              34.810707456979,
              17.315487571701738
            ],
            [
              34.35181644359466,
              17.086042065009565
            ],
            [
              33.54875717017211,
              17.315487571701738
            ],
            [
              32.630975143403475,
              18.69216061185466
            ],
            [
              32.17208413001913,
              19.724665391969438
            ],
            [
              31.71319311663484,
              20.757170172084102
            ],
            [
              31.598470363288754,
              22.019120458890995
            ],
            [
              31.598470363288754,
              22.93690248565963
            ],
            [
              31.598470363288754,
              23.739961759082234
            ],
            [
              31.942638623326957,
              24.65774378585087
            ]
          ],
          [
            [
              50.527724665391986,
              32.0
            ],
            [
              50.18355640535373,
              31.65583173996174
            ],
            [
              49.60994263862335,
              31.426386233269625
            ],
            [
              48.92160611854689,
              31.31166347992354
            ],
            [
              48.34799235181646,
              31.31166347992354
            ],
            [
              47.65965583174,
              31.31166347992354
            ],
            [
              47.20076481835565,
              31.770554493307827
            ],
            [
              46.51242829827919,
              32.57361376673043
            ],
            [
              46.28298279158702,
              33.14722753346081
            ],
            [
              46.16826003824093,
              33.83556405353727
            ],
            [
              46.16826003824093,
              34.4091778202677
            ],
            [
              46.28298279158702,
              34.982791586998076
            ],
            [
              46.97131931166348,
              35.671128107074594
            ],
            [
              47.77437858508608,
              36.24474187380497
            ],
            [
              48.57743785850863,
              35.785850860420624
            ],
            [
              48.23326959847037,
              35.09751434034416
            ],
            [
              47.54493307839391,
              34.86806883365199
            ],
            [
              46.97131931166348,
              34.63862332695987
            ],
            [
              46.627151051625276,
              34.4091778202677
            ],
            [
              46.97131931166348,
              34.06500956022944
            ],
            [
              47.77437858508608,
              33.950286806883355
            ],
            [
              48.23326959847037,
              33.83556405353727
            ],
            [
              49.26577437858509,
              33.606118546845096
            ],
            [
              50.4130019120459,
              33.606118546845096
            ],
            [
              51.10133843212236,
              33.606118546845096
            ],
            [
              51.78967495219888,
              33.606118546845096
            ],
            [
              52.248565965583225,
              33.72084130019118
            ],
            [
              52.59273422562143,
              33.83556405353727
            ],
            [
              52.93690248565969,
              34.17973231357553
            ]
          ],
          [
            [
              53.96940726577441,
              35.326959847036335
            ],
            [
              53.96940726577441,
              34.63862332695987
            ],
            [
              53.96940726577441,
              33.83556405353727
            ],
            [
              53.96940726577441,
              32.57361376673043
            ],
            [
              53.96940726577441,
              32.114722753346086
            ],
            [
              53.96940726577441,
              30.852772466539193
            ],
            [
              53.96940726577441,
              30.049713193116645
            ],
            [
              54.084130019120494,
              30.50860420650099
            ],
            [
              54.19885277246658,
              31.31166347992354
            ],
            [
              54.65774378585087,
              33.03250478011472
            ],
            [
              55.00191204588913,
              34.06500956022944
            ],
            [
              56.493307839388194,
              36.703632887189315
            ],
            [
              57.29636711281074,
              37.62141491395795
            ],
            [
              58.09942638623329,
              38.4244741873805
            ],
            [
              58.44359464627155,
              38.65391969407267
            ],
            [
              59.590822179732356,
              38.99808795411093
            ],
            [
              61.082217973231366,
              39.571701720841304
            ],
            [
              62.0,
              39.91586998087956
            ]
          ]
        ]
      }
    }
  ]
}