{
  "type": "FeatureCollection",
  "crs": {
    "type": "name",
    "properties": {
      "name": "urn:ogc:def:crs:OGC:1.3:CRS84"
    }
  },
  "features": [
    {
      "type": "Feature",
      "properties": {
        "timestamp": "2026-05-04T13:56:06.671319",
        "country_name": "Nigeria",
        "author": "Robert",
        "author_id": "fe4c6e24-4c35-4474-bd3b-637fd76b0099",
        "validated": false,
        "ranking": [
          [
            "Nigeria",
            0.26370665431022644
          ],
          [
            "Botswana",
            0.1763545423746109
          ],
          [
            "Sudan",
            0.14268992841243744
          ],
          [
            "Cambodia",
            0.05305764451622963
          ],
          [
            "Egypt",
            0.041437432169914246
          ],
          [
            "Burundi",
            0.029035035520792007
          ],
          [
            "Lesotho",
            0.019971879199147224
          ],
          [
            "Ecuador",
            0.018473945558071136
          ],
          [
            "North Macedonia",
            0.0165620855987072
          ],
          [
            "Côte d'Ivoire",
            0.015399141237139702
          ],
          [
            "Bosnia & Herzegovina",
            0.013102938421070576
          ],
          [
            "Syria",
            0.012348577380180359
          ],
          [
            "French Guiana",
            0.011578177101910114
          ],
          [
            "Namibia",
            0.010686436668038368
          ],
          [
            "Spain",
            0.009866875596344471
          ],
          [
            "Cape Verde",
            0.009574244730174541
          ],
          [
            "Suriname",
            0.008189715445041656
          ],
          [
            "Brazil",
            0.007499782834202051
          ],
          [
            "Poland",
            0.007128076162189245
          ],
          [
            "Lithuania",
            0.0070005604065954685
          ],
          [
            "Bulgaria",
            0.006635650061070919
          ],
          [
            "Uganda",
            0.005434972699731588
          ],
          [
            "Eswatini",
            0.005434817634522915
          ],
          [
            "Gabon",
            0.005045297089964151
          ],
          [
            "Moldova",
            0.004809886682778597
          ],
          [
            "Rwanda",
            0.004529360216110945
          ],
          [
            "Reunion",
            0.004433806054294109
          ],
          [
            "Mali",
            0.004432004876434803
          ],
          [
            "Zambia",
            0.0037780895363539457
          ],
          [
            "Hungary",
            0.0036510610952973366
          ],
          [
            "Sierra Leone",
            0.00342712108977139
          ],
          [
            "United States Virgin Islands",
            0.0033008945174515247
          ],
          [
            "Bolivia",
            0.002960771322250366
          ],
          [
            "Kenya",
            0.0028031272813677788
          ],
          [
            "Sao Tome and Principe",
            0.0023576170206069946
          ],
          [
            "Antigua & Barbuda",
            0.0022299042902886868
          ],
          [
            "South Africa",
            0.0020326643716543913
          ],
          [
            "Tanzania",
            0.0020274524576961994
          ],
          [
            "Libya",
            0.001993752084672451
          ],
          [
            "Angola",
            0.0019224443240091205
          ],
          [
            "Romania",
            0.0016661249101161957
          ],
          [
            "United Arab Emirates",
            0.0016010808758437634
          ],
          [
            "Iran",
            0.001457072445191443
          ],
          [
            "Uruguay",
            0.001453084172680974
          ],
          [
            "Isle of Man",
            0.001401926507242024
          ],
          [
            "Belize",
            0.0013407979859039187
          ],
          [
            "Montenegro",
            0.001319577917456627
          ],
          [
            "Dominica",
            0.0012094585690647364
          ],
          [
            "Jordan",
            0.001189756439998746
          ],
          [
            "Vietnam",
            0.0011630294611677527
          ],
          [
            "Mauritania",
            0.0010650800541043282
          ],
          [
            "Guatemala",
            0.001054019550792873
          ],
          [
            "Switzerland",
            0.001043463940732181
          ],
          [
            "Oman",
            0.0009664905956014991
          ],
          [
            "Saudi Arabia",
            0.0009185610106214881
          ],
          [
            "Chad",
            0.0009158790344372392
          ],
          [
            "Niger",
            0.000893332704436034
          ],
          [
            "Venezuela",
            0.0008513662614859641
          ],
          [
            "Greenland",
            0.0008496029186062515
          ],
          [
            "France",
            0.0008473938796669245
          ],
          [
            "Malaysia",
            0.0008167980704456568
          ],
          [
            "Pakistan",
            0.0007896319730207324
          ],
          [
            "Belarus",
            0.0007863405044190586
          ],
          [
            "Slovenia",
            0.000780520320404321
          ],
          [
            "Comoros",
            0.0007400086033158004
          ],
          [
            "Ethiopia",
            0.0007320515578612685
          ],
          [
            "Martinique",
            0.0006978865712881088
          ],
          [
            "Guadeloupe",
            0.000682106357999146
          ],
          [
            "Germany",
            0.0006605038070119917
          ],
          [
            "Congo",
            0.0006559515022672713
          ],
          [
            "Yemen",
            0.000624446664005518
          ],
          [
            "Burkina Faso",
            0.0006169726839289069
          ],
          [
            "Equatorial Guinea",
            0.0005534169031307101
          ],
          [
            "Afghanistan",
            0.0005526036839000881
          ],
          [
            "Ghana",
            0.0005377514753490686
          ],
          [
            "India",
            0.0004442260542418808
          ],
          [
            "Qatar",
            0.00044178240932524204
          ],
          [
            "Mayotte",
            0.0004327610076870769
          ],
          [
            "Heard and McDonald Islands",
            0.0004200252005830407
          ],
          [
            "Barbados",
            0.0004005791270174086
          ],
          [
            "Nicaragua",
            0.00038865618989802897
          ],
          [
            "Iceland",
            0.0003715096681844443
          ],
          [
            "Ukraine",
            0.0003631480794865638
          ],
          [
            "Benin",
            0.0003602148499339819
          ],
          [
            "Somalia",
            0.0003331004118081182
          ],
          [
            "Togo",
            0.0003327397571410984
          ],
          [
            "Fiji",
            0.00033227234962396324
          ],
          [
            "Cyprus",
            0.00033194106072187424
          ],
          [
            "Chile",
            0.0003247127460781485
          ],
          [
            "Czech Republic",
            0.0003199963830411434
          ],
          [
            "Armenia",
            0.0003134362050332129
          ],
          [
            "Saint Lucia",
            0.00030952703673392534
          ],
          [
            "Turkey",
            0.0003095240972470492
          ],
          [
            "Vanuatu",
            0.0003026234044227749
          ],
          [
            "Cameroon",
            0.0002698955067899078
          ],
          [
            "Colombia",
            0.0002681989863049239
          ],
          [
            "Bahrain",
            0.0002607046044431627
          ],
          [
            "South Sudan",
            0.0002603264292702079
          ],
          [
            "Algeria",
            0.0002587507478892803
          ],
          [
            "Faroe Islands",
            0.00025799922877922654
          ],
          [
            "Kazakhstan",
            0.0002556845429353416
          ],
          [
            "China",
            0.0002543478913139552
          ],
          [
            "Puerto Rico",
            0.0002534911618568003
          ],
          [
            "New Zealand",
            0.00024562128237448633
          ],
          [
            "Mongolia",
            0.00024529543588869274
          ],
          [
            "Hong Kong",
            0.00024037396360654384
          ],
          [
            "Netherlands Antilles",
            0.00023836555192247033
          ],
          [
            "Serbia",
            0.00023599328415002674
          ],
          [
            "Uzbekistan",
            0.0002272379642818123
          ],
          [
            "Guam",
            0.0002194469270762056
          ],
          [
            "Bhutan",
            0.00021775912318844348
          ],
          [
            "Slovakia",
            0.0002114478120347485
          ],
          [
            "Australia",
            0.00020874812616966665
          ],
          [
            "Finland",
            0.00020552941714413464
          ],
          [
            "Djibouti",
            0.00020472306641750038
          ],
          [
            "Turkmenistan",
            0.0002022515400312841
          ],
          [
            "Albania",
            0.00020043316180817783
          ],
          [
            "South Korea",
            0.00019920973863918334
          ],
          [
            "West Bank",
            0.00019542114750947803
          ],
          [
            "Timor-Leste",
            0.00019220987451262772
          ],
          [
            "Brunei",
            0.00018853784422390163
          ],
          [
            "Japan",
            0.0001878089242381975
          ],
          [
            "Costa Rica",
            0.00017958524404093623
          ],
          [
            "North Korea",
            0.0001714376121526584
          ],
          [
            "Honduras",
            0.00017006973212119192
          ],
          [
            "Belgium",
            0.00016961587243713439
          ],
          [
            "Solomon Islands",
            0.00016890178085304797
          ],
          [
            "Morocco",
            0.00016686206799931824
          ],
          [
            "Thailand",
            0.0001594229688635096
          ],
          [
            "Zimbabwe",
            0.0001487448753323406
          ],
          [
            "Netherlands",
            0.00014667863433714956
          ],
          [
            "Dominican Republic",
            0.00014514575013890862
          ],
          [
            "Paraguay",
            0.00013948522973805666
          ],
          [
            "Mozambique",
            0.00013837125152349472
          ],
          [
            "Peru",
            0.00013285221939440817
          ],
          [
            "Malawi",
            0.00013159126683603972
          ],
          [
            "Iraq",
            0.00012890633661299944
          ],
          [
            "Guyana",
            0.00012621549831237644
          ],
          [
            "Bangladesh",
            0.00012318829249124974
          ],
          [
            "Sri Lanka",
            0.00012273728498257697
          ],
          [
            "Central African Republic",
            0.0001224394072778523
          ],
          [
            "Israel",
            0.00012133072596043348
          ],
          [
            "Tunisia",
            0.00011367658589733765
          ],
          [
            "Palau",
            0.00011147171608172357
          ],
          [
            "Portugal",
            0.00010894764272961766
          ],
          [
            "Kyrgyzstan",
            0.00010270235361531377
          ],
          [
            "Argentina",
            0.0001017836548271589
          ],
          [
            "Trinidad and Tobago",
            0.00010006048978539184
          ],
          [
            "Kuwait",
            9.952905384125188e-05
          ],
          [
            "Austria",
            9.600467456039041e-05
          ],
          [
            "Western Sahara",
            9.537154255667701e-05
          ],
          [
            "Bahamas",
            9.473247337155044e-05
          ],
          [
            "Indonesia",
            9.007836342789233e-05
          ],
          [
            "Guinea",
            8.742325735511258e-05
          ],
          [
            "Latvia",
            8.70244693942368e-05
          ],
          [
            "United States of America",
            8.629785588709638e-05
          ],
          [
            "Guinea-Bissau",
            8.529960905434564e-05
          ],
          [
            "Azerbaijan",
            8.500904368702322e-05
          ],
          [
            "Russia",
            8.399366197409108e-05
          ],
          [
            "Estonia",
            8.300671470351517e-05
          ],
          [
            "Italy",
            8.044856804190204e-05
          ],
          [
            "Lebanon",
            8.043368870858103e-05
          ],
          [
            "Sweden",
            7.959750655572861e-05
          ],
          [
            "New Caledonia",
            7.582957186968997e-05
          ],
          [
            "Madeira Islands",
            7.518939673900604e-05
          ],
          [
            "Georgia",
            7.38999733584933e-05
          ],
          [
            "Taiwan",
            7.304263272089884e-05
          ],
          [
            "Papua New Guinea",
            7.262753933900967e-05
          ],
          [
            "Myanmar",
            7.183083653217182e-05
          ],
          [
            "South Georgia Islands",
            6.852095248177648e-05
          ],
          [
            "Norway",
            6.645877147093415e-05
          ],
          [
            "Luxembourg",
            6.570881669176742e-05
          ],
          [
            "Svalbard",
            6.309700984274969e-05
          ],
          [
            "Croatia",
            6.002332520438358e-05
          ],
          [
            "DR Congo",
            5.760288695455529e-05
          ],
          [
            "Canada",
            5.225500717642717e-05
          ],
          [
            "Cuba",
            5.206240530242212e-05
          ],
          [
            "Turks and Caicos Islands",
            5.106994285597466e-05
          ],
          [
            "Panama",
            4.98901390528772e-05
          ],
          [
            "Jamaica",
            4.5246841182233766e-05
          ],
          [
            "Falkland Islands",
            4.415067087393254e-05
          ],
          [
            "Madagascar",
            4.334199911681935e-05
          ],
          [
            "Liberia",
            4.250863639754243e-05
          ],
          [
            "Philippines",
            4.007226016256027e-05
          ],
          [
            "Tajikistan",
            3.451204611337744e-05
          ],
          [
            "El Salvador",
            3.4366745239822194e-05
          ],
          [
            "Senegal",
            3.347785968799144e-05
          ],
          [
            "Samoa",
            3.280517557868734e-05
          ],
          [
            "Eritrea",
            3.2464198739035055e-05
          ],
          [
            "Ireland",
            3.1322088034357876e-05
          ],
          [
            "United Kingdom",
            2.389717883488629e-05
          ],
          [
            "Mexico",
            2.295299964316655e-05
          ],
          [
            "Haiti",
            1.635428452573251e-05
          ],
          [
            "Laos",
            1.4483428458333947e-05
          ],
          [
            "Gambia",
            1.3974746252642944e-05
          ],
          [
            "Nepal",
            1.0373093573434744e-05
          ],
          [
            "Greece",
            5.767002676293487e-06
          ],
          [
            "Denmark",
            4.851174708164763e-06
          ],
          [
            "Kiribati",
            3.774711103687878e-07
          ]
        ]
      },
      "geometry": {
        "type": "MultiLineString",
        "coordinates": [
          [
            [
              8.092301084069732,
              15.574365018902085
            ],
            [
              9.015396478992926,
              15.574365018902085
            ],
            [
              10.861536536303788,
              15.574365018902085
            ],
            [
              12.338462110828601,
              15.574365018902085
            ],
            [
              13.446173202567394,
              15.574365018902085
            ],
            [
              14.369234775800237,
              15.389800054622015
            ],
            [
              15.661527742664276,
              15.205235090341944
            ],
            [
              16.58462313758747,
              14.282444090631998
            ],
            [
              16.58462313758747,
              13.359653090921995
            ],
            [
              16.58462313758747,
              12.2523224931997
            ],
            [
              17.138453317189118,
              11.514096457769824
            ],
            [
              18.061548712112312,
              10.960410020352242
            ],
            [
              18.800011499374705,
              10.406748949202381
            ],
            [
              19.723089983452724,
              9.668514458349875
            ],
            [
              20.830767253501165,
              8.745723458639873
            ],
            [
              21.569230040763586,
              7.269271387780066
            ],
            [
              21.753862648424388,
              6.161915423789992
            ],
            [
              21.93846143439481,
              5.23913287950262
            ],
            [
              22.676924221657202,
              4.500898388650114
            ],
            [
              24.338465492997642,
              4.500898388650114
            ],
            [
              25.446176584736435,
              4.685463352930185
            ],
            [
              26.5538369439397,
              5.23913287950262
            ],
            [
              27.476932338862895,
              5.977358914932552
            ],
            [
              28.215395126125316,
              6.715584950362427
            ],
            [
              28.769225305726934,
              7.6383759500724295
            ],
            [
              29.323089307018932,
              8.561166949782432
            ],
            [
              30.061552094281353,
              9.299401440634938
            ],
            [
              31.169229364329794,
              10.406748949202381
            ],
            [
              31.907692151592187,
              10.960410020352242
            ],
            [
              33.01540324333098,
              11.883201020062188
            ],
            [
              34.12308051337942,
              12.805992019772134
            ],
            [
              35.04615899745744,
              13.728783019482137
            ],
            [
              35.96922057069031,
              14.467017510334642
            ],
            [
              36.89231596561348,
              15.389800054622015
            ],
            [
              38.00001014650712,
              16.312591054332017
            ],
            [
              38.92307171973994,
              16.681712527469585
            ],
            [
              40.21538159744915,
              16.866260580904452
            ],
            [
              41.323092689187945,
              17.05081708976195
            ],
            [
              42.246154262420816,
              17.41993856289946
            ],
            [
              43.169232746498835,
              18.158173053751966
            ],
            [
              43.90769553376123,
              18.896399089181898
            ],
            [
              45.20002232231565,
              20.188311562029412
            ],
            [
              45.93846819873286,
              20.926537597459287
            ],
            [
              46.67694789684046,
              21.84932859716929
            ],
            [
              47.7846251668889,
              22.95666765031416
            ],
            [
              49.076935044598144,
              24.43313663201917
            ],
            [
              50.55386061912296,
              25.909597158301608
            ],
            [
              51.84617049683217,
              27.201492720303918
            ],
            [
              52.769232070065016,
              28.12428372001392
            ],
            [
              53.87690934011346,
              29.231631228581364
            ],
            [
              54.61538903822105,
              29.7853007551538
            ],
            [
              55.3538349146383,
              30.523543701428878
            ],
            [
              55.90769891593027,
              32.000004227711315
            ],
            [
              56.27691339871632,
              33.10735173627876
            ],
            [
              56.83076048916311,
              34.583803807138565
            ],
            [
              57.20000879363948,
              35.69115977112864
            ],
            [
              57.38462449045511,
              36.79849882427351
            ],
            [
              57.56924018727068,
              37.72128982398348
            ],
            [
              57.93843775921155,
              38.828637332550926
            ],
            [
              57.93843775921155,
              39.9359848411184
            ],
            [
              57.93843775921155,
              40.85877584082837
            ],
            [
              58.12307036687233,
              41.78154992969317
            ],
            [
              58.676934368164325,
              42.51979287596825
            ],
            [
              59.23076454776594,
              43.25801891139815
            ],
            [
              59.969227335028364,
              43.99625340225066
            ],
            [
              60.338475639504736,
              44.91903594653806
            ],
            [
              60.89228890826121,
              45.841826946248034
            ],
            [
              61.26153721273758,
              46.9491659993929
            ],
            [
              61.81540121402958,
              48.05652196338295
            ],
            [
              62.0,
              49.34842598080789
            ],
            [
              62.0,
              50.27121698051786
            ],
            [
              62.0,
              51.37856026137402
            ],
            [
              62.0,
              52.301351261083994
            ],
            [
              61.44615290955318,
              53.40869454194018
            ],
            [
              60.15385994268914,
              54.33148554165015
            ],
            [
              58.49230176050355,
              55.06972003250266
            ],
            [
              57.38462449045511,
              55.25427654136013
            ],
            [
              56.09231461274587,
              55.25427654136013
            ],
            [
              54.799987824191476,
              55.25427654136013
            ],
            [
              53.50771176817261,
              55.25427654136013
            ],
            [
              52.399983765588615,
              55.06972003250266
            ],
            [
              51.4769221923558,
              55.06972003250266
            ],
            [
              50.184612314646586,
              55.06972003250266
            ],
            [
              48.52307104330612,
              54.885159295933875
            ],
            [
              46.12308389554846,
              54.885159295933875
            ],
            [
              43.53848105097521,
              55.25427654136013
            ],
            [
              40.21538159744915,
              55.99250257679003
            ],
            [
              37.0769147515839,
              56.915293576500005
            ],
            [
              34.30769621019505,
              57.65352806735251
            ],
            [
              31.907692151592187,
              58.20719336621366
            ],
            [
              30.246150880251776,
              58.57631061163991
            ],
            [
              29.323089307018932,
              58.57631061163991
            ],
            [
              28.03076251846454,
              58.57631061163991
            ],
            [
              26.923068337570896,
              58.57631061163991
            ],
            [
              25.630775370706857,
              58.94543208477745
            ],
            [
              24.338465492997642,
              59.12998436592363
            ],
            [
              23.2307882229492,
              59.31454510249242
            ],
            [
              21.93846143439481,
              59.31454510249242
            ],
            [
              20.830767253501165,
              59.31454510249242
            ],
            [
              19.723089983452724,
              59.499101611349886
            ],
            [
              18.800011499374705,
              59.499101611349886
            ],
            [
              17.692300407635912,
              59.499101611349886
            ],
            [
              16.215391743956275,
              59.499101611349886
            ],
            [
              15.107697563062658,
              59.499101611349886
            ],
            [
              14.00000338216904,
              59.499101611349886
            ],
            [
              12.707710415304973,
              59.499101611349886
            ],
            [
              11.415383626750582,
              59.499101611349886
            ],
            [
              10.307689445856965,
              59.31454510249242
            ],
            [
              9.200012175808524,
              59.12998436592363
            ],
            [
              8.092301084069732,
              58.94543208477745
            ],
            [
              6.61537550954489,
              58.94543208477745
            ],
            [
              5.876912722282498,
              58.02264108506748
            ],
            [
              5.876912722282498,
              56.915293576500005
            ],
            [
              5.876912722282498,
              55.80795029564385
            ],
            [
              5.692313936312075,
              54.146929032792684
            ],
            [
              5.507698239496449,
              51.74767750680027
            ],
            [
              5.507698239496449,
              49.34842598080789
            ],
            [
              5.692313936312075,
              48.05652196338295
            ],
            [
              5.692313936312075,
              47.133730963672974
            ],
            [
              5.692313936312075,
              45.841826946248034
            ],
            [
              4.953851149049655,
              44.36535796454302
            ],
            [
              4.215388361787234,
              42.51979287596825
            ],
            [
              3.292309877709215,
              40.85877584082837
            ],
            [
              2.7384627872624208,
              39.56687182340343
            ],
            [
              2.369231393631196,
              38.64408082369346
            ],
            [
              2.184632607660774,
              37.72128982398348
            ],
            [
              2.0,
              36.244829297701074
            ],
            [
              2.369231393631196,
              35.1374817891336
            ],
            [
              3.107694180893617,
              34.03012582514356
            ],
            [
              4.030772664971636,
              32.55367375428375
            ],
            [
              4.953851149049655,
              30.89264826372124
            ],
            [
              5.323082542680851,
              29.416196192861435
            ],
            [
              5.323082542680851,
              27.755170702298955
            ],
            [
              5.323082542680851,
              26.463258229451412
            ],
            [
              4.953851149049655,
              25.355927631729173
            ],
            [
              4.030772664971636,
              23.69491059658924
            ],
            [
              3.4769255745248415,
              22.587554632599222
            ],
            [
              3.4769255745248415,
              21.480207124031722
            ],
            [
              4.030772664971636,
              20.741981088601847
            ],
            [
              4.953851149049655,
              19.634633580034404
            ],
            [
              5.138449935020077,
              18.7118425803244
            ],
            [
              5.138449935020077,
              17.05081708976195
            ],
            [
              4.953851149049655,
              16.128026090051947
            ],
            [
              4.7692354522340565,
              14.83613052804958
            ],
            [
              4.7692354522340565,
              13.359653090921995
            ],
            [
              4.7692354522340565,
              12.43688745747977
            ],
            [
              5.138449935020077,
              11.144974984632256
            ],
            [
              5.692313936312075,
              9.299401440634938
            ],
            [
              5.876912722282498,
              7.084706423499995
            ]
          ]
        ]
      }
    }
  ]
}