{
  "type": "FeatureCollection",
  "crs": {
    "type": "name",
    "properties": {
      "name": "urn:ogc:def:crs:OGC:1.3:CRS84"
    }
  },
  "features": [
    {
      "type": "Feature",
      "properties": {
        "timestamp": "2026-05-31T07:23:39.827134",
        "country_name": "North Macedonia",
        "author": "",
        "author_id": "55f23a75-0b26-4a5d-bdc0-d0fcf6e3ed4f",
        "validated": false,
        "ranking": [
          [
            "Eswatini",
            0.1482335329055786
          ],
          [
            "Algeria",
            0.10215718299150467
          ],
          [
            "Zimbabwe",
            0.07361201196908951
          ],
          [
            "Lesotho",
            0.07265663892030716
          ],
          [
            "Belarus",
            0.06891264766454697
          ],
          [
            "Suriname",
            0.04724828898906708
          ],
          [
            "North Macedonia",
            0.0469876192510128
          ],
          [
            "Uruguay",
            0.04055177792906761
          ],
          [
            "Nicaragua",
            0.031216586008667946
          ],
          [
            "Sierra Leone",
            0.03016059473156929
          ],
          [
            "Uganda",
            0.026776647195219994
          ],
          [
            "Romania",
            0.024002589285373688
          ],
          [
            "Mauritania",
            0.02047708071768284
          ],
          [
            "Côte d'Ivoire",
            0.01880018226802349
          ],
          [
            "Egypt",
            0.016714898869395256
          ],
          [
            "Guadeloupe",
            0.016188111156225204
          ],
          [
            "Reunion",
            0.012746354565024376
          ],
          [
            "Gabon",
            0.01267021894454956
          ],
          [
            "Rwanda",
            0.009597296826541424
          ],
          [
            "Poland",
            0.007127705495804548
          ],
          [
            "Cape Verde",
            0.006848858203738928
          ],
          [
            "Australia",
            0.006702632177621126
          ],
          [
            "Iraq",
            0.00611333642154932
          ],
          [
            "Sudan",
            0.005620826501399279
          ],
          [
            "Lithuania",
            0.005203583277761936
          ],
          [
            "Germany",
            0.005202243570238352
          ],
          [
            "Guatemala",
            0.005029662046581507
          ],
          [
            "Ethiopia",
            0.004875110927969217
          ],
          [
            "Angola",
            0.0048452336341142654
          ],
          [
            "Peru",
            0.00466096680611372
          ],
          [
            "Kenya",
            0.004037278704345226
          ],
          [
            "Azerbaijan",
            0.004002492409199476
          ],
          [
            "Bosnia & Herzegovina",
            0.003663608804345131
          ],
          [
            "France",
            0.0034771801438182592
          ],
          [
            "Burundi",
            0.00339466892182827
          ],
          [
            "Comoros",
            0.0033921576105058193
          ],
          [
            "Iran",
            0.0032639054115861654
          ],
          [
            "Sri Lanka",
            0.0031151054427027702
          ],
          [
            "Barbados",
            0.0029437474440783262
          ],
          [
            "Bahrain",
            0.0027421426493674517
          ],
          [
            "United States Virgin Islands",
            0.0026082543190568686
          ],
          [
            "Spain",
            0.0025845335330814123
          ],
          [
            "Ecuador",
            0.002453136956319213
          ],
          [
            "Czech Republic",
            0.0023268666118383408
          ],
          [
            "Namibia",
            0.002205471508204937
          ],
          [
            "Bahamas",
            0.002095491625368595
          ],
          [
            "Cambodia",
            0.002065385924652219
          ],
          [
            "Burkina Faso",
            0.001981373643502593
          ],
          [
            "Tanzania",
            0.0019756602123379707
          ],
          [
            "Sao Tome and Principe",
            0.0018472131341695786
          ],
          [
            "Belgium",
            0.001800019177608192
          ],
          [
            "Dominica",
            0.001770902774296701
          ],
          [
            "United States of America",
            0.001755677629262209
          ],
          [
            "Guyana",
            0.0017395212780684233
          ],
          [
            "Djibouti",
            0.001622055540792644
          ],
          [
            "Latvia",
            0.0016000786563381553
          ],
          [
            "Martinique",
            0.0015146207297220826
          ],
          [
            "DR Congo",
            0.001488816924393177
          ],
          [
            "Vanuatu",
            0.0014334125444293022
          ],
          [
            "Bhutan",
            0.0012967920629307628
          ],
          [
            "Solomon Islands",
            0.0012796735391020775
          ],
          [
            "Saudi Arabia",
            0.0012606417294591665
          ],
          [
            "French Guiana",
            0.0012038262793794274
          ],
          [
            "Guinea",
            0.0011747783282771707
          ],
          [
            "Costa Rica",
            0.001167433918453753
          ],
          [
            "Estonia",
            0.001111210323870182
          ],
          [
            "Belize",
            0.0010697090765461326
          ],
          [
            "Qatar",
            0.0010490691056475043
          ],
          [
            "Benin",
            0.0009628249681554735
          ],
          [
            "Luxembourg",
            0.0009171582642011344
          ],
          [
            "Ghana",
            0.0008840637747198343
          ],
          [
            "Colombia",
            0.0008781348005868495
          ],
          [
            "Antigua & Barbuda",
            0.0008323390502482653
          ],
          [
            "Turkmenistan",
            0.0008153563248924911
          ],
          [
            "Serbia",
            0.0007943946402519941
          ],
          [
            "Botswana",
            0.0007784147746860981
          ],
          [
            "Switzerland",
            0.0007742834277451038
          ],
          [
            "Greenland",
            0.0007691141217947006
          ],
          [
            "El Salvador",
            0.0007672489155083895
          ],
          [
            "Mozambique",
            0.0006584268412552774
          ],
          [
            "Bolivia",
            0.0006154256407171488
          ],
          [
            "Zambia",
            0.0006144392536953092
          ],
          [
            "Heard and McDonald Islands",
            0.0006118955789133906
          ],
          [
            "South Korea",
            0.0006101008621044457
          ],
          [
            "Kuwait",
            0.0006024572649039328
          ],
          [
            "Syria",
            0.0005902054836042225
          ],
          [
            "Cuba",
            0.0005718122702091932
          ],
          [
            "South Georgia Islands",
            0.0005622850148938596
          ],
          [
            "Yemen",
            0.0005503377178683877
          ],
          [
            "Saint Lucia",
            0.0005483113345690072
          ],
          [
            "Faroe Islands",
            0.0005435734638012946
          ],
          [
            "Nigeria",
            0.0005366425612010062
          ],
          [
            "Brazil",
            0.0005356587935239077
          ],
          [
            "Ukraine",
            0.0005178658757358789
          ],
          [
            "South Sudan",
            0.0005160830914974213
          ],
          [
            "Togo",
            0.0004367369110696018
          ],
          [
            "Croatia",
            0.0004285282047931105
          ],
          [
            "South Africa",
            0.000397253199480474
          ],
          [
            "Niger",
            0.0003948539961129427
          ],
          [
            "Tajikistan",
            0.0003900142328348011
          ],
          [
            "Senegal",
            0.00038307736394926906
          ],
          [
            "Italy",
            0.00038262316957116127
          ],
          [
            "Vietnam",
            0.0003718256775755435
          ],
          [
            "Venezuela",
            0.0003703181282617152
          ],
          [
            "Libya",
            0.0003666501143015921
          ],
          [
            "Svalbard",
            0.0003612315922509879
          ],
          [
            "Netherlands Antilles",
            0.00034375532413832843
          ],
          [
            "Samoa",
            0.00033869515755213797
          ],
          [
            "Mali",
            0.00033579670707695186
          ],
          [
            "Bangladesh",
            0.00031724688597023487
          ],
          [
            "India",
            0.00031691728509031236
          ],
          [
            "Laos",
            0.00031016930006444454
          ],
          [
            "Iceland",
            0.0003034266410395503
          ],
          [
            "Ireland",
            0.00029742164770141244
          ],
          [
            "Turks and Caicos Islands",
            0.00029320231988094747
          ],
          [
            "Slovakia",
            0.00028909469256177545
          ],
          [
            "Malawi",
            0.00027728089480660856
          ],
          [
            "Jordan",
            0.00027668444090522826
          ],
          [
            "Finland",
            0.00026774805155582726
          ],
          [
            "Chad",
            0.0002598109422251582
          ],
          [
            "Chile",
            0.0002559801214374602
          ],
          [
            "Moldova",
            0.00025533061125315726
          ],
          [
            "Myanmar",
            0.00025398514117114246
          ],
          [
            "Somalia",
            0.0002539744891691953
          ],
          [
            "Mexico",
            0.00025253117200918496
          ],
          [
            "Turkey",
            0.0002451835316605866
          ],
          [
            "Malaysia",
            0.00023865704133640975
          ],
          [
            "Armenia",
            0.0002360539510846138
          ],
          [
            "Paraguay",
            0.0002298221952514723
          ],
          [
            "Liberia",
            0.0002264693903271109
          ],
          [
            "Argentina",
            0.00022301616263575852
          ],
          [
            "Kazakhstan",
            0.0002220111491624266
          ],
          [
            "Hong Kong",
            0.00021462846780195832
          ],
          [
            "Mongolia",
            0.00021291068696882576
          ],
          [
            "Honduras",
            0.00020956105436198413
          ],
          [
            "West Bank",
            0.0002066034940071404
          ],
          [
            "New Zealand",
            0.00020298533490858972
          ],
          [
            "Hungary",
            0.00020140645210631192
          ],
          [
            "Fiji",
            0.00019830133533105254
          ],
          [
            "Albania",
            0.00019369735673535615
          ],
          [
            "Montenegro",
            0.00019088320550508797
          ],
          [
            "United Arab Emirates",
            0.00018208089750260115
          ],
          [
            "Equatorial Guinea",
            0.0001744055189192295
          ],
          [
            "Puerto Rico",
            0.00016179944213945419
          ],
          [
            "Uzbekistan",
            0.0001573541376274079
          ],
          [
            "Bulgaria",
            0.00015690847067162395
          ],
          [
            "Nepal",
            0.0001527125423308462
          ],
          [
            "Eritrea",
            0.00015149898536037654
          ],
          [
            "Tunisia",
            0.00014841889787930995
          ],
          [
            "Dominican Republic",
            0.0001456798636354506
          ],
          [
            "Canada",
            0.00014294774155132473
          ],
          [
            "Thailand",
            0.00013484265946317464
          ],
          [
            "Guam",
            0.0001336201385129243
          ],
          [
            "Georgia",
            0.00013177128857932985
          ],
          [
            "Western Sahara",
            0.00012732551840599626
          ],
          [
            "Jamaica",
            0.00012426861212588847
          ],
          [
            "Norway",
            0.00012267100100871176
          ],
          [
            "Afghanistan",
            0.00012224310194142163
          ],
          [
            "China",
            0.00011811631702585146
          ],
          [
            "Russia",
            0.00011682597687467933
          ],
          [
            "Papua New Guinea",
            0.00011649465886875987
          ],
          [
            "New Caledonia",
            0.00010987331188516691
          ],
          [
            "Cameroon",
            9.898207645164803e-05
          ],
          [
            "Falkland Islands",
            9.476333070779219e-05
          ],
          [
            "Indonesia",
            9.178297477774322e-05
          ],
          [
            "Sweden",
            9.086831414606422e-05
          ],
          [
            "Mayotte",
            8.805445395410061e-05
          ],
          [
            "Portugal",
            8.75415134942159e-05
          ],
          [
            "Central African Republic",
            8.417853678110987e-05
          ],
          [
            "Kyrgyzstan",
            8.355548925464973e-05
          ],
          [
            "United Kingdom",
            8.139823330566287e-05
          ],
          [
            "Madeira Islands",
            7.993522012839094e-05
          ],
          [
            "Taiwan",
            7.637749513378367e-05
          ],
          [
            "Brunei",
            7.624301360920072e-05
          ],
          [
            "Trinidad and Tobago",
            7.610904867760837e-05
          ],
          [
            "Israel",
            7.493066368624568e-05
          ],
          [
            "Guinea-Bissau",
            6.709186709485948e-05
          ],
          [
            "Panama",
            6.165368540678173e-05
          ],
          [
            "Denmark",
            5.870906534255482e-05
          ],
          [
            "Philippines",
            5.695903018931858e-05
          ],
          [
            "Congo",
            5.664602940669283e-05
          ],
          [
            "Timor-Leste",
            5.5307551519945264e-05
          ],
          [
            "Slovenia",
            5.383881943998858e-05
          ],
          [
            "Isle of Man",
            5.374463944463059e-05
          ],
          [
            "Cyprus",
            5.2367431635502726e-05
          ],
          [
            "Oman",
            5.135513856657781e-05
          ],
          [
            "Greece",
            4.660712511395104e-05
          ],
          [
            "North Korea",
            4.008202813565731e-05
          ],
          [
            "Japan",
            3.808776455116458e-05
          ],
          [
            "Netherlands",
            2.9233775421744213e-05
          ],
          [
            "Gambia",
            2.3656763005419634e-05
          ],
          [
            "Pakistan",
            1.7218197172041982e-05
          ],
          [
            "Austria",
            1.3630591638502665e-05
          ],
          [
            "Madagascar",
            1.3372536159295123e-05
          ],
          [
            "Kiribati",
            1.1598621313169133e-05
          ],
          [
            "Lebanon",
            1.1225827620364726e-05
          ],
          [
            "Morocco",
            8.498059287376236e-06
          ],
          [
            "Palau",
            8.476496077491902e-06
          ],
          [
            "Haiti",
            6.543710242112866e-06
          ]
        ]
      },
      "geometry": {
        "type": "MultiLineString",
        "coordinates": [
          [
            [
              39.14285714285714,
              61.52380952380952
            ],
            [
              37.23809523809524,
              61.04761904761904
            ],
            [
              35.333333333333314,
              60.095238095238074
            ],
            [
              32.0,
              58.190476190476204
            ],
            [
              28.190476190476204,
              54.85714285714283
            ],
            [
              18.190476190476204,
              46.28571428571428
            ],
            [
              13.428571428571445,
              42.0
            ],
            [
              10.571428571428555,
              39.61904761904762
            ],
            [
              7.238095238095241,
              36.76190476190476
            ],
            [
              6.285714285714278,
              35.333333333333314
            ],
            [
              6.285714285714278,
              33.428571428571445
            ],
            [
              6.285714285714278,
              31.52380952380952
            ],
            [
              5.333333333333314,
              26.76190476190476
            ],
            [
              5.333333333333314,
              24.38095238095238
            ],
            [
              5.333333333333314,
              20.095238095238074
            ],
            [
              5.809523809523796,
              18.666666666666657
            ],
            [
              7.238095238095241,
              16.76190476190476
            ],
            [
              8.666666666666657,
              15.333333333333314
            ],
            [
              10.571428571428555,
              13.428571428571445
            ],
            [
              12.476190476190482,
              12.0
            ],
            [
              13.904761904761898,
              11.047619047619037
            ],
            [
              18.666666666666657,
              7.238095238095241
            ],
            [
              21.047619047619037,
              5.809523809523796
            ],
            [
              23.904761904761898,
              4.380952380952351
            ],
            [
              25.809523809523796,
              3.9047619047619264
            ],
            [
              27.23809523809524,
              2.952380952380963
            ],
            [
              31.047619047619037,
              2.4761904761904816
            ],
            [
              32.95238095238096,
              2.4761904761904816
            ],
            [
              34.85714285714283,
              2.0
            ],
            [
              39.14285714285714,
              2.0
            ],
            [
              41.52380952380952,
              2.0
            ],
            [
              43.428571428571445,
              2.0
            ],
            [
              44.85714285714283,
              2.952380952380963
            ],
            [
              46.28571428571428,
              3.428571428571445
            ],
            [
              48.66666666666666,
              6.285714285714278
            ],
            [
              50.571428571428555,
              8.666666666666686
            ],
            [
              52.95238095238096,
              13.428571428571445
            ],
            [
              57.23809523809524,
              22.0
            ],
            [
              58.190476190476204,
              26.285714285714278
            ],
            [
              58.66666666666666,
              28.666666666666657
            ],
            [
              58.66666666666666,
              31.52380952380952
            ],
            [
              58.66666666666666,
              33.9047619047619
            ],
            [
              58.190476190476204,
              35.809523809523796
            ],
            [
              57.71428571428572,
              37.23809523809524
            ],
            [
              56.28571428571428,
              40.571428571428555
            ],
            [
              55.333333333333314,
              44.38095238095238
            ],
            [
              53.428571428571416,
              48.66666666666666
            ],
            [
              51.52380952380952,
              54.85714285714283
            ],
            [
              51.04761904761904,
              56.76190476190476
            ],
            [
              50.571428571428555,
              58.190476190476204
            ],
            [
              49.14285714285714,
              59.14285714285714
            ],
            [
              48.190476190476204,
              61.04761904761904
            ],
            [
              46.76190476190476,
              62.0
            ],
            [
              45.809523809523796,
              60.571428571428555
            ],
            [
              45.809523809523796,
              58.66666666666666
            ],
            [
              43.9047619047619,
              58.66666666666666
            ],
            [
              40.095238095238074,
              58.66666666666666
            ],
            [
              38.190476190476204,
              58.66666666666666
            ]
          ]
        ]
      }
    }
  ]
}