{
  "type": "FeatureCollection",
  "crs": {
    "type": "name",
    "properties": {
      "name": "urn:ogc:def:crs:OGC:1.3:CRS84"
    }
  },
  "features": [
    {
      "type": "Feature",
      "properties": {
        "timestamp": "2026-07-03T13:15:22.958317",
        "country_name": "North Macedonia",
        "author": "Roman",
        "author_id": "31d240bb-83c5-41c9-8b50-6d74fffd9548",
        "validated": false,
        "ranking": [
          [
            "North Macedonia",
            0.6244624853134155
          ],
          [
            "Lesotho",
            0.09105248749256134
          ],
          [
            "Romania",
            0.03417765349149704
          ],
          [
            "Rwanda",
            0.023850906640291214
          ],
          [
            "Sudan",
            0.01904601790010929
          ],
          [
            "Belarus",
            0.01692361943423748
          ],
          [
            "Cambodia",
            0.012807249091565609
          ],
          [
            "Uganda",
            0.012341925874352455
          ],
          [
            "Gabon",
            0.01147550530731678
          ],
          [
            "Côte d'Ivoire",
            0.010913588106632233
          ],
          [
            "Lithuania",
            0.009716109372675419
          ],
          [
            "Nicaragua",
            0.00934265274554491
          ],
          [
            "Suriname",
            0.007672577630728483
          ],
          [
            "Burundi",
            0.005727733951061964
          ],
          [
            "Cape Verde",
            0.0053407601080834866
          ],
          [
            "Zimbabwe",
            0.005238124635070562
          ],
          [
            "Sierra Leone",
            0.0050344825722277164
          ],
          [
            "Ethiopia",
            0.004728051833808422
          ],
          [
            "Uruguay",
            0.00414549233391881
          ],
          [
            "Eswatini",
            0.0037978719919919968
          ],
          [
            "Mauritania",
            0.003044669982045889
          ],
          [
            "Bosnia & Herzegovina",
            0.002879357896745205
          ],
          [
            "Egypt",
            0.002863652538508177
          ],
          [
            "Guadeloupe",
            0.002541497116908431
          ],
          [
            "Algeria",
            0.002415695693343878
          ],
          [
            "Australia",
            0.0023651907686144114
          ],
          [
            "Reunion",
            0.002295473124831915
          ],
          [
            "France",
            0.002160580363124609
          ],
          [
            "Botswana",
            0.002060437109321356
          ],
          [
            "Zambia",
            0.002049224218353629
          ],
          [
            "Guatemala",
            0.0019621606916189194
          ],
          [
            "Azerbaijan",
            0.0019062290666624904
          ],
          [
            "South Africa",
            0.0018716176273301244
          ],
          [
            "Angola",
            0.0017585372552275658
          ],
          [
            "Iran",
            0.0017494542989879847
          ],
          [
            "Peru",
            0.001723218709230423
          ],
          [
            "Nigeria",
            0.001477871323004365
          ],
          [
            "Syria",
            0.0014404652174562216
          ],
          [
            "Brazil",
            0.0013831511605530977
          ],
          [
            "Burkina Faso",
            0.0013825471978634596
          ],
          [
            "Saudi Arabia",
            0.0013654499780386686
          ],
          [
            "Poland",
            0.0013239823747426271
          ],
          [
            "Spain",
            0.0012971365358680487
          ],
          [
            "Czech Republic",
            0.0011532306671142578
          ],
          [
            "Kenya",
            0.0010344001930207014
          ],
          [
            "Venezuela",
            0.0010002601193264127
          ],
          [
            "Ecuador",
            0.0009856356773525476
          ],
          [
            "Ukraine",
            0.000870363088324666
          ],
          [
            "Belize",
            0.0008693659910932183
          ],
          [
            "Switzerland",
            0.0008556069224141538
          ],
          [
            "Germany",
            0.0008526159217581153
          ],
          [
            "United States Virgin Islands",
            0.000816386891528964
          ],
          [
            "Belgium",
            0.0007815154385752976
          ],
          [
            "Niger",
            0.0007605485152453184
          ],
          [
            "Bolivia",
            0.0007452779682353139
          ],
          [
            "French Guiana",
            0.0006979598547331989
          ],
          [
            "Jordan",
            0.0006876857369206846
          ],
          [
            "Bhutan",
            0.0006327166920527816
          ],
          [
            "Heard and McDonald Islands",
            0.0006128361565060914
          ],
          [
            "Greenland",
            0.0006095812423154712
          ],
          [
            "Antigua & Barbuda",
            0.000607512891292572
          ],
          [
            "Iceland",
            0.0006000744760967791
          ],
          [
            "South Sudan",
            0.000592837983276695
          ],
          [
            "Estonia",
            0.0005711977719329298
          ],
          [
            "Latvia",
            0.000564954592846334
          ],
          [
            "Namibia",
            0.0005555066745728254
          ],
          [
            "Bulgaria",
            0.0005270668771117926
          ],
          [
            "Mali",
            0.0005077586974948645
          ],
          [
            "Benin",
            0.0005041715921834111
          ],
          [
            "Turkmenistan",
            0.000503094750456512
          ],
          [
            "Djibouti",
            0.0004984565894119442
          ],
          [
            "Comoros",
            0.0004927583504468203
          ],
          [
            "Yemen",
            0.00047439115587621927
          ],
          [
            "Faroe Islands",
            0.00045887313899584115
          ],
          [
            "Vietnam",
            0.00045212014811113477
          ],
          [
            "Costa Rica",
            0.0004470846615731716
          ],
          [
            "Guinea",
            0.0004355741257313639
          ],
          [
            "United States of America",
            0.0004343106411397457
          ],
          [
            "Dominica",
            0.0004003095382358879
          ],
          [
            "Bahrain",
            0.00037248103762976825
          ],
          [
            "Moldova",
            0.00036177647416479886
          ],
          [
            "Colombia",
            0.00036045745946466923
          ],
          [
            "Vanuatu",
            0.0003566666564438492
          ],
          [
            "Sri Lanka",
            0.000350907415850088
          ],
          [
            "Guyana",
            0.00034629108267836273
          ],
          [
            "Martinique",
            0.000345083128195256
          ],
          [
            "Iraq",
            0.00033124093897640705
          ],
          [
            "Qatar",
            0.0003282854158896953
          ],
          [
            "Tanzania",
            0.00032295056735165417
          ],
          [
            "Hungary",
            0.00030986848287284374
          ],
          [
            "Libya",
            0.0002751080028247088
          ],
          [
            "Sao Tome and Principe",
            0.00023885299742687494
          ],
          [
            "Mozambique",
            0.00021384033607318997
          ],
          [
            "Bahamas",
            0.00021286368428263813
          ],
          [
            "Solomon Islands",
            0.0002113329101121053
          ],
          [
            "Saint Lucia",
            0.00020764338842127472
          ],
          [
            "Croatia",
            0.00020724495698232204
          ],
          [
            "Tajikistan",
            0.0002066761371679604
          ],
          [
            "Barbados",
            0.00020475588098634034
          ],
          [
            "Togo",
            0.00019534328021109104
          ],
          [
            "Svalbard",
            0.0001869465340860188
          ],
          [
            "Kazakhstan",
            0.00018460403953213245
          ],
          [
            "Ghana",
            0.0001830905966926366
          ],
          [
            "Luxembourg",
            0.00018181240011472255
          ],
          [
            "El Salvador",
            0.00018065852054860443
          ],
          [
            "South Georgia Islands",
            0.00017282605404034257
          ],
          [
            "Italy",
            0.00016945356037467718
          ],
          [
            "Serbia",
            0.00016716246318537742
          ],
          [
            "Bangladesh",
            0.00015123373304959387
          ],
          [
            "Afghanistan",
            0.0001462264044675976
          ],
          [
            "Turkey",
            0.00014278895105235279
          ],
          [
            "India",
            0.00013794383266940713
          ],
          [
            "Hong Kong",
            0.00013370714441407472
          ],
          [
            "Senegal",
            0.00013331268564797938
          ],
          [
            "Chad",
            0.00013072771253064275
          ],
          [
            "Montenegro",
            0.00013056499301455915
          ],
          [
            "Fiji",
            0.00012384583533275872
          ],
          [
            "China",
            0.00012369899195618927
          ],
          [
            "United Arab Emirates",
            0.0001204115615109913
          ],
          [
            "Slovakia",
            0.00011860061204060912
          ],
          [
            "Ireland",
            0.0001167997470474802
          ],
          [
            "South Korea",
            0.00011635437840595841
          ],
          [
            "Myanmar",
            0.00011383194214431569
          ],
          [
            "Finland",
            0.0001132679681177251
          ],
          [
            "Brunei",
            0.00011205729970242828
          ],
          [
            "DR Congo",
            0.00010279132402502
          ],
          [
            "Cuba",
            0.00010200034739682451
          ],
          [
            "Mexico",
            0.00010002118506236002
          ],
          [
            "Slovenia",
            9.515623969491571e-05
          ],
          [
            "Somalia",
            9.378806134918705e-05
          ],
          [
            "Malawi",
            9.139172470895573e-05
          ],
          [
            "Congo",
            8.97461868589744e-05
          ],
          [
            "Chile",
            8.951538620749488e-05
          ],
          [
            "Honduras",
            8.750533743295819e-05
          ],
          [
            "Albania",
            7.986256969161332e-05
          ],
          [
            "Papua New Guinea",
            7.858558819862083e-05
          ],
          [
            "Isle of Man",
            7.421596092171967e-05
          ],
          [
            "Dominican Republic",
            7.351757813012227e-05
          ],
          [
            "Tunisia",
            7.272498623933643e-05
          ],
          [
            "Central African Republic",
            7.264375017257407e-05
          ],
          [
            "Mongolia",
            7.263460429385304e-05
          ],
          [
            "New Zealand",
            7.229776383610442e-05
          ],
          [
            "Western Sahara",
            7.217982783913612e-05
          ],
          [
            "Uzbekistan",
            6.990679685259238e-05
          ],
          [
            "Kuwait",
            6.865308387205005e-05
          ],
          [
            "Liberia",
            6.861420115455985e-05
          ],
          [
            "Guinea-Bissau",
            6.748411396984011e-05
          ],
          [
            "Turks and Caicos Islands",
            6.587421376025304e-05
          ],
          [
            "Canada",
            6.525581557070836e-05
          ],
          [
            "Thailand",
            6.385661254171282e-05
          ],
          [
            "Equatorial Guinea",
            6.209082494024187e-05
          ],
          [
            "Oman",
            6.138723256299272e-05
          ],
          [
            "Samoa",
            6.1228551203385e-05
          ],
          [
            "Laos",
            6.105117790866643e-05
          ],
          [
            "Guam",
            5.934089858783409e-05
          ],
          [
            "Malaysia",
            5.697492088074796e-05
          ],
          [
            "West Bank",
            5.675821012118831e-05
          ],
          [
            "Russia",
            5.444710041047074e-05
          ],
          [
            "Israel",
            5.225929635344073e-05
          ],
          [
            "Georgia",
            5.157160558155738e-05
          ],
          [
            "North Korea",
            4.9738788220565766e-05
          ],
          [
            "Argentina",
            4.8754707677289844e-05
          ],
          [
            "Paraguay",
            4.8462847189512104e-05
          ],
          [
            "Madeira Islands",
            4.764229743159376e-05
          ],
          [
            "Armenia",
            4.675611126003787e-05
          ],
          [
            "Mayotte",
            4.6562901843572035e-05
          ],
          [
            "Sweden",
            4.518707646639086e-05
          ],
          [
            "Puerto Rico",
            4.354401971795596e-05
          ],
          [
            "Cameroon",
            4.3095118599012494e-05
          ],
          [
            "Pakistan",
            4.1192848584614694e-05
          ],
          [
            "Norway",
            4.0854123653844e-05
          ],
          [
            "Portugal",
            4.052498479722999e-05
          ],
          [
            "Netherlands Antilles",
            4.031274875160307e-05
          ],
          [
            "Taiwan",
            4.0297065424965695e-05
          ],
          [
            "Kyrgyzstan",
            3.936831490136683e-05
          ],
          [
            "Falkland Islands",
            3.87992404284887e-05
          ],
          [
            "United Kingdom",
            3.781164195970632e-05
          ],
          [
            "Denmark",
            3.620620918809436e-05
          ],
          [
            "New Caledonia",
            3.507172004901804e-05
          ],
          [
            "Jamaica",
            3.3472435461590067e-05
          ],
          [
            "Trinidad and Tobago",
            3.0711522413184866e-05
          ],
          [
            "Eritrea",
            2.808679528243374e-05
          ],
          [
            "Indonesia",
            2.676040821825154e-05
          ],
          [
            "Panama",
            2.4971910534077324e-05
          ],
          [
            "Philippines",
            2.393810063949786e-05
          ],
          [
            "Nepal",
            2.3786222300259396e-05
          ],
          [
            "Netherlands",
            2.1672107322956435e-05
          ],
          [
            "Greece",
            2.1317564460332505e-05
          ],
          [
            "Japan",
            1.902583971968852e-05
          ],
          [
            "Timor-Leste",
            1.7729804312693886e-05
          ],
          [
            "Cyprus",
            1.5818406609469093e-05
          ],
          [
            "Haiti",
            1.557676114316564e-05
          ],
          [
            "Morocco",
            1.2870434147771448e-05
          ],
          [
            "Madagascar",
            1.2651648830797058e-05
          ],
          [
            "Austria",
            1.2488116226450074e-05
          ],
          [
            "Palau",
            8.264822099590674e-06
          ],
          [
            "Lebanon",
            7.317297786357813e-06
          ],
          [
            "Gambia",
            5.2016130211995915e-06
          ],
          [
            "Kiribati",
            2.3963989406183828e-06
          ]
        ]
      },
      "geometry": {
        "type": "MultiLineString",
        "coordinates": [
          [
            [
              5.373493975903614,
              37.6626506024096
            ],
            [
              5.493975903614455,
              39.10843373493975
            ],
            [
              5.734939759036138,
              39.71084337349396
            ],
            [
              6.096385542168662,
              40.433734939759006
            ],
            [
              6.337349397590344,
              41.03614457831321
            ],
            [
              6.81927710843371,
              41.75903614457832
            ],
            [
              6.939759036144608,
              42.12048192771084
            ],
            [
              7.18072289156629,
              42.481927710843365
            ],
            [
              7.542168674698814,
              42.84337349397589
            ],
            [
              8.02409638554218,
              42.96385542168673
            ],
            [
              8.626506024096386,
              42.96385542168673
            ],
            [
              9.8313253012048,
              42.96385542168673
            ],
            [
              11.15662650602411,
              42.96385542168673
            ],
            [
              12.96385542168673,
              43.56626506024094
            ],
            [
              13.325301204819255,
              43.92771084337346
            ],
            [
              13.566265060240994,
              44.289156626505985
            ],
            [
              13.927710843373518,
              45.01204819277109
            ],
            [
              14.650602409638566,
              45.97590361445782
            ],
            [
              15.132530120481931,
              46.457831325301186
            ],
            [
              15.734939759036138,
              46.81927710843371
            ],
            [
              16.09638554216866,
              46.93975903614455
            ],
            [
              16.819277108433766,
              47.180722891566234
            ],
            [
              17.421686746987973,
              47.421686746987916
            ],
            [
              19.349397590361434,
              48.26506024096386
            ],
            [
              22.722891566265048,
              49.8313253012048
            ],
            [
              24.1686746987952,
              50.79518072289153
            ],
            [
              24.530120481927725,
              51.156626506024054
            ],
            [
              25.253012048192772,
              51.39759036144574
            ],
            [
              26.09638554216866,
              52.0
            ],
            [
              27.06024096385545,
              52.361445783132524
            ],
            [
              27.542168674698814,
              52.60240963855421
            ],
            [
              28.02409638554218,
              52.84337349397589
            ],
            [
              28.86746987951807,
              52.84337349397589
            ],
            [
              29.710843373493958,
              52.84337349397589
            ],
            [
              30.674698795180745,
              52.84337349397589
            ],
            [
              32.24096385542168,
              52.84337349397589
            ],
            [
              34.04819277108436,
              53.20481927710841
            ],
            [
              35.493975903614455,
              54.0481927710843
            ],
            [
              36.69879518072287,
              55.01204819277109
            ],
            [
              37.06024096385545,
              55.13253012048193
            ],
            [
              37.662650602409656,
              55.493975903614455
            ],
            [
              38.385542168674704,
              56.2168674698795
            ],
            [
              39.71084337349396,
              57.180722891566234
            ],
            [
              41.15662650602411,
              58.14457831325302
            ],
            [
              42.12048192771084,
              58.74698795180723
            ],
            [
              42.481927710843365,
              58.626506024096386
            ],
            [
              42.84337349397589,
              58.14457831325302
            ],
            [
              43.20481927710841,
              57.90361445783128
            ],
            [
              43.80722891566268,
              58.14457831325302
            ],
            [
              44.530120481927725,
              58.14457831325302
            ],
            [
              45.614457831325296,
              57.421686746987916
            ],
            [
              46.09638554216866,
              55.97590361445782
            ],
            [
              46.2168674698795,
              54.77108433734941
            ],
            [
              46.2168674698795,
              53.325301204819255
            ],
            [
              46.2168674698795,
              52.60240963855421
            ],
            [
              46.57831325301203,
              52.361445783132524
            ],
            [
              47.06024096385545,
              52.0
            ],
            [
              47.662650602409656,
              51.638554216867476
            ],
            [
              48.14457831325302,
              51.638554216867476
            ],
            [
              48.626506024096386,
              51.277108433734895
            ],
            [
              48.86746987951807,
              50.19277108433732
            ],
            [
              49.349397590361434,
              50.07228915662648
            ],
            [
              49.8313253012048,
              50.07228915662648
            ],
            [
              50.79518072289159,
              50.79518072289153
            ],
            [
              51.03614457831327,
              50.433734939759006
            ],
            [
              51.03614457831327,
              49.8313253012048
            ],
            [
              51.75903614457832,
              50.313253012048165
            ],
            [
              52.12048192771084,
              50.67469879518069
            ],
            [
              52.481927710843365,
              50.313253012048165
            ],
            [
              52.481927710843365,
              49.8313253012048
            ],
            [
              53.08433734939757,
              48.626506024096386
            ],
            [
              53.68674698795178,
              47.180722891566234
            ],
            [
              54.1686746987952,
              46.57831325301203
            ],
            [
              54.530120481927725,
              46.457831325301186
            ],
            [
              55.25301204819277,
              46.69879518072287
            ],
            [
              55.373493975903614,
              45.73493975903614
            ],
            [
              55.73493975903614,
              44.289156626505985
            ],
            [
              56.2168674698795,
              43.325301204819255
            ],
            [
              56.578313253012084,
              42.96385542168673
            ],
            [
              57.06024096385545,
              42.96385542168673
            ],
            [
              57.7831325301205,
              43.92771084337346
            ],
            [
              58.385542168674704,
              44.53012048192767
            ],
            [
              58.626506024096386,
              43.80722891566262
            ],
            [
              58.626506024096386,
              43.08433734939757
            ],
            [
              58.98795180722891,
              42.72289156626505
            ],
            [
              59.469879518072275,
              42.72289156626505
            ],
            [
              59.59036144578312,
              42.361445783132524
            ],
            [
              59.59036144578312,
              41.518072289156635
            ],
            [
              60.07228915662654,
              40.55421686746985
            ],
            [
              60.674698795180745,
              39.469879518072275
            ],
            [
              61.638554216867476,
              38.385542168674704
            ],
            [
              62.0,
              38.02409638554218
            ],
            [
              62.0,
              37.301204819277075
            ],
            [
              62.0,
              35.73493975903614
            ],
            [
              62.0,
              33.92771084337346
            ],
            [
              62.0,
              32.96385542168673
            ],
            [
              61.87951807228916,
              32.481927710843365
            ],
            [
              61.39759036144579,
              32.0
            ],
            [
              60.79518072289159,
              31.036144578313213
            ],
            [
              59.831325301204856,
              29.228915662650593
            ],
            [
              59.831325301204856,
              28.265060240963862
            ],
            [
              59.831325301204856,
              27.78313253012044
            ],
            [
              59.349397590361434,
              28.746987951807228
            ],
            [
              59.10843373493975,
              29.10843373493975
            ],
            [
              58.26506024096386,
              29.10843373493975
            ],
            [
              57.90361445783134,
              27.421686746987916
            ],
            [
              57.542168674698814,
              24.530120481927725
            ],
            [
              57.30120481927713,
              23.445783132530096
            ],
            [
              56.69879518072287,
              23.325301204819255
            ],
            [
              56.578313253012084,
              22.240963855421683
            ],
            [
              56.09638554216866,
              21.518072289156635
            ],
            [
              55.73493975903614,
              21.036144578313213
            ],
            [
              55.13253012048193,
              20.91566265060237
            ],
            [
              54.77108433734941,
              20.313253012048165
            ],
            [
              53.445783132530096,
              18.144578313252964
            ],
            [
              52.481927710843365,
              15.614457831325296
            ],
            [
              52.361445783132524,
              15.01204819277109
            ],
            [
              51.518072289156635,
              14.650602409638509
            ],
            [
              51.03614457831327,
              14.650602409638509
            ],
            [
              50.433734939759006,
              14.891566265060192
            ],
            [
              50.19277108433732,
              15.373493975903614
            ],
            [
              49.8313253012048,
              15.97590361445782
            ],
            [
              49.10843373493975,
              15.493975903614455
            ],
            [
              47.42168674698797,
              10.915662650602371
            ],
            [
              46.57831325301203,
              9.108433734939752
            ],
            [
              45.97590361445782,
              7.5421686746987575
            ],
            [
              45.373493975903614,
              9.95180722891564
            ],
            [
              44.650602409638566,
              11.879518072289159
            ],
            [
              43.92771084337352,
              12.96385542168673
            ],
            [
              43.325301204819255,
              11.879518072289159
            ],
            [
              43.08433734939757,
              10.554216867469847
            ],
            [
              42.60240963855421,
              9.228915662650593
            ],
            [
              42.0,
              8.98795180722891
            ],
            [
              41.15662650602411,
              9.710843373493958
            ],
            [
              40.554216867469904,
              9.710843373493958
            ],
            [
              40.07228915662654,
              9.8313253012048
            ],
            [
              39.59036144578312,
              10.192771084337323
            ],
            [
              39.10843373493975,
              10.554216867469847
            ],
            [
              38.26506024096386,
              10.674698795180689
            ],
            [
              37.7831325301205,
              10.674698795180689
            ],
            [
              37.18072289156629,
              10.674698795180689
            ],
            [
              36.69879518072287,
              10.915662650602371
            ],
            [
              36.337349397590344,
              11.397590361445737
            ],
            [
              35.493975903614455,
              11.397590361445737
            ],
            [
              34.40963855421688,
              10.554216867469847
            ],
            [
              33.92771084337352,
              10.072289156626482
            ],
            [
              33.445783132530096,
              9.590361445783117
            ],
            [
              32.96385542168673,
              9.590361445783117
            ],
            [
              32.12048192771084,
              9.469879518072275
            ],
            [
              31.759036144578317,
              9.228915662650593
            ],
            [
              31.518072289156635,
              9.95180722891564
            ],
            [
              30.915662650602428,
              12.120481927710841
            ],
            [
              30.31325301204822,
              12.120481927710841
            ],
            [
              30.31325301204822,
              10.79518072289153
            ],
            [
              30.31325301204822,
              10.192771084337323
            ],
            [
              29.469879518072275,
              9.590361445783117
            ],
            [
              29.10843373493975,
              9.228915662650593
            ],
            [
              28.626506024096386,
              8.746987951807228
            ],
            [
              28.265060240963862,
              8.506024096385545
            ],
            [
              27.662650602409656,
              8.506024096385545
            ],
            [
              27.18072289156629,
              8.506024096385545
            ],
            [
              26.578313253012027,
              8.02409638554218
            ],
            [
              26.216867469879503,
              7.662650602409599
            ],
            [
              25.97590361445782,
              8.265060240963862
            ],
            [
              25.734939759036138,
              6.216867469879503
            ],
            [
              25.493975903614455,
              5.2530120481927725
            ],
            [
              25.01204819277109,
              5.614457831325296
            ],
            [
              24.530120481927725,
              5.855421686746979
            ],
            [
              24.04819277108436,
              6.337349397590344
            ],
            [
              23.325301204819255,
              6.337349397590344
            ],
            [
              22.0,
              6.337349397590344
            ],
            [
              20.433734939759063,
              6.096385542168662
            ],
            [
              18.385542168674704,
              6.698795180722868
            ],
            [
              17.421686746987973,
              8.746987951807228
            ],
            [
              16.93975903614455,
              10.433734939759006
            ],
            [
              16.819277108433766,
              10.79518072289153
            ],
            [
              16.09638554216866,
              9.469879518072275
            ],
            [
              15.734939759036138,
              9.349397590361434
            ],
            [
              15.253012048192772,
              9.349397590361434
            ],
            [
              14.771084337349407,
              8.98795180722891
            ],
            [
              14.289156626506042,
              8.626506024096386
            ],
            [
              13.325301204819255,
              8.02409638554218
            ],
            [
              12.96385542168673,
              7.301204819277075
            ],
            [
              12.481927710843365,
              7.5421686746987575
            ],
            [
              11.879518072289159,
              8.746987951807228
            ],
            [
              11.15662650602411,
              9.710843373493958
            ],
            [
              10.674698795180745,
              9.710843373493958
            ],
            [
              10.072289156626482,
              10.072289156626482
            ],
            [
              9.590361445783117,
              10.674698795180689
            ],
            [
              8.867469879518069,
              10.915662650602371
            ],
            [
              8.144578313253021,
              12.0
            ],
            [
              7.903614457831338,
              12.84337349397589
            ],
            [
              6.939759036144608,
              14.530120481927725
            ],
            [
              6.578313253012027,
              14.650602409638509
            ],
            [
              5.97590361445782,
              14.891566265060192
            ],
            [
              5.855421686746979,
              15.253012048192772
            ],
            [
              5.373493975903614,
              15.734939759036138
            ],
            [
              3.927710843373518,
              17.180722891566234
            ],
            [
              3.445783132530096,
              17.78313253012044
            ],
            [
              2.9638554216867306,
              18.86746987951807
            ],
            [
              2.8433734939758892,
              19.469879518072275
            ],
            [
              2.8433734939758892,
              20.433734939759006
            ],
            [
              2.8433734939758892,
              21.87951807228916
            ],
            [
              2.4819277108433653,
              23.566265060240937
            ],
            [
              2.361445783132524,
              25.13253012048193
            ],
            [
              2.0,
              25.734939759036138
            ],
            [
              2.4819277108433653,
              25.734939759036138
            ],
            [
              3.6867469879518353,
              26.337349397590344
            ],
            [
              3.927710843373518,
              28.144578313252964
            ],
            [
              4.048192771084359,
              29.228915662650593
            ],
            [
              4.168674698795201,
              29.590361445783117
            ],
            [
              4.5301204819277245,
              31.036144578313213
            ],
            [
              4.771084337349407,
              31.759036144578317
            ],
            [
              4.8915662650602485,
              32.12048192771084
            ],
            [
              4.8915662650602485,
              32.72289156626505
            ],
            [
              4.650602409638566,
              34.168674698795144
            ],
            [
              4.409638554216883,
              35.493975903614455
            ],
            [
              4.409638554216883,
              36.2168674698795
            ],
            [
              4.5301204819277245,
              36.69879518072287
            ],
            [
              4.8915662650602485,
              37.54216867469876
            ],
            [
              5.132530120481931,
              38.626506024096386
            ],
            [
              5.373493975903614,
              39.10843373493975
            ],
            [
              5.493975903614455,
              39.469879518072275
            ],
            [
              5.614457831325296,
              39.8313253012048
            ],
            [
              5.734939759036138,
              40.55421686746985
            ],
            [
              5.855421686746979,
              40.91566265060237
            ]
          ]
        ]
      }
    }
  ]
}