{
  "type": "FeatureCollection",
  "crs": {
    "type": "name",
    "properties": {
      "name": "urn:ogc:def:crs:OGC:1.3:CRS84"
    }
  },
  "features": [
    {
      "type": "Feature",
      "properties": {
        "timestamp": "2026-07-13T07:01:44.363798",
        "country_name": "North Macedonia",
        "author": "",
        "author_id": "79ca7434-e05f-4e90-b49b-02aa9acdc826",
        "validated": false,
        "ranking": [
          [
            "North Macedonia",
            0.2459522783756256
          ],
          [
            "Cape Verde",
            0.11116237193346024
          ],
          [
            "Rwanda",
            0.09623375535011292
          ],
          [
            "Romania",
            0.0370856374502182
          ],
          [
            "Lithuania",
            0.02249728888273239
          ],
          [
            "Niger",
            0.016692612320184708
          ],
          [
            "Suriname",
            0.014111470431089401
          ],
          [
            "Cambodia",
            0.01277842465788126
          ],
          [
            "Sao Tome and Principe",
            0.01261887326836586
          ],
          [
            "Egypt",
            0.012429894879460335
          ],
          [
            "South Sudan",
            0.012410777620971203
          ],
          [
            "Yemen",
            0.011389465071260929
          ],
          [
            "Azerbaijan",
            0.010638385079801083
          ],
          [
            "Sudan",
            0.010265178047120571
          ],
          [
            "Spain",
            0.01015573088079691
          ],
          [
            "Bulgaria",
            0.009251157753169537
          ],
          [
            "Ecuador",
            0.008908884599804878
          ],
          [
            "Lesotho",
            0.008823896758258343
          ],
          [
            "Heard and McDonald Islands",
            0.008613090962171555
          ],
          [
            "Antigua & Barbuda",
            0.008449551649391651
          ],
          [
            "Iceland",
            0.008246170356869698
          ],
          [
            "Iran",
            0.00807804986834526
          ],
          [
            "Gabon",
            0.007818493992090225
          ],
          [
            "Hungary",
            0.007739773951470852
          ],
          [
            "Saudi Arabia",
            0.0074951741844415665
          ],
          [
            "Poland",
            0.007472314406186342
          ],
          [
            "Mauritania",
            0.007183094974607229
          ],
          [
            "Reunion",
            0.007133642211556435
          ],
          [
            "Botswana",
            0.006774277426302433
          ],
          [
            "Burundi",
            0.006662475876510143
          ],
          [
            "Belize",
            0.006553093437105417
          ],
          [
            "Switzerland",
            0.006304194685071707
          ],
          [
            "Guadeloupe",
            0.006154664792120457
          ],
          [
            "Czech Republic",
            0.005810704547911882
          ],
          [
            "United States Virgin Islands",
            0.005797563586384058
          ],
          [
            "Nicaragua",
            0.005535440985113382
          ],
          [
            "Belarus",
            0.005521848332136869
          ],
          [
            "Bosnia & Herzegovina",
            0.005469303112477064
          ],
          [
            "Bhutan",
            0.005369361490011215
          ],
          [
            "Côte d'Ivoire",
            0.005365265998989344
          ],
          [
            "Angola",
            0.0053539094515144825
          ],
          [
            "Burkina Faso",
            0.0051536280661821365
          ],
          [
            "Nigeria",
            0.005092741455882788
          ],
          [
            "Comoros",
            0.0049505457282066345
          ],
          [
            "South Africa",
            0.00481919152662158
          ],
          [
            "Zambia",
            0.004608241841197014
          ],
          [
            "Libya",
            0.004510963801294565
          ],
          [
            "Jordan",
            0.004502600058913231
          ],
          [
            "Sierra Leone",
            0.004449217580258846
          ],
          [
            "Mali",
            0.004309558775275946
          ],
          [
            "Uruguay",
            0.003994564525783062
          ],
          [
            "Brazil",
            0.0039752814918756485
          ],
          [
            "Namibia",
            0.0038357581943273544
          ],
          [
            "Latvia",
            0.0037975762970745564
          ],
          [
            "Zimbabwe",
            0.003751429496333003
          ],
          [
            "Uganda",
            0.0034284042194485664
          ],
          [
            "Syria",
            0.003402963513508439
          ],
          [
            "Slovenia",
            0.0030898877885192633
          ],
          [
            "Ukraine",
            0.0030247538816183805
          ],
          [
            "Venezuela",
            0.002863091416656971
          ],
          [
            "Chile",
            0.0026794462464749813
          ],
          [
            "Eswatini",
            0.002664844272658229
          ],
          [
            "Vanuatu",
            0.0025052905548363924
          ],
          [
            "Ethiopia",
            0.0024615901056677103
          ],
          [
            "Kazakhstan",
            0.002455643843859434
          ],
          [
            "Solomon Islands",
            0.0022968491539359093
          ],
          [
            "Australia",
            0.0022184893023222685
          ],
          [
            "New Zealand",
            0.0022152038291096687
          ],
          [
            "France",
            0.0021898720879107714
          ],
          [
            "Turkey",
            0.0021806855220347643
          ],
          [
            "Estonia",
            0.0020862931851297617
          ],
          [
            "Benin",
            0.0019859648309648037
          ],
          [
            "Brunei",
            0.0019367028726264834
          ],
          [
            "Belgium",
            0.0018422114662826061
          ],
          [
            "Algeria",
            0.001832598471082747
          ],
          [
            "Kenya",
            0.0017718470189720392
          ],
          [
            "Tanzania",
            0.0017457583453506231
          ],
          [
            "Faroe Islands",
            0.0017193749081343412
          ],
          [
            "Dominica",
            0.0017122176941484213
          ],
          [
            "Vietnam",
            0.001676642568781972
          ],
          [
            "Martinique",
            0.0016685202717781067
          ],
          [
            "Turkmenistan",
            0.0016679922118782997
          ],
          [
            "Togo",
            0.0016244627768173814
          ],
          [
            "Fiji",
            0.001509315799921751
          ],
          [
            "Peru",
            0.0013831517426297069
          ],
          [
            "Bahrain",
            0.0013305903412401676
          ],
          [
            "Moldova",
            0.0013243919238448143
          ],
          [
            "Qatar",
            0.0011936369119212031
          ],
          [
            "Guam",
            0.0011258464073762298
          ],
          [
            "Afghanistan",
            0.0011203261092305183
          ],
          [
            "Greenland",
            0.001114548067562282
          ],
          [
            "United Arab Emirates",
            0.0010787704959511757
          ],
          [
            "Israel",
            0.001069944817572832
          ],
          [
            "French Guiana",
            0.0010649464093148708
          ],
          [
            "Guatemala",
            0.001041639014147222
          ],
          [
            "Slovakia",
            0.000994503847323358
          ],
          [
            "Central African Republic",
            0.000992111163213849
          ],
          [
            "Mozambique",
            0.0009587996173650026
          ],
          [
            "Colombia",
            0.0009114600252360106
          ],
          [
            "Somalia",
            0.0008885240531526506
          ],
          [
            "Oman",
            0.0008489537285640836
          ],
          [
            "Saint Lucia",
            0.0008311927667818964
          ],
          [
            "Bolivia",
            0.0008192339446395636
          ],
          [
            "North Korea",
            0.0008190620574168861
          ],
          [
            "Croatia",
            0.0008154628449119627
          ],
          [
            "India",
            0.0007749032229185104
          ],
          [
            "Guinea",
            0.0007672350620850921
          ],
          [
            "Malawi",
            0.0007632867200300097
          ],
          [
            "Myanmar",
            0.0007469817064702511
          ],
          [
            "China",
            0.0007455227896571159
          ],
          [
            "Honduras",
            0.0007174669881351292
          ],
          [
            "Georgia",
            0.000712619919795543
          ],
          [
            "Equatorial Guinea",
            0.0006959674647077918
          ],
          [
            "Netherlands Antilles",
            0.000695533468388021
          ],
          [
            "Japan",
            0.0006919436273165047
          ],
          [
            "Norway",
            0.0006838287808932364
          ],
          [
            "Madeira Islands",
            0.0006640144274570048
          ],
          [
            "Trinidad and Tobago",
            0.000655006617307663
          ],
          [
            "Papua New Guinea",
            0.0006452810484915972
          ],
          [
            "Congo",
            0.0006083062035031617
          ],
          [
            "Sweden",
            0.0006070139352232218
          ],
          [
            "Hong Kong",
            0.0005902769626118243
          ],
          [
            "Mongolia",
            0.000567518756724894
          ],
          [
            "Cameroon",
            0.0005574098904617131
          ],
          [
            "Puerto Rico",
            0.0005365489050745964
          ],
          [
            "Argentina",
            0.0005332413129508495
          ],
          [
            "Thailand",
            0.0005187620408833027
          ],
          [
            "Western Sahara",
            0.0004885286907665431
          ],
          [
            "Isle of Man",
            0.00047992015606723726
          ],
          [
            "Barbados",
            0.00047852075658738613
          ],
          [
            "Morocco",
            0.0004465504898689687
          ],
          [
            "Paraguay",
            0.0004309581418056041
          ],
          [
            "El Salvador",
            0.00042572696111164987
          ],
          [
            "Timor-Leste",
            0.00042184468475170434
          ],
          [
            "Uzbekistan",
            0.00042127538472414017
          ],
          [
            "Bahamas",
            0.0004198579990770668
          ],
          [
            "Palau",
            0.000417845556512475
          ],
          [
            "Costa Rica",
            0.0004176654911134392
          ],
          [
            "South Georgia Islands",
            0.000403222453314811
          ],
          [
            "Sri Lanka",
            0.0003971255209762603
          ],
          [
            "Svalbard",
            0.0003897676942870021
          ],
          [
            "Serbia",
            0.0003893307875841856
          ],
          [
            "Malaysia",
            0.00038708726060576737
          ],
          [
            "Pakistan",
            0.0003808709152508527
          ],
          [
            "Montenegro",
            0.00038052312447689474
          ],
          [
            "Bangladesh",
            0.0003787187160924077
          ],
          [
            "Mayotte",
            0.000375330273527652
          ],
          [
            "South Korea",
            0.0003646008553914726
          ],
          [
            "Indonesia",
            0.0003523635969031602
          ],
          [
            "Ghana",
            0.00035051623126491904
          ],
          [
            "New Caledonia",
            0.0003311583132017404
          ],
          [
            "Albania",
            0.00032419487251900136
          ],
          [
            "Tajikistan",
            0.00031678943196311593
          ],
          [
            "Russia",
            0.0003151009150315076
          ],
          [
            "Kyrgyzstan",
            0.0003134363214485347
          ],
          [
            "West Bank",
            0.0003059076552744955
          ],
          [
            "Taiwan",
            0.0003047888458240777
          ],
          [
            "Finland",
            0.00030331642483361065
          ],
          [
            "Iraq",
            0.0002966084284707904
          ],
          [
            "United States of America",
            0.0002949059708043933
          ],
          [
            "Portugal",
            0.00029484520200639963
          ],
          [
            "Guyana",
            0.00029200493008829653
          ],
          [
            "Ireland",
            0.00029015890322625637
          ],
          [
            "Cyprus",
            0.00028306787135079503
          ],
          [
            "Senegal",
            0.0002817868662532419
          ],
          [
            "Germany",
            0.00027356293867342174
          ],
          [
            "Dominican Republic",
            0.00027314008912071586
          ],
          [
            "Tunisia",
            0.0002680150209926069
          ],
          [
            "Liberia",
            0.0002644770429469645
          ],
          [
            "Cuba",
            0.00025165965780615807
          ],
          [
            "Guinea-Bissau",
            0.00024276814656332135
          ],
          [
            "Panama",
            0.0002424188278382644
          ],
          [
            "Madagascar",
            0.00024070301151368767
          ],
          [
            "Canada",
            0.00023637630511075258
          ],
          [
            "Mexico",
            0.00023283460177481174
          ],
          [
            "United Kingdom",
            0.0002295135782333091
          ],
          [
            "Austria",
            0.00022759678540751338
          ],
          [
            "Chad",
            0.00022487570822704583
          ],
          [
            "Jamaica",
            0.00021603039931505919
          ],
          [
            "DR Congo",
            0.00017257643048651516
          ],
          [
            "Armenia",
            0.00015733506006654352
          ],
          [
            "Falkland Islands",
            0.00015453374362550676
          ],
          [
            "Djibouti",
            0.00014580953575205058
          ],
          [
            "Samoa",
            0.00014038984954822809
          ],
          [
            "Italy",
            0.0001363622723147273
          ],
          [
            "Turks and Caicos Islands",
            0.0001322727621300146
          ],
          [
            "Philippines",
            0.00012064632028341293
          ],
          [
            "Luxembourg",
            0.00011783582158386707
          ],
          [
            "Haiti",
            0.00010015047155320644
          ],
          [
            "Nepal",
            9.031029912875965e-05
          ],
          [
            "Kuwait",
            8.550896745873615e-05
          ],
          [
            "Netherlands",
            7.956034824019298e-05
          ],
          [
            "Eritrea",
            6.977028533583507e-05
          ],
          [
            "Lebanon",
            6.844286690466106e-05
          ],
          [
            "Laos",
            6.125555955804884e-05
          ],
          [
            "Gambia",
            3.073198240599595e-05
          ],
          [
            "Greece",
            2.932192182925064e-05
          ],
          [
            "Denmark",
            1.3904666957387235e-05
          ],
          [
            "Kiribati",
            1.504978627053788e-06
          ]
        ]
      },
      "geometry": {
        "type": "MultiLineString",
        "coordinates": [
          [
            [
              4.315827120755248,
              48.82915975523778
            ],
            [
              3.6842715405343682,
              43.78037380296107
            ],
            [
              3.894707849533308,
              39.15248102311757
            ],
            [
              3.894707849533308,
              34.31394638992175
            ],
            [
              3.894707849533308,
              28.42375434983238
            ],
            [
              3.052715960313492,
              22.744029450394954
            ],
            [
              2.631596689091552,
              18.536639308713227
            ],
            [
              1.9999999999999964,
              14.539695753248111
            ],
            [
              6.21053497028856,
              12.225749363326358
            ],
            [
              10.842065885187033,
              11.594584317376928
            ],
            [
              15.47367901782686,
              11.384137731160322
            ],
            [
              20.10529215046669,
              11.173896689297095
            ],
            [
              25.157942336587098,
              11.384137731160322
            ],
            [
              29.578913615874598,
              11.804845913675479
            ],
            [
              34.42116860186675,
              12.435990405189585
            ],
            [
              38.42097950106164,
              13.067134896703678
            ],
            [
              42.42095483573923,
              13.908530707298667
            ],
            [
              46.421012388158175,
              14.750132062247054
            ],
            [
              50.63150624957607,
              15.801789469140594
            ],
            [
              55.26307827334521,
              17.0640784521688
            ],
            [
              59.68425509698611,
              18.326182445278953
            ],
            [
              62.0,
              22.53357258696068
            ],
            [
              61.36844441977911,
              27.79259958110061
            ],
            [
              60.10537436820803,
              32.420687628079826
            ],
            [
              58.841975445671544,
              36.628088046979215
            ],
            [
              57.57890539410047,
              41.0457397849595
            ],
            [
              56.526189433786975,
              45.25312992664122
            ],
            [
              55.05264196434627,
              49.46031452396956
            ],
            [
              52.526419643462766,
              52.826103310702905
            ],
            [
              48.105242819821875,
              52.40541568262307
            ],
            [
              43.68410710505166,
              51.564019872028084
            ],
            [
              39.68433731472746,
              50.722613784215426
            ],
            [
              34.42116860186675,
              49.25007348210634
            ],
            [
              29.368436198004986,
              47.98776394464279
            ],
            [
              24.736864174235834,
              47.356619453128694
            ],
            [
              20.10529215046669,
              46.515223642533705
            ],
            [
              15.684156435696472,
              45.25312992664122
            ],
            [
              11.684345536501592,
              44.20127725261196
            ]
          ]
        ]
      }
    }
  ]
}