{
  "type": "FeatureCollection",
  "crs": {
    "type": "name",
    "properties": {
      "name": "urn:ogc:def:crs:OGC:1.3:CRS84"
    }
  },
  "features": [
    {
      "type": "Feature",
      "properties": {
        "timestamp": "2026-04-24T18:23:52.784932",
        "country_name": "North Macedonia",
        "author": "",
        "author_id": "6499c9d8-bc43-43c6-aa5c-e962ff19f301",
        "validated": false,
        "ranking": [
          [
            "Bhutan",
            0.12894712388515472
          ],
          [
            "Czech Republic",
            0.10429279506206512
          ],
          [
            "Bulgaria",
            0.045737504959106445
          ],
          [
            "Iceland",
            0.04570994898676872
          ],
          [
            "North Macedonia",
            0.0446278341114521
          ],
          [
            "Romania",
            0.04294666275382042
          ],
          [
            "Switzerland",
            0.04023369401693344
          ],
          [
            "Hungary",
            0.03811164200305939
          ],
          [
            "Ukraine",
            0.03568081930279732
          ],
          [
            "Latvia",
            0.02758730947971344
          ],
          [
            "Turkey",
            0.02737922966480255
          ],
          [
            "Rwanda",
            0.022739842534065247
          ],
          [
            "Yemen",
            0.020649688318371773
          ],
          [
            "Kazakhstan",
            0.02018057368695736
          ],
          [
            "Burkina Faso",
            0.017519565299153328
          ],
          [
            "Madeira Islands",
            0.01587887480854988
          ],
          [
            "Slovakia",
            0.01390407420694828
          ],
          [
            "Honduras",
            0.012930997647345066
          ],
          [
            "El Salvador",
            0.012104897759854794
          ],
          [
            "Lithuania",
            0.01121553685516119
          ],
          [
            "Azerbaijan",
            0.010940088890492916
          ],
          [
            "Estonia",
            0.01054653711616993
          ],
          [
            "Gabon",
            0.009643469005823135
          ],
          [
            "South Sudan",
            0.009363829158246517
          ],
          [
            "Turkmenistan",
            0.008750752545893192
          ],
          [
            "Mongolia",
            0.008371538482606411
          ],
          [
            "Heard and McDonald Islands",
            0.00819702260196209
          ],
          [
            "China",
            0.007776802871376276
          ],
          [
            "Slovenia",
            0.007616051007062197
          ],
          [
            "Niger",
            0.007424315437674522
          ],
          [
            "Cambodia",
            0.0068838102743029594
          ],
          [
            "Australia",
            0.006300321780145168
          ],
          [
            "Saudi Arabia",
            0.00616149278357625
          ],
          [
            "Ecuador",
            0.006112436298280954
          ],
          [
            "Austria",
            0.004717526026070118
          ],
          [
            "Cape Verde",
            0.004246407188475132
          ],
          [
            "Puerto Rico",
            0.004136717412620783
          ],
          [
            "Iran",
            0.004039318300783634
          ],
          [
            "Georgia",
            0.004030890762805939
          ],
          [
            "Libya",
            0.003588384483009577
          ],
          [
            "Central African Republic",
            0.0035711373202502728
          ],
          [
            "Nigeria",
            0.003533991752192378
          ],
          [
            "Mali",
            0.003447948256507516
          ],
          [
            "Sudan",
            0.003439422696828842
          ],
          [
            "Lesotho",
            0.00339360604993999
          ],
          [
            "Poland",
            0.0028906220104545355
          ],
          [
            "Papua New Guinea",
            0.00270265294238925
          ],
          [
            "Guadeloupe",
            0.0026651201769709587
          ],
          [
            "Guinea-Bissau",
            0.0025388833601027727
          ],
          [
            "Ethiopia",
            0.0025158843491226435
          ],
          [
            "Syria",
            0.002451891778036952
          ],
          [
            "Tanzania",
            0.002358177211135626
          ],
          [
            "Montenegro",
            0.0023483072873204947
          ],
          [
            "Belgium",
            0.0023361691273748875
          ],
          [
            "Kyrgyzstan",
            0.0022467016242444515
          ],
          [
            "Dominican Republic",
            0.002104438841342926
          ],
          [
            "Guinea",
            0.0020757638849318027
          ],
          [
            "Algeria",
            0.0020451226737350225
          ],
          [
            "Suriname",
            0.0020341326016932726
          ],
          [
            "Venezuela",
            0.001946491887792945
          ],
          [
            "Sierra Leone",
            0.0019259219989180565
          ],
          [
            "Comoros",
            0.0019204600248485804
          ],
          [
            "Reunion",
            0.00191744405310601
          ],
          [
            "Nicaragua",
            0.001825347077101469
          ],
          [
            "Burundi",
            0.0017378791235387325
          ],
          [
            "Zambia",
            0.0017340548802167177
          ],
          [
            "Senegal",
            0.001681351219303906
          ],
          [
            "Russia",
            0.0016264976002275944
          ],
          [
            "Brunei",
            0.001562365680001676
          ],
          [
            "Fiji",
            0.0015008223708719015
          ],
          [
            "Bangladesh",
            0.0014018798246979713
          ],
          [
            "Jamaica",
            0.0013522566296160221
          ],
          [
            "India",
            0.001340088783763349
          ],
          [
            "Zimbabwe",
            0.0013310506474226713
          ],
          [
            "Solomon Islands",
            0.001274377922527492
          ],
          [
            "Kenya",
            0.0012656188337132335
          ],
          [
            "Brazil",
            0.0012167900567874312
          ],
          [
            "Mexico",
            0.0012167738750576973
          ],
          [
            "Tajikistan",
            0.0012046435149386525
          ],
          [
            "Uzbekistan",
            0.001184972352348268
          ],
          [
            "Uruguay",
            0.001155063509941101
          ],
          [
            "New Caledonia",
            0.001153938239440322
          ],
          [
            "Côte d'Ivoire",
            0.0011536807287484407
          ],
          [
            "Bosnia & Herzegovina",
            0.0011385752586647868
          ],
          [
            "Hong Kong",
            0.0011140366550534964
          ],
          [
            "Malaysia",
            0.0011005181586369872
          ],
          [
            "Panama",
            0.0010981801897287369
          ],
          [
            "Botswana",
            0.0010850339895114303
          ],
          [
            "Croatia",
            0.001026337849907577
          ],
          [
            "Falkland Islands",
            0.0009913721587508917
          ],
          [
            "France",
            0.0009593032882548869
          ],
          [
            "Spain",
            0.0009589301189407706
          ],
          [
            "Cyprus",
            0.0009456942207179964
          ],
          [
            "United States of America",
            0.0008996003307402134
          ],
          [
            "Belize",
            0.0008921195985749364
          ],
          [
            "South Africa",
            0.0008834768668748438
          ],
          [
            "Colombia",
            0.0008673032280057669
          ],
          [
            "Iraq",
            0.0008115408127196133
          ],
          [
            "Haiti",
            0.0008053697529248893
          ],
          [
            "Eswatini",
            0.0008045253343880177
          ],
          [
            "Indonesia",
            0.000792611506767571
          ],
          [
            "Afghanistan",
            0.0007576955249533057
          ],
          [
            "United Arab Emirates",
            0.0007519496721215546
          ],
          [
            "Nepal",
            0.0007365565979853272
          ],
          [
            "Jordan",
            0.0007267296896316111
          ],
          [
            "Sao Tome and Principe",
            0.000671159359626472
          ],
          [
            "Belarus",
            0.0006679577054455876
          ],
          [
            "Timor-Leste",
            0.0006642213556915522
          ],
          [
            "Netherlands Antilles",
            0.0006635413155891001
          ],
          [
            "Cuba",
            0.000656816060654819
          ],
          [
            "Egypt",
            0.00065281440038234
          ],
          [
            "Angola",
            0.0006470747175626457
          ],
          [
            "Faroe Islands",
            0.0006389192421920598
          ],
          [
            "Peru",
            0.0005709641263820231
          ],
          [
            "New Zealand",
            0.0005663069896399975
          ],
          [
            "Mozambique",
            0.0005655837594531476
          ],
          [
            "Moldova",
            0.0005653906264342368
          ],
          [
            "Namibia",
            0.0005645361379720271
          ],
          [
            "Vanuatu",
            0.0005547479959204793
          ],
          [
            "Thailand",
            0.0004837620072066784
          ],
          [
            "Somalia",
            0.00048312207218259573
          ],
          [
            "Uganda",
            0.00044786350918002427
          ],
          [
            "Bahamas",
            0.00044462832738645375
          ],
          [
            "Svalbard",
            0.0004267629992682487
          ],
          [
            "Antigua & Barbuda",
            0.00041075385524891317
          ],
          [
            "Benin",
            0.00039573299000039697
          ],
          [
            "Bolivia",
            0.00038401654455810785
          ],
          [
            "South Georgia Islands",
            0.0003839887212961912
          ],
          [
            "Vietnam",
            0.00038200756534934044
          ],
          [
            "Kuwait",
            0.0003754937497433275
          ],
          [
            "Liberia",
            0.0003692114260047674
          ],
          [
            "Togo",
            0.0003542385238688439
          ],
          [
            "Japan",
            0.00035394946462474763
          ],
          [
            "Costa Rica",
            0.00033676830935291946
          ],
          [
            "Greenland",
            0.00033131521195173264
          ],
          [
            "Martinique",
            0.00032059356453828514
          ],
          [
            "Israel",
            0.00031929556280374527
          ],
          [
            "Turks and Caicos Islands",
            0.00031371109071187675
          ],
          [
            "Serbia",
            0.0003124880022369325
          ],
          [
            "South Korea",
            0.0003123879141639918
          ],
          [
            "Equatorial Guinea",
            0.0003036673879250884
          ],
          [
            "Chile",
            0.00029983260901644826
          ],
          [
            "Armenia",
            0.00029680048464797437
          ],
          [
            "Paraguay",
            0.00029496237402781844
          ],
          [
            "North Korea",
            0.0002872691547963768
          ],
          [
            "Samoa",
            0.000284190580714494
          ],
          [
            "Congo",
            0.00026447218260727823
          ],
          [
            "Oman",
            0.0002626834320835769
          ],
          [
            "Myanmar",
            0.0002621399180497974
          ],
          [
            "Mayotte",
            0.0002578450657892972
          ],
          [
            "Sweden",
            0.0002497652021702379
          ],
          [
            "DR Congo",
            0.00024760040105320513
          ],
          [
            "Germany",
            0.00023993951617740095
          ],
          [
            "Malawi",
            0.00023865832190494984
          ],
          [
            "French Guiana",
            0.0002347123809158802
          ],
          [
            "Italy",
            0.00023311469703912735
          ],
          [
            "Dominica",
            0.00023235428670886904
          ],
          [
            "Qatar",
            0.00023002340458333492
          ],
          [
            "Palau",
            0.0002282459900015965
          ],
          [
            "Guyana",
            0.00021552677208092064
          ],
          [
            "Guam",
            0.00020904518896713853
          ],
          [
            "Pakistan",
            0.00020839866192545742
          ],
          [
            "Eritrea",
            0.00019792868988588452
          ],
          [
            "Mauritania",
            0.00019414037524256855
          ],
          [
            "Argentina",
            0.00019386952044442296
          ],
          [
            "Bahrain",
            0.00018820824334397912
          ],
          [
            "Guatemala",
            0.0001738537976052612
          ],
          [
            "Morocco",
            0.00017132534412667155
          ],
          [
            "Albania",
            0.00016462909115944058
          ],
          [
            "United States Virgin Islands",
            0.00014630690566264093
          ],
          [
            "Taiwan",
            0.00014159524289425462
          ],
          [
            "Cameroon",
            0.0001407929667038843
          ],
          [
            "Portugal",
            0.0001396669540554285
          ],
          [
            "Barbados",
            0.00013910146662965417
          ],
          [
            "Canada",
            0.00013596164353657514
          ],
          [
            "Sri Lanka",
            0.00012232913286425173
          ],
          [
            "Tunisia",
            0.00012109642557334155
          ],
          [
            "Ireland",
            0.00012057807907694951
          ],
          [
            "Trinidad and Tobago",
            0.00011283919593552127
          ],
          [
            "Saint Lucia",
            0.00011178247223142534
          ],
          [
            "Norway",
            0.00011105864541605115
          ],
          [
            "Finland",
            0.00010256523091811687
          ],
          [
            "United Kingdom",
            9.687168494565412e-05
          ],
          [
            "Netherlands",
            9.084817429538816e-05
          ],
          [
            "Luxembourg",
            8.976373646873981e-05
          ],
          [
            "Western Sahara",
            8.921838161768392e-05
          ],
          [
            "Philippines",
            8.833129686536267e-05
          ],
          [
            "Madagascar",
            8.202253229683265e-05
          ],
          [
            "Denmark",
            7.831587572582066e-05
          ],
          [
            "Isle of Man",
            7.732009544270113e-05
          ],
          [
            "Laos",
            7.546922279288992e-05
          ],
          [
            "West Bank",
            6.936509453225881e-05
          ],
          [
            "Greece",
            6.816060340497643e-05
          ],
          [
            "Gambia",
            6.665739783784375e-05
          ],
          [
            "Djibouti",
            5.7060024118982255e-05
          ],
          [
            "Chad",
            5.6880733609432355e-05
          ],
          [
            "Ghana",
            5.63574030820746e-05
          ],
          [
            "Lebanon",
            2.9121627449057996e-05
          ],
          [
            "Kiribati",
            2.1650068447343074e-05
          ]
        ]
      },
      "geometry": {
        "type": "MultiLineString",
        "coordinates": [
          [
            [
              11.913043478260875,
              45.36956521739131
            ],
            [
              12.956521739130437,
              45.89130434782609
            ],
            [
              13.739130434782595,
              46.413043478260875
            ],
            [
              14.65217391304347,
              46.67391304347825
            ],
            [
              16.086956521739125,
              46.934782608695656
            ],
            [
              17.13043478260869,
              47.19565217391303
            ],
            [
              18.17391304347825,
              47.32608695652175
            ],
            [
              19.086956521739125,
              47.586956521739125
            ],
            [
              20.391304347826093,
              47.586956521739125
            ],
            [
              21.695652173913032,
              47.586956521739125
            ],
            [
              23.0,
              47.586956521739125
            ],
            [
              23.913043478260875,
              47.586956521739125
            ],
            [
              24.82608695652175,
              47.065217391304344
            ],
            [
              25.347826086956502,
              46.413043478260875
            ],
            [
              26.0,
              45.63043478260869
            ],
            [
              26.913043478260875,
              45.239130434782595
            ],
            [
              27.956521739130437,
              45.239130434782595
            ],
            [
              29.0,
              45.36956521739131
            ],
            [
              30.043478260869563,
              45.63043478260869
            ],
            [
              30.956521739130437,
              45.5
            ],
            [
              31.086956521739125,
              44.586956521739125
            ],
            [
              31.47826086956522,
              43.54347826086956
            ],
            [
              32.391304347826065,
              43.02173913043478
            ],
            [
              33.17391304347825,
              42.76086956521738
            ],
            [
              33.95652173913044,
              42.89130434782609
            ],
            [
              34.3478260869565,
              43.80434782608694
            ],
            [
              34.739130434782595,
              44.84782608695653
            ],
            [
              35.26086956521738,
              45.76086956521738
            ],
            [
              35.913043478260875,
              46.54347826086956
            ],
            [
              36.82608695652175,
              47.065217391304344
            ],
            [
              37.739130434782595,
              47.586956521739125
            ],
            [
              38.78260869565216,
              48.10869565217391
            ],
            [
              39.69565217391303,
              48.36956521739131
            ],
            [
              40.47826086956522,
              48.5
            ],
            [
              41.26086956521738,
              48.63043478260869
            ],
            [
              42.30434782608694,
              48.76086956521738
            ],
            [
              43.3478260869565,
              48.76086956521738
            ],
            [
              44.26086956521738,
              48.89130434782609
            ],
            [
              45.17391304347825,
              48.89130434782609
            ],
            [
              46.47826086956522,
              48.89130434782609
            ],
            [
              47.26086956521738,
              48.76086956521738
            ],
            [
              48.434782608695656,
              48.76086956521738
            ],
            [
              50.0,
              47.586956521739125
            ],
            [
              51.30434782608694,
              46.80434782608694
            ],
            [
              52.086956521739125,
              46.413043478260875
            ],
            [
              53.0,
              45.89130434782609
            ],
            [
              54.04347826086956,
              44.97826086956522
            ],
            [
              54.95652173913044,
              44.586956521739125
            ],
            [
              56.0,
              44.19565217391303
            ],
            [
              56.65217391304347,
              43.67391304347825
            ],
            [
              57.565217391304344,
              43.67391304347825
            ],
            [
              58.47826086956519,
              43.54347826086956
            ],
            [
              59.782608695652186,
              43.15217391304347
            ],
            [
              60.95652173913044,
              42.76086956521738
            ],
            [
              61.739130434782595,
              42.36956521739131
            ],
            [
              61.86956521739131,
              41.45652173913044
            ],
            [
              62.0,
              40.54347826086956
            ],
            [
              62.0,
              39.63043478260869
            ],
            [
              61.86956521739131,
              38.19565217391303
            ],
            [
              61.739130434782595,
              37.282608695652186
            ],
            [
              61.47826086956519,
              36.10869565217391
            ],
            [
              61.217391304347814,
              35.19565217391303
            ],
            [
              61.086956521739125,
              34.282608695652186
            ],
            [
              60.69565217391303,
              33.23913043478262
            ],
            [
              60.30434782608694,
              32.065217391304344
            ],
            [
              60.17391304347825,
              31.02173913043478
            ],
            [
              60.69565217391303,
              28.67391304347825
            ],
            [
              61.086956521739125,
              27.36956521739131
            ],
            [
              61.086956521739125,
              26.32608695652175
            ],
            [
              60.95652173913044,
              25.282608695652186
            ],
            [
              60.30434782608694,
              24.239130434782624
            ],
            [
              59.782608695652186,
              23.456521739130437
            ],
            [
              59.52173913043478,
              22.67391304347825
            ],
            [
              58.739130434782595,
              21.891304347826093
            ],
            [
              58.086956521739125,
              21.36956521739131
            ],
            [
              57.17391304347825,
              21.108695652173907
            ],
            [
              56.13043478260869,
              20.847826086956502
            ],
            [
              55.217391304347814,
              20.586956521739125
            ],
            [
              54.434782608695656,
              20.195652173913032
            ],
            [
              53.52173913043478,
              19.67391304347825
            ],
            [
              52.3478260869565,
              19.15217391304347
            ],
            [
              50.78260869565216,
              18.5
            ],
            [
              49.739130434782595,
              18.36956521739131
            ],
            [
              48.95652173913044,
              18.239130434782624
            ],
            [
              48.04347826086956,
              18.108695652173907
            ],
            [
              47.0,
              18.108695652173907
            ],
            [
              46.086956521739125,
              18.239130434782624
            ],
            [
              44.65217391304347,
              18.36956521739131
            ],
            [
              43.47826086956522,
              18.36956521739131
            ],
            [
              42.565217391304344,
              18.5
            ],
            [
              41.26086956521738,
              18.36956521739131
            ],
            [
              40.47826086956522,
              18.239130434782624
            ],
            [
              39.434782608695656,
              18.239130434782624
            ],
            [
              38.391304347826065,
              18.239130434782624
            ],
            [
              37.3478260869565,
              18.108695652173907
            ],
            [
              36.565217391304344,
              17.97826086956522
            ],
            [
              34.86956521739131,
              17.847826086956502
            ],
            [
              34.086956521739125,
              17.717391304347814
            ],
            [
              33.30434782608694,
              17.32608695652175
            ],
            [
              32.913043478260875,
              16.413043478260875
            ],
            [
              32.65217391304347,
              15.630434782608688
            ],
            [
              31.86956521739131,
              15.108695652173907
            ],
            [
              30.956521739130437,
              15.108695652173907
            ],
            [
              29.65217391304347,
              15.369565217391312
            ],
            [
              28.86956521739131,
              15.5
            ],
            [
              28.086956521739125,
              15.630434782608688
            ],
            [
              27.30434782608694,
              15.760869565217376
            ],
            [
              26.260869565217376,
              16.02173913043478
            ],
            [
              25.086956521739125,
              16.413043478260875
            ],
            [
              23.782608695652158,
              16.80434782608694
            ],
            [
              22.347826086956502,
              17.195652173913032
            ],
            [
              20.782608695652158,
              17.456521739130437
            ],
            [
              18.695652173913032,
              17.847826086956502
            ],
            [
              17.13043478260869,
              18.239130434782624
            ],
            [
              15.826086956521749,
              18.36956521739131
            ],
            [
              14.65217391304347,
              18.760869565217376
            ],
            [
              13.086956521739125,
              19.15217391304347
            ],
            [
              11.782608695652158,
              19.413043478260875
            ],
            [
              10.869565217391312,
              19.80434782608694
            ],
            [
              9.826086956521749,
              20.195652173913032
            ],
            [
              8.65217391304347,
              20.586956521739125
            ],
            [
              7.347826086956502,
              21.108695652173907
            ],
            [
              5.91304347826086,
              22.282608695652186
            ],
            [
              5.0,
              23.586956521739125
            ],
            [
              4.0869565217391255,
              25.413043478260875
            ],
            [
              3.4347826086956417,
              27.108695652173907
            ],
            [
              2.6521739130434696,
              28.67391304347825
            ],
            [
              2.2608695652173907,
              30.108695652173907
            ],
            [
              2.1304347826086882,
              31.67391304347825
            ],
            [
              2.0,
              33.10869565217391
            ],
            [
              2.1304347826086882,
              34.15217391304347
            ],
            [
              2.6521739130434696,
              36.10869565217391
            ],
            [
              3.0434782608695627,
              37.413043478260875
            ],
            [
              3.6956521739130324,
              38.717391304347814
            ],
            [
              4.217391304347814,
              39.63043478260869
            ],
            [
              4.739130434782609,
              40.282608695652186
            ],
            [
              5.391304347826079,
              41.065217391304344
            ],
            [
              6.304347826086953,
              41.717391304347814
            ],
            [
              7.739130434782595,
              42.5
            ],
            [
              8.913043478260875,
              43.15217391304347
            ],
            [
              10.086956521739125,
              43.54347826086956
            ],
            [
              11.260869565217376,
              43.934782608695656
            ],
            [
              12.173913043478251,
              44.32608695652175
            ],
            [
              13.086956521739125,
              44.717391304347814
            ],
            [
              13.869565217391312,
              44.84782608695653
            ],
            [
              14.913043478260875,
              45.36956521739131
            ],
            [
              15.695652173913032,
              45.89130434782609
            ]
          ]
        ]
      }
    }
  ]
}