{
  "type": "FeatureCollection",
  "crs": {
    "type": "name",
    "properties": {
      "name": "urn:ogc:def:crs:OGC:1.3:CRS84"
    }
  },
  "features": [
    {
      "type": "Feature",
      "properties": {
        "timestamp": "2026-07-19T17:47:19.533565",
        "country_name": "Norway",
        "author": "",
        "author_id": "8c0af53e-b2bd-408d-8f87-14b14b3cdb05",
        "validated": false,
        "ranking": [
          [
            "Sweden",
            0.24788309633731842
          ],
          [
            "Israel",
            0.12400190532207489
          ],
          [
            "New Zealand",
            0.07143323868513107
          ],
          [
            "Argentina",
            0.058857858180999756
          ],
          [
            "Portugal",
            0.05680004134774208
          ],
          [
            "Chile",
            0.056060194969177246
          ],
          [
            "Malawi",
            0.03802810236811638
          ],
          [
            "Madagascar",
            0.03254971653223038
          ],
          [
            "Myanmar",
            0.021435324102640152
          ],
          [
            "Saint Lucia",
            0.018756316974759102
          ],
          [
            "Mozambique",
            0.018488824367523193
          ],
          [
            "Togo",
            0.017007071524858475
          ],
          [
            "Norway",
            0.013769922778010368
          ],
          [
            "Thailand",
            0.01363108679652214
          ],
          [
            "United Kingdom",
            0.013418310321867466
          ],
          [
            "Taiwan",
            0.013384544290602207
          ],
          [
            "Palau",
            0.013267219997942448
          ],
          [
            "Antigua & Barbuda",
            0.01152916718274355
          ],
          [
            "Oman",
            0.01134874764829874
          ],
          [
            "Belize",
            0.009972288273274899
          ],
          [
            "West Bank",
            0.009492547251284122
          ],
          [
            "Benin",
            0.00727997999638319
          ],
          [
            "Qatar",
            0.006471206899732351
          ],
          [
            "Albania",
            0.006182051729410887
          ],
          [
            "Guam",
            0.006140158046036959
          ],
          [
            "Bahrain",
            0.005934803746640682
          ],
          [
            "Tunisia",
            0.004454591311514378
          ],
          [
            "Cameroon",
            0.004320994019508362
          ],
          [
            "Finland",
            0.004164377227425575
          ],
          [
            "Isle of Man",
            0.004104184452444315
          ],
          [
            "Somalia",
            0.0040739462710917
          ],
          [
            "Sao Tome and Principe",
            0.0039182500913739204
          ],
          [
            "Japan",
            0.003808502573519945
          ],
          [
            "Fiji",
            0.003437130246311426
          ],
          [
            "Faroe Islands",
            0.0033430326730012894
          ],
          [
            "Philippines",
            0.003184093162417412
          ],
          [
            "Spain",
            0.003180630272254348
          ],
          [
            "Vietnam",
            0.00270863133482635
          ],
          [
            "Congo",
            0.0026182597503066063
          ],
          [
            "Vanuatu",
            0.0025596036575734615
          ],
          [
            "Lebanon",
            0.002163920784369111
          ],
          [
            "Mayotte",
            0.002129864413291216
          ],
          [
            "Namibia",
            0.002103810664266348
          ],
          [
            "South Korea",
            0.0017668550135567784
          ],
          [
            "Mali",
            0.0017236757557839155
          ],
          [
            "Timor-Leste",
            0.0015385877341032028
          ],
          [
            "Colombia",
            0.0014104475267231464
          ],
          [
            "Dominica",
            0.001393146114423871
          ],
          [
            "North Korea",
            0.0013071654830127954
          ],
          [
            "Niger",
            0.001298983464948833
          ],
          [
            "Canada",
            0.0012093248078599572
          ],
          [
            "Trinidad and Tobago",
            0.0011499556712806225
          ],
          [
            "Mauritania",
            0.0010632775956764817
          ],
          [
            "United States Virgin Islands",
            0.0010215829825028777
          ],
          [
            "Brunei",
            0.0009465901530347764
          ],
          [
            "Ireland",
            0.0008907024166546762
          ],
          [
            "Central African Republic",
            0.0008677176083438098
          ],
          [
            "Moldova",
            0.0008151188376359642
          ],
          [
            "Morocco",
            0.0007967045530676842
          ],
          [
            "Greenland",
            0.0007309869979508221
          ],
          [
            "Svalbard",
            0.0006909805815666914
          ],
          [
            "Solomon Islands",
            0.0006741827237419784
          ],
          [
            "Kazakhstan",
            0.0006389404297806323
          ],
          [
            "Guadeloupe",
            0.0006346626905724406
          ],
          [
            "Azerbaijan",
            0.0005575925461016595
          ],
          [
            "Rwanda",
            0.0005567211774177849
          ],
          [
            "Latvia",
            0.0005368567653931677
          ],
          [
            "Yemen",
            0.0005164211033843458
          ],
          [
            "Turkmenistan",
            0.0005104523152112961
          ],
          [
            "Guyana",
            0.0005009938613511622
          ],
          [
            "Burkina Faso",
            0.000489800120703876
          ],
          [
            "Libya",
            0.0004330095835030079
          ],
          [
            "Western Sahara",
            0.00038025667890906334
          ],
          [
            "Cape Verde",
            0.00037338724359869957
          ],
          [
            "Equatorial Guinea",
            0.0003663196403067559
          ],
          [
            "Martinique",
            0.0003268085129093379
          ],
          [
            "Chad",
            0.00032372577697969973
          ],
          [
            "Netherlands",
            0.00031749039771966636
          ],
          [
            "Hong Kong",
            0.00030741130467504263
          ],
          [
            "Heard and McDonald Islands",
            0.0002959984994959086
          ],
          [
            "Lithuania",
            0.00027989852242171764
          ],
          [
            "Peru",
            0.00026838938356377184
          ],
          [
            "Pakistan",
            0.0002656462893355638
          ],
          [
            "Slovakia",
            0.00026498036459088326
          ],
          [
            "Serbia",
            0.0002614894474390894
          ],
          [
            "Papua New Guinea",
            0.0002529227058403194
          ],
          [
            "Switzerland",
            0.00024887709878385067
          ],
          [
            "Sri Lanka",
            0.0002403923135716468
          ],
          [
            "Saudi Arabia",
            0.0002303744258824736
          ],
          [
            "Jordan",
            0.00022846265346743166
          ],
          [
            "Ecuador",
            0.000219895679038018
          ],
          [
            "Croatia",
            0.00021505392214749008
          ],
          [
            "Indonesia",
            0.00021304728579707444
          ],
          [
            "Paraguay",
            0.00021127244690433145
          ],
          [
            "South Sudan",
            0.00020699371816590428
          ],
          [
            "Romania",
            0.00019293383229523897
          ],
          [
            "Ukraine",
            0.00018739313236437738
          ],
          [
            "Turkey",
            0.0001712470839265734
          ],
          [
            "Burundi",
            0.00016957706247922033
          ],
          [
            "Czech Republic",
            0.00016634314670227468
          ],
          [
            "Reunion",
            0.0001643681898713112
          ],
          [
            "Estonia",
            0.00016226588923018426
          ],
          [
            "Austria",
            0.00013798144937027246
          ],
          [
            "Netherlands Antilles",
            0.0001376649597659707
          ],
          [
            "French Guiana",
            0.00013397033035289496
          ],
          [
            "United Arab Emirates",
            0.00012942173634655774
          ],
          [
            "North Macedonia",
            0.00012766117288265377
          ],
          [
            "Georgia",
            0.00012497534044086933
          ],
          [
            "Kyrgyzstan",
            0.00012456577678676695
          ],
          [
            "Puerto Rico",
            0.00012446081382222474
          ],
          [
            "India",
            0.00012410500494297594
          ],
          [
            "Brazil",
            0.00012211500143166631
          ],
          [
            "Ghana",
            0.00012018669804092497
          ],
          [
            "Iran",
            0.00011993983207503334
          ],
          [
            "Australia",
            0.00011933012137888
          ],
          [
            "Kenya",
            0.00011817226186394691
          ],
          [
            "Zimbabwe",
            0.00011769202683353797
          ],
          [
            "Belgium",
            0.0001160226238425821
          ],
          [
            "Italy",
            0.00011326364619890228
          ],
          [
            "Honduras",
            0.00011288018868071958
          ],
          [
            "Nicaragua",
            0.00011250854731770232
          ],
          [
            "Slovenia",
            0.00010785781341837719
          ],
          [
            "Senegal",
            0.00010368390940129757
          ],
          [
            "Guinea-Bissau",
            0.00010288724297424778
          ],
          [
            "Uzbekistan",
            0.0001016509486362338
          ],
          [
            "Egypt",
            9.885873441817239e-05
          ],
          [
            "South Africa",
            9.855975804384798e-05
          ],
          [
            "Zambia",
            9.499357111053541e-05
          ],
          [
            "Suriname",
            9.296151256421581e-05
          ],
          [
            "Comoros",
            9.185903036268428e-05
          ],
          [
            "Bosnia & Herzegovina",
            9.153022983809933e-05
          ],
          [
            "Poland",
            8.860456000547856e-05
          ],
          [
            "Belarus",
            8.827377314446494e-05
          ],
          [
            "Hungary",
            8.624042675364763e-05
          ],
          [
            "Syria",
            8.34965831018053e-05
          ],
          [
            "Afghanistan",
            8.330092532560229e-05
          ],
          [
            "Venezuela",
            8.273200364783406e-05
          ],
          [
            "Iceland",
            8.170049113687128e-05
          ],
          [
            "Cyprus",
            7.833297422621399e-05
          ],
          [
            "Panama",
            7.714707317063585e-05
          ],
          [
            "Algeria",
            7.672972424188629e-05
          ],
          [
            "Bangladesh",
            7.451538840541616e-05
          ],
          [
            "Bhutan",
            7.079129863996059e-05
          ],
          [
            "Tajikistan",
            7.008863758528605e-05
          ],
          [
            "Mongolia",
            6.877024134155363e-05
          ],
          [
            "New Caledonia",
            6.824573938501999e-05
          ],
          [
            "Russia",
            6.697082426398993e-05
          ],
          [
            "Botswana",
            6.669534923275933e-05
          ],
          [
            "Angola",
            6.410947389667854e-05
          ],
          [
            "Falkland Islands",
            5.992049409542233e-05
          ],
          [
            "Guatemala",
            5.894483911106363e-05
          ],
          [
            "Haiti",
            5.2721839892910793e-05
          ],
          [
            "Eswatini",
            5.1512328354874626e-05
          ],
          [
            "Gabon",
            5.149110802449286e-05
          ],
          [
            "Montenegro",
            5.018409137846902e-05
          ],
          [
            "Iraq",
            4.907003676635213e-05
          ],
          [
            "Lesotho",
            4.811616236111149e-05
          ],
          [
            "El Salvador",
            4.8085246817208827e-05
          ],
          [
            "Laos",
            4.676976095652208e-05
          ],
          [
            "Bahamas",
            4.604422429110855e-05
          ],
          [
            "Tanzania",
            4.5845208660466596e-05
          ],
          [
            "Cuba",
            4.508996062213555e-05
          ],
          [
            "Malaysia",
            4.480166171560995e-05
          ],
          [
            "Barbados",
            4.415193689055741e-05
          ],
          [
            "Guinea",
            4.385699867270887e-05
          ],
          [
            "Cambodia",
            4.320853258832358e-05
          ],
          [
            "France",
            4.248043114785105e-05
          ],
          [
            "Jamaica",
            4.1185543523170054e-05
          ],
          [
            "Armenia",
            4.0447837818646803e-05
          ],
          [
            "Nigeria",
            4.027754766866565e-05
          ],
          [
            "Dominican Republic",
            3.7916001019766554e-05
          ],
          [
            "Costa Rica",
            3.634327003965154e-05
          ],
          [
            "Gambia",
            3.6252851714380085e-05
          ],
          [
            "Uganda",
            3.595461021177471e-05
          ],
          [
            "Liberia",
            3.568842294043861e-05
          ],
          [
            "Mexico",
            3.522597762639634e-05
          ],
          [
            "Greece",
            3.5178913094569e-05
          ],
          [
            "Luxembourg",
            3.51061207766179e-05
          ],
          [
            "China",
            3.3455136872362345e-05
          ],
          [
            "South Georgia Islands",
            3.251333691878244e-05
          ],
          [
            "DR Congo",
            3.1631097954232246e-05
          ],
          [
            "Ethiopia",
            2.8359287171042524e-05
          ],
          [
            "Eritrea",
            2.6010644432972185e-05
          ],
          [
            "Madeira Islands",
            2.520792986615561e-05
          ],
          [
            "Uruguay",
            2.4579832825111225e-05
          ],
          [
            "Germany",
            2.4201111955335364e-05
          ],
          [
            "Bolivia",
            2.3243592295330018e-05
          ],
          [
            "Bulgaria",
            2.0019771909574047e-05
          ],
          [
            "Kuwait",
            1.9107335901935585e-05
          ],
          [
            "Sudan",
            1.8909453501692042e-05
          ],
          [
            "Samoa",
            1.8786686268867925e-05
          ],
          [
            "Sierra Leone",
            1.870348751253914e-05
          ],
          [
            "Djibouti",
            1.8309609004063532e-05
          ],
          [
            "United States of America",
            1.7960193872568198e-05
          ],
          [
            "Côte d'Ivoire",
            1.79129492607899e-05
          ],
          [
            "Turks and Caicos Islands",
            1.5573044947814196e-05
          ],
          [
            "Nepal",
            1.2827470527554397e-05
          ],
          [
            "Denmark",
            8.649555638839956e-06
          ],
          [
            "Kiribati",
            1.3385654256126145e-06
          ]
        ]
      },
      "geometry": {
        "type": "MultiLineString",
        "coordinates": [
          [
            [
              35.85714285714286,
              57.5
            ],
            [
              34.571428571428584,
              55.571428571428555
            ],
            [
              33.285714285714306,
              53.85714285714283
            ],
            [
              30.928571428571445,
              51.071428571428555
            ],
            [
              30.285714285714306,
              50.214285714285694
            ],
            [
              29.428571428571445,
              49.35714285714283
            ],
            [
              29.0,
              48.714285714285694
            ],
            [
              28.142857142857167,
              47.85714285714283
            ],
            [
              27.5,
              47.214285714285694
            ],
            [
              26.428571428571445,
              46.14285714285714
            ],
            [
              26.0,
              45.5
            ],
            [
              25.571428571428584,
              44.85714285714283
            ],
            [
              24.714285714285722,
              43.35714285714283
            ],
            [
              24.5,
              42.28571428571428
            ],
            [
              24.285714285714306,
              41.64285714285714
            ],
            [
              24.071428571428584,
              40.571428571428555
            ],
            [
              24.071428571428584,
              39.28571428571428
            ],
            [
              23.85714285714286,
              38.64285714285714
            ],
            [
              23.85714285714286,
              37.78571428571428
            ],
            [
              23.85714285714286,
              36.714285714285694
            ],
            [
              23.85714285714286,
              35.85714285714283
            ],
            [
              23.642857142857167,
              35.214285714285694
            ],
            [
              23.642857142857167,
              34.35714285714283
            ],
            [
              23.642857142857167,
              33.5
            ],
            [
              23.642857142857167,
              32.64285714285714
            ],
            [
              23.642857142857167,
              31.785714285714278
            ],
            [
              23.0,
              31.14285714285714
            ],
            [
              22.142857142857167,
              30.928571428571416
            ],
            [
              21.5,
              30.071428571428555
            ],
            [
              20.85714285714286,
              29.0
            ],
            [
              20.428571428571445,
              28.357142857142833
            ],
            [
              20.428571428571445,
              27.285714285714278
            ],
            [
              20.214285714285722,
              26.214285714285722
            ],
            [
              20.214285714285722,
              25.357142857142833
            ],
            [
              20.0,
              24.5
            ],
            [
              19.785714285714306,
              23.64285714285714
            ],
            [
              19.571428571428584,
              22.785714285714278
            ],
            [
              19.35714285714286,
              21.928571428571416
            ],
            [
              18.928571428571445,
              21.071428571428555
            ],
            [
              18.285714285714306,
              20.214285714285722
            ],
            [
              17.642857142857167,
              18.928571428571416
            ],
            [
              17.214285714285722,
              17.857142857142833
            ],
            [
              17.0,
              17.214285714285722
            ],
            [
              16.785714285714306,
              16.571428571428555
            ],
            [
              16.571428571428584,
              15.928571428571416
            ],
            [
              16.142857142857167,
              15.071428571428555
            ],
            [
              15.928571428571445,
              14.214285714285722
            ],
            [
              15.714285714285722,
              13.142857142857139
            ],
            [
              15.714285714285722,
              12.071428571428555
            ],
            [
              15.714285714285722,
              11.0
            ],
            [
              15.714285714285722,
              9.928571428571416
            ],
            [
              16.142857142857167,
              9.071428571428555
            ],
            [
              16.571428571428584,
              8.428571428571416
            ],
            [
              16.785714285714306,
              7.785714285714278
            ],
            [
              17.428571428571445,
              7.142857142857139
            ],
            [
              17.85714285714286,
              6.5
            ],
            [
              18.5,
              6.071428571428555
            ],
            [
              19.35714285714286,
              5.428571428571416
            ],
            [
              20.0,
              5.214285714285722
            ],
            [
              20.85714285714286,
              5.214285714285722
            ],
            [
              21.714285714285722,
              5.0
            ],
            [
              23.0,
              4.142857142857139
            ],
            [
              23.642857142857167,
              3.7142857142857224
            ],
            [
              24.714285714285722,
              3.2857142857142776
            ],
            [
              26.0,
              2.642857142857139
            ],
            [
              27.928571428571445,
              2.4285714285714164
            ],
            [
              28.571428571428584,
              2.2142857142857224
            ],
            [
              29.428571428571445,
              2.2142857142857224
            ],
            [
              30.714285714285722,
              2.2142857142857224
            ],
            [
              31.571428571428584,
              2.2142857142857224
            ],
            [
              32.85714285714286,
              2.2142857142857224
            ],
            [
              33.71428571428572,
              2.2142857142857224
            ],
            [
              34.35714285714286,
              2.0
            ],
            [
              35.428571428571445,
              2.0
            ],
            [
              36.285714285714306,
              2.2142857142857224
            ],
            [
              37.571428571428584,
              2.857142857142833
            ],
            [
              38.428571428571445,
              3.5
            ],
            [
              39.285714285714306,
              3.9285714285714164
            ],
            [
              39.928571428571445,
              4.357142857142833
            ],
            [
              40.35714285714286,
              5.214285714285722
            ],
            [
              41.0,
              6.928571428571416
            ],
            [
              41.0,
              7.785714285714278
            ],
            [
              40.571428571428584,
              8.642857142857139
            ],
            [
              39.71428571428572,
              8.642857142857139
            ],
            [
              39.071428571428584,
              8.857142857142833
            ],
            [
              38.0,
              10.357142857142833
            ],
            [
              37.785714285714306,
              11.0
            ],
            [
              37.571428571428584,
              12.5
            ],
            [
              37.35714285714286,
              13.142857142857139
            ],
            [
              36.5,
              14.0
            ],
            [
              35.85714285714286,
              14.428571428571416
            ],
            [
              34.571428571428584,
              14.428571428571416
            ],
            [
              33.928571428571445,
              14.642857142857139
            ],
            [
              33.285714285714306,
              15.071428571428555
            ],
            [
              32.428571428571445,
              16.357142857142833
            ],
            [
              32.0,
              17.0
            ],
            [
              31.571428571428584,
              17.64285714285714
            ],
            [
              30.928571428571445,
              18.5
            ],
            [
              30.714285714285722,
              19.357142857142833
            ],
            [
              30.928571428571445,
              21.071428571428555
            ],
            [
              31.142857142857167,
              21.928571428571416
            ],
            [
              31.35714285714286,
              22.785714285714278
            ],
            [
              31.35714285714286,
              23.64285714285714
            ],
            [
              31.35714285714286,
              24.5
            ],
            [
              31.35714285714286,
              25.785714285714278
            ],
            [
              31.35714285714286,
              26.857142857142833
            ],
            [
              31.35714285714286,
              27.928571428571416
            ],
            [
              30.928571428571445,
              28.571428571428555
            ],
            [
              31.35714285714286,
              29.64285714285714
            ],
            [
              32.0,
              30.928571428571416
            ],
            [
              32.64285714285717,
              32.0
            ],
            [
              33.5,
              33.071428571428555
            ],
            [
              34.14285714285717,
              33.714285714285694
            ],
            [
              34.571428571428584,
              34.571428571428555
            ],
            [
              35.0,
              35.428571428571416
            ],
            [
              35.21428571428572,
              36.5
            ],
            [
              35.428571428571445,
              37.14285714285714
            ],
            [
              35.64285714285717,
              38.214285714285694
            ],
            [
              35.85714285714286,
              39.071428571428555
            ],
            [
              35.85714285714286,
              39.928571428571416
            ],
            [
              35.64285714285717,
              40.78571428571428
            ],
            [
              35.428571428571445,
              41.64285714285714
            ],
            [
              35.428571428571445,
              42.714285714285694
            ],
            [
              35.428571428571445,
              43.78571428571428
            ],
            [
              35.428571428571445,
              44.85714285714283
            ],
            [
              35.64285714285717,
              45.5
            ],
            [
              35.85714285714286,
              46.571428571428555
            ],
            [
              36.285714285714306,
              47.428571428571416
            ],
            [
              36.285714285714306,
              48.5
            ],
            [
              36.285714285714306,
              49.35714285714283
            ],
            [
              36.285714285714306,
              50.214285714285694
            ],
            [
              37.14285714285717,
              50.64285714285714
            ],
            [
              38.0,
              50.64285714285714
            ],
            [
              39.071428571428584,
              50.64285714285714
            ],
            [
              39.928571428571445,
              50.64285714285714
            ],
            [
              40.785714285714306,
              51.071428571428555
            ],
            [
              41.428571428571445,
              51.5
            ],
            [
              42.285714285714306,
              51.928571428571416
            ],
            [
              43.14285714285717,
              51.928571428571416
            ],
            [
              43.785714285714306,
              52.35714285714283
            ],
            [
              44.428571428571445,
              53.214285714285694
            ],
            [
              44.85714285714286,
              53.85714285714283
            ],
            [
              45.285714285714306,
              54.5
            ],
            [
              46.14285714285717,
              55.35714285714283
            ],
            [
              46.785714285714306,
              56.214285714285694
            ],
            [
              47.85714285714286,
              57.071428571428555
            ],
            [
              48.285714285714306,
              57.928571428571416
            ],
            [
              48.285714285714306,
              59.0
            ],
            [
              47.64285714285717,
              59.214285714285694
            ],
            [
              46.571428571428584,
              59.214285714285694
            ],
            [
              45.928571428571445,
              59.428571428571416
            ],
            [
              45.71428571428572,
              60.071428571428555
            ],
            [
              45.71428571428572,
              60.928571428571416
            ],
            [
              45.71428571428572,
              61.78571428571428
            ],
            [
              45.071428571428584,
              62.0
            ],
            [
              44.428571428571445,
              61.78571428571428
            ],
            [
              43.785714285714306,
              61.571428571428555
            ],
            [
              42.71428571428572,
              60.928571428571416
            ],
            [
              41.85714285714286,
              60.5
            ],
            [
              41.21428571428572,
              60.071428571428555
            ],
            [
              40.571428571428584,
              59.64285714285714
            ],
            [
              39.928571428571445,
              59.214285714285694
            ],
            [
              38.428571428571445,
              58.35714285714283
            ],
            [
              38.0,
              57.714285714285694
            ],
            [
              37.35714285714286,
              57.28571428571428
            ],
            [
              36.71428571428572,
              56.85714285714283
            ],
            [
              35.85714285714286,
              55.78571428571428
            ],
            [
              35.0,
              54.928571428571416
            ],
            [
              34.14285714285717,
              54.071428571428555
            ],
            [
              33.71428571428572,
              53.214285714285694
            ]
          ]
        ]
      }
    }
  ]
}