{
  "type": "FeatureCollection",
  "crs": {
    "type": "name",
    "properties": {
      "name": "urn:ogc:def:crs:OGC:1.3:CRS84"
    }
  },
  "features": [
    {
      "type": "Feature",
      "properties": {
        "timestamp": "2026-07-19T16:19:14.694532",
        "country_name": "Norway",
        "author": "",
        "author_id": "c7ddb658-f127-4afc-a635-c36d83bc391c",
        "validated": false,
        "ranking": [
          [
            "Fiji",
            0.43942779302597046
          ],
          [
            "Guam",
            0.1795695573091507
          ],
          [
            "Norway",
            0.12665843963623047
          ],
          [
            "Western Sahara",
            0.030980458483099937
          ],
          [
            "North Korea",
            0.030363399535417557
          ],
          [
            "Somalia",
            0.013934029266238213
          ],
          [
            "New Zealand",
            0.010760690085589886
          ],
          [
            "Brunei",
            0.00923857931047678
          ],
          [
            "Rwanda",
            0.008765599690377712
          ],
          [
            "Mozambique",
            0.0071520088240504265
          ],
          [
            "Jordan",
            0.006867663469165564
          ],
          [
            "Argentina",
            0.006260489579290152
          ],
          [
            "Japan",
            0.0062402826733887196
          ],
          [
            "Niger",
            0.0058776759542524815
          ],
          [
            "Sweden",
            0.0057292236015200615
          ],
          [
            "Trinidad and Tobago",
            0.0052117337472736835
          ],
          [
            "Spain",
            0.004945309367030859
          ],
          [
            "Canada",
            0.004907283931970596
          ],
          [
            "Taiwan",
            0.0040750764310359955
          ],
          [
            "Mauritania",
            0.003297498682513833
          ],
          [
            "Israel",
            0.003246735082939267
          ],
          [
            "Svalbard",
            0.0031758768018335104
          ],
          [
            "Afghanistan",
            0.002864861860871315
          ],
          [
            "Burkina Faso",
            0.002788145560771227
          ],
          [
            "Belize",
            0.0022914763540029526
          ],
          [
            "Slovakia",
            0.002082075923681259
          ],
          [
            "Switzerland",
            0.002010598313063383
          ],
          [
            "Central African Republic",
            0.0019681816920638084
          ],
          [
            "Palau",
            0.0019319441635161638
          ],
          [
            "Namibia",
            0.00191771041136235
          ],
          [
            "Thailand",
            0.0018190243281424046
          ],
          [
            "Cyprus",
            0.0018135716672986746
          ],
          [
            "South Africa",
            0.0017552445642650127
          ],
          [
            "Timor-Leste",
            0.0016861582407727838
          ],
          [
            "Kyrgyzstan",
            0.0016745784087106586
          ],
          [
            "Guadeloupe",
            0.0015881769359111786
          ],
          [
            "Falkland Islands",
            0.0015458249254152179
          ],
          [
            "Madagascar",
            0.0015271687880158424
          ],
          [
            "Chile",
            0.0013637356460094452
          ],
          [
            "Benin",
            0.001337580499239266
          ],
          [
            "Hong Kong",
            0.0013015238801017404
          ],
          [
            "Morocco",
            0.0012847130419686437
          ],
          [
            "Kazakhstan",
            0.0012072123354300857
          ],
          [
            "Estonia",
            0.001174470642581582
          ],
          [
            "Sao Tome and Principe",
            0.0011743248905986547
          ],
          [
            "Congo",
            0.0011464918497949839
          ],
          [
            "Lebanon",
            0.0011457857908681035
          ],
          [
            "Myanmar",
            0.0011054680217057467
          ],
          [
            "Azerbaijan",
            0.0010677473619580269
          ],
          [
            "Malawi",
            0.0010602062102407217
          ],
          [
            "Syria",
            0.0010353759862482548
          ],
          [
            "Yemen",
            0.0010053503792732954
          ],
          [
            "Portugal",
            0.000986823346465826
          ],
          [
            "Zambia",
            0.0009748782613314688
          ],
          [
            "Slovenia",
            0.0009346138685941696
          ],
          [
            "South Korea",
            0.0009208631818182766
          ],
          [
            "Saint Lucia",
            0.0008913029450923204
          ],
          [
            "Solomon Islands",
            0.0008811844745650887
          ],
          [
            "United Kingdom",
            0.0008389001595787704
          ],
          [
            "Guinea-Bissau",
            0.0008344812085852027
          ],
          [
            "Cameroon",
            0.000791662372648716
          ],
          [
            "Greenland",
            0.0007782835746183991
          ],
          [
            "Honduras",
            0.0007530358270741999
          ],
          [
            "Ireland",
            0.0007159976521506906
          ],
          [
            "Indonesia",
            0.0006808291072957218
          ],
          [
            "Panama",
            0.0006753131747245789
          ],
          [
            "Latvia",
            0.0006517280708067119
          ],
          [
            "Russia",
            0.0006490609375759959
          ],
          [
            "Tunisia",
            0.0006470695370808244
          ],
          [
            "Papua New Guinea",
            0.0006222284864634275
          ],
          [
            "Qatar",
            0.0006217729533091187
          ],
          [
            "Turkey",
            0.0005918148090131581
          ],
          [
            "Mali",
            0.0005856165080331266
          ],
          [
            "Isle of Man",
            0.0005559256533160806
          ],
          [
            "South Sudan",
            0.0005534077645279467
          ],
          [
            "Faroe Islands",
            0.0005224879714660347
          ],
          [
            "Iceland",
            0.0005004670238122344
          ],
          [
            "Belarus",
            0.00047179809189401567
          ],
          [
            "Netherlands",
            0.0004675652598962188
          ],
          [
            "Croatia",
            0.0004652505158446729
          ],
          [
            "China",
            0.00045578120625577867
          ],
          [
            "Pakistan",
            0.0004498109337873757
          ],
          [
            "India",
            0.0004304636677261442
          ],
          [
            "Togo",
            0.0004182371776551008
          ],
          [
            "Hungary",
            0.0004000342742074281
          ],
          [
            "Puerto Rico",
            0.00038246455369517207
          ],
          [
            "Oman",
            0.00035086210118606687
          ],
          [
            "Antigua & Barbuda",
            0.0003465331101324409
          ],
          [
            "Nicaragua",
            0.00033608160447329283
          ],
          [
            "Mayotte",
            0.00031906107324175537
          ],
          [
            "Angola",
            0.0003135637962259352
          ],
          [
            "West Bank",
            0.0003060302697122097
          ],
          [
            "Austria",
            0.00029787051607854664
          ],
          [
            "Mongolia",
            0.00029416728648357093
          ],
          [
            "Bhutan",
            0.00028341906727291644
          ],
          [
            "Gambia",
            0.0002798773639369756
          ],
          [
            "Turkmenistan",
            0.0002732178254518658
          ],
          [
            "Albania",
            0.00024847459280863404
          ],
          [
            "United Arab Emirates",
            0.00024845325970090926
          ],
          [
            "Cuba",
            0.0002464539429638535
          ],
          [
            "Ecuador",
            0.0002457555092405528
          ],
          [
            "Heard and McDonald Islands",
            0.00024548423243686557
          ],
          [
            "Uganda",
            0.0002445579448249191
          ],
          [
            "Vietnam",
            0.0002280265762237832
          ],
          [
            "Peru",
            0.00022344774333760142
          ],
          [
            "Czech Republic",
            0.00022341364820022136
          ],
          [
            "Jamaica",
            0.00021174014545977116
          ],
          [
            "Bangladesh",
            0.00020887890423182398
          ],
          [
            "Vanuatu",
            0.00020636784029193223
          ],
          [
            "Bahrain",
            0.00019614386837929487
          ],
          [
            "Egypt",
            0.00018617839668877423
          ],
          [
            "North Macedonia",
            0.00018468375492375344
          ],
          [
            "Ukraine",
            0.00018391005869489163
          ],
          [
            "Romania",
            0.00018329966405872256
          ],
          [
            "Lithuania",
            0.00018247119442094117
          ],
          [
            "Libya",
            0.00017821807705331594
          ],
          [
            "Colombia",
            0.00016876020526979119
          ],
          [
            "Finland",
            0.00016850707470439374
          ],
          [
            "Serbia",
            0.00015948634245432913
          ],
          [
            "Guyana",
            0.00015843789151404053
          ],
          [
            "Philippines",
            0.000155451096361503
          ],
          [
            "Netherlands Antilles",
            0.0001494753232691437
          ],
          [
            "Uzbekistan",
            0.00014134369848761708
          ],
          [
            "Georgia",
            0.0001411109697073698
          ],
          [
            "Algeria",
            0.000134615387651138
          ],
          [
            "Djibouti",
            0.00013291341019794345
          ],
          [
            "Dominica",
            0.00013240684347692877
          ],
          [
            "Comoros",
            0.00013038066390436143
          ],
          [
            "Tajikistan",
            0.00012741118553094566
          ],
          [
            "Moldova",
            0.0001190065304399468
          ],
          [
            "Burundi",
            0.00011712018022080883
          ],
          [
            "Kenya",
            0.00011516680388012901
          ],
          [
            "Montenegro",
            0.00011390324652893469
          ],
          [
            "Brazil",
            0.00011371786968084052
          ],
          [
            "New Caledonia",
            0.00010826185462065041
          ],
          [
            "Chad",
            0.00010750463115982711
          ],
          [
            "Nigeria",
            0.00010650558397173882
          ],
          [
            "Cape Verde",
            0.00010536881018197164
          ],
          [
            "Gabon",
            0.00010512630979064852
          ],
          [
            "Saudi Arabia",
            0.00010373027180321515
          ],
          [
            "Bulgaria",
            0.0001021896896418184
          ],
          [
            "Greece",
            9.858576959231868e-05
          ],
          [
            "Venezuela",
            9.565344225848094e-05
          ],
          [
            "Guatemala",
            8.992959192255512e-05
          ],
          [
            "Lesotho",
            8.968327165348455e-05
          ],
          [
            "Ghana",
            8.64468383952044e-05
          ],
          [
            "Iran",
            8.437652286374941e-05
          ],
          [
            "DR Congo",
            8.36737672216259e-05
          ],
          [
            "El Salvador",
            8.09494813438505e-05
          ],
          [
            "Sri Lanka",
            7.88548422860913e-05
          ],
          [
            "Zimbabwe",
            7.798181468388066e-05
          ],
          [
            "Martinique",
            7.701671711402014e-05
          ],
          [
            "Equatorial Guinea",
            7.612148328917101e-05
          ],
          [
            "Malaysia",
            7.196103251772001e-05
          ],
          [
            "Cambodia",
            7.134275801945478e-05
          ],
          [
            "Kuwait",
            7.125517731765285e-05
          ],
          [
            "Eswatini",
            6.792813655920327e-05
          ],
          [
            "Belgium",
            6.603969086427242e-05
          ],
          [
            "Suriname",
            6.473667599493638e-05
          ],
          [
            "Australia",
            6.455813127104193e-05
          ],
          [
            "Bahamas",
            6.43799576209858e-05
          ],
          [
            "Iraq",
            6.014381142449565e-05
          ],
          [
            "Paraguay",
            5.740419146604836e-05
          ],
          [
            "Botswana",
            5.652575782733038e-05
          ],
          [
            "Senegal",
            5.389046054915525e-05
          ],
          [
            "Bosnia & Herzegovina",
            5.340911229723133e-05
          ],
          [
            "United States Virgin Islands",
            5.169237920199521e-05
          ],
          [
            "Côte d'Ivoire",
            4.915203317068517e-05
          ],
          [
            "Dominican Republic",
            4.7759513108758256e-05
          ],
          [
            "Mexico",
            4.706097024609335e-05
          ],
          [
            "French Guiana",
            4.404337960295379e-05
          ],
          [
            "Haiti",
            4.2898976971628144e-05
          ],
          [
            "Guinea",
            4.20986907556653e-05
          ],
          [
            "South Georgia Islands",
            4.1904422687366605e-05
          ],
          [
            "Germany",
            3.781246050493792e-05
          ],
          [
            "Costa Rica",
            3.72109716408886e-05
          ],
          [
            "Armenia",
            3.430769356782548e-05
          ],
          [
            "France",
            3.411226862226613e-05
          ],
          [
            "Eritrea",
            3.394566010683775e-05
          ],
          [
            "Madeira Islands",
            3.2157928217202425e-05
          ],
          [
            "Poland",
            3.1365096219815314e-05
          ],
          [
            "Reunion",
            3.0326255000545643e-05
          ],
          [
            "Turks and Caicos Islands",
            2.872404184017796e-05
          ],
          [
            "Bolivia",
            2.775583379843738e-05
          ],
          [
            "Ethiopia",
            2.77155741059687e-05
          ],
          [
            "Sudan",
            2.5964614906115457e-05
          ],
          [
            "United States of America",
            2.586674236226827e-05
          ],
          [
            "Laos",
            2.5776711481739767e-05
          ],
          [
            "Italy",
            2.5743742298800498e-05
          ],
          [
            "Uruguay",
            2.5165671104332432e-05
          ],
          [
            "Nepal",
            2.2496702513308264e-05
          ],
          [
            "Tanzania",
            2.137131741619669e-05
          ],
          [
            "Barbados",
            1.994512240344193e-05
          ],
          [
            "Denmark",
            1.968577635125257e-05
          ],
          [
            "Samoa",
            1.916487053676974e-05
          ],
          [
            "Sierra Leone",
            1.697615698503796e-05
          ],
          [
            "Luxembourg",
            1.6967578631010838e-05
          ],
          [
            "Liberia",
            1.260050521523226e-05
          ],
          [
            "Kiribati",
            1.5950716942825238e-06
          ]
        ]
      },
      "geometry": {
        "type": "MultiLineString",
        "coordinates": [
          [
            [
              3.4814814814814667,
              6.259259259259267
            ],
            [
              3.8518518518518476,
              5.703703703703695
            ],
            [
              4.407407407407391,
              5.148148148148152
            ],
            [
              4.962962962962962,
              4.592592592592609
            ],
            [
              5.703703703703695,
              4.2222222222222285
            ],
            [
              6.259259259259267,
              3.6666666666666856
            ],
            [
              6.8148148148148096,
              3.4814814814814667
            ],
            [
              7.925925925925924,
              3.2962962962963047
            ],
            [
              8.666666666666657,
              2.925925925925924
            ],
            [
              9.592592592592581,
              2.740740740740762
            ],
            [
              10.518518518518505,
              2.740740740740762
            ],
            [
              11.629629629629619,
              2.740740740740762
            ],
            [
              12.555555555555543,
              2.925925925925924
            ],
            [
              13.111111111111114,
              3.1111111111111143
            ],
            [
              13.851851851851848,
              3.1111111111111143
            ],
            [
              14.592592592592581,
              3.1111111111111143
            ],
            [
              15.333333333333343,
              3.1111111111111143
            ],
            [
              16.074074074074076,
              3.1111111111111143
            ],
            [
              16.62962962962962,
              3.2962962962963047
            ],
            [
              17.37037037037038,
              3.4814814814814667
            ],
            [
              18.111111111111114,
              3.6666666666666856
            ],
            [
              18.851851851851848,
              4.037037037037038
            ],
            [
              19.59259259259258,
              4.2222222222222285
            ],
            [
              20.148148148148152,
              4.7777777777777715
            ],
            [
              20.888888888888886,
              5.333333333333343
            ],
            [
              21.444444444444457,
              5.703703703703695
            ],
            [
              21.62962962962962,
              6.259259259259267
            ],
            [
              22.18518518518519,
              6.444444444444457
            ],
            [
              22.740740740740733,
              7.1851851851851904
            ],
            [
              23.296296296296305,
              7.740740740740762
            ],
            [
              23.851851851851848,
              8.296296296296305
            ],
            [
              24.40740740740739,
              8.851851851851848
            ],
            [
              24.59259259259258,
              9.59259259259261
            ],
            [
              25.148148148148152,
              10.333333333333343
            ],
            [
              25.333333333333314,
              10.888888888888886
            ],
            [
              25.888888888888886,
              11.814814814814838
            ],
            [
              26.259259259259267,
              12.740740740740762
            ],
            [
              26.444444444444457,
              13.851851851851848
            ],
            [
              26.444444444444457,
              14.59259259259261
            ],
            [
              26.259259259259267,
              15.333333333333343
            ],
            [
              26.074074074074076,
              16.074074074074076
            ],
            [
              25.888888888888886,
              16.62962962962962
            ],
            [
              25.703703703703695,
              17.37037037037038
            ],
            [
              25.518518518518533,
              17.925925925925924
            ],
            [
              25.333333333333314,
              18.666666666666686
            ],
            [
              25.148148148148152,
              19.22222222222223
            ],
            [
              24.962962962962962,
              19.962962962962962
            ],
            [
              24.77777777777777,
              20.888888888888886
            ],
            [
              24.59259259259258,
              21.444444444444457
            ],
            [
              24.40740740740739,
              22.0
            ],
            [
              24.22222222222223,
              22.555555555555543
            ],
            [
              23.666666666666657,
              23.296296296296305
            ],
            [
              23.481481481481467,
              24.22222222222223
            ],
            [
              23.111111111111114,
              24.962962962962962
            ],
            [
              22.925925925925924,
              25.518518518518533
            ],
            [
              22.740740740740733,
              26.259259259259267
            ],
            [
              22.740740740740733,
              27.0
            ],
            [
              22.925925925925924,
              27.555555555555543
            ],
            [
              23.666666666666657,
              28.296296296296305
            ],
            [
              24.40740740740739,
              28.851851851851848
            ],
            [
              24.77777777777777,
              29.40740740740742
            ],
            [
              25.703703703703695,
              30.148148148148152
            ],
            [
              26.444444444444457,
              30.888888888888886
            ],
            [
              27.37037037037038,
              31.62962962962962
            ],
            [
              28.111111111111114,
              32.18518518518519
            ],
            [
              28.851851851851848,
              32.55555555555554
            ],
            [
              29.59259259259258,
              33.111111111111114
            ],
            [
              29.962962962962962,
              33.666666666666686
            ],
            [
              30.518518518518533,
              34.03703703703704
            ],
            [
              30.888888888888886,
              34.59259259259261
            ],
            [
              31.444444444444457,
              35.14814814814815
            ],
            [
              31.81481481481481,
              35.703703703703695
            ],
            [
              32.37037037037038,
              36.25925925925927
            ],
            [
              33.111111111111114,
              36.81481481481481
            ],
            [
              33.66666666666666,
              37.37037037037038
            ],
            [
              34.22222222222223,
              37.74074074074076
            ],
            [
              35.333333333333314,
              38.296296296296305
            ],
            [
              36.25925925925927,
              39.03703703703704
            ],
            [
              37.0,
              39.22222222222223
            ],
            [
              37.55555555555554,
              39.77777777777777
            ],
            [
              38.296296296296305,
              40.51851851851853
            ],
            [
              38.66666666666666,
              41.074074074074076
            ],
            [
              39.22222222222223,
              41.44444444444446
            ],
            [
              39.59259259259258,
              42.0
            ],
            [
              40.14814814814815,
              42.55555555555557
            ],
            [
              40.703703703703695,
              42.925925925925924
            ],
            [
              40.888888888888886,
              43.666666666666686
            ],
            [
              41.44444444444446,
              44.03703703703704
            ],
            [
              42.0,
              44.40740740740742
            ],
            [
              42.18518518518519,
              44.96296296296296
            ],
            [
              42.37037037037038,
              45.51851851851853
            ],
            [
              42.925925925925924,
              46.44444444444446
            ],
            [
              43.48148148148147,
              47.0
            ],
            [
              44.22222222222223,
              47.925925925925924
            ],
            [
              44.59259259259258,
              48.666666666666686
            ],
            [
              45.51851851851853,
              49.40740740740742
            ],
            [
              46.074074074074076,
              50.14814814814815
            ],
            [
              46.81481481481478,
              50.888888888888886
            ],
            [
              47.37037037037038,
              51.62962962962962
            ],
            [
              47.925925925925924,
              51.81481481481481
            ],
            [
              48.666666666666686,
              52.55555555555554
            ],
            [
              49.03703703703701,
              53.111111111111114
            ],
            [
              49.59259259259261,
              53.296296296296305
            ],
            [
              50.14814814814815,
              53.481481481481495
            ],
            [
              51.074074074074076,
              53.85185185185185
            ],
            [
              51.81481481481478,
              54.03703703703704
            ],
            [
              52.925925925925924,
              54.22222222222223
            ],
            [
              53.85185185185185,
              54.40740740740742
            ],
            [
              54.40740740740739,
              54.59259259259261
            ],
            [
              55.14814814814815,
              54.59259259259261
            ],
            [
              56.074074074074076,
              54.96296296296296
            ],
            [
              57.0,
              55.33333333333334
            ],
            [
              57.55555555555554,
              55.703703703703695
            ],
            [
              58.111111111111086,
              56.074074074074076
            ],
            [
              58.85185185185185,
              56.81481481481481
            ],
            [
              59.40740740740739,
              57.37037037037038
            ],
            [
              59.96296296296293,
              57.74074074074073
            ],
            [
              60.333333333333314,
              58.296296296296305
            ],
            [
              60.888888888888914,
              58.66666666666666
            ],
            [
              61.25925925925924,
              59.22222222222223
            ],
            [
              61.62962962962962,
              59.77777777777777
            ],
            [
              62.0,
              60.33333333333334
            ],
            [
              61.81481481481478,
              60.888888888888886
            ],
            [
              61.074074074074076,
              61.074074074074076
            ],
            [
              60.51851851851853,
              61.25925925925927
            ],
            [
              59.77777777777777,
              61.25925925925927
            ],
            [
              59.22222222222223,
              61.074074074074076
            ],
            [
              58.66666666666663,
              60.703703703703695
            ],
            [
              57.74074074074076,
              60.51851851851853
            ],
            [
              56.81481481481478,
              60.33333333333334
            ],
            [
              55.51851851851853,
              60.14814814814815
            ],
            [
              54.40740740740739,
              59.59259259259261
            ],
            [
              53.296296296296305,
              59.40740740740742
            ],
            [
              52.74074074074076,
              59.22222222222223
            ],
            [
              51.81481481481478,
              58.85185185185185
            ],
            [
              51.25925925925924,
              58.481481481481495
            ],
            [
              50.703703703703695,
              58.296296296296305
            ],
            [
              50.14814814814815,
              58.111111111111114
            ],
            [
              49.59259259259261,
              57.74074074074073
            ],
            [
              49.03703703703701,
              57.55555555555557
            ],
            [
              48.48148148148147,
              57.18518518518519
            ],
            [
              47.55555555555554,
              56.81481481481481
            ],
            [
              46.62962962962962,
              56.074074074074076
            ],
            [
              45.888888888888914,
              55.33333333333334
            ],
            [
              45.14814814814815,
              54.96296296296296
            ],
            [
              44.40740740740739,
              54.40740740740742
            ],
            [
              43.66666666666666,
              53.85185185185185
            ],
            [
              43.111111111111114,
              53.481481481481495
            ],
            [
              42.55555555555554,
              53.111111111111114
            ],
            [
              42.0,
              52.55555555555554
            ],
            [
              41.44444444444446,
              52.37037037037038
            ],
            [
              40.888888888888886,
              52.18518518518519
            ],
            [
              40.14814814814815,
              51.62962962962962
            ],
            [
              39.22222222222223,
              51.44444444444446
            ],
            [
              38.48148148148147,
              50.888888888888886
            ],
            [
              37.74074074074073,
              50.888888888888886
            ],
            [
              37.18518518518519,
              50.51851851851853
            ],
            [
              36.62962962962962,
              50.14814814814815
            ],
            [
              36.074074074074076,
              49.96296296296296
            ],
            [
              35.51851851851853,
              49.59259259259261
            ],
            [
              34.96296296296296,
              49.22222222222223
            ],
            [
              34.40740740740739,
              48.85185185185185
            ],
            [
              33.66666666666666,
              48.296296296296305
            ],
            [
              32.925925925925924,
              47.74074074074073
            ],
            [
              32.0,
              47.37037037037038
            ],
            [
              31.074074074074076,
              46.44444444444446
            ],
            [
              30.333333333333314,
              46.074074074074076
            ],
            [
              29.59259259259258,
              45.888888888888886
            ],
            [
              29.037037037037038,
              45.703703703703695
            ],
            [
              28.481481481481467,
              45.33333333333334
            ],
            [
              27.740740740740733,
              45.14814814814815
            ],
            [
              26.074074074074076,
              44.96296296296296
            ],
            [
              25.148148148148152,
              44.40740740740742
            ],
            [
              24.40740740740739,
              44.22222222222223
            ],
            [
              23.481481481481467,
              43.85185185185185
            ],
            [
              22.925925925925924,
              43.666666666666686
            ],
            [
              22.18518518518519,
              43.111111111111114
            ],
            [
              21.444444444444457,
              42.74074074074073
            ],
            [
              21.074074074074076,
              42.18518518518519
            ],
            [
              20.518518518518533,
              41.81481481481481
            ],
            [
              19.77777777777777,
              41.074074074074076
            ],
            [
              19.22222222222223,
              40.51851851851853
            ],
            [
              18.481481481481467,
              39.77777777777777
            ],
            [
              18.111111111111114,
              39.03703703703704
            ],
            [
              17.740740740740733,
              38.296296296296305
            ],
            [
              17.0,
              37.55555555555554
            ],
            [
              2.1851851851851904,
              8.666666666666686
            ]
          ],
          [
            [
              4.2222222222222285,
              5.333333333333343
            ],
            [
              2.0,
              10.333333333333343
            ],
            [
              8.666666666666657,
              25.703703703703695
            ]
          ],
          [
            [
              19.962962962962962,
              38.85185185185185
            ],
            [
              11.074074074074076,
              27.925925925925924
            ],
            [
              10.518518518518505,
              27.740740740740762
            ],
            [
              7.925925925925924,
              25.888888888888886
            ],
            [
              7.1851851851851904,
              25.333333333333343
            ],
            [
              6.629629629629619,
              25.148148148148152
            ],
            [
              6.074074074074076,
              24.962962962962962
            ],
            [
              5.333333333333343,
              24.77777777777777
            ],
            [
              4.962962962962962,
              24.22222222222223
            ],
            [
              5.148148148148152,
              23.481481481481495
            ],
            [
              5.148148148148152,
              22.740740740740762
            ],
            [
              5.333333333333343,
              22.18518518518519
            ],
            [
              5.333333333333343,
              21.259259259259267
            ],
            [
              5.518518518518533,
              20.518518518518533
            ],
            [
              5.518518518518533,
              19.77777777777777
            ],
            [
              5.518518518518533,
              19.037037037037038
            ],
            [
              5.518518518518533,
              17.925925925925924
            ],
            [
              5.333333333333343,
              16.81481481481481
            ],
            [
              5.333333333333343,
              15.518518518518533
            ],
            [
              5.333333333333343,
              14.777777777777771
            ],
            [
              5.148148148148152,
              13.851851851851848
            ],
            [
              5.148148148148152,
              12.740740740740762
            ],
            [
              5.148148148148152,
              12.0
            ],
            [
              5.148148148148152,
              10.888888888888886
            ],
            [
              5.148148148148152,
              9.962962962962962
            ],
            [
              4.962962962962962,
              9.407407407407419
            ],
            [
              4.592592592592581,
              8.851851851851848
            ],
            [
              4.407407407407391,
              8.296296296296305
            ],
            [
              4.2222222222222285,
              7.740740740740762
            ],
            [
              4.037037037037038,
              7.1851851851851904
            ],
            [
              3.666666666666657,
              6.444444444444457
            ],
            [
              3.4814814814814667,
              5.888888888888914
            ]
          ]
        ]
      }
    }
  ]
}