{
  "type": "FeatureCollection",
  "crs": {
    "type": "name",
    "properties": {
      "name": "urn:ogc:def:crs:OGC:1.3:CRS84"
    }
  },
  "features": [
    {
      "type": "Feature",
      "properties": {
        "timestamp": "2026-06-13T19:16:59.928135",
        "country_name": "Oman",
        "author": "😀",
        "author_id": "82eb82af-ba18-4f50-b91f-ad9a9585603c",
        "validated": false,
        "ranking": [
          [
            "Oman",
            0.32117074728012085
          ],
          [
            "Isle of Man",
            0.19127878546714783
          ],
          [
            "Mali",
            0.12650053203105927
          ],
          [
            "Morocco",
            0.04226924479007721
          ],
          [
            "Congo",
            0.03017604909837246
          ],
          [
            "Pakistan",
            0.02005353942513466
          ],
          [
            "Spain",
            0.018138768151402473
          ],
          [
            "Lebanon",
            0.01553430501371622
          ],
          [
            "Niger",
            0.012554117478430271
          ],
          [
            "Cameroon",
            0.008556723594665527
          ],
          [
            "Timor-Leste",
            0.0077465916983783245
          ],
          [
            "Palau",
            0.00689072348177433
          ],
          [
            "Hong Kong",
            0.005764963570982218
          ],
          [
            "New Zealand",
            0.00545367319136858
          ],
          [
            "Hungary",
            0.005405393894761801
          ],
          [
            "Nigeria",
            0.004821863025426865
          ],
          [
            "United Arab Emirates",
            0.004762569908052683
          ],
          [
            "Central African Republic",
            0.004577708430588245
          ],
          [
            "Netherlands",
            0.0043942853808403015
          ],
          [
            "Norway",
            0.0043487935326993465
          ],
          [
            "Somalia",
            0.004261200316250324
          ],
          [
            "Botswana",
            0.00420762924477458
          ],
          [
            "Kazakhstan",
            0.004205623641610146
          ],
          [
            "Israel",
            0.0041437395848333836
          ],
          [
            "Austria",
            0.003877743612974882
          ],
          [
            "Burundi",
            0.0038154921494424343
          ],
          [
            "Japan",
            0.0037476003635674715
          ],
          [
            "Syria",
            0.003666496369987726
          ],
          [
            "Burkina Faso",
            0.0035755829885601997
          ],
          [
            "Yemen",
            0.0033126689959317446
          ],
          [
            "French Guiana",
            0.0031614049803465605
          ],
          [
            "Ecuador",
            0.00300713162869215
          ],
          [
            "Guam",
            0.0029083536937832832
          ],
          [
            "Mauritania",
            0.002736244350671768
          ],
          [
            "Chile",
            0.0027026438619941473
          ],
          [
            "Rwanda",
            0.002559153363108635
          ],
          [
            "Bulgaria",
            0.002322946907952428
          ],
          [
            "Sweden",
            0.00221558241173625
          ],
          [
            "Zambia",
            0.002160855568945408
          ],
          [
            "Slovenia",
            0.0021320299711078405
          ],
          [
            "Fiji",
            0.0019908251706510782
          ],
          [
            "Switzerland",
            0.0019620887469500303
          ],
          [
            "South Korea",
            0.0019407245563343167
          ],
          [
            "Cyprus",
            0.0019277753308415413
          ],
          [
            "Belize",
            0.001875025685876608
          ],
          [
            "Trinidad and Tobago",
            0.0018648571567609906
          ],
          [
            "West Bank",
            0.0018629480618983507
          ],
          [
            "Chad",
            0.0018512873211875558
          ],
          [
            "Saint Lucia",
            0.001838037045672536
          ],
          [
            "South Africa",
            0.0017837951891124249
          ],
          [
            "Philippines",
            0.0017405868275091052
          ],
          [
            "Thailand",
            0.0017197966808453202
          ],
          [
            "Slovakia",
            0.0016395271522924304
          ],
          [
            "North Macedonia",
            0.0015891449293121696
          ],
          [
            "Mozambique",
            0.0015832362696528435
          ],
          [
            "North Korea",
            0.001530541107058525
          ],
          [
            "Lithuania",
            0.0015211087884381413
          ],
          [
            "Guadeloupe",
            0.0014799778582528234
          ],
          [
            "Moldova",
            0.0014723113272339106
          ],
          [
            "Malawi",
            0.0014699457678943872
          ],
          [
            "Finland",
            0.0014302993658930063
          ],
          [
            "Argentina",
            0.0013096381444483995
          ],
          [
            "Brazil",
            0.0012843000004068017
          ],
          [
            "Kyrgyzstan",
            0.0012621119385585189
          ],
          [
            "Puerto Rico",
            0.001225878018885851
          ],
          [
            "Cambodia",
            0.0012037644628435373
          ],
          [
            "Sao Tome and Principe",
            0.0011704328935593367
          ],
          [
            "Colombia",
            0.0010949178831651807
          ],
          [
            "Malaysia",
            0.0010563578689470887
          ],
          [
            "Turkey",
            0.0010130469454452395
          ],
          [
            "Togo",
            0.0009984145872294903
          ],
          [
            "Madagascar",
            0.0009670120198279619
          ],
          [
            "Brunei",
            0.0009645436657592654
          ],
          [
            "Ukraine",
            0.0009441825677640736
          ],
          [
            "Sudan",
            0.0009422054281458259
          ],
          [
            "Albania",
            0.0009136453736573458
          ],
          [
            "Jordan",
            0.0008817500784061849
          ],
          [
            "Portugal",
            0.0008775036549195647
          ],
          [
            "Uganda",
            0.0008397253113798797
          ],
          [
            "Mayotte",
            0.0008320201304741204
          ],
          [
            "Lesotho",
            0.0008131464128382504
          ],
          [
            "Vietnam",
            0.0007920269854366779
          ],
          [
            "Greenland",
            0.0007839904865249991
          ],
          [
            "Ireland",
            0.0007630256004631519
          ],
          [
            "Cape Verde",
            0.0007503912202082574
          ],
          [
            "Papua New Guinea",
            0.0007347651408053935
          ],
          [
            "Egypt",
            0.0007331006345339119
          ],
          [
            "Indonesia",
            0.0007233239593915641
          ],
          [
            "Mongolia",
            0.0007151261088438332
          ],
          [
            "Antigua & Barbuda",
            0.0007037397590465844
          ],
          [
            "Guinea-Bissau",
            0.000699664349667728
          ],
          [
            "Bosnia & Herzegovina",
            0.0006911292439326644
          ],
          [
            "Haiti",
            0.0006889274227432907
          ],
          [
            "Netherlands Antilles",
            0.0006855141837149858
          ],
          [
            "Dominica",
            0.0006780641851946712
          ],
          [
            "Equatorial Guinea",
            0.0006759374518878758
          ],
          [
            "Russia",
            0.000673241913318634
          ],
          [
            "Honduras",
            0.000641185324639082
          ],
          [
            "Angola",
            0.0006298423395492136
          ],
          [
            "Latvia",
            0.0006197961047291756
          ],
          [
            "Iceland",
            0.0006145108491182327
          ],
          [
            "Venezuela",
            0.0006028056377544999
          ],
          [
            "Turkmenistan",
            0.000594528391957283
          ],
          [
            "Gabon",
            0.0005882186233066022
          ],
          [
            "Montenegro",
            0.0005656487192027271
          ],
          [
            "Canada",
            0.0005653068656101823
          ],
          [
            "Qatar",
            0.0005627206992357969
          ],
          [
            "Western Sahara",
            0.0005610455991700292
          ],
          [
            "Belarus",
            0.0005484892753884196
          ],
          [
            "Afghanistan",
            0.000541123969014734
          ],
          [
            "China",
            0.000531715399120003
          ],
          [
            "Benin",
            0.000519733177497983
          ],
          [
            "Guatemala",
            0.0004865688970312476
          ],
          [
            "Tunisia",
            0.00047877419274300337
          ],
          [
            "Namibia",
            0.00047349781380034983
          ],
          [
            "Bahrain",
            0.00046431212103925645
          ],
          [
            "Taiwan",
            0.0004604905843734741
          ],
          [
            "South Sudan",
            0.0004427894891705364
          ],
          [
            "Myanmar",
            0.0004404428182169795
          ],
          [
            "Estonia",
            0.00043892741086892784
          ],
          [
            "Iran",
            0.000437253707787022
          ],
          [
            "Georgia",
            0.00043085997458547354
          ],
          [
            "Uzbekistan",
            0.00040770525811240077
          ],
          [
            "United Kingdom",
            0.0004054122546222061
          ],
          [
            "Panama",
            0.0004052104486618191
          ],
          [
            "Ghana",
            0.00039411670877598226
          ],
          [
            "Romania",
            0.00036570170777849853
          ],
          [
            "France",
            0.0003641161893028766
          ],
          [
            "Czech Republic",
            0.00035294852568767965
          ],
          [
            "India",
            0.00034968656837008893
          ],
          [
            "Bhutan",
            0.0003309004532638937
          ],
          [
            "Heard and McDonald Islands",
            0.00031795992981642485
          ],
          [
            "Falkland Islands",
            0.000296719663310796
          ],
          [
            "Poland",
            0.00029411702416837215
          ],
          [
            "Eswatini",
            0.00028679901151917875
          ],
          [
            "Tajikistan",
            0.00028497667517513037
          ],
          [
            "Vanuatu",
            0.00027386919828131795
          ],
          [
            "Saudi Arabia",
            0.0002681017213035375
          ],
          [
            "Dominican Republic",
            0.00025986548280343413
          ],
          [
            "Azerbaijan",
            0.0002582472807262093
          ],
          [
            "Reunion",
            0.00025718208053149283
          ],
          [
            "Solomon Islands",
            0.0002567140618339181
          ],
          [
            "Sierra Leone",
            0.0002550648641772568
          ],
          [
            "Bangladesh",
            0.00025171416928060353
          ],
          [
            "Senegal",
            0.00024543481413275003
          ],
          [
            "Bolivia",
            0.00023545096337329596
          ],
          [
            "Suriname",
            0.00022544585226569325
          ],
          [
            "Australia",
            0.00021853254293091595
          ],
          [
            "Libya",
            0.00020468355796765536
          ],
          [
            "Gambia",
            0.00019901788618881255
          ],
          [
            "Jamaica",
            0.00019847579824272543
          ],
          [
            "Martinique",
            0.00018593439017422497
          ],
          [
            "Belgium",
            0.00018148629169445485
          ],
          [
            "New Caledonia",
            0.000179965456482023
          ],
          [
            "Tanzania",
            0.00017845055845100433
          ],
          [
            "Germany",
            0.00017842435045167804
          ],
          [
            "Djibouti",
            0.0001768232323229313
          ],
          [
            "Serbia",
            0.00017322068742942065
          ],
          [
            "Faroe Islands",
            0.000172674423083663
          ],
          [
            "Italy",
            0.0001718903804430738
          ],
          [
            "Kenya",
            0.0001704008609522134
          ],
          [
            "Paraguay",
            0.00016544382378924638
          ],
          [
            "United States Virgin Islands",
            0.00016535328177269548
          ],
          [
            "Côte d'Ivoire",
            0.00015694741159677505
          ],
          [
            "Madeira Islands",
            0.00015353382332250476
          ],
          [
            "Cuba",
            0.00015334154886659235
          ],
          [
            "Croatia",
            0.00013262128049973398
          ],
          [
            "Comoros",
            0.00013014499563723803
          ],
          [
            "Nicaragua",
            0.0001289198116865009
          ],
          [
            "Algeria",
            0.00011462910333648324
          ],
          [
            "Guinea",
            0.00011370842548785731
          ],
          [
            "Guyana",
            0.00011332756548654288
          ],
          [
            "Barbados",
            0.00010680390550987795
          ],
          [
            "Armenia",
            0.000106646548374556
          ],
          [
            "Peru",
            0.00010066958930110559
          ],
          [
            "Svalbard",
            9.648283594287932e-05
          ],
          [
            "Uruguay",
            9.570717520546168e-05
          ],
          [
            "Costa Rica",
            9.474725811742246e-05
          ],
          [
            "Ethiopia",
            8.827845158521086e-05
          ],
          [
            "El Salvador",
            8.617857383796945e-05
          ],
          [
            "Samoa",
            8.137278200592846e-05
          ],
          [
            "Turks and Caicos Islands",
            7.285601896001026e-05
          ],
          [
            "Zimbabwe",
            7.235816883621737e-05
          ],
          [
            "Sri Lanka",
            7.199692481663078e-05
          ],
          [
            "DR Congo",
            7.027186074992642e-05
          ],
          [
            "Eritrea",
            7.027012179605663e-05
          ],
          [
            "Kuwait",
            6.97285940987058e-05
          ],
          [
            "Iraq",
            6.09574890404474e-05
          ],
          [
            "Bahamas",
            6.022697562002577e-05
          ],
          [
            "United States of America",
            5.812289600726217e-05
          ],
          [
            "Luxembourg",
            4.6394092350965366e-05
          ],
          [
            "South Georgia Islands",
            4.614214049070142e-05
          ],
          [
            "Mexico",
            3.954938074457459e-05
          ],
          [
            "Nepal",
            3.490307062747888e-05
          ],
          [
            "Denmark",
            2.5061654014280066e-05
          ],
          [
            "Liberia",
            2.2101987269707024e-05
          ],
          [
            "Laos",
            2.063470492430497e-05
          ],
          [
            "Greece",
            1.8678952983464114e-05
          ],
          [
            "Kiribati",
            9.333537036582129e-07
          ]
        ]
      },
      "geometry": {
        "type": "MultiLineString",
        "coordinates": [
          [
            [
              2.0,
              13.433594497260628
            ],
            [
              2.4545459015419624,
              13.812501334087358
            ],
            [
              2.8333347312929504,
              13.964057127225374
            ],
            [
              3.4393947764168047,
              14.191408170914087
            ],
            [
              3.9696977497496846,
              14.418752273010057
            ],
            [
              4.5000007230825645,
              14.721877742471406
            ],
            [
              5.106060768206362,
              14.949221844567433
            ],
            [
              5.71212254872836,
              15.176559005070771
            ],
            [
              6.469698472832249,
              15.328128681394162
            ],
            [
              7.530304419498009,
              15.707035518220835
            ],
            [
              8.43939275178559,
              15.934372678724174
            ],
            [
              9.878787528202395,
              16.464849191874237
            ],
            [
              10.484849308724392,
              16.767974661335643
            ],
            [
              11.545455255390152,
              17.22265592393495
            ],
            [
              11.999999421533914,
              17.450000026030978
            ],
            [
              12.833334152826922,
              17.90468823022303
            ],
            [
              13.212119511781566,
              18.132032332319056
            ],
            [
              14.045455978472717,
              18.51093916914573
            ],
            [
              14.424244808223762,
              18.662501903876432
            ],
            [
              15.18181726153125,
              18.88983906437977
            ],
            [
              15.787880777451448,
              19.34453421016451
            ],
            [
              16.54545843695348,
              19.79921547276382
            ],
            [
              16.92424726670447,
              20.026566516452533
            ],
            [
              17.60606438361924,
              20.405466411686575
            ],
            [
              18.287881500534013,
              20.63281745537529
            ],
            [
              18.74242393127963,
              20.86015461587857
            ],
            [
              19.12121276103062,
              21.08749177638191
            ],
            [
              19.500001590781665,
              21.39061724584326
            ],
            [
              19.72727627695076,
              21.693742715304666
            ],
            [
              20.030304564114545,
              21.92109375899338
            ],
            [
              20.33333285127827,
              22.22421922845473
            ],
            [
              20.560607537447424,
              22.527344697916078
            ],
            [
              20.86363582461115,
              22.830470167377428
            ],
            [
              21.090910510780304,
              23.20937006261147
            ],
            [
              21.318181726153114,
              23.664058266803465
            ],
            [
              21.545452941525923,
              24.042972045222882
            ],
            [
              21.772727627695076,
              24.421871940456867
            ],
            [
              22.00000231386423,
              24.876563615445264
            ],
            [
              22.227277000033382,
              25.331251819637316
            ],
            [
              22.454544744609848,
              25.78594002382937
            ],
            [
              22.681819430779,
              26.164843389859698
            ],
            [
              22.909094116948097,
              26.467968859321047
            ],
            [
              23.136361861524563,
              26.771094328782397
            ],
            [
              23.43939361948469,
              27.150001165609126
            ],
            [
              23.74242537744476,
              27.528904531639455
            ],
            [
              24.19696780819038,
              28.059377573993174
            ],
            [
              24.424242494359532,
              28.43828094002356
            ],
            [
              24.651517180528685,
              28.817180835257545
            ],
            [
              24.954548938488756,
              29.4234317741803
            ],
            [
              25.333337768239744,
              30.029682713103
            ],
            [
              25.71212659799079,
              30.56015575545672
            ],
            [
              26.090915427741777,
              31.090625327014095
            ],
            [
              26.545454387691052,
              31.62109489857147
            ],
            [
              26.924243217442097,
              32.07578310276352
            ],
            [
              27.227271504605824,
              32.530460894566545
            ],
            [
              27.53029979176955,
              32.909374672985905
            ],
            [
              27.681817406147786,
              33.36406287717796
            ],
            [
              27.909088621520596,
              33.66718834663931
            ],
            [
              27.984849164107857,
              34.04608824187335
            ],
            [
              28.060606235898774,
              34.50077991686169
            ],
            [
              28.212127321073353,
              34.9554646502574
            ],
            [
              28.3636345230625,
              35.41015285444945
            ],
            [
              28.43939506564982,
              36.01640379337215
            ],
            [
              28.43939506564982,
              36.4710919975642
            ],
            [
              28.515152137440737,
              37.00155809832523
            ],
            [
              28.66666628102263,
              37.68359040461331
            ],
            [
              28.66666628102263,
              38.28984134353601
            ],
            [
              28.742423352813546,
              38.89609228245877
            ],
            [
              28.89394096719178,
              39.578121117950445
            ],
            [
              28.969694568186355,
              40.33593479160385
            ],
            [
              29.12121218256459,
              41.01796362709558
            ],
            [
              29.12121218256459,
              41.77577382995264
            ],
            [
              29.196972725151852,
              42.45780960703701
            ],
            [
              29.348483397937343,
              43.13983844252874
            ],
            [
              29.50000101231558,
              43.821874219613164
            ],
            [
              29.57576155490284,
              44.428118216943176
            ],
            [
              29.651518626693814,
              45.034369155865875
            ],
            [
              29.72727222768839,
              45.716401462153954
            ],
            [
              29.72727222768839,
              46.171089666346006
            ],
            [
              29.72727222768839,
              46.70155923790338
            ],
            [
              29.803029299479306,
              47.156247442095435
            ],
            [
              29.803029299479306,
              47.53514733732942
            ],
            [
              29.878789842066624,
              47.98983554152147
            ],
            [
              29.954550384653885,
              48.52030858387519
            ],
            [
              30.030300514852115,
              48.89921194990552
            ],
            [
              30.18181812923035,
              49.35390015409757
            ],
            [
              30.257575201021268,
              49.7328069909243
            ],
            [
              30.333339214404873,
              50.111713827750975
            ],
            [
              30.333339214404873,
              50.56640203194303
            ],
            [
              30.40908934460316,
              50.9453088687697
            ],
            [
              30.40908934460316,
              51.324212234800086
            ],
            [
              30.40908934460316,
              51.85467833556112
            ],
            [
              30.40908934460316,
              52.61249200921452
            ],
            [
              30.40908934460316,
              53.446087050233245
            ],
            [
              30.333339214404873,
              54.27968209125197
            ],
            [
              30.333339214404873,
              55.11327192607621
            ],
            [
              30.333339214404873,
              55.87108559972961
            ],
            [
              30.333339214404873,
              56.249994171954484
            ],
            [
              30.484846416394078,
              56.780462008113716
            ],
            [
              30.56060695898134,
              57.23515021230571
            ],
            [
              30.56060695898134,
              57.68983668109962
            ],
            [
              30.56060695898134,
              58.14452488529162
            ],
            [
              30.636364030772313,
              58.67499445684905
            ],
            [
              30.636364030772313,
              59.05389782287938
            ],
            [
              30.712128044155918,
              59.50858602707143
            ],
            [
              31.0151528605233,
              59.81171149653278
            ],
            [
              31.393941690274346,
              59.81171149653278
            ],
            [
              31.848484121019965,
              59.73592839376926
            ],
            [
              32.22727295077095,
              59.66014876180208
            ],
            [
              32.606058309725654,
              59.58436565903861
            ],
            [
              33.13636475385488,
              59.43280292430791
            ],
            [
              33.590907184600496,
              59.281240189577204
            ],
            [
              34.12121362872972,
              59.05389782287938
            ],
            [
              34.575763001068026,
              58.826557191579695
            ],
            [
              35.030301961017244,
              58.67499445684905
            ],
            [
              35.48484786255921,
              58.523431722118346
            ],
            [
              35.86363669231025,
              58.220306252657
            ],
            [
              36.16666497947398,
              57.91718078319565
            ],
            [
              36.62121088101594,
              57.53827568176712
            ],
            [
              36.92424263897601,
              57.23515021230571
            ],
            [
              37.303031468727056,
              56.85624337547904
            ],
            [
              37.60605975589078,
              56.55311790601769
            ],
            [
              37.98484858564177,
              56.17421106919096
            ],
            [
              38.515148088178364,
              55.79530596776243
            ],
            [
              39.121211604098505,
              55.49218049830108
            ],
            [
              39.7272716492223,
              55.26483466080691
            ],
            [
              40.25757809335158,
              55.11327192607621
            ],
            [
              40.712120524097145,
              54.885933030174726
            ],
            [
              41.16666642563911,
              54.507026193348
            ],
            [
              41.62121232718107,
              54.27968209125197
            ],
            [
              42.15151530051395,
              53.824993887059975
            ],
            [
              42.68182174464323,
              53.446087050233245
            ],
            [
              43.13636070459245,
              53.06718021340657
            ],
            [
              43.59090660613441,
              52.68827337657984
            ],
            [
              43.969695435885455,
              52.233588643184135
            ],
            [
              44.50000188001468,
              51.77890043899214
            ],
            [
              45.03030485334756,
              51.399990131369066
            ],
            [
              45.71212197026233,
              50.9453088687697
            ],
            [
              46.24242494359521,
              50.56640203194303
            ],
            [
              46.69696737434083,
              50.339057929847
            ],
            [
              47.151516746679135,
              50.111713827750975
            ],
            [
              47.6060591774247,
              49.96015109302033
            ],
            [
              48.212122693344895,
              49.808588358289626
            ],
            [
              48.81817926767235,
              49.65702562355892
            ],
            [
              49.34848918259797,
              49.505462888828276
            ],
            [
              49.878785214338166,
              49.20233741936693
            ],
            [
              50.48484873025831,
              48.89921194990552
            ],
            [
              51.090912246178505,
              48.67186784780955
            ],
            [
              51.77272936309322,
              48.444523745713525
            ],
            [
              52.37878593742073,
              48.141398276252175
            ],
            [
              52.9090958523463,
              47.83827280679077
            ],
            [
              53.363638283091916,
              47.53514733732942
            ],
            [
              53.893941256424796,
              47.23202880946076
            ],
            [
              54.57575837333957,
              46.92890333999941
            ],
            [
              55.25757549025434,
              46.62577787053806
            ],
            [
              55.78788540517985,
              46.32265240107665
            ],
            [
              56.166674234930895,
              45.94374556424998
            ],
            [
              56.469695580501934,
              45.56483872742331
            ],
            [
              56.84848441025298,
              45.1101539940276
            ],
            [
              57.3030268409986,
              44.655465789835546
            ],
            [
              57.681815670749586,
              44.27655548221253
            ],
            [
              58.06060450050063,
              43.97343695434381
            ],
            [
              58.28788612826247,
              43.67031148488246
            ],
            [
              58.51515387283894,
              43.36718601542111
            ],
            [
              58.7424216174154,
              42.98827570779804
            ],
            [
              58.818182160002664,
              42.60937234176771
            ],
            [
              58.66667495801346,
              42.07889929941399
            ],
            [
              58.51515387283894,
              41.54843319865296
            ],
            [
              58.21212558567515,
              40.9421857305266
            ],
            [
              57.984850899506,
              40.411712688172884
            ],
            [
              57.681815670749586,
              39.72968385268115
            ],
            [
              57.37878738358586,
              39.04765501718941
            ],
            [
              56.99999855383487,
              37.835153139344015
            ],
            [
              56.84848441025298,
              37.38046840594831
            ],
            [
              56.621209724083826,
              36.622654732294905
            ],
            [
              56.166674234930895,
              35.7132783239108
            ],
            [
              55.560603777418066,
              34.803905386323095
            ],
            [
              55.3333360328416,
              34.50077991686169
            ],
            [
              54.878786660503295,
              33.89452897793899
            ],
            [
              54.348483687170415,
              33.06093740771661
            ],
            [
              53.96970179901206,
              32.303123734063206
            ],
            [
              53.59091296926107,
              31.545310060409804
            ],
            [
              53.13636359692276,
              30.787499857552746
            ],
            [
              52.68181422458446,
              30.105467551264667
            ],
            [
              52.151518192844264,
              29.4234317741803
            ],
            [
              51.6212082779187,
              28.817180835257545
            ],
            [
              51.24242638976034,
              28.210940308723877
            ],
            [
              50.86363756000935,
              27.60468936980118
            ],
            [
              50.48484873025831,
              26.922653592716756
            ],
            [
              50.03030629951269,
              26.392187491955724
            ],
            [
              49.49999638458712,
              25.86171792039835
            ],
            [
              48.89393981025967,
              25.331251819637316
            ],
            [
              48.287883235932156,
              24.876563615445264
            ],
            [
              47.98484800717574,
              24.497660249414935
            ],
            [
              47.75757332100659,
              24.19453477995353
            ],
            [
              47.3787844912556,
              23.664058266803465
            ],
            [
              46.92424900210267,
              23.20937006261147
            ],
            [
              46.469699629764364,
              22.754688800012104
            ],
            [
              45.78788251284959,
              22.375781963185375
            ],
            [
              45.18182593852214,
              21.845312391628
            ],
            [
              44.651516023596514,
              21.39061724584326
            ],
            [
              44.121213050263634,
              20.93593598324395
            ],
            [
              43.06061057439422,
              20.178129251183236
            ],
            [
              42.68182174464323,
              19.875003781721887
            ],
            [
              41.92424408514114,
              19.34453421016451
            ],
            [
              41.09090935384819,
              18.81406463860708
            ],
            [
              40.18182102156061,
              18.132032332319056
            ],
            [
              39.7272716492223,
              17.90468823022303
            ],
            [
              38.96969746051661,
              17.374211717072967
            ],
            [
              38.590908630765625,
              17.071086247611618
            ],
            [
              37.75757737026902,
              16.54062361764693
            ],
            [
              36.92424263897601,
              16.010160987682184
            ],
            [
              35.560608405146525,
              15.328128681394162
            ],
            [
              35.18181957539548,
              15.176559005070771
            ],
            [
              34.651513131266256,
              14.949221844567433
            ],
            [
              33.66666772718776,
              14.570308066148073
            ],
            [
              32.75757592410383,
              14.418752273010057
            ],
            [
              32.075762277985405,
              14.494533640375437
            ],
            [
              31.393941690274346,
              14.494533640375437
            ],
            [
              30.863635246145122,
              14.418752273010057
            ],
            [
              30.106061057439433,
              14.267182596686723
            ],
            [
              29.424240469728318,
              14.039845436183384
            ],
            [
              29.045455110773617,
              13.812501334087358
            ],
            [
              28.742423352813546,
              13.585157231991332
            ],
            [
              28.43939506564982,
              13.357806188302618
            ],
            [
              28.060606235898774,
              13.054680718841269
            ],
            [
              27.606060334356812,
              12.751569132565294
            ],
            [
              27.075760831820276,
              12.448443663103944
            ],
            [
              26.62121145948197,
              12.22109261941523
            ],
            [
              26.166665557940064,
              11.993755458911892
            ],
            [
              25.78787672818902,
              11.766404415223178
            ],
            [
              25.333337768239744,
              11.53906725471984
            ],
            [
              24.878788395901438,
              11.387504519989193
            ],
            [
              24.49999956615045,
              11.23594178525849
            ],
            [
              23.893939521026596,
              11.008597683162463
            ],
            [
              23.287882946699142,
              10.781253581066437
            ],
            [
              22.75757650256992,
              10.62969084633579
            ],
            [
              22.303030601027956,
              10.478128111605088
            ],
            [
              21.772727627695076,
              10.250777067916374
            ],
            [
              21.090910510780304,
              10.099221274778415
            ],
            [
              20.33333285127827,
              9.947651598455025
            ],
            [
              19.72727627695076,
              9.796095805317009
            ],
            [
              19.196969832821537,
              9.644526128993675
            ],
            [
              18.363635101528587,
              9.341400659532326
            ],
            [
              17.98485321337023,
              9.265626233759633
            ],
            [
              17.378789697450088,
              9.114063499028987
            ],
            [
              16.772726181529947,
              8.810938029567637
            ],
            [
              16.24242320819701,
              8.507812560106231
            ],
            [
              15.71212023486413,
              8.128912664872246
            ],
            [
              15.18181726153125,
              7.901561621183532
            ],
            [
              14.65151428819837,
              7.674224460680193
            ],
            [
              14.12121131486549,
              7.295317623853521
            ],
            [
              13.666667148721672,
              6.916410787026791
            ],
            [
              13.363638861557945,
              6.689066684930765
            ],
            [
              13.060605368199731,
              6.3859412154694155
            ],
            [
              12.681816538448686,
              6.082815746008066
            ],
            [
              12.37878825128496,
              5.85547164391204
            ],
            [
              11.999999421533914,
              5.47656480708531
            ],
            [
              11.545455255390152,
              5.097664911851325
            ],
            [
              11.166666425639107,
              4.8703138681626115
            ],
            [
              10.86363813847538,
              4.567188398701262
            ],
            [
              10.56060464511711,
              4.264062929239913
            ],
            [
              10.181821021560609,
              4.18828850346722
            ],
            [
              9.651516312829585,
              4.264062929239913
            ],
            [
              9.27272748307854,
              4.491413972928626
            ],
            [
              8.666665702556543,
              4.794539442389976
            ],
            [
              7.681820298478044,
              5.400783439719987
            ],
            [
              7.303031468727056,
              5.703908909181337
            ],
            [
              6.621214351812284,
              6.2343854223314565
            ],
            [
              6.318180858454014,
              6.4617225828347955
            ],
            [
              5.71212254872836,
              6.992192154392114
            ],
            [
              5.409092526166432,
              7.219536256488141
            ],
            [
              4.803030745644492,
              7.674224460680193
            ],
            [
              4.045454821540602,
              8.356249825375585
            ],
            [
              3.5909089199986397,
              9.114063499028987
            ],
            [
              3.1363630184566773,
              9.796095805317009
            ],
            [
              2.757577659502033,
              10.553902537377724
            ],
            [
              2.3030317579600705,
              11.16015347630048
            ],
            [
              2.0757570717909175,
              11.766404415223178
            ]
          ],
          [
            [
              56.166674234930895,
              52.08202590845349
            ],
            [
              56.090913692343634,
              51.17264950006938
            ],
            [
              56.166674234930895,
              49.88436972565495
            ],
            [
              56.469695580501934,
              49.050774684636224
            ],
            [
              56.92425189443293,
              48.67186784780955
            ],
            [
              57.37878738358586,
              48.36874584914449
            ],
            [
              58.13636504308789,
              47.98983554152147
            ],
            [
              58.818182160002664,
              47.61093217549109
            ],
            [
              59.348485133335544,
              47.38358460259877
            ],
            [
              59.72727396308653,
              47.30780670602974
            ],
            [
              60.33333747900673,
              47.080466074730055
            ],
            [
              60.71211936716509,
              47.080466074730055
            ],
            [
              61.166675681096024,
              47.23202880946076
            ],
            [
              61.545450627661694,
              47.45936944076044
            ],
            [
              61.84848585641811,
              47.68671007206012
            ],
            [
              62.0,
              48.06562037968314
            ],
            [
              61.696971712836216,
              48.59608648044417
            ],
            [
              61.46969702666706,
              48.9749933172709
            ],
            [
              61.166675681096024,
              49.505462888828276
            ],
            [
              60.86363351074692,
              49.96015109302033
            ],
            [
              60.560605223583195,
              50.339057929847
            ],
            [
              60.25757693641947,
              50.71796476667373
            ],
            [
              59.87878810666842,
              51.02109023613508
            ],
            [
              59.49999927691738,
              51.17264950006938
            ],
            [
              59.12121044716639,
              51.399990131369066
            ],
            [
              58.51515387283894,
              51.47577496953079
            ],
            [
              57.909097298511426,
              51.47577496953079
            ],
            [
              57.53030846876038,
              51.55155286609977
            ],
            [
              57.07575909642213,
              51.627337704261436
            ],
            [
              56.84848441025298,
              52.00624107029182
            ]
          ]
        ]
      }
    }
  ]
}