{
  "type": "FeatureCollection",
  "crs": {
    "type": "name",
    "properties": {
      "name": "urn:ogc:def:crs:OGC:1.3:CRS84"
    }
  },
  "features": [
    {
      "type": "Feature",
      "properties": {
        "timestamp": "2026-07-08T00:20:59.605463",
        "country_name": "Other",
        "author": "",
        "author_id": "a5a0a88b-2d17-4c4e-8583-854405ae6455",
        "validated": false,
        "ranking": [
          [
            "Sudan",
            0.3615434467792511
          ],
          [
            "Burundi",
            0.07924971729516983
          ],
          [
            "Cambodia",
            0.07883098721504211
          ],
          [
            "Lesotho",
            0.061878807842731476
          ],
          [
            "Nigeria",
            0.05239759758114815
          ],
          [
            "French Guiana",
            0.03264991566538811
          ],
          [
            "North Macedonia",
            0.03178620710968971
          ],
          [
            "Botswana",
            0.027297407388687134
          ],
          [
            "Sierra Leone",
            0.02665705420076847
          ],
          [
            "Côte d'Ivoire",
            0.024569178000092506
          ],
          [
            "Uganda",
            0.023587647825479507
          ],
          [
            "Suriname",
            0.021282285451889038
          ],
          [
            "Guatemala",
            0.012744486331939697
          ],
          [
            "Lithuania",
            0.011851093731820583
          ],
          [
            "Egypt",
            0.010042949579656124
          ],
          [
            "Cape Verde",
            0.01000789925456047
          ],
          [
            "Bolivia",
            0.009312015026807785
          ],
          [
            "Gabon",
            0.007635597139596939
          ],
          [
            "Eswatini",
            0.00760970264673233
          ],
          [
            "Bosnia & Herzegovina",
            0.007218820974230766
          ],
          [
            "Romania",
            0.0061972737312316895
          ],
          [
            "Reunion",
            0.006159892771393061
          ],
          [
            "Uruguay",
            0.004726414103060961
          ],
          [
            "Ethiopia",
            0.004396403208374977
          ],
          [
            "Syria",
            0.003988718613982201
          ],
          [
            "Saudi Arabia",
            0.0035623875446617603
          ],
          [
            "Ecuador",
            0.0033068519551306963
          ],
          [
            "Poland",
            0.0028905051294714212
          ],
          [
            "Brazil",
            0.0027789289597421885
          ],
          [
            "Germany",
            0.0027759040240198374
          ],
          [
            "Kenya",
            0.0027728930581361055
          ],
          [
            "Angola",
            0.0023164015728980303
          ],
          [
            "Moldova",
            0.002003489527851343
          ],
          [
            "Namibia",
            0.0018939301371574402
          ],
          [
            "France",
            0.0017954951617866755
          ],
          [
            "Rwanda",
            0.0016532107256352901
          ],
          [
            "Barbados",
            0.001630211598239839
          ],
          [
            "United States Virgin Islands",
            0.0015722601674497128
          ],
          [
            "Bulgaria",
            0.0014668526127934456
          ],
          [
            "Iran",
            0.001440567895770073
          ],
          [
            "Dominica",
            0.0013560838997364044
          ],
          [
            "Sri Lanka",
            0.0010978153441101313
          ],
          [
            "Spain",
            0.0010929660638794303
          ],
          [
            "Luxembourg",
            0.0010715298121795058
          ],
          [
            "Venezuela",
            0.001061606570146978
          ],
          [
            "Ghana",
            0.0010212194174528122
          ],
          [
            "Vietnam",
            0.0009902227902784944
          ],
          [
            "Martinique",
            0.0009342592093162239
          ],
          [
            "South Africa",
            0.0008450524765066803
          ],
          [
            "United States of America",
            0.0008429742301814258
          ],
          [
            "Libya",
            0.0008202661410905421
          ],
          [
            "Vanuatu",
            0.0008053265046328306
          ],
          [
            "Nicaragua",
            0.0007383497431874275
          ],
          [
            "Bahrain",
            0.0007301055593416095
          ],
          [
            "Zambia",
            0.0007273367373272777
          ],
          [
            "Comoros",
            0.0007271328940987587
          ],
          [
            "Australia",
            0.0007235331577248871
          ],
          [
            "Belarus",
            0.0007176478975452483
          ],
          [
            "Heard and McDonald Islands",
            0.0006858209380879998
          ],
          [
            "Tanzania",
            0.0006857006228528917
          ],
          [
            "Guadeloupe",
            0.000668908644001931
          ],
          [
            "Antigua & Barbuda",
            0.0006331203621812165
          ],
          [
            "Mauritania",
            0.0005958015681244433
          ],
          [
            "Djibouti",
            0.0005916162044741213
          ],
          [
            "Ukraine",
            0.0005669368547387421
          ],
          [
            "Italy",
            0.0005608643405139446
          ],
          [
            "Czech Republic",
            0.0005408067954704165
          ],
          [
            "Chad",
            0.0005181965534575284
          ],
          [
            "Uzbekistan",
            0.0005037172813899815
          ],
          [
            "Finland",
            0.0005023318808525801
          ],
          [
            "Peru",
            0.0005015305941924453
          ],
          [
            "Guyana",
            0.0004892934812232852
          ],
          [
            "Serbia",
            0.0004875253653153777
          ],
          [
            "Qatar",
            0.00048417079960927367
          ],
          [
            "Turkmenistan",
            0.0004792360996361822
          ],
          [
            "Algeria",
            0.0004580925451591611
          ],
          [
            "Montenegro",
            0.0004573469632305205
          ],
          [
            "Costa Rica",
            0.00044528761645779014
          ],
          [
            "Greenland",
            0.0004433697322383523
          ],
          [
            "Bahamas",
            0.00044179288670420647
          ],
          [
            "Guinea",
            0.00041578899254091084
          ],
          [
            "Mali",
            0.00039897969691082835
          ],
          [
            "Belize",
            0.00039387441938742995
          ],
          [
            "United Arab Emirates",
            0.00037085084477439523
          ],
          [
            "Armenia",
            0.0003476380370557308
          ],
          [
            "Sao Tome and Principe",
            0.000347442488418892
          ],
          [
            "Belgium",
            0.0003458233259152621
          ],
          [
            "Jordan",
            0.0003382127033546567
          ],
          [
            "Albania",
            0.00031418760772794485
          ],
          [
            "Switzerland",
            0.00031046385993249714
          ],
          [
            "South Georgia Islands",
            0.00030898753902874887
          ],
          [
            "Malaysia",
            0.00030680702184326947
          ],
          [
            "Zimbabwe",
            0.0002865724090952426
          ],
          [
            "Congo",
            0.00028544373344630003
          ],
          [
            "Faroe Islands",
            0.0002640068996697664
          ],
          [
            "Iraq",
            0.0002595957776065916
          ],
          [
            "Hungary",
            0.0002553737722337246
          ],
          [
            "Togo",
            0.00025399128207936883
          ],
          [
            "Colombia",
            0.00024569034576416016
          ],
          [
            "India",
            0.00023925943241920322
          ],
          [
            "Saint Lucia",
            0.0002386700944043696
          ],
          [
            "Equatorial Guinea",
            0.00023400780628435314
          ],
          [
            "Bhutan",
            0.00022275879746302962
          ],
          [
            "Laos",
            0.00021773976914118975
          ],
          [
            "Iceland",
            0.00021244648087304085
          ],
          [
            "Isle of Man",
            0.00020971045887563378
          ],
          [
            "Benin",
            0.00020657853747252375
          ],
          [
            "West Bank",
            0.00020606027101166546
          ],
          [
            "Eritrea",
            0.00020426648552529514
          ],
          [
            "Burkina Faso",
            0.00019107213302049786
          ],
          [
            "Dominican Republic",
            0.00017404253594577312
          ],
          [
            "Oman",
            0.000158561859279871
          ],
          [
            "Bangladesh",
            0.00015298415382858366
          ],
          [
            "Tajikistan",
            0.00015273458848241717
          ],
          [
            "Turkey",
            0.00014909834135323763
          ],
          [
            "Mongolia",
            0.00014896558423060924
          ],
          [
            "Liberia",
            0.00014602388546336442
          ],
          [
            "Malawi",
            0.00014434770855586976
          ],
          [
            "Niger",
            0.00013742211740463972
          ],
          [
            "Turks and Caicos Islands",
            0.00013476233289111406
          ],
          [
            "El Salvador",
            0.00013405579375103116
          ],
          [
            "Solomon Islands",
            0.00013097588089294732
          ],
          [
            "Puerto Rico",
            0.00012931744277011603
          ],
          [
            "DR Congo",
            0.0001262716978089884
          ],
          [
            "Yemen",
            0.000124109341413714
          ],
          [
            "South Sudan",
            0.00012283973046578467
          ],
          [
            "Samoa",
            0.00012145330401835963
          ],
          [
            "Paraguay",
            0.00012021407019346952
          ],
          [
            "Mayotte",
            0.00011745306255761534
          ],
          [
            "South Korea",
            0.00011631318920990452
          ],
          [
            "Somalia",
            0.00011053831258323044
          ],
          [
            "China",
            0.00010888894030358642
          ],
          [
            "Mexico",
            0.00010744293103925884
          ],
          [
            "Netherlands Antilles",
            0.00010598195513011888
          ],
          [
            "Slovenia",
            0.00010447188833495602
          ],
          [
            "Cuba",
            9.937320282915607e-05
          ],
          [
            "Kazakhstan",
            9.818494436331093e-05
          ],
          [
            "Tunisia",
            8.692649862496182e-05
          ],
          [
            "Pakistan",
            8.684098429512233e-05
          ],
          [
            "Senegal",
            8.417928620474413e-05
          ],
          [
            "Cameroon",
            8.119799167616293e-05
          ],
          [
            "Madeira Islands",
            7.990117592271417e-05
          ],
          [
            "Georgia",
            7.938257476780564e-05
          ],
          [
            "Latvia",
            7.771053788019344e-05
          ],
          [
            "Hong Kong",
            7.746074697934091e-05
          ],
          [
            "Kuwait",
            7.301775622181594e-05
          ],
          [
            "Russia",
            7.276722317328677e-05
          ],
          [
            "Azerbaijan",
            7.114979962352663e-05
          ],
          [
            "Thailand",
            6.865024624858052e-05
          ],
          [
            "Chile",
            6.853576633147895e-05
          ],
          [
            "Myanmar",
            6.72045280225575e-05
          ],
          [
            "Netherlands",
            6.504201155621558e-05
          ],
          [
            "Slovakia",
            6.420717545552179e-05
          ],
          [
            "Afghanistan",
            6.396478420356289e-05
          ],
          [
            "New Caledonia",
            6.27970221103169e-05
          ],
          [
            "Portugal",
            5.7763780205277726e-05
          ],
          [
            "Svalbard",
            5.6556273193564266e-05
          ],
          [
            "Croatia",
            5.4882970289327204e-05
          ],
          [
            "Honduras",
            5.279191100271419e-05
          ],
          [
            "Papua New Guinea",
            5.238258381723426e-05
          ],
          [
            "Estonia",
            4.781347524840385e-05
          ],
          [
            "Nepal",
            4.7532139433315024e-05
          ],
          [
            "Mozambique",
            4.719500066130422e-05
          ],
          [
            "Jamaica",
            4.5284519728738815e-05
          ],
          [
            "Trinidad and Tobago",
            4.517737033893354e-05
          ],
          [
            "Philippines",
            4.379250458441675e-05
          ],
          [
            "Timor-Leste",
            4.264835297362879e-05
          ],
          [
            "Ireland",
            4.1039013012778014e-05
          ],
          [
            "Indonesia",
            4.0311777411261573e-05
          ],
          [
            "Cyprus",
            3.7721121771028265e-05
          ],
          [
            "New Zealand",
            3.527145236148499e-05
          ],
          [
            "Kyrgyzstan",
            2.9741051548626274e-05
          ],
          [
            "Central African Republic",
            2.9607141186716035e-05
          ],
          [
            "Israel",
            2.9377240934991278e-05
          ],
          [
            "Guinea-Bissau",
            2.8331032808637246e-05
          ],
          [
            "Fiji",
            2.604755172797013e-05
          ],
          [
            "Canada",
            2.484327706042677e-05
          ],
          [
            "United Kingdom",
            2.4629172912682407e-05
          ],
          [
            "Argentina",
            2.4267599656013772e-05
          ],
          [
            "Denmark",
            2.2819747755420394e-05
          ],
          [
            "Japan",
            2.040312028839253e-05
          ],
          [
            "Brunei",
            1.998346851905808e-05
          ],
          [
            "Panama",
            1.828072709031403e-05
          ],
          [
            "Guam",
            1.794318995962385e-05
          ],
          [
            "North Korea",
            1.6896143279154785e-05
          ],
          [
            "Falkland Islands",
            1.6868032616912387e-05
          ],
          [
            "Austria",
            1.595745015947614e-05
          ],
          [
            "Sweden",
            1.528501888969913e-05
          ],
          [
            "Greece",
            1.5194532352325041e-05
          ],
          [
            "Norway",
            1.2727996363537386e-05
          ],
          [
            "Western Sahara",
            1.209751280839555e-05
          ],
          [
            "Taiwan",
            1.1887853361258749e-05
          ],
          [
            "Gambia",
            1.0691300303733442e-05
          ],
          [
            "Lebanon",
            9.46409363677958e-06
          ],
          [
            "Palau",
            8.049555617617443e-06
          ],
          [
            "Morocco",
            7.740443834336475e-06
          ],
          [
            "Madagascar",
            6.987655069679022e-06
          ],
          [
            "Haiti",
            4.907697530143196e-06
          ],
          [
            "Kiribati",
            4.358698788564652e-06
          ]
        ]
      },
      "geometry": {
        "type": "MultiLineString",
        "coordinates": [
          [
            [
              46.410480349344994,
              23.222707423580786
            ],
            [
              46.148471615720524,
              22.43668122270742
            ],
            [
              45.624454148471614,
              21.65065502183407
            ],
            [
              44.57641921397379,
              20.60262008733625
            ],
            [
              44.05240174672491,
              19.554585152838428
            ],
            [
              43.00436681222709,
              18.506550218340607
            ],
            [
              42.74235807860262,
              17.196506550218345
            ],
            [
              42.48034934497815,
              16.148471615720524
            ],
            [
              42.21834061135371,
              14.838427947598262
            ],
            [
              41.95633187772927,
              13.00436681222709
            ],
            [
              41.95633187772927,
              11.95633187772927
            ],
            [
              41.43231441048036,
              10.384279475982538
            ],
            [
              41.17030567685589,
              9.598253275109187
            ],
            [
              40.90829694323145,
              8.550218340611366
            ],
            [
              40.38427947598254,
              7.502183406113545
            ],
            [
              39.33624454148472,
              6.454148471615724
            ],
            [
              38.288209606986925,
              5.144104803493462
            ],
            [
              37.240174672489104,
              4.620087336244552
            ],
            [
              36.454148471615724,
              3.834061135371172
            ],
            [
              35.4061135371179,
              3.310043668122262
            ],
            [
              34.62008733624455,
              3.048034934497821
            ],
            [
              33.57205240174673,
              2.78602620087338
            ],
            [
              32.0,
              2.262008733624441
            ],
            [
              30.95196506550218,
              2.0
            ],
            [
              27.807860262008745,
              2.0
            ],
            [
              26.497816593886455,
              2.0
            ],
            [
              24.663755458515283,
              2.262008733624441
            ],
            [
              22.3056768558952,
              3.572052401746731
            ],
            [
              19.161572052401766,
              6.192139737991283
            ],
            [
              15.493449781659393,
              9.860262008733628
            ],
            [
              9.991266375545848,
              14.314410480349352
            ],
            [
              6.847161572052414,
              18.244541484716166
            ],
            [
              5.0131004366812135,
              20.86462882096069
            ],
            [
              3.965065502183421,
              24.532751091703062
            ],
            [
              3.7030567685589517,
              26.890829694323145
            ],
            [
              3.7030567685589517,
              29.248908296943227
            ],
            [
              3.965065502183421,
              32.39301310043669
            ],
            [
              4.227074235807862,
              34.48908296943232
            ],
            [
              4.4890829694323315,
              35.79912663755459
            ],
            [
              4.7510917030567725,
              37.89519650655022
            ],
            [
              5.275109170305683,
              39.72925764192139
            ],
            [
              5.799126637554593,
              41.56331877729258
            ],
            [
              6.585152838427945,
              43.92139737991266
            ],
            [
              6.847161572052414,
              45.755458515283834
            ],
            [
              7.371179039301325,
              47.06550218340611
            ],
            [
              8.419213973799117,
              48.11353711790393
            ],
            [
              10.253275109170318,
              49.9475982532751
            ],
            [
              12.08733624454149,
              50.995633187772924
            ],
            [
              15.231441048034924,
              52.567685589519655
            ],
            [
              16.279475982532745,
              53.61572052401746
            ],
            [
              17.851528384279476,
              54.40174672489083
            ],
            [
              20.209606986899587,
              55.97379912663756
            ],
            [
              22.56768558951967,
              56.49781659388647
            ],
            [
              24.663755458515283,
              56.49781659388647
            ],
            [
              28.069868995633186,
              57.021834061135365
            ],
            [
              30.689956331877738,
              57.28384279475982
            ],
            [
              33.04803493449782,
              57.80786026200873
            ],
            [
              36.454148471615724,
              58.85589519650655
            ],
            [
              38.81222707423581,
              59.64192139737992
            ],
            [
              40.90829694323145,
              60.689956331877724
            ],
            [
              44.05240174672491,
              61.737991266375545
            ],
            [
              45.624454148471614,
              62.0
            ]
          ],
          [
            [
              47.196506550218345,
              21.91266375545851
            ],
            [
              48.244541484716166,
              21.91266375545851
            ],
            [
              49.55458515283843,
              21.91266375545851
            ],
            [
              51.3886462882096,
              22.698689956331876
            ],
            [
              52.69868995633189,
              24.794759825327503
            ],
            [
              52.96069868995636,
              25.580786026200883
            ],
            [
              53.48471615720524,
              27.1528384279476
            ],
            [
              54.53275109170306,
              28.462882096069876
            ],
            [
              54.7947598253275,
              29.248908296943227
            ],
            [
              55.05676855895197,
              30.29694323144105
            ],
            [
              56.36681222707426,
              32.13100436681222
            ],
            [
              56.628820960698704,
              33.17903930131004
            ],
            [
              57.152838427947586,
              35.27510917030568
            ],
            [
              57.676855895196525,
              36.32314410480349
            ],
            [
              58.20087336244541,
              37.109170305676855
            ],
            [
              58.724890829694345,
              38.41921397379913
            ],
            [
              58.98689956331879,
              39.2052401746725
            ],
            [
              59.5109170305677,
              41.56331877729258
            ],
            [
              59.772925764192166,
              42.6113537117904
            ],
            [
              60.03493449781661,
              43.92139737991266
            ],
            [
              60.03493449781661,
              45.49344978165939
            ],
            [
              60.03493449781661,
              47.327510917030565
            ],
            [
              60.03493449781661,
              48.375545851528386
            ],
            [
              59.772925764192166,
              49.16157205240175
            ],
            [
              59.772925764192166,
              51.78165938864629
            ],
            [
              60.03493449781661,
              53.61572052401746
            ],
            [
              60.29694323144105,
              55.44978165938865
            ],
            [
              60.29694323144105,
              57.545851528384276
            ],
            [
              60.29694323144105,
              58.5938864628821
            ],
            [
              60.29694323144105,
              59.64192139737992
            ],
            [
              59.5109170305677,
              59.90393013100437
            ],
            [
              58.724890829694345,
              60.689956331877724
            ],
            [
              57.152838427947586,
              60.95196506550218
            ],
            [
              56.10480349344979,
              61.213973799126634
            ],
            [
              54.7947598253275,
              61.47598253275109
            ],
            [
              53.2227074235808,
              62.0
            ]
          ],
          [
            [
              45.88646288209608,
              60.689956331877724
            ],
            [
              46.672489082969435,
              60.42794759825327
            ],
            [
              47.458515283842814,
              60.16593886462883
            ],
            [
              48.506550218340635,
              59.90393013100437
            ],
            [
              49.29257641921399,
              59.64192139737992
            ],
            [
              50.34061135371178,
              59.64192139737992
            ],
            [
              51.65065502183407,
              59.64192139737992
            ],
            [
              52.96069868995636,
              59.90393013100437
            ],
            [
              53.74672489082968,
              60.16593886462883
            ],
            [
              54.7947598253275,
              60.16593886462883
            ],
            [
              55.842794759825324,
              60.16593886462883
            ]
          ]
        ]
      }
    }
  ]
}