{
  "type": "FeatureCollection",
  "crs": {
    "type": "name",
    "properties": {
      "name": "urn:ogc:def:crs:OGC:1.3:CRS84"
    }
  },
  "features": [
    {
      "type": "Feature",
      "properties": {
        "timestamp": "2026-07-12T07:41:33.903986",
        "country_name": "Other",
        "author": "Isaac",
        "author_id": "5a5bdb66-20b1-4757-a463-033ebd6dc2f8",
        "validated": false,
        "ranking": [
          [
            "Turkmenistan",
            0.10857813060283661
          ],
          [
            "Dominican Republic",
            0.054517947137355804
          ],
          [
            "Georgia",
            0.05015574395656586
          ],
          [
            "Puerto Rico",
            0.046397097408771515
          ],
          [
            "Turkey",
            0.04563358426094055
          ],
          [
            "Mexico",
            0.042770206928253174
          ],
          [
            "Tajikistan",
            0.03888842463493347
          ],
          [
            "Jamaica",
            0.03878024220466614
          ],
          [
            "Turks and Caicos Islands",
            0.03488938882946968
          ],
          [
            "Nepal",
            0.03395313024520874
          ],
          [
            "Russia",
            0.02783668041229248
          ],
          [
            "Slovakia",
            0.023686179891228676
          ],
          [
            "Czech Republic",
            0.02363579347729683
          ],
          [
            "Cuba",
            0.02219255268573761
          ],
          [
            "Indonesia",
            0.020122608169913292
          ],
          [
            "El Salvador",
            0.018953317776322365
          ],
          [
            "Papua New Guinea",
            0.01808541640639305
          ],
          [
            "United States of America",
            0.01803925260901451
          ],
          [
            "Uzbekistan",
            0.017738860100507736
          ],
          [
            "Samoa",
            0.014862009324133396
          ],
          [
            "Kyrgyzstan",
            0.012953259982168674
          ],
          [
            "Eritrea",
            0.012211394496262074
          ],
          [
            "Heard and McDonald Islands",
            0.012006858363747597
          ],
          [
            "Kazakhstan",
            0.011995493434369564
          ],
          [
            "Latvia",
            0.011683640070259571
          ],
          [
            "Mongolia",
            0.011006391607224941
          ],
          [
            "Yemen",
            0.01000079233199358
          ],
          [
            "Guinea-Bissau",
            0.009947343729436398
          ],
          [
            "Falkland Islands",
            0.008608208037912846
          ],
          [
            "Honduras",
            0.008063522167503834
          ],
          [
            "Italy",
            0.00774126872420311
          ],
          [
            "South Georgia Islands",
            0.0075982315465807915
          ],
          [
            "Bahamas",
            0.007561401464045048
          ],
          [
            "New Caledonia",
            0.007505627814680338
          ],
          [
            "Ukraine",
            0.007298087701201439
          ],
          [
            "Panama",
            0.007209004368633032
          ],
          [
            "Hong Kong",
            0.00616627698764205
          ],
          [
            "Bangladesh",
            0.005585118662565947
          ],
          [
            "Guadeloupe",
            0.005488763563334942
          ],
          [
            "Central African Republic",
            0.005267660599201918
          ],
          [
            "Bhutan",
            0.005186962429434061
          ],
          [
            "Saudi Arabia",
            0.005114197731018066
          ],
          [
            "Switzerland",
            0.004958325531333685
          ],
          [
            "Timor-Leste",
            0.004524123389273882
          ],
          [
            "Solomon Islands",
            0.004440648481249809
          ],
          [
            "Madeira Islands",
            0.004157376941293478
          ],
          [
            "Ethiopia",
            0.0037615338806062937
          ],
          [
            "Senegal",
            0.003430826123803854
          ],
          [
            "Burkina Faso",
            0.0033076030667871237
          ],
          [
            "Laos",
            0.0028102495707571507
          ],
          [
            "Guinea",
            0.002728024497628212
          ],
          [
            "Romania",
            0.002602121327072382
          ],
          [
            "Armenia",
            0.0025548599660396576
          ],
          [
            "Ecuador",
            0.0024982676841318607
          ],
          [
            "Malaysia",
            0.002347008092328906
          ],
          [
            "Bulgaria",
            0.001960108755156398
          ],
          [
            "India",
            0.0018091704696416855
          ],
          [
            "Azerbaijan",
            0.0017768803518265486
          ],
          [
            "Philippines",
            0.001716521685011685
          ],
          [
            "Australia",
            0.0016384224873036146
          ],
          [
            "Somalia",
            0.0016364892944693565
          ],
          [
            "China",
            0.0016347671626135707
          ],
          [
            "Comoros",
            0.0015684831887483597
          ],
          [
            "Cyprus",
            0.0015465919859707355
          ],
          [
            "Iceland",
            0.001484053093008697
          ],
          [
            "Rwanda",
            0.0014677847502753139
          ],
          [
            "Gambia",
            0.0012770005268976092
          ],
          [
            "Estonia",
            0.0011610911460593343
          ],
          [
            "Barbados",
            0.001150476629845798
          ],
          [
            "Svalbard",
            0.0010811727261170745
          ],
          [
            "Slovenia",
            0.0010422117775306106
          ],
          [
            "South Sudan",
            0.0010266430908814073
          ],
          [
            "Equatorial Guinea",
            0.0010080233914777637
          ],
          [
            "Peru",
            0.0009986577788367867
          ],
          [
            "Austria",
            0.0009938350412994623
          ],
          [
            "Montenegro",
            0.000988124986179173
          ],
          [
            "Iraq",
            0.0009343858691863716
          ],
          [
            "Costa Rica",
            0.0009188789408653975
          ],
          [
            "Denmark",
            0.0009156754822470248
          ],
          [
            "Gabon",
            0.0009066004422493279
          ],
          [
            "South Korea",
            0.0009033657261170447
          ],
          [
            "Thailand",
            0.0008951209601946175
          ],
          [
            "Netherlands Antilles",
            0.0008796044276095927
          ],
          [
            "North Macedonia",
            0.0008435308118350804
          ],
          [
            "Kiribati",
            0.0007998447981663048
          ],
          [
            "Mozambique",
            0.000774157524574548
          ],
          [
            "Belgium",
            0.0007449218537658453
          ],
          [
            "Guyana",
            0.0007416752050630748
          ],
          [
            "Malawi",
            0.0007210713229142129
          ],
          [
            "Syria",
            0.0006823997828178108
          ],
          [
            "Serbia",
            0.0006522044423036277
          ],
          [
            "Sierra Leone",
            0.0006502741598524153
          ],
          [
            "Bolivia",
            0.0006281443638727069
          ],
          [
            "Lithuania",
            0.0006202557124197483
          ],
          [
            "Hungary",
            0.0006188330007717013
          ],
          [
            "Japan",
            0.0006092098192311823
          ],
          [
            "Canada",
            0.0006067734211683273
          ],
          [
            "Myanmar",
            0.0006005055038258433
          ],
          [
            "Liberia",
            0.0005970119964331388
          ],
          [
            "Niger",
            0.0005857115611433983
          ],
          [
            "France",
            0.000551524804905057
          ],
          [
            "Luxembourg",
            0.0005435099010355771
          ],
          [
            "Mali",
            0.0005284836515784264
          ],
          [
            "Zambia",
            0.000526751740835607
          ],
          [
            "Martinique",
            0.000518138287588954
          ],
          [
            "Greece",
            0.0005030616302974522
          ],
          [
            "Fiji",
            0.0004840655601583421
          ],
          [
            "Belize",
            0.0004797043511644006
          ],
          [
            "Angola",
            0.00047891176654957235
          ],
          [
            "Vanuatu",
            0.0004694239760283381
          ],
          [
            "Paraguay",
            0.00045642504119314253
          ],
          [
            "New Zealand",
            0.00045108431368134916
          ],
          [
            "Moldova",
            0.0004459540359675884
          ],
          [
            "Burundi",
            0.00044058874482288957
          ],
          [
            "Guatemala",
            0.0004282158915884793
          ],
          [
            "Albania",
            0.0003993085992988199
          ],
          [
            "Spain",
            0.00039618986193090677
          ],
          [
            "Argentina",
            0.0003878589777741581
          ],
          [
            "Congo",
            0.00037939054891467094
          ],
          [
            "Sri Lanka",
            0.00036603151238523424
          ],
          [
            "United Arab Emirates",
            0.00035543908597901464
          ],
          [
            "Uruguay",
            0.00034825794864445925
          ],
          [
            "Haiti",
            0.00034245479037053883
          ],
          [
            "Benin",
            0.00032640263088978827
          ],
          [
            "Cambodia",
            0.0003197471087332815
          ],
          [
            "Cape Verde",
            0.00031080038752406836
          ],
          [
            "Trinidad and Tobago",
            0.0002972530492115766
          ],
          [
            "South Africa",
            0.0002955198287963867
          ],
          [
            "Tunisia",
            0.00029437331249937415
          ],
          [
            "Nigeria",
            0.00028675561770796776
          ],
          [
            "Togo",
            0.00028587691485881805
          ],
          [
            "Vietnam",
            0.00028231742908246815
          ],
          [
            "United Kingdom",
            0.000281920307315886
          ],
          [
            "Namibia",
            0.0002720353950280696
          ],
          [
            "Iran",
            0.0002696847659535706
          ],
          [
            "Kuwait",
            0.00026926331338472664
          ],
          [
            "Suriname",
            0.0002655036805663258
          ],
          [
            "Finland",
            0.00026503618573769927
          ],
          [
            "Oman",
            0.00026081374380737543
          ],
          [
            "Croatia",
            0.00025949583505280316
          ],
          [
            "Sweden",
            0.00025606201961636543
          ],
          [
            "Faroe Islands",
            0.00024666282115504146
          ],
          [
            "Israel",
            0.00024597125593572855
          ],
          [
            "Algeria",
            0.00024307127750944346
          ],
          [
            "Reunion",
            0.00023903092369437218
          ],
          [
            "Brunei",
            0.00023541624250356108
          ],
          [
            "Ireland",
            0.0002314868033863604
          ],
          [
            "Cameroon",
            0.00023055748897604644
          ],
          [
            "Afghanistan",
            0.00022038881434127688
          ],
          [
            "Guam",
            0.0002158480347134173
          ],
          [
            "Portugal",
            0.00021106519852764904
          ],
          [
            "Djibouti",
            0.00020191946532577276
          ],
          [
            "Sudan",
            0.00018718217324931175
          ],
          [
            "Lesotho",
            0.0001821363839553669
          ],
          [
            "Qatar",
            0.00018127790826838464
          ],
          [
            "Colombia",
            0.00017835617472883314
          ],
          [
            "Chile",
            0.0001757066056597978
          ],
          [
            "Mayotte",
            0.0001716206461424008
          ],
          [
            "Venezuela",
            0.0001606266014277935
          ],
          [
            "Bahrain",
            0.00015777477528899908
          ],
          [
            "Kenya",
            0.00015431288920808583
          ],
          [
            "North Korea",
            0.00015418844122905284
          ],
          [
            "Eswatini",
            0.00015069253277033567
          ],
          [
            "Jordan",
            0.0001451685675419867
          ],
          [
            "Belarus",
            0.00014111530617810786
          ],
          [
            "Côte d'Ivoire",
            0.000133082881802693
          ],
          [
            "Sao Tome and Principe",
            0.00013252359349280596
          ],
          [
            "Ghana",
            0.0001283627498196438
          ],
          [
            "Mauritania",
            0.0001265598548343405
          ],
          [
            "Poland",
            0.00012428323680069298
          ],
          [
            "Germany",
            0.00012173742288723588
          ],
          [
            "Zimbabwe",
            0.00011980893032159656
          ],
          [
            "Libya",
            0.00011886000720551237
          ],
          [
            "Netherlands",
            0.00011809215357061476
          ],
          [
            "Greenland",
            0.00011560964048840106
          ],
          [
            "Taiwan",
            0.00011501776316436008
          ],
          [
            "Dominica",
            0.00010968814603984356
          ],
          [
            "DR Congo",
            0.0001095654079108499
          ],
          [
            "Nicaragua",
            0.00010928761184914038
          ],
          [
            "Uganda",
            0.0001048217891366221
          ],
          [
            "French Guiana",
            0.00010403562191640958
          ],
          [
            "Norway",
            0.00010018547618528828
          ],
          [
            "Brazil",
            9.445525211049244e-05
          ],
          [
            "Tanzania",
            9.032912203110754e-05
          ],
          [
            "Pakistan",
            8.845537377055734e-05
          ],
          [
            "Botswana",
            8.687181252753362e-05
          ],
          [
            "West Bank",
            8.37572879390791e-05
          ],
          [
            "Bosnia & Herzegovina",
            7.791625830577686e-05
          ],
          [
            "Lebanon",
            7.330145308515057e-05
          ],
          [
            "Egypt",
            7.234804070321843e-05
          ],
          [
            "Saint Lucia",
            7.113338506314903e-05
          ],
          [
            "Palau",
            6.832498183939606e-05
          ],
          [
            "Western Sahara",
            6.558441964443773e-05
          ],
          [
            "Morocco",
            6.460544682340696e-05
          ],
          [
            "Isle of Man",
            5.790498835267499e-05
          ],
          [
            "Antigua & Barbuda",
            4.738369898404926e-05
          ],
          [
            "Madagascar",
            3.824425220955163e-05
          ],
          [
            "United States Virgin Islands",
            2.9805340091115795e-05
          ],
          [
            "Chad",
            2.3167704057414085e-05
          ]
        ]
      },
      "geometry": {
        "type": "MultiLineString",
        "coordinates": [
          [
            [
              7.551629878340108,
              47.57160316062158
            ],
            [
              8.38046421223359,
              47.57160316062158
            ],
            [
              10.357477873373597,
              47.39189237504914
            ],
            [
              13.153282346478761,
              47.10228790779459
            ],
            [
              15.090316939748618,
              46.942566656157254
            ],
            [
              17.806260787035058,
              46.652962188902706
            ],
            [
              20.622054794075297,
              46.3933907775116
            ],
            [
              22.010011018621128,
              46.233669525874234
            ],
            [
              25.075332915124108,
              45.80423583099579
            ],
            [
              26.64299992524238,
              45.82422536493087
            ],
            [
              29.079382827202664,
              45.56465395353976
            ],
            [
              30.497274597690307,
              45.554610431611394
            ],
            [
              32.37443809907657,
              45.35491011210391
            ],
            [
              33.323014616737254,
              45.195188860466544
            ],
            [
              34.42136637402854,
              45.015478074894105
            ],
            [
              35.489782585378066,
              44.92557392714707
            ],
            [
              36.67794098049475,
              44.586141889937295
            ],
            [
              37.41687116664119,
              44.446312662313375
            ],
            [
              38.19568291073617,
              44.27654788874767
            ],
            [
              39.12426989446175,
              44.1766977289939
            ],
            [
              40.50218259707924,
              43.976997409486415
            ],
            [
              41.520673728551856,
              43.85715771579757
            ],
            [
              42.449260712277464,
              43.767351077972165
            ],
            [
              43.447762309815005,
              43.64751138428335
            ],
            [
              44.46625344128765,
              43.54766122452958
            ],
            [
              45.18519409349901,
              43.46780059871091
            ],
            [
              45.68444489226778,
              43.11832503957277
            ],
            [
              45.43481949288338,
              42.38943837535467
            ],
            [
              44.945514706121344,
              40.74191073941773
            ],
            [
              44.446263907352574,
              38.76479956835607
            ],
            [
              44.16670296202636,
              37.526716093362495
            ],
            [
              44.0269712443241,
              36.08883478893975
            ],
            [
              43.96700264251888,
              34.421317619067736
            ],
            [
              43.96700264251888,
              33.62251634103768
            ],
            [
              43.96700264251888,
              32.95359827862484
            ],
            [
              43.767302323011364,
              32.20472208047167
            ],
            [
              43.27809504617093,
              31.655546201826013
            ],
            [
              42.52921884801776,
              31.20622048293413
            ],
            [
              41.590588342363816,
              31.20622048293413
            ],
            [
              40.42232197126057,
              31.20622048293413
            ],
            [
              39.22412005421552,
              31.20622048293413
            ],
            [
              37.94605751135177,
              31.20622048293413
            ],
            [
              37.067395607503045,
              31.20622048293413
            ],
            [
              36.42831558111038,
              31.26609157481772
            ],
            [
              35.419867971566106,
              31.365941734571464
            ],
            [
              34.26154761246957,
              31.495727440267018
            ],
            [
              33.562596494193286,
              31.495727440267018
            ],
            [
              32.88363490985208,
              31.495727440267018
            ],
            [
              32.034908551945136,
              31.495727440267018
            ],
            [
              30.996525396459077,
              31.495727440267018
            ],
            [
              30.09787395867528,
              31.34595220063639
            ],
            [
              29.26903962478181,
              31.086380789245283
            ],
            [
              28.49022788068686,
              30.756894764042244
            ],
            [
              27.721362148598615,
              30.317515057157067
            ],
            [
              26.832754232743184,
              29.69842456469945
            ],
            [
              25.934102794959387,
              28.769837580973842
            ],
            [
              25.38492691631373,
              28.10082200863937
            ],
            [
              24.695921810044155,
              27.28203119667424
            ],
            [
              24.046895771644756,
              26.413412814753883
            ],
            [
              23.477730359064026,
              25.474782309099936
            ],
            [
              23.10836277591244,
              24.60606641725795
            ],
            [
              22.838747842592966,
              23.78727560529282
            ],
            [
              22.64899353509219,
              22.99851784919113
            ],
            [
              22.439347203577967,
              22.139747969355852
            ],
            [
              22.299517975954046,
              21.331000679319118
            ],
            [
              22.199667816200304,
              20.412359707600245
            ],
            [
              22.149742736323418,
              19.783323203135893
            ],
            [
              22.1098611783749,
              19.014457471047677
            ],
            [
              21.97003195075098,
              18.29551681883632
            ],
            [
              21.650491937554648,
              17.746340940190663
            ],
            [
              21.281026844481403,
              17.15728350359649
            ],
            [
              20.72190495382904,
              16.87772255827028
            ],
            [
              20.00296430161768,
              16.87772255827028
            ],
            [
              19.343992251211546,
              16.87772255827028
            ],
            [
              18.065929708347824,
              16.87772255827028
            ],
            [
              17.14728873662895,
              16.87772255827028
            ],
            [
              16.39841253847578,
              16.957583184088975
            ],
            [
              15.739342978148017,
              17.137293969661386
            ],
            [
              14.930595688111254,
              17.217154595480082
            ],
            [
              14.271623637705119,
              17.217154595480082
            ],
            [
              13.562628997500497,
              16.957583184088975
            ],
            [
              12.903656947094362,
              16.568128557080655
            ],
            [
              12.314502000578557,
              16.058931746305177
            ],
            [
              11.73539057599109,
              15.679520641225224
            ],
            [
              11.126343605461841,
              15.639541573355075
            ],
            [
              10.417348965257219,
              15.79926282499244
            ],
            [
              9.858227074604827,
              16.058931746305177
            ],
            [
              9.318997207965907,
              16.448288863391838
            ],
            [
              8.859725477067286,
              16.997464742037494
            ],
            [
              8.769821329320251,
              17.786320008060812
            ],
            [
              8.939586102885954,
              18.4054105005184
            ],
            [
              9.12934041038676,
              19.15428669867157
            ],
            [
              9.818248006734677,
              21.08137527993472
            ],
            [
              10.317498805503448,
              22.888624167509022
            ],
            [
              10.73688897845355,
              24.31655945992503
            ],
            [
              10.996460389844657,
              25.844247402173153
            ],
            [
              11.126343605461841,
              26.433304838767327
            ],
            [
              11.26607532316413,
              27.571635663928788
            ],
            [
              11.405904550788023,
              28.38038295396555
            ],
            [
              11.715401042056016,
              29.748349644576336
            ],
            [
              11.955080429433679,
              30.73690523010714
            ],
            [
              12.214651840824786,
              31.615567133955864
            ],
            [
              12.464277240209185,
              32.42431442399263
            ],
            [
              12.663977559716699,
              33.07334046239205
            ],
            [
              12.823796321275694,
              33.87214174042208
            ],
            [
              13.01345311885484,
              34.62101793857525
            ],
            [
              13.073421720660065,
              35.27004397697465
            ],
            [
              13.093313744673509,
              35.91907001537405
            ],
            [
              12.743838185535367,
              36.57813957570181
            ],
            [
              11.955080429433679,
              37.426865933608724
            ],
            [
              10.816749604272218,
              38.345506905327596
            ],
            [
              10.017948326242191,
              38.87469325003818
            ],
            [
              9.299007674030833,
              39.25410435511813
            ],
            [
              8.640035623624698,
              39.58359038032117
            ],
            [
              7.022443533629541,
              40.132766258966825
            ],
            [
              6.283610857404739,
              40.41232720429301
            ],
            [
              5.524691137323217,
              40.43231673822811
            ],
            [
              4.636083221467771,
              40.522220885975145
            ],
            [
              3.887207023314616,
              40.64206057966396
            ],
            [
              3.198201917045054,
              40.661952603677406
            ],
            [
              2.609046970529249,
              40.78179229736625
            ],
            [
              1.9999999999999858,
              40.98149261687374
            ],
            [
              2.169764773565703,
              41.76030436096872
            ],
            [
              2.529186344710567,
              42.30948023961437
            ],
            [
              3.0783622233562227,
              43.058356437767515
            ],
            [
              3.6774631818787498,
              43.95700787555131
            ],
            [
              4.6460292334744935,
              45.13531776858295
            ],
            [
              5.3549263637574995,
              46.083894286243606
            ],
            [
              5.784360058635954,
              46.68299524476615
            ],
            [
              6.143781629780818,
              47.20213806754836
            ],
            [
              6.663021962484677,
              47.84121809394105
            ],
            [
              7.282112454942279,
              48.32047935877475
            ],
            [
              7.941084505348414,
              48.3604584266449
            ],
            [
              8.660025157559772,
              48.18074764107246
            ],
            [
              9.458826435589799,
              48.10078950533216
            ],
            [
              10.09780895206086,
              47.901089185824645
            ],
            [
              10.936589297961063,
              47.53172160267306
            ],
            [
              11.575669324353754,
              47.41188190898421
            ],
            [
              12.294512466643482,
              47.25206314742525
            ],
            [
              13.103357266601876,
              47.12227744172969
            ],
            [
              13.822297918813234,
              47.0624063498461
            ]
          ],
          [
            [
              39.94306070642688,
              26.10381881356426
            ],
            [
              38.844708949135565,
              25.764386776354485
            ],
            [
              37.67644257803232,
              25.125306749961794
            ],
            [
              36.72786606037164,
              24.476280711562396
            ],
            [
              35.599578757138545,
              23.507714659966638
            ],
            [
              35.15025303824663,
              23.078378475009828
            ],
            [
              34.571141613659165,
              22.509213062429097
            ],
            [
              34.321516214274794,
              21.880176557964745
            ],
            [
              34.531162545789016,
              20.82180386854361
            ],
            [
              34.850702558985375,
              20.312509547846474
            ],
            [
              36.23865878353121,
              20.192669854157657
            ],
            [
              37.08738514143812,
              20.33249908178155
            ],
            [
              38.05585368311225,
              20.61206002710773
            ],
            [
              38.81477340319378,
              20.801814334608537
            ],
            [
              39.53371405540514,
              21.141246371818312
            ],
            [
              40.12277149199929,
              21.630551158580374
            ],
            [
              40.202632117817984,
              22.60906322218284
            ],
            [
              39.97299625236866,
              23.587575285785334
            ],
            [
              39.44380990765808,
              24.705916577011692
            ],
            [
              39.03446325663634,
              25.275081989592422
            ],
            [
              38.315522604424984,
              25.53465340098353
            ],
            [
              37.596581952213626,
              25.21521089770883
            ],
            [
              37.03746006156126,
              24.805766736765463
            ]
          ],
          [
            [
              48.87965000438794,
              25.474782309099936
            ],
            [
              48.10083826029296,
              25.474782309099936
            ],
            [
              46.583096330051575,
              25.17523182983868
            ],
            [
              45.5746487205073,
              24.685927043076617
            ],
            [
              44.57614712296976,
              23.88712576504659
            ],
            [
              43.9470131085838,
              23.018507383126206
            ],
            [
              43.49768738969189,
              22.03989780960211
            ],
            [
              43.4378162978083,
              21.410861305137786
            ],
            [
              43.4378162978083,
              20.272627989897956
            ],
            [
              43.63751661731581,
              19.393868576127602
            ],
            [
              43.907131550635256,
              18.58512128609084
            ],
            [
              44.66595376079516,
              17.766330474125738
            ],
            [
              45.4148299589483,
              17.36692983511071
            ],
            [
              46.543117262181426,
              17.26707967535694
            ],
            [
              47.192143300580824,
              17.54664062068315
            ],
            [
              47.99094457861088,
              18.175774635069104
            ],
            [
              48.52022843324306,
              19.034447004982752
            ],
            [
              48.76985383262746,
              19.663483509447076
            ],
            [
              49.06940431188872,
              21.04139621206457
            ],
            [
              49.20913602959101,
              22.139747969355852
            ],
            [
              49.20913602959101,
              22.74889244980676
            ],
            [
              49.20913602959101,
              23.767383581279375
            ],
            [
              49.06940431188872,
              24.60606641725795
            ],
            [
              48.67994968488043,
              25.35494261541109
            ],
            [
              48.27060303385869,
              25.844247402173153
            ]
          ],
          [
            [
              56.887652318623395,
              27.10232041110183
            ],
            [
              55.499696094077564,
              26.49327344057255
            ],
            [
              53.542671966872604,
              24.825756270700538
            ],
            [
              52.574105915276874,
              23.417908022141233
            ],
            [
              52.074855116508104,
              22.549192130299247
            ],
            [
              51.855165263065516,
              21.980026717718516
            ],
            [
              51.715433545363226,
              21.331000679319118
            ],
            [
              51.87515479700059,
              20.312509547846474
            ],
            [
              52.644020529088834,
              19.43384764399778
            ],
            [
              53.352917659371826,
              19.054436538917827
            ],
            [
              55.12028498899761,
              18.824800673468502
            ],
            [
              56.348422451984476,
              18.824800673468502
            ],
            [
              57.636528516776565,
              19.134297164736495
            ],
            [
              59.24407708484338,
              19.963033988708332
            ],
            [
              60.11279297668537,
              20.552188935224137
            ],
            [
              61.22109074598339,
              21.82030546608115
            ],
            [
              61.770266624629045,
              22.978528315256057
            ],
            [
              62.0,
              24.056890538612294
            ],
            [
              61.740331078687234,
              25.88412896012167
            ],
            [
              60.99145488053409,
              27.162289012907053
            ],
            [
              60.452322523816804,
              28.000971848885598
            ],
            [
              59.773263429553936,
              28.729858513103693
            ],
            [
              59.28405615271353,
              29.109367128105276
            ],
            [
              58.49520088669021,
              29.179184231995606
            ],
            [
              57.916089462102775,
              28.590126795401403
            ]
          ]
        ]
      }
    }
  ]
}