{
  "type": "FeatureCollection",
  "crs": {
    "type": "name",
    "properties": {
      "name": "urn:ogc:def:crs:OGC:1.3:CRS84"
    }
  },
  "features": [
    {
      "type": "Feature",
      "properties": {
        "timestamp": "2026-06-15T19:10:32.802164",
        "country_name": "Other",
        "author": "Hi",
        "author_id": "82eb82af-ba18-4f50-b91f-ad9a9585603c",
        "validated": false,
        "ranking": [
          [
            "India",
            0.062037840485572815
          ],
          [
            "Nigeria",
            0.0593547523021698
          ],
          [
            "Syria",
            0.0586882047355175
          ],
          [
            "Cape Verde",
            0.033330392092466354
          ],
          [
            "Ecuador",
            0.02691301703453064
          ],
          [
            "Dominican Republic",
            0.02430298738181591
          ],
          [
            "Jordan",
            0.02321808785200119
          ],
          [
            "Botswana",
            0.02310640551149845
          ],
          [
            "Czech Republic",
            0.020002953708171844
          ],
          [
            "Bolivia",
            0.019199227914214134
          ],
          [
            "Saudi Arabia",
            0.01800747588276863
          ],
          [
            "Montenegro",
            0.017117463052272797
          ],
          [
            "Somalia",
            0.016995368525385857
          ],
          [
            "Burundi",
            0.016733668744564056
          ],
          [
            "Gabon",
            0.01670534908771515
          ],
          [
            "Afghanistan",
            0.015749778598546982
          ],
          [
            "Turkey",
            0.015378803014755249
          ],
          [
            "Egypt",
            0.015162050724029541
          ],
          [
            "Spain",
            0.014584706164896488
          ],
          [
            "Uzbekistan",
            0.013203378766775131
          ],
          [
            "Guadeloupe",
            0.012018329463899136
          ],
          [
            "Bangladesh",
            0.011944377794861794
          ],
          [
            "Slovakia",
            0.010387079790234566
          ],
          [
            "Bhutan",
            0.010048644617199898
          ],
          [
            "Cambodia",
            0.009815230965614319
          ],
          [
            "Cyprus",
            0.009614012204110622
          ],
          [
            "North Macedonia",
            0.009298511780798435
          ],
          [
            "El Salvador",
            0.0091529730707407
          ],
          [
            "Suriname",
            0.008988101966679096
          ],
          [
            "Malaysia",
            0.00890675000846386
          ],
          [
            "Equatorial Guinea",
            0.008837217465043068
          ],
          [
            "Bulgaria",
            0.00875036884099245
          ],
          [
            "Honduras",
            0.008674195036292076
          ],
          [
            "Belize",
            0.008314840495586395
          ],
          [
            "Rwanda",
            0.008067031390964985
          ],
          [
            "Lithuania",
            0.007731001358479261
          ],
          [
            "Switzerland",
            0.007214378099888563
          ],
          [
            "Angola",
            0.006951245479285717
          ],
          [
            "Mongolia",
            0.00675449101254344
          ],
          [
            "Puerto Rico",
            0.0065670618787407875
          ],
          [
            "Sudan",
            0.006388976238667965
          ],
          [
            "Ethiopia",
            0.006261472124606371
          ],
          [
            "Djibouti",
            0.006241737864911556
          ],
          [
            "South Georgia Islands",
            0.006180054508149624
          ],
          [
            "Moldova",
            0.006133107002824545
          ],
          [
            "Ukraine",
            0.005746562499552965
          ],
          [
            "Vietnam",
            0.00537876458838582
          ],
          [
            "Turkmenistan",
            0.005301357246935368
          ],
          [
            "Iran",
            0.00517872953787446
          ],
          [
            "Lesotho",
            0.005166268907487392
          ],
          [
            "Slovenia",
            0.00490136444568634
          ],
          [
            "Russia",
            0.004743647761642933
          ],
          [
            "Barbados",
            0.00453359168022871
          ],
          [
            "Uruguay",
            0.004293063655495644
          ],
          [
            "Armenia",
            0.004253995604813099
          ],
          [
            "Bahamas",
            0.004128638189285994
          ],
          [
            "Heard and McDonald Islands",
            0.00403760839253664
          ],
          [
            "Martinique",
            0.004020049702376127
          ],
          [
            "Namibia",
            0.0039964113384485245
          ],
          [
            "Timor-Leste",
            0.0039482926949858665
          ],
          [
            "Libya",
            0.0038778309244662523
          ],
          [
            "United Arab Emirates",
            0.003807813161984086
          ],
          [
            "Venezuela",
            0.0037850327789783478
          ],
          [
            "Kuwait",
            0.0036972255911678076
          ],
          [
            "Zambia",
            0.0036954418756067753
          ],
          [
            "Eritrea",
            0.0035677810665220022
          ],
          [
            "Benin",
            0.003563986159861088
          ],
          [
            "Georgia",
            0.003525099018588662
          ],
          [
            "United States of America",
            0.0033146142959594727
          ],
          [
            "Guinea",
            0.0032302376348525286
          ],
          [
            "Brazil",
            0.003158829640597105
          ],
          [
            "Guyana",
            0.003146466799080372
          ],
          [
            "South Africa",
            0.003144786925986409
          ],
          [
            "Tajikistan",
            0.0031413277611136436
          ],
          [
            "New Caledonia",
            0.0030916824471205473
          ],
          [
            "Antigua & Barbuda",
            0.0030727346893399954
          ],
          [
            "Romania",
            0.003017898416146636
          ],
          [
            "Falkland Islands",
            0.0029795661102980375
          ],
          [
            "France",
            0.0029556346125900745
          ],
          [
            "Hong Kong",
            0.0029430000577121973
          ],
          [
            "Jamaica",
            0.002923569642007351
          ],
          [
            "Mexico",
            0.0028830566443502903
          ],
          [
            "Yemen",
            0.0028818913269788027
          ],
          [
            "Comoros",
            0.0028104272205382586
          ],
          [
            "Paraguay",
            0.0026588805485516787
          ],
          [
            "Guatemala",
            0.0026175682432949543
          ],
          [
            "Belgium",
            0.002555031096562743
          ],
          [
            "Kyrgyzstan",
            0.002540511079132557
          ],
          [
            "Burkina Faso",
            0.0025398375000804663
          ],
          [
            "Indonesia",
            0.002526863943785429
          ],
          [
            "Mali",
            0.002452397020533681
          ],
          [
            "Papua New Guinea",
            0.0024027626495808363
          ],
          [
            "Hungary",
            0.0023471922613680363
          ],
          [
            "Serbia",
            0.0023378897458314896
          ],
          [
            "Mayotte",
            0.002301411470398307
          ],
          [
            "Sierra Leone",
            0.0022519147023558617
          ],
          [
            "Togo",
            0.002249291865155101
          ],
          [
            "Côte d'Ivoire",
            0.002235621912404895
          ],
          [
            "Thailand",
            0.002196726156398654
          ],
          [
            "Vanuatu",
            0.0021354234777390957
          ],
          [
            "Bosnia & Herzegovina",
            0.002027872484177351
          ],
          [
            "Liberia",
            0.002013519871979952
          ],
          [
            "Congo",
            0.001930261729285121
          ],
          [
            "Reunion",
            0.001901688170619309
          ],
          [
            "Cuba",
            0.0018269913271069527
          ],
          [
            "Senegal",
            0.001825813902541995
          ],
          [
            "Mozambique",
            0.0018181720515713096
          ],
          [
            "Greenland",
            0.0017959651304408908
          ],
          [
            "Costa Rica",
            0.0017922078259289265
          ],
          [
            "Turks and Caicos Islands",
            0.001787956920452416
          ],
          [
            "Netherlands Antilles",
            0.0017694808775559068
          ],
          [
            "China",
            0.0017681954195722938
          ],
          [
            "French Guiana",
            0.0017425527330487967
          ],
          [
            "Finland",
            0.0017191498773172498
          ],
          [
            "Nepal",
            0.001682801521383226
          ],
          [
            "Guam",
            0.0016588906291872263
          ],
          [
            "South Korea",
            0.0016339696012437344
          ],
          [
            "Western Sahara",
            0.001568034989759326
          ],
          [
            "Lebanon",
            0.0015430153580382466
          ],
          [
            "Kazakhstan",
            0.001532018301077187
          ],
          [
            "Panama",
            0.0015307973371818662
          ],
          [
            "Poland",
            0.0015219614142552018
          ],
          [
            "Australia",
            0.001500914222560823
          ],
          [
            "United States Virgin Islands",
            0.001465765293687582
          ],
          [
            "Guinea-Bissau",
            0.0014627405907958746
          ],
          [
            "North Korea",
            0.001447815797291696
          ],
          [
            "Faroe Islands",
            0.0014422290259972215
          ],
          [
            "Uganda",
            0.0014257500879466534
          ],
          [
            "Croatia",
            0.00141464127227664
          ],
          [
            "Iraq",
            0.00139854964800179
          ],
          [
            "Tanzania",
            0.0012192713329568505
          ],
          [
            "Solomon Islands",
            0.0012171035632491112
          ],
          [
            "Malawi",
            0.0011901844991371036
          ],
          [
            "Philippines",
            0.001175607438199222
          ],
          [
            "Oman",
            0.0011708656093105674
          ],
          [
            "Fiji",
            0.0011689108796417713
          ],
          [
            "Latvia",
            0.0011654780246317387
          ],
          [
            "Central African Republic",
            0.0011195067781955004
          ],
          [
            "Madeira Islands",
            0.001090515754185617
          ],
          [
            "Iceland",
            0.0010839833412319422
          ],
          [
            "Sao Tome and Principe",
            0.001060467679053545
          ],
          [
            "West Bank",
            0.0010185916908085346
          ],
          [
            "Myanmar",
            0.0010185529245063663
          ],
          [
            "Estonia",
            0.001010198495350778
          ],
          [
            "Italy",
            0.0009593985159881413
          ],
          [
            "Dominica",
            0.0009522120817564428
          ],
          [
            "Japan",
            0.0009277231292799115
          ],
          [
            "Peru",
            0.0009123999625444412
          ],
          [
            "Luxembourg",
            0.000897187739610672
          ],
          [
            "Sri Lanka",
            0.0008942560525611043
          ],
          [
            "Brunei",
            0.0008870430756360292
          ],
          [
            "South Sudan",
            0.0008665525820106268
          ],
          [
            "Laos",
            0.0007937023183330894
          ],
          [
            "Bahrain",
            0.0007668639882467687
          ],
          [
            "Eswatini",
            0.0007613927009515464
          ],
          [
            "Mauritania",
            0.000744744495023042
          ],
          [
            "Albania",
            0.0007343108882196248
          ],
          [
            "Belarus",
            0.000729607418179512
          ],
          [
            "Samoa",
            0.0007183917914517224
          ],
          [
            "Chile",
            0.0007172978366725147
          ],
          [
            "Qatar",
            0.0006883373716846108
          ],
          [
            "Algeria",
            0.0006757000228390098
          ],
          [
            "Colombia",
            0.0006737772491760552
          ],
          [
            "Sweden",
            0.0006697323406115174
          ],
          [
            "DR Congo",
            0.0006532454281114042
          ],
          [
            "Tunisia",
            0.0006464555626735091
          ],
          [
            "Svalbard",
            0.0006339508108794689
          ],
          [
            "Taiwan",
            0.0006206666002981365
          ],
          [
            "Netherlands",
            0.0005971613572910428
          ],
          [
            "Argentina",
            0.0005918647511862218
          ],
          [
            "Israel",
            0.0005890211323276162
          ],
          [
            "Palau",
            0.0005702959024347365
          ],
          [
            "Portugal",
            0.0005532032810151577
          ],
          [
            "Germany",
            0.0005365727702155709
          ],
          [
            "Trinidad and Tobago",
            0.0004906684043817222
          ],
          [
            "Kenya",
            0.00044391825213097036
          ],
          [
            "Isle of Man",
            0.0004324537585489452
          ],
          [
            "New Zealand",
            0.00040254343184642494
          ],
          [
            "Austria",
            0.00038886204129084945
          ],
          [
            "Nicaragua",
            0.00037973670987412333
          ],
          [
            "Ghana",
            0.0003681524540297687
          ],
          [
            "Canada",
            0.000354054820491001
          ],
          [
            "Niger",
            0.0003532689588610083
          ],
          [
            "Azerbaijan",
            0.0003347880847286433
          ],
          [
            "United Kingdom",
            0.0002861219400074333
          ],
          [
            "Greece",
            0.0002845062408596277
          ],
          [
            "Morocco",
            0.00026904724654741585
          ],
          [
            "Cameroon",
            0.00025495485169813037
          ],
          [
            "Chad",
            0.00024837188539095223
          ],
          [
            "Zimbabwe",
            0.0002426512073725462
          ],
          [
            "Gambia",
            0.0002354145108256489
          ],
          [
            "Saint Lucia",
            0.00022889164392836392
          ],
          [
            "Ireland",
            0.00021884444868192077
          ],
          [
            "Haiti",
            0.00020430787117220461
          ],
          [
            "Pakistan",
            0.0001973647449631244
          ],
          [
            "Denmark",
            0.00019145855912938714
          ],
          [
            "Norway",
            0.00013652372581418604
          ],
          [
            "Madagascar",
            0.00012701767263934016
          ],
          [
            "Kiribati",
            7.73788196966052e-05
          ]
        ]
      },
      "geometry": {
        "type": "MultiLineString",
        "coordinates": [
          [
            [
              5.566210927855423,
              56.420484790874525
            ],
            [
              5.808719322502611,
              55.12668386746333
            ],
            [
              5.889557923065524,
              54.56064885684657
            ],
            [
              6.051231420670604,
              52.7816700409856
            ],
            [
              6.132070021233517,
              51.487870969334836
            ],
            [
              6.374580267641136,
              48.49595945879213
            ],
            [
              6.536257468767019,
              47.04043133672411
            ],
            [
              6.778767715174581,
              43.80592810231593
            ],
            [
              6.859604463977121,
              42.18868204039302
            ],
            [
              7.102122117426347,
              38.95417880598484
            ],
            [
              7.182955162708026,
              37.256066367092956
            ],
            [
              7.263791911510566,
              33.37466174509899
            ],
            [
              7.344628660313106,
              31.35310231593496
            ],
            [
              7.263791911510566,
              27.229113377117187
            ],
            [
              7.263791911510566,
              25.288409214359774
            ],
            [
              7.102122117426347,
              21.568737346303863
            ],
            [
              7.102122117426347,
              19.870617500370315
            ],
            [
              7.182955162708026,
              16.87870598982761
            ],
            [
              7.263791911510566,
              15.504044244728618
            ],
            [
              7.506302157918128,
              13.3207594686682
            ],
            [
              7.587142610241472,
              12.431270060737688
            ],
            [
              7.748816107846551,
              11.056604612117894
            ],
            [
              7.829656560169894,
              10.409703224532109
            ],
            [
              7.829656560169894,
              9.439358550195038
            ],
            [
              7.748816107846551,
              8.954175102464035
            ],
            [
              7.748816107846551,
              7.983823021085357
            ],
            [
              7.667979359044011,
              7.417791713989402
            ],
            [
              7.667979359044011,
              6.85175299985184
            ],
            [
              7.667979359044011,
              5.800538245024882
            ],
            [
              7.667979359044011,
              4.911048837094427
            ],
            [
              7.748816107846551,
              4.183292183102026
            ],
            [
              7.748816107846551,
              3.77897881586091
            ],
            [
              8.072163103056653,
              3.455528122068017
            ],
            [
              8.476350550590098,
              3.293802775171571
            ],
            [
              8.880537998123543,
              3.293802775171571
            ],
            [
              9.365565897980389,
              3.0512073477852937
            ],
            [
              9.76974593847217,
              2.889489407930455
            ],
            [
              10.416447335934038,
              2.8086267344822318
            ],
            [
              11.224822231000985,
              2.485176040689339
            ],
            [
              11.70984272381611,
              2.4043207742827235
            ],
            [
              13.16491160930326,
              2.080870080489831
            ],
            [
              13.649939509160049,
              2.0
            ],
            [
              14.377473951903653,
              2.0
            ],
            [
              14.862494444718777,
              2.0
            ],
            [
              15.670869339785725,
              2.0
            ],
            [
              16.07505678731917,
              2.0
            ],
            [
              16.721754481260177,
              2.0
            ],
            [
              17.206782381117023,
              2.080870080489831
            ],
            [
              17.610969828650468,
              2.2425880203446695
            ],
            [
              18.17682336674733,
              2.485176040689339
            ],
            [
              18.742688015406657,
              2.727771468075616
            ],
            [
              19.308545257024377,
              3.0512073477852937
            ],
            [
              19.87441360920451,
              3.3746580415781864
            ],
            [
              20.44026714730137,
              3.698108735371079
            ],
            [
              21.006131795960698,
              4.102429509653803
            ],
            [
              22.13785738975855,
              4.830193570687811
            ],
            [
              22.62287417905293,
              5.2344995308873195
            ],
            [
              23.43124907411982,
              6.123988938817831
            ],
            [
              23.75459606932992,
              6.528302306058947
            ],
            [
              24.562970964396868,
              7.336921633499571
            ],
            [
              24.967154708409453,
              7.660372327292464
            ],
            [
              25.613852402350517,
              8.14555577502341
            ],
            [
              26.098880302207306,
              8.549861735222919
            ],
            [
              26.503064046219947,
              9.035045182953922
            ],
            [
              26.664744950866634,
              9.520213816601654
            ],
            [
              26.907251493753392,
              10.0053972643326
            ],
            [
              27.06893239840008,
              10.409703224532109
            ],
            [
              27.473119845933525,
              10.975749345711279
            ],
            [
              28.200650585156325,
              11.946086613006742
            ],
            [
              28.52400128388723,
              12.269537306799634
            ],
            [
              29.17069527430749,
              12.997308774875307
            ],
            [
              29.413205520715053,
              13.3207594686682
            ],
            [
              29.736563626487623,
              13.886790775764155
            ],
            [
              29.898229717051038,
              14.53369216334994
            ],
            [
              29.97907016937438,
              14.937998123549448
            ],
            [
              30.05990691817692,
              15.504044244728618
            ],
            [
              30.05990691817692,
              15.908350204928126
            ],
            [
              30.1407399634586,
              16.555251592513912
            ],
            [
              30.221580415781943,
              17.283023060589585
            ],
            [
              30.383257616907827,
              18.091649795071817
            ],
            [
              30.62576786331539,
              18.981135499481468
            ],
            [
              31.110792059651374,
              19.951483877339342
            ],
            [
              31.353302306058993,
              20.274934571132235
            ],
            [
              31.757489753592438,
              20.84096958174905
            ],
            [
              32.40418374401264,
              21.407011999407416
            ],
            [
              32.97004839267197,
              21.73046269320031
            ],
            [
              33.45507629252876,
              21.973047010024175
            ],
            [
              34.10177028294902,
              22.13477235692062
            ],
            [
              34.66762752456668,
              22.296497703817067
            ],
            [
              35.47600241963363,
              22.296497703817067
            ],
            [
              36.20353686237718,
              22.215638733889648
            ],
            [
              36.850238259839045,
              22.0539133869932
            ],
            [
              37.57778010962426,
              21.73046269320031
            ],
            [
              38.70949459285964,
              21.24528665251097
            ],
            [
              39.8412238901783,
              20.76011061182163
            ],
            [
              40.811264875808604,
              20.194068194163208
            ],
            [
              41.215452323342106,
              20.032346550787565
            ],
            [
              41.94298676608565,
              19.547166806577422
            ],
            [
              42.266333761295755,
              19.30458619327436
            ],
            [
              42.83220211347589,
              18.738543775615994
            ],
            [
              43.47889610389609,
              17.92992444817537
            ],
            [
              44.044757049034615,
              17.12129771369314
            ],
            [
              44.61061799417314,
              16.15094563231446
            ],
            [
              45.338152436916744,
              15.342318897832172
            ],
            [
              45.661499432126845,
              15.01886820403928
            ],
            [
              46.146527331983634,
              14.371966816453494
            ],
            [
              46.38903387487039,
              13.967660856253985
            ],
            [
              46.79322132240384,
              13.239889388178312
            ],
            [
              47.03574267937387,
              12.91643869438542
            ],
            [
              47.60159621747073,
              12.188682040393019
            ],
            [
              47.92494321268089,
              11.784368673151903
            ],
            [
              48.5716446101427,
              10.975749345711279
            ],
            [
              48.9758320576762,
              10.571428571428555
            ],
            [
              49.62253345513807,
              9.843664510394547
            ],
            [
              49.86503999802483,
              9.520213816601654
            ],
            [
              50.350067897881615,
              8.792457162609253
            ],
            [
              50.67341489309172,
              8.46900646881636
            ],
            [
              51.23927583823024,
              7.902967754678741
            ],
            [
              51.64346328576369,
              7.660372327292464
            ],
            [
              52.45183077378897,
              7.1752036936447325
            ],
            [
              52.775192583082344,
              6.932615673300063
            ],
            [
              53.50271961878428,
              6.60916497950717
            ],
            [
              54.5536084637796,
              6.366584366204108
            ],
            [
              55.604489901733245,
              6.204851612266054
            ],
            [
              56.00867734926669,
              6.285714285714278
            ],
            [
              56.65537133968695,
              6.528302306058947
            ],
            [
              56.97871833489705,
              6.770890326403617
            ],
            [
              57.62541973235892,
              7.498654387437625
            ],
            [
              58.029607179892366,
              7.983823021085357
            ],
            [
              58.837982074959314,
              9.035045182953922
            ],
            [
              59.24216952249276,
              9.601076490049877
            ],
            [
              59.80803787467289,
              10.652298651918386
            ],
            [
              59.96969655819464,
              11.137467285566117
            ],
            [
              60.13137746284133,
              12.107819366944796
            ],
            [
              60.212225322206336,
              12.512132734185911
            ],
            [
              60.373884005728144,
              13.482484815564646
            ],
            [
              60.373884005728144,
              13.967660856253985
            ],
            [
              60.373884005728144,
              15.01886820403928
            ],
            [
              60.29305096044641,
              15.584899511135234
            ],
            [
              59.88886351291296,
              17.52560737741345
            ],
            [
              59.646356970026204,
              18.25336403140585
            ],
            [
              58.91881512024099,
              19.22371611278453
            ],
            [
              58.5954755320725,
              19.62803318354645
            ],
            [
              57.94877413461063,
              20.598385264925184
            ],
            [
              57.62541973235892,
              21.083561305614523
            ],
            [
              57.14039923954374,
              21.973047010024175
            ],
            [
              56.81705224433364,
              22.458223050713514
            ],
            [
              55.766163399338325,
              23.266849785195745
            ],
            [
              55.2003024541998,
              23.671159448916057
            ],
            [
              54.39192755913291,
              24.479782479877485
            ],
            [
              53.987740111599464,
              24.964962224087685
            ],
            [
              53.0176991259691,
              25.85445163201814
            ],
            [
              52.3710051355489,
              26.258761295738452
            ],
            [
              51.23927583823024,
              27.1482432966273
            ],
            [
              50.75425534541506,
              27.633423040837442
            ],
            [
              49.78420695274309,
              28.442046071798927
            ],
            [
              49.29918645992791,
              28.92722581600907
            ],
            [
              48.16745716260925,
              29.816715223939525
            ],
            [
              47.763277122117415,
              30.301891264628864
            ],
            [
              47.116575724655604,
              31.35310231593496
            ],
            [
              46.71238827712216,
              31.838278356624357
            ],
            [
              45.90401338205521,
              32.97035208137868
            ],
            [
              45.338152436916744,
              33.61725346896446
            ],
            [
              44.36811145128638,
              34.66846452027056
            ],
            [
              43.963924003752936,
              35.07277048047007
            ],
            [
              43.074708656362645,
              36.123992642338635
            ],
            [
              42.42801466594244,
              36.69002394943459
            ],
            [
              41.29629277566539,
              37.822101377709714
            ],
            [
              40.89210532813195,
              38.4690027652955
            ],
            [
              39.92205693545998,
              39.439354846674235
            ],
            [
              39.275355537998166,
              39.84366451039455
            ],
            [
              37.90112710483436,
              40.814016591773225
            ],
            [
              37.25442570737249,
              41.21832995901434
            ],
            [
              35.961026615969615,
              41.946090316527545
            ],
            [
              35.314332625549355,
              42.26954101032044
            ],
            [
              34.18260703175156,
              42.99730877487531
            ],
            [
              33.697582835415574,
              43.40161843859562
            ],
            [
              32.72753814626441,
              44.29110414300527
            ],
            [
              32.16167349760508,
              44.85714285714283
            ],
            [
              31.110792059651374,
              45.82749493852151
            ],
            [
              30.70660461211793,
              46.150945632314404
            ],
            [
              29.898229717051038,
              46.95957236679669
            ],
            [
              29.413205520715053,
              47.52560737741345
            ],
            [
              28.362324082761347,
              48.41509493358353
            ],
            [
              27.87729618290456,
              48.738545627376425
            ],
            [
              27.14976174016101,
              49.46630783665
            ],
            [
              26.82641474495091,
              49.789758530442896
            ],
            [
              25.937206804602283,
              50.355793541059654
            ],
            [
              25.371342155942955,
              50.5175188879561
            ],
            [
              24.401301170312593,
              51.0026949286455
            ],
            [
              23.997113722779147,
              51.24528665251097
            ],
            [
              23.107898375388913,
              51.730457137919075
            ],
            [
              22.542044837291996,
              52.05390783171197
            ],
            [
              21.49115228877588,
              52.61994839760996
            ],
            [
              21.086964841242434,
              52.7816700409856
            ],
            [
              20.278601056737955,
              53.26684608167494
            ],
            [
              19.793573156881166,
              53.50943595378004
            ],
            [
              18.581010814280774,
              53.91374746926073
            ],
            [
              18.015157276183913,
              53.99461199446938
            ],
            [
              17.12594192879368,
              54.15633548960545
            ],
            [
              16.640917732457694,
              54.3180608365019
            ],
            [
              15.751709792109068,
              54.479786183398346
            ],
            [
              15.266681892252222,
              54.56064885684657
            ],
            [
              14.377473951903653,
              54.803233173670435
            ],
            [
              13.569099056836706,
              55.045819342254674
            ],
            [
              12.599050664164736,
              55.36927003604757
            ],
            [
              11.62900967853443,
              55.61185990815267
            ],
            [
              10.901467828749219,
              55.69272072984046
            ],
            [
              10.497287788257381,
              55.69272072984046
            ],
            [
              9.365565897980389,
              55.69272072984046
            ],
            [
              8.79970124932106,
              55.61185990815267
            ],
            [
              7.021281665102947,
              55.53099538294401
            ],
            [
              6.132070021233517,
              55.53099538294401
            ],
            [
              4.353648585255087,
              55.69272072984046
            ],
            [
              3.5452755419485698,
              55.77358525504911
            ],
            [
              2.251880154066498,
              56.3396221174263
            ]
          ],
          [
            [
              44.93396498938324,
              38.79245345908839
            ],
            [
              45.338152436916744,
              38.4690027652955
            ],
            [
              47.60159621747073,
              37.66037603081327
            ],
            [
              48.32913066021433,
              37.33692904054118
            ],
            [
              49.13750555528122,
              37.09434102019651
            ],
            [
              49.62253345513807,
              37.01347464322748
            ],
            [
              50.43090094316335,
              36.93261567330006
            ],
            [
              51.64346328576369,
              37.33692904054118
            ],
            [
              52.20932423090221,
              37.66037603081327
            ],
            [
              53.341046121179204,
              38.38814379536808
            ],
            [
              53.82607402103599,
              38.79245345908839
            ],
            [
              54.71527455434301,
              39.520213816601654
            ],
            [
              55.281142906523144,
              39.76280554046713
            ],
            [
              56.17035084687177,
              40.49056589798033
            ],
            [
              56.41286479680019,
              40.89487926522145
            ],
            [
              56.89789269665698,
              41.70350599970368
            ],
            [
              57.30208014419043,
              42.59299170411333
            ],
            [
              57.544586687077185,
              42.99730877487531
            ],
            [
              57.62541973235892,
              43.40161843859562
            ],
            [
              57.78709322996394,
              43.88679447928496
            ],
            [
              57.70626759172387,
              44.29110414300527
            ],
            [
              57.544586687077185,
              45.0997308774875
            ],
            [
              57.221232284825476,
              45.74663226507329
            ],
            [
              56.493705249123536,
              46.47439632610735
            ],
            [
              56.17035084687177,
              46.71698064293116
            ],
            [
              55.44282381116983,
              47.444741000444424
            ],
            [
              55.11946200187646,
              48.25336958668703
            ],
            [
              55.2003024541998,
              48.81940644906422
            ],
            [
              55.52364944940996,
              49.06199632116932
            ],
            [
              56.00867734926669,
              49.223721668065764
            ],
            [
              56.65537133968695,
              49.30458248975356
            ],
            [
              57.70626759172387,
              48.981131795960664
            ],
            [
              58.91881512024099,
              48.172508764999236
            ],
            [
              59.48467606537952,
              47.60646634734087
            ],
            [
              60.29305096044641,
              46.47439632610735
            ],
            [
              60.53556491037483,
              45.90835390844893
            ],
            [
              60.69723840797985,
              45.423181571280395
            ],
            [
              61.02060021727323,
              44.45282948990172
            ],
            [
              61.182258900795034,
              43.88679447928496
            ],
            [
              61.26309935311838,
              42.59299170411333
            ],
            [
              61.182258900795034,
              41.946090316527545
            ],
            [
              61.1014258555133,
              40.65229124487678
            ],
            [
              60.93974495086661,
              39.439354846674235
            ],
            [
              60.85891190558493,
              38.79245345908839
            ],
            [
              60.61641276973978,
              37.57951706088585
            ],
            [
              60.373884005728144,
              37.17520369364473
            ],
            [
              59.96969655819464,
              36.28571428571428
            ],
            [
              59.646356970026204,
              35.80054194854574
            ],
            [
              58.67630117031263,
              34.83018986716701
            ],
            [
              58.27212112982079,
              34.506739173374115
            ],
            [
              57.46374623475384,
              33.940704162757356
            ],
            [
              56.89789269665698,
              33.77897881586091
            ],
            [
              55.846996444620004,
              33.37466174509899
            ],
            [
              55.44282381116983,
              33.21294010172335
            ],
            [
              54.5536084637796,
              33.132077428275124
            ],
            [
              53.664393116389306,
              33.132077428275124
            ],
            [
              52.775192583082344,
              33.45552812206802
            ],
            [
              51.724296331045366,
              33.85983778578833
            ],
            [
              50.99676188830182,
              34.425880203446695
            ],
            [
              49.94588045034817,
              35.15364056095996
            ],
            [
              48.81415856007112,
              35.638816601649296
            ],
            [
              48.49081156486102,
              35.88140091847316
            ],
            [
              48.086624117327574,
              36.3665732556417
            ]
          ],
          [
            [
              58.352961582144076,
              56.50134746432275
            ],
            [
              58.67630117031263,
              55.045819342254674
            ],
            [
              59.80803787467289,
              54.56064885684657
            ],
            [
              60.373884005728144,
              54.722374203743016
            ],
            [
              61.02060021727323,
              54.88409399535823
            ],
            [
              61.58644634832848,
              55.61185990815267
            ],
            [
              61.66728680065182,
              56.097035948842006
            ],
            [
              61.74811984593356,
              56.50134746432275
            ],
            [
              60.05054441755965,
              56.420484790874525
            ],
            [
              58.352961582144076,
              55.69272072984046
            ]
          ],
          [
            [
              60.77807145326159,
              62.0
            ],
            [
              60.29305096044641,
              61.91913732655178
            ],
            [
              57.78709322996394,
              61.75741197965533
            ],
            [
              57.059558787220396,
              61.67654930620705
            ],
            [
              57.62541973235892,
              61.272237790726365
            ],
            [
              58.1104402251741,
              61.272237790726365
            ],
            [
              58.999662979605944,
              61.35310046417459
            ],
            [
              59.403850427139446,
              61.35310046417459
            ],
            [
              59.96969655819464,
              61.35310046417459
            ]
          ]
        ]
      }
    }
  ]
}