{
  "type": "FeatureCollection",
  "crs": {
    "type": "name",
    "properties": {
      "name": "urn:ogc:def:crs:OGC:1.3:CRS84"
    }
  },
  "features": [
    {
      "type": "Feature",
      "properties": {
        "timestamp": "2026-07-11T22:52:10.242212",
        "country_name": "Papua New Guinea",
        "author": "Isaac",
        "author_id": "5a5bdb66-20b1-4757-a463-033ebd6dc2f8",
        "validated": false,
        "ranking": [
          [
            "Heard and McDonald Islands",
            0.06768399477005005
          ],
          [
            "Saudi Arabia",
            0.049305956810712814
          ],
          [
            "Czech Republic",
            0.044695619493722916
          ],
          [
            "Barbados",
            0.0389968566596508
          ],
          [
            "Georgia",
            0.0361032597720623
          ],
          [
            "Uzbekistan",
            0.02806273102760315
          ],
          [
            "Cape Verde",
            0.02168286219239235
          ],
          [
            "Cuba",
            0.020719114691019058
          ],
          [
            "Turkey",
            0.02022680640220642
          ],
          [
            "Tajikistan",
            0.020200589671730995
          ],
          [
            "Guadeloupe",
            0.019686836749315262
          ],
          [
            "Puerto Rico",
            0.019484922289848328
          ],
          [
            "Dominican Republic",
            0.019391529262065887
          ],
          [
            "Ethiopia",
            0.01930924504995346
          ],
          [
            "El Salvador",
            0.01775483228266239
          ],
          [
            "Turkmenistan",
            0.01765006221830845
          ],
          [
            "Equatorial Guinea",
            0.017602454870939255
          ],
          [
            "South Georgia Islands",
            0.016272004693746567
          ],
          [
            "Bahamas",
            0.014219682663679123
          ],
          [
            "Mongolia",
            0.01366799883544445
          ],
          [
            "Martinique",
            0.013131355866789818
          ],
          [
            "Jamaica",
            0.012386268004775047
          ],
          [
            "Russia",
            0.012159747071564198
          ],
          [
            "Nepal",
            0.011783900670707226
          ],
          [
            "Slovakia",
            0.010935931466519833
          ],
          [
            "Indonesia",
            0.010395804420113564
          ],
          [
            "Mexico",
            0.009234393946826458
          ],
          [
            "Bhutan",
            0.00908824522048235
          ],
          [
            "Vanuatu",
            0.008934385143220425
          ],
          [
            "Ecuador",
            0.008845653384923935
          ],
          [
            "Bolivia",
            0.008767697028815746
          ],
          [
            "United States of America",
            0.008404772728681564
          ],
          [
            "Luxembourg",
            0.008323093876242638
          ],
          [
            "Liberia",
            0.008229140192270279
          ],
          [
            "Comoros",
            0.007980627939105034
          ],
          [
            "Italy",
            0.006538056768476963
          ],
          [
            "Romania",
            0.006500864867120981
          ],
          [
            "Turks and Caicos Islands",
            0.006490234285593033
          ],
          [
            "Solomon Islands",
            0.006243490613996983
          ],
          [
            "Somalia",
            0.005972302518785
          ],
          [
            "Belize",
            0.005971197504550219
          ],
          [
            "South Sudan",
            0.005482824053615332
          ],
          [
            "Serbia",
            0.0054670036770403385
          ],
          [
            "Eritrea",
            0.00539902551099658
          ],
          [
            "Timor-Leste",
            0.005340197589248419
          ],
          [
            "Iraq",
            0.00515709538012743
          ],
          [
            "Honduras",
            0.0051297834143042564
          ],
          [
            "Angola",
            0.005019934847950935
          ],
          [
            "Paraguay",
            0.004996712319552898
          ],
          [
            "Iran",
            0.004790959879755974
          ],
          [
            "Philippines",
            0.004589545540511608
          ],
          [
            "Switzerland",
            0.004518443718552589
          ],
          [
            "Togo",
            0.0045173317193984985
          ],
          [
            "Guatemala",
            0.004372222349047661
          ],
          [
            "India",
            0.0043708886951208115
          ],
          [
            "Yemen",
            0.004324170295149088
          ],
          [
            "Spain",
            0.0041344789788126945
          ],
          [
            "Malawi",
            0.003960021771490574
          ],
          [
            "Vietnam",
            0.003925699274986982
          ],
          [
            "Senegal",
            0.0037387190386652946
          ],
          [
            "Samoa",
            0.003675613086670637
          ],
          [
            "Bangladesh",
            0.0036699948832392693
          ],
          [
            "Bulgaria",
            0.0036599563900381327
          ],
          [
            "Azerbaijan",
            0.003546451684087515
          ],
          [
            "Uruguay",
            0.003501152154058218
          ],
          [
            "Thailand",
            0.003464959328994155
          ],
          [
            "Madeira Islands",
            0.003406740492209792
          ],
          [
            "Albania",
            0.003239438636228442
          ],
          [
            "Libya",
            0.003204153850674629
          ],
          [
            "Antigua & Barbuda",
            0.0031209697481244802
          ],
          [
            "Kazakhstan",
            0.003087894292548299
          ],
          [
            "Central African Republic",
            0.002963499166071415
          ],
          [
            "Peru",
            0.0028926366940140724
          ],
          [
            "Ukraine",
            0.0028793432284146547
          ],
          [
            "Sri Lanka",
            0.0028623684775084257
          ],
          [
            "Lithuania",
            0.0028246049769222736
          ],
          [
            "Netherlands Antilles",
            0.0028082903008908033
          ],
          [
            "Burundi",
            0.0028011114336550236
          ],
          [
            "Sierra Leone",
            0.0026196022517979145
          ],
          [
            "Guyana",
            0.002604298060759902
          ],
          [
            "Papua New Guinea",
            0.002579048275947571
          ],
          [
            "South Korea",
            0.0025728868786245584
          ],
          [
            "Sao Tome and Principe",
            0.0025538578629493713
          ],
          [
            "New Caledonia",
            0.00252376776188612
          ],
          [
            "Cyprus",
            0.0023950997274369
          ],
          [
            "Rwanda",
            0.0023818700574338436
          ],
          [
            "Namibia",
            0.0023659770376980305
          ],
          [
            "Moldova",
            0.002339063910767436
          ],
          [
            "Reunion",
            0.002328842878341675
          ],
          [
            "Syria",
            0.0023093626368790865
          ],
          [
            "Egypt",
            0.0022970796562731266
          ],
          [
            "Finland",
            0.0022676691878587008
          ],
          [
            "Malaysia",
            0.0022499836049973965
          ],
          [
            "Benin",
            0.0022305587772279978
          ],
          [
            "Botswana",
            0.0022185933776199818
          ],
          [
            "Panama",
            0.00216362695209682
          ],
          [
            "Suriname",
            0.002159644151106477
          ],
          [
            "Mozambique",
            0.0021208925172686577
          ],
          [
            "Latvia",
            0.002111906884238124
          ],
          [
            "Myanmar",
            0.002102069091051817
          ],
          [
            "North Macedonia",
            0.0020322953350842
          ],
          [
            "Qatar",
            0.0020074923522770405
          ],
          [
            "Kyrgyzstan",
            0.00199318490922451
          ],
          [
            "Poland",
            0.0019357928540557623
          ],
          [
            "Chile",
            0.0019057266181334853
          ],
          [
            "Armenia",
            0.0018668144475668669
          ],
          [
            "Faroe Islands",
            0.0017899981467053294
          ],
          [
            "Bahrain",
            0.001696563558652997
          ],
          [
            "Israel",
            0.0016713411314412951
          ],
          [
            "Zambia",
            0.0016258780378848314
          ],
          [
            "Burkina Faso",
            0.0016118936473503709
          ],
          [
            "Laos",
            0.0015652477741241455
          ],
          [
            "Argentina",
            0.0015466668410226703
          ],
          [
            "Gabon",
            0.0015254641184583306
          ],
          [
            "United States Virgin Islands",
            0.0015144217759370804
          ],
          [
            "Kuwait",
            0.0014728927053511143
          ],
          [
            "Montenegro",
            0.001456599566154182
          ],
          [
            "Falkland Islands",
            0.0014484211569651961
          ],
          [
            "Jordan",
            0.001431644894182682
          ],
          [
            "France",
            0.0013991879532113671
          ],
          [
            "Iceland",
            0.0013861138140782714
          ],
          [
            "Mauritania",
            0.0013240424450486898
          ],
          [
            "Sudan",
            0.0013054035371169448
          ],
          [
            "Dominica",
            0.0012961863540112972
          ],
          [
            "Congo",
            0.0012793492060154676
          ],
          [
            "Tunisia",
            0.00127023842651397
          ],
          [
            "Oman",
            0.0012262850068509579
          ],
          [
            "Colombia",
            0.0012163522187620401
          ],
          [
            "Portugal",
            0.0012036312837153673
          ],
          [
            "Sweden",
            0.0012008566409349442
          ],
          [
            "Japan",
            0.0011849458096548915
          ],
          [
            "Hungary",
            0.0011775873135775328
          ],
          [
            "Slovenia",
            0.0011606713524088264
          ],
          [
            "Côte d'Ivoire",
            0.0011516585946083069
          ],
          [
            "Algeria",
            0.0011477530933916569
          ],
          [
            "West Bank",
            0.0011361308861523867
          ],
          [
            "Ghana",
            0.001120282569900155
          ],
          [
            "Niger",
            0.0010906326351687312
          ],
          [
            "South Africa",
            0.0010861133923754096
          ],
          [
            "New Zealand",
            0.0010809756349772215
          ],
          [
            "Trinidad and Tobago",
            0.0010532756568863988
          ],
          [
            "China",
            0.0010524803074076772
          ],
          [
            "Guam",
            0.0010260447161272168
          ],
          [
            "Nigeria",
            0.0010152735048905015
          ],
          [
            "Gambia",
            0.0009952906984835863
          ],
          [
            "Hong Kong",
            0.0009499937877990305
          ],
          [
            "Cambodia",
            0.0009318698430433869
          ],
          [
            "United Arab Emirates",
            0.0009276935015805066
          ],
          [
            "Belgium",
            0.0008977701072581112
          ],
          [
            "Tanzania",
            0.0008975424570962787
          ],
          [
            "Svalbard",
            0.000837701722048223
          ],
          [
            "Nicaragua",
            0.0008290893747471273
          ],
          [
            "Costa Rica",
            0.0008220774470828474
          ],
          [
            "Canada",
            0.0008146025356836617
          ],
          [
            "United Kingdom",
            0.0008086333400569856
          ],
          [
            "Australia",
            0.0007928764680400491
          ],
          [
            "Guinea-Bissau",
            0.0007891695131547749
          ],
          [
            "Mali",
            0.0007811008836142719
          ],
          [
            "Uganda",
            0.0007727919146418571
          ],
          [
            "Mayotte",
            0.0007723380113020539
          ],
          [
            "Cameroon",
            0.0007220819825306535
          ],
          [
            "Croatia",
            0.0007212740019895136
          ],
          [
            "Fiji",
            0.0007112642051652074
          ],
          [
            "Belarus",
            0.0007078496855683625
          ],
          [
            "North Korea",
            0.0006914272671565413
          ],
          [
            "Guinea",
            0.0006701287347823381
          ],
          [
            "French Guiana",
            0.0006414850358851254
          ],
          [
            "Kenya",
            0.0006304348935373127
          ],
          [
            "Afghanistan",
            0.0006064405897632241
          ],
          [
            "Ireland",
            0.0005905096186324954
          ],
          [
            "Saint Lucia",
            0.0005791235016658902
          ],
          [
            "Eswatini",
            0.0005747054237872362
          ],
          [
            "Brunei",
            0.000573407975025475
          ],
          [
            "Palau",
            0.0005565924802795053
          ],
          [
            "Lesotho",
            0.0005447058356367052
          ],
          [
            "Estonia",
            0.0005379790090955794
          ],
          [
            "Djibouti",
            0.0005180971347726882
          ],
          [
            "DR Congo",
            0.0004996786010451615
          ],
          [
            "Denmark",
            0.000485289900097996
          ],
          [
            "Zimbabwe",
            0.00045876443618908525
          ],
          [
            "Greenland",
            0.00044139314559288323
          ],
          [
            "Taiwan",
            0.0004283256421331316
          ],
          [
            "Bosnia & Herzegovina",
            0.00039695334271527827
          ],
          [
            "Germany",
            0.0003862616722472012
          ],
          [
            "Greece",
            0.0003594295703805983
          ],
          [
            "Venezuela",
            0.0003223805397283286
          ],
          [
            "Brazil",
            0.0003130584955215454
          ],
          [
            "Austria",
            0.00030545846675522625
          ],
          [
            "Norway",
            0.0003045497869607061
          ],
          [
            "Western Sahara",
            0.0002938019169960171
          ],
          [
            "Lebanon",
            0.0002888004237320274
          ],
          [
            "Isle of Man",
            0.00027914776001125574
          ],
          [
            "Kiribati",
            0.00026606355095282197
          ],
          [
            "Netherlands",
            0.00024595591821707785
          ],
          [
            "Chad",
            0.00016432268603239208
          ],
          [
            "Morocco",
            0.00014297530287876725
          ],
          [
            "Pakistan",
            0.00012676336336880922
          ],
          [
            "Madagascar",
            0.00012041266745654866
          ],
          [
            "Haiti",
            0.00010794380796141922
          ]
        ]
      },
      "geometry": {
        "type": "MultiLineString",
        "coordinates": [
          [
            [
              6.445739409974436,
              61.9660301696282
            ],
            [
              7.226216976077524,
              58.72514264566982
            ],
            [
              7.412968189877546,
              52.921935672740744
            ],
            [
              8.295189540606373,
              47.81453024971967
            ],
            [
              8.634556431345061,
              40.89131311345923
            ],
            [
              8.804239876714377,
              35.74993786006638
            ],
            [
              9.041862982827297,
              29.607363996398647
            ],
            [
              9.432101765878826,
              23.006777395425388
            ],
            [
              9.70369470236352,
              17.933176096286502
            ],
            [
              10.263616930784394,
              13.232911518258106
            ],
            [
              10.51814209883841,
              10.161707439669044
            ],
            [
              11.112034157631058,
              7.599553697187957
            ],
            [
              11.451401048369746,
              6.14017664311794
            ],
            [
              11.7737001706777,
              4.460409957855319
            ],
            [
              12.028225338731687,
              3.4083394552675372
            ],
            [
              11.892511723734145,
              4.731837187850402
            ],
            [
              12.164104660218868,
              5.7668399220074775
            ],
            [
              12.639185165955041,
              6.700098871538813
            ],
            [
              13.300851179001683,
              7.938920587926646
            ],
            [
              14.318951851217662,
              9.177576597824839
            ],
            [
              15.778328905287708,
              10.365360715410134
            ],
            [
              17.288412145180985,
              11.400363449567237
            ],
            [
              18.934374706561442,
              12.367592229470347
            ],
            [
              21.734151555155393,
              13.741961854366082
            ],
            [
              23.04074722579719,
              14.166170467789414
            ],
            [
              24.364244958380056,
              14.641416680015254
            ],
            [
              25.823622012450073,
              14.878874079638535
            ],
            [
              27.299735421971576,
              15.065625293438586
            ],
            [
              29.607529702888257,
              15.201338908436128
            ],
            [
              31.066741050468693,
              15.201338908436128
            ],
            [
              32.71270361184912,
              15.065625293438586
            ],
            [
              34.32469634285778,
              14.437763404274108
            ],
            [
              36.14034234960758,
              13.775931684737884
            ],
            [
              37.616621465618664,
              13.063228072888762
            ],
            [
              39.771468656617515,
              11.841639831421276
            ],
            [
              41.841639831421276,
              10.229647100412592
            ],
            [
              43.40276067011706,
              9.109636937081234
            ],
            [
              44.743326171130605,
              8.074634202924187
            ],
            [
              46.28737924139568,
              6.869782316908129
            ],
            [
              48.968344536933216,
              5.03723424821726
            ],
            [
              50.800892605624085,
              4.07000546831415
            ],
            [
              52.41288533663274,
              3.340399794523961
            ],
            [
              54.024878067641396,
              2.7296056737902177
            ],
            [
              55.70481045939363,
              2.237457399623281
            ],
            [
              56.97743629966362,
              2.0
            ],
            [
              58.43664764724403,
              2.0
            ],
            [
              59.522687980203614,
              2.0
            ],
            [
              60.57475848279137,
              2.9332589495313073
            ],
            [
              60.93102743547115,
              6.275890258115481
            ],
            [
              60.93102743547115,
              8.600586600973259
            ],
            [
              60.93102743547115,
              11.875443955303439
            ],
            [
              60.93102743547115,
              15.065625293438586
            ],
            [
              60.676502267417135,
              17.610876973978577
            ],
            [
              59.91292676325514,
              20.512397607198295
            ],
            [
              58.80998436835449,
              23.04074722579719
            ],
            [
              57.35077302077406,
              25.144722524483143
            ],
            [
              55.857591842821876,
              27.113149914661165
            ],
            [
              54.211629281441446,
              28.67410504686731
            ],
            [
              50.851930204426594,
              31.08364311240976
            ],
            [
              48.3066785238866,
              32.91619118110063
            ],
            [
              44.40395928039197,
              34.85064874090685
            ],
            [
              41.48537087874152,
              35.9875609661793
            ],
            [
              36.56455096303088,
              37.88804869561375
            ],
            [
              32.28849499842579,
              39.89028020967396
            ],
            [
              27.91069524919493,
              42.181006722159935
            ],
            [
              23.702578945333443,
              44.013554790850776
            ],
            [
              21.479626387101405,
              45.18443684649503
            ],
            [
              18.289610755455897,
              47.88230420397363
            ],
            [
              15.540705799174788,
              50.4954955452572
            ],
            [
              13.945780836596839,
              51.92073706246583
            ],
            [
              11.72282827836483,
              53.61757151615916
            ],
            [
              9.482973658191725,
              55.99313975132981
            ],
            [
              8.006860248670222,
              57.62220025076914
            ],
            [
              7.1753450837646255,
              58.555459200300476
            ],
            [
              5.563352352755999,
              60.06554244019378
            ],
            [
              4.01929928249092,
              61.28729638815088
            ],
            [
              3.0689725645288775,
              62.0
            ]
          ]
        ]
      }
    }
  ]
}