{
  "type": "FeatureCollection",
  "crs": {
    "type": "name",
    "properties": {
      "name": "urn:ogc:def:crs:OGC:1.3:CRS84"
    }
  },
  "features": [
    {
      "type": "Feature",
      "properties": {
        "timestamp": "2026-05-31T01:36:11.482086",
        "country_name": "Peru",
        "author": "00",
        "author_id": "031ce661-41af-4d7e-b9da-987558739903",
        "validated": false,
        "ranking": [
          [
            "Benin",
            0.09110523760318756
          ],
          [
            "Guyana",
            0.0888681635260582
          ],
          [
            "Peru",
            0.07862680405378342
          ],
          [
            "Bangladesh",
            0.05831597000360489
          ],
          [
            "Greenland",
            0.03842276707291603
          ],
          [
            "Tunisia",
            0.031921617686748505
          ],
          [
            "Namibia",
            0.027440743520855904
          ],
          [
            "Qatar",
            0.02592718042433262
          ],
          [
            "Belize",
            0.024844583123922348
          ],
          [
            "Serbia",
            0.019657544791698456
          ],
          [
            "Albania",
            0.01743328385055065
          ],
          [
            "Thailand",
            0.01614401489496231
          ],
          [
            "Sri Lanka",
            0.016026509925723076
          ],
          [
            "Dominica",
            0.01570259779691696
          ],
          [
            "Burundi",
            0.013951840810477734
          ],
          [
            "France",
            0.013145748525857925
          ],
          [
            "Saudi Arabia",
            0.012944410555064678
          ],
          [
            "Faroe Islands",
            0.012605665251612663
          ],
          [
            "Vietnam",
            0.012106204405426979
          ],
          [
            "Lithuania",
            0.011784469708800316
          ],
          [
            "Finland",
            0.011223060078918934
          ],
          [
            "French Guiana",
            0.011101726442575455
          ],
          [
            "Mozambique",
            0.010149289853870869
          ],
          [
            "Moldova",
            0.010071872733533382
          ],
          [
            "Myanmar",
            0.009846593253314495
          ],
          [
            "Mayotte",
            0.009183786809444427
          ],
          [
            "Portugal",
            0.008979415521025658
          ],
          [
            "Romania",
            0.008687458001077175
          ],
          [
            "Croatia",
            0.00862214621156454
          ],
          [
            "Martinique",
            0.008251983672380447
          ],
          [
            "Togo",
            0.007124347146600485
          ],
          [
            "Spain",
            0.00709829805418849
          ],
          [
            "South Korea",
            0.006603330839425325
          ],
          [
            "Svalbard",
            0.006385042332112789
          ],
          [
            "India",
            0.006236198823899031
          ],
          [
            "Saint Lucia",
            0.00616946117952466
          ],
          [
            "Jordan",
            0.005779181141406298
          ],
          [
            "Montenegro",
            0.00575798936188221
          ],
          [
            "Somalia",
            0.005327779334038496
          ],
          [
            "Laos",
            0.0052178786136209965
          ],
          [
            "Reunion",
            0.004997878335416317
          ],
          [
            "Heard and McDonald Islands",
            0.0048157633282244205
          ],
          [
            "West Bank",
            0.00464353384450078
          ],
          [
            "Germany",
            0.00461799930781126
          ],
          [
            "Malawi",
            0.004519342444837093
          ],
          [
            "Turkmenistan",
            0.004475320689380169
          ],
          [
            "Guadeloupe",
            0.004173120949417353
          ],
          [
            "Italy",
            0.004118771757930517
          ],
          [
            "Iran",
            0.004114743322134018
          ],
          [
            "Iraq",
            0.004067875444889069
          ],
          [
            "Sweden",
            0.00390222342684865
          ],
          [
            "Taiwan",
            0.0037120471242815256
          ],
          [
            "Colombia",
            0.0035919835790991783
          ],
          [
            "Argentina",
            0.0035562284756451845
          ],
          [
            "South Georgia Islands",
            0.003232342889532447
          ],
          [
            "Gabon",
            0.0032148195896297693
          ],
          [
            "Ethiopia",
            0.003183407709002495
          ],
          [
            "Ecuador",
            0.0031584955286234617
          ],
          [
            "Guinea",
            0.003017567563802004
          ],
          [
            "Kenya",
            0.0029359557665884495
          ],
          [
            "Belgium",
            0.002934639807790518
          ],
          [
            "Australia",
            0.0029129022732377052
          ],
          [
            "Kuwait",
            0.002761006820946932
          ],
          [
            "Syria",
            0.0027035323437303305
          ],
          [
            "Armenia",
            0.0026916726492345333
          ],
          [
            "Vanuatu",
            0.002593904035165906
          ],
          [
            "Dominican Republic",
            0.0025895044673234224
          ],
          [
            "Luxembourg",
            0.0025842643808573484
          ],
          [
            "Chad",
            0.002477911999449134
          ],
          [
            "Papua New Guinea",
            0.002350900089368224
          ],
          [
            "Angola",
            0.002334737218916416
          ],
          [
            "Bahrain",
            0.002329928567633033
          ],
          [
            "Eswatini",
            0.0023241317830979824
          ],
          [
            "Congo",
            0.002310809213668108
          ],
          [
            "North Macedonia",
            0.002299501094967127
          ],
          [
            "Liberia",
            0.0022417388390749693
          ],
          [
            "Venezuela",
            0.002108362503349781
          ],
          [
            "Bahamas",
            0.0020848249550908804
          ],
          [
            "Antigua & Barbuda",
            0.0020695715211331844
          ],
          [
            "Bosnia & Herzegovina",
            0.001968334661796689
          ],
          [
            "Guatemala",
            0.001955450978130102
          ],
          [
            "Greece",
            0.0019335506949573755
          ],
          [
            "Cameroon",
            0.0018631410785019398
          ],
          [
            "Switzerland",
            0.0018623240757733583
          ],
          [
            "South Sudan",
            0.0018449998460710049
          ],
          [
            "Ukraine",
            0.0018249941058456898
          ],
          [
            "Ghana",
            0.001750152325257659
          ],
          [
            "United Kingdom",
            0.0017324897926300764
          ],
          [
            "Suriname",
            0.0016114673344418406
          ],
          [
            "Costa Rica",
            0.0015354424249380827
          ],
          [
            "Egypt",
            0.0015000943094491959
          ],
          [
            "Senegal",
            0.001473933574743569
          ],
          [
            "Bolivia",
            0.0014701570617035031
          ],
          [
            "Algeria",
            0.0014362790388986468
          ],
          [
            "New Caledonia",
            0.0013940635835751891
          ],
          [
            "New Zealand",
            0.0013717649271711707
          ],
          [
            "United States Virgin Islands",
            0.0013101636432111263
          ],
          [
            "Uzbekistan",
            0.001288845669478178
          ],
          [
            "Libya",
            0.0012440512655302882
          ],
          [
            "Paraguay",
            0.0012420194689184427
          ],
          [
            "Rwanda",
            0.001241299556568265
          ],
          [
            "Botswana",
            0.0012361229164525867
          ],
          [
            "Israel",
            0.001215835683979094
          ],
          [
            "Philippines",
            0.001195831224322319
          ],
          [
            "Cambodia",
            0.001185211120173335
          ],
          [
            "Sierra Leone",
            0.0011216538259759545
          ],
          [
            "Czech Republic",
            0.0011157349217683077
          ],
          [
            "Uruguay",
            0.001096624182537198
          ],
          [
            "Eritrea",
            0.0010923842201009393
          ],
          [
            "Sudan",
            0.0010669997427612543
          ],
          [
            "Nigeria",
            0.0010386966168880463
          ],
          [
            "Latvia",
            0.0010380687890574336
          ],
          [
            "Lesotho",
            0.0010015337029471993
          ],
          [
            "Cape Verde",
            0.0010001154150813818
          ],
          [
            "Zimbabwe",
            0.000995976966805756
          ],
          [
            "Japan",
            0.0009936525020748377
          ],
          [
            "Yemen",
            0.000982186640612781
          ],
          [
            "Brazil",
            0.0009537453297525644
          ],
          [
            "Tajikistan",
            0.0009055871632881463
          ],
          [
            "China",
            0.0009034221293404698
          ],
          [
            "Burkina Faso",
            0.0008780031348578632
          ],
          [
            "Honduras",
            0.0008521691197529435
          ],
          [
            "Chile",
            0.0008507496677339077
          ],
          [
            "Fiji",
            0.0008419791702181101
          ],
          [
            "United States of America",
            0.0008384790853597224
          ],
          [
            "Belarus",
            0.000825597729999572
          ],
          [
            "Afghanistan",
            0.0008106815512292087
          ],
          [
            "Oman",
            0.0008101080893538892
          ],
          [
            "Canada",
            0.0007702539442107081
          ],
          [
            "Mexico",
            0.0007656794623471797
          ],
          [
            "Djibouti",
            0.0007615459617227316
          ],
          [
            "El Salvador",
            0.0007425680523738265
          ],
          [
            "Hong Kong",
            0.000741667696274817
          ],
          [
            "Barbados",
            0.0007396574947051704
          ],
          [
            "Falkland Islands",
            0.0007129325531423092
          ],
          [
            "Brunei",
            0.0007100054644979537
          ],
          [
            "Trinidad and Tobago",
            0.0007099215290509164
          ],
          [
            "Ireland",
            0.000671614776365459
          ],
          [
            "Mali",
            0.0006462885648943484
          ],
          [
            "Georgia",
            0.0006166269886307418
          ],
          [
            "Mauritania",
            0.0006142194615676999
          ],
          [
            "Azerbaijan",
            0.0006121493643149734
          ],
          [
            "Turkey",
            0.0006062270258553326
          ],
          [
            "Bhutan",
            0.0005942532443441451
          ],
          [
            "Russia",
            0.0005719981272704899
          ],
          [
            "Slovakia",
            0.0005689970566891134
          ],
          [
            "Uganda",
            0.0005681002512574196
          ],
          [
            "Madagascar",
            0.0005562245496548712
          ],
          [
            "Indonesia",
            0.0005547571345232427
          ],
          [
            "Guam",
            0.0005316143506206572
          ],
          [
            "Côte d'Ivoire",
            0.0005166616174392402
          ],
          [
            "Tanzania",
            0.0004999830271117389
          ],
          [
            "Iceland",
            0.00048607762437313795
          ],
          [
            "Western Sahara",
            0.00047831994015723467
          ],
          [
            "Solomon Islands",
            0.00047650604392401874
          ],
          [
            "Kyrgyzstan",
            0.00046284726704470813
          ],
          [
            "United Arab Emirates",
            0.0004613946657627821
          ],
          [
            "Equatorial Guinea",
            0.00046031700912863016
          ],
          [
            "Mongolia",
            0.00045453000348061323
          ],
          [
            "Kazakhstan",
            0.0004467472026590258
          ],
          [
            "Malaysia",
            0.00043480645399540663
          ],
          [
            "Poland",
            0.00042655921424739063
          ],
          [
            "Puerto Rico",
            0.0004161887045484036
          ],
          [
            "Nicaragua",
            0.00041292470996268094
          ],
          [
            "Comoros",
            0.0004114097682759166
          ],
          [
            "Netherlands",
            0.0003960437898058444
          ],
          [
            "Cuba",
            0.00038707684143446386
          ],
          [
            "Panama",
            0.0003841532743535936
          ],
          [
            "South Africa",
            0.0003830338246189058
          ],
          [
            "Turks and Caicos Islands",
            0.0003754526551347226
          ],
          [
            "North Korea",
            0.0003575767623260617
          ],
          [
            "Estonia",
            0.00033548264764249325
          ],
          [
            "Guinea-Bissau",
            0.0003267325519118458
          ],
          [
            "Slovenia",
            0.0003192526928614825
          ],
          [
            "Palau",
            0.00031154867610894144
          ],
          [
            "Timor-Leste",
            0.00026538153178989887
          ],
          [
            "Zambia",
            0.00026376216555945575
          ],
          [
            "Jamaica",
            0.0002544595627114177
          ],
          [
            "Lebanon",
            0.00025136698968708515
          ],
          [
            "Isle of Man",
            0.00025114414165727794
          ],
          [
            "Central African Republic",
            0.00024250894784927368
          ],
          [
            "Sao Tome and Principe",
            0.00024153492995537817
          ],
          [
            "Nepal",
            0.0002389874862274155
          ],
          [
            "Samoa",
            0.00020659617439378053
          ],
          [
            "DR Congo",
            0.00020202991436235607
          ],
          [
            "Cyprus",
            0.00020100059919059277
          ],
          [
            "Hungary",
            0.0001886102108983323
          ],
          [
            "Madeira Islands",
            0.00016890440019778907
          ],
          [
            "Denmark",
            0.00015958852600306273
          ],
          [
            "Pakistan",
            0.0001458342740079388
          ],
          [
            "Bulgaria",
            0.00013557386409956962
          ],
          [
            "Netherlands Antilles",
            0.00011933994392165914
          ],
          [
            "Norway",
            0.00011683988850563765
          ],
          [
            "Niger",
            7.34158675186336e-05
          ],
          [
            "Gambia",
            7.025676313787699e-05
          ],
          [
            "Kiribati",
            6.994309660512954e-05
          ],
          [
            "Austria",
            4.879435437032953e-05
          ],
          [
            "Haiti",
            2.9869976060581394e-05
          ],
          [
            "Morocco",
            1.7687958461465314e-05
          ]
        ]
      },
      "geometry": {
        "type": "MultiLineString",
        "coordinates": [
          [
            [
              14.321428571428555,
              51.46428571428572
            ],
            [
              14.678571428571445,
              52.35714285714289
            ],
            [
              15.214285714285722,
              53.071428571428555
            ],
            [
              15.392857142857167,
              53.60714285714289
            ],
            [
              15.571428571428555,
              54.14285714285717
            ],
            [
              14.85714285714289,
              54.321428571428555
            ],
            [
              14.142857142857167,
              54.321428571428555
            ],
            [
              13.60714285714289,
              53.78571428571428
            ],
            [
              13.071428571428555,
              53.25
            ],
            [
              12.535714285714278,
              52.71428571428572
            ],
            [
              12.35714285714289,
              52.178571428571445
            ],
            [
              11.642857142857167,
              51.64285714285717
            ],
            [
              11.10714285714289,
              51.10714285714289
            ],
            [
              10.928571428571445,
              50.571428571428555
            ],
            [
              10.75,
              49.678571428571445
            ],
            [
              10.75,
              48.96428571428572
            ],
            [
              10.75,
              48.25
            ],
            [
              10.75,
              47.53571428571428
            ],
            [
              10.928571428571445,
              46.64285714285717
            ],
            [
              11.10714285714289,
              46.10714285714289
            ],
            [
              11.464285714285722,
              45.39285714285717
            ],
            [
              12.178571428571445,
              44.321428571428555
            ],
            [
              12.35714285714289,
              43.428571428571445
            ],
            [
              12.535714285714278,
              42.71428571428572
            ],
            [
              12.892857142857167,
              41.64285714285717
            ],
            [
              13.071428571428555,
              41.10714285714289
            ],
            [
              13.428571428571445,
              40.571428571428555
            ],
            [
              13.785714285714278,
              40.03571428571428
            ],
            [
              14.142857142857167,
              39.5
            ],
            [
              14.321428571428555,
              38.96428571428572
            ],
            [
              14.5,
              37.89285714285717
            ],
            [
              14.678571428571445,
              37.0
            ],
            [
              15.035714285714278,
              36.46428571428572
            ],
            [
              15.75,
              35.75
            ],
            [
              16.285714285714278,
              35.21428571428572
            ],
            [
              16.821428571428555,
              34.678571428571445
            ],
            [
              17.0,
              34.14285714285717
            ],
            [
              17.0,
              33.428571428571445
            ],
            [
              17.0,
              32.35714285714289
            ],
            [
              17.178571428571445,
              31.285714285714278
            ],
            [
              17.535714285714278,
              30.571428571428555
            ],
            [
              17.535714285714278,
              29.678571428571445
            ],
            [
              17.714285714285722,
              29.142857142857167
            ],
            [
              17.892857142857167,
              28.60714285714289
            ],
            [
              18.428571428571445,
              27.714285714285722
            ],
            [
              18.60714285714289,
              27.178571428571445
            ],
            [
              18.785714285714278,
              26.464285714285722
            ],
            [
              19.142857142857167,
              25.928571428571445
            ],
            [
              19.5,
              25.035714285714278
            ],
            [
              19.85714285714289,
              24.5
            ],
            [
              20.214285714285722,
              23.964285714285722
            ],
            [
              20.75,
              23.428571428571445
            ],
            [
              21.10714285714289,
              22.714285714285722
            ],
            [
              21.285714285714278,
              22.178571428571445
            ],
            [
              21.285714285714278,
              21.464285714285722
            ],
            [
              21.464285714285722,
              20.75
            ],
            [
              21.464285714285722,
              20.035714285714278
            ],
            [
              21.464285714285722,
              19.142857142857167
            ],
            [
              21.10714285714289,
              18.60714285714289
            ],
            [
              20.75,
              18.071428571428555
            ],
            [
              20.928571428571445,
              17.35714285714289
            ],
            [
              21.10714285714289,
              16.464285714285722
            ],
            [
              21.642857142857167,
              16.285714285714278
            ],
            [
              22.178571428571445,
              15.75
            ],
            [
              22.535714285714278,
              15.214285714285722
            ],
            [
              22.892857142857167,
              14.678571428571445
            ],
            [
              23.428571428571445,
              14.142857142857167
            ],
            [
              23.785714285714278,
              13.60714285714289
            ],
            [
              24.321428571428555,
              12.892857142857167
            ],
            [
              24.678571428571445,
              12.35714285714289
            ],
            [
              25.035714285714278,
              11.821428571428555
            ],
            [
              25.571428571428555,
              11.10714285714289
            ],
            [
              25.928571428571445,
              10.571428571428555
            ],
            [
              26.642857142857167,
              10.392857142857167
            ],
            [
              27.35714285714289,
              10.035714285714278
            ],
            [
              27.892857142857167,
              9.85714285714289
            ],
            [
              28.60714285714289,
              9.5
            ],
            [
              29.85714285714289,
              8.785714285714278
            ],
            [
              31.10714285714289,
              8.071428571428555
            ],
            [
              32.0,
              7.35714285714289
            ],
            [
              32.53571428571428,
              6.821428571428555
            ],
            [
              33.428571428571445,
              6.285714285714278
            ],
            [
              34.321428571428555,
              5.392857142857167
            ],
            [
              35.21428571428572,
              4.85714285714289
            ],
            [
              35.571428571428555,
              4.321428571428555
            ],
            [
              36.10714285714289,
              3.7857142857142776
            ],
            [
              36.64285714285717,
              3.6071428571428896
            ],
            [
              37.178571428571445,
              3.071428571428555
            ],
            [
              38.25,
              2.7142857142857224
            ],
            [
              38.78571428571428,
              2.5357142857142776
            ],
            [
              39.5,
              2.5357142857142776
            ],
            [
              40.21428571428572,
              2.5357142857142776
            ],
            [
              40.928571428571445,
              2.5357142857142776
            ],
            [
              41.64285714285717,
              2.5357142857142776
            ],
            [
              42.35714285714289,
              2.5357142857142776
            ],
            [
              43.071428571428555,
              2.5357142857142776
            ],
            [
              43.60714285714289,
              2.3571428571428896
            ],
            [
              44.321428571428555,
              2.178571428571445
            ],
            [
              44.85714285714289,
              2.0
            ],
            [
              45.39285714285717,
              2.178571428571445
            ],
            [
              44.678571428571445,
              2.7142857142857224
            ],
            [
              44.5,
              3.428571428571445
            ],
            [
              44.5,
              4.142857142857167
            ],
            [
              44.321428571428555,
              4.85714285714289
            ],
            [
              44.321428571428555,
              5.571428571428555
            ],
            [
              44.14285714285717,
              6.285714285714278
            ],
            [
              44.14285714285717,
              7.0
            ],
            [
              43.78571428571428,
              7.535714285714278
            ],
            [
              43.25,
              8.071428571428555
            ],
            [
              43.071428571428555,
              8.60714285714289
            ],
            [
              43.071428571428555,
              9.321428571428555
            ],
            [
              43.25,
              10.035714285714278
            ],
            [
              43.25,
              10.75
            ],
            [
              43.428571428571445,
              11.285714285714278
            ],
            [
              43.78571428571428,
              11.821428571428555
            ],
            [
              43.78571428571428,
              12.714285714285722
            ],
            [
              43.96428571428572,
              13.428571428571445
            ],
            [
              44.14285714285717,
              13.964285714285722
            ],
            [
              44.85714285714289,
              14.678571428571445
            ],
            [
              45.03571428571428,
              15.214285714285722
            ],
            [
              45.03571428571428,
              16.10714285714289
            ],
            [
              44.85714285714289,
              16.642857142857167
            ],
            [
              44.321428571428555,
              17.0
            ],
            [
              44.321428571428555,
              17.714285714285722
            ],
            [
              44.321428571428555,
              18.428571428571445
            ],
            [
              44.14285714285717,
              18.964285714285722
            ],
            [
              43.60714285714289,
              19.678571428571445
            ],
            [
              43.25,
              20.214285714285722
            ],
            [
              42.89285714285717,
              20.75
            ],
            [
              42.35714285714289,
              21.642857142857167
            ],
            [
              41.821428571428555,
              21.821428571428555
            ],
            [
              41.821428571428555,
              22.714285714285722
            ],
            [
              42.53571428571428,
              23.25
            ],
            [
              42.89285714285717,
              23.785714285714278
            ],
            [
              43.428571428571445,
              24.142857142857167
            ],
            [
              43.78571428571428,
              24.678571428571445
            ],
            [
              44.5,
              25.571428571428555
            ],
            [
              44.85714285714289,
              26.10714285714289
            ],
            [
              45.03571428571428,
              26.642857142857167
            ],
            [
              44.321428571428555,
              27.0
            ],
            [
              43.60714285714289,
              27.0
            ],
            [
              42.89285714285717,
              27.0
            ],
            [
              42.178571428571445,
              27.0
            ],
            [
              41.46428571428572,
              26.821428571428555
            ],
            [
              40.928571428571445,
              26.464285714285722
            ],
            [
              40.39285714285717,
              26.285714285714278
            ],
            [
              39.678571428571445,
              26.285714285714278
            ],
            [
              38.78571428571428,
              26.464285714285722
            ],
            [
              38.071428571428555,
              27.0
            ],
            [
              37.35714285714289,
              27.35714285714289
            ],
            [
              36.821428571428555,
              27.535714285714278
            ],
            [
              36.46428571428572,
              28.25
            ],
            [
              36.28571428571428,
              28.785714285714278
            ],
            [
              35.75,
              29.321428571428555
            ],
            [
              35.21428571428572,
              29.85714285714289
            ],
            [
              34.5,
              29.85714285714289
            ],
            [
              33.78571428571428,
              30.214285714285722
            ],
            [
              33.60714285714289,
              30.75
            ],
            [
              33.60714285714289,
              31.464285714285722
            ],
            [
              33.60714285714289,
              32.178571428571445
            ],
            [
              33.60714285714289,
              33.071428571428555
            ],
            [
              33.96428571428572,
              33.60714285714289
            ],
            [
              34.321428571428555,
              34.14285714285717
            ],
            [
              34.678571428571445,
              34.678571428571445
            ],
            [
              35.571428571428555,
              34.85714285714289
            ],
            [
              36.10714285714289,
              35.21428571428572
            ],
            [
              36.64285714285717,
              35.928571428571445
            ],
            [
              37.178571428571445,
              36.46428571428572
            ],
            [
              38.071428571428555,
              36.821428571428555
            ],
            [
              38.96428571428572,
              36.821428571428555
            ],
            [
              39.5,
              37.178571428571445
            ],
            [
              40.03571428571428,
              37.35714285714289
            ],
            [
              40.571428571428555,
              37.53571428571428
            ],
            [
              41.10714285714289,
              37.71428571428572
            ],
            [
              41.64285714285717,
              38.60714285714289
            ],
            [
              42.0,
              39.14285714285717
            ],
            [
              42.71428571428572,
              39.321428571428555
            ],
            [
              43.25,
              39.85714285714289
            ],
            [
              44.321428571428555,
              40.21428571428572
            ],
            [
              45.39285714285717,
              40.39285714285717
            ],
            [
              47.178571428571445,
              40.571428571428555
            ],
            [
              48.96428571428572,
              40.928571428571445
            ],
            [
              50.39285714285717,
              41.10714285714289
            ],
            [
              51.46428571428572,
              41.10714285714289
            ],
            [
              52.35714285714289,
              41.10714285714289
            ],
            [
              53.25,
              41.28571428571428
            ],
            [
              52.89285714285717,
              41.821428571428555
            ],
            [
              52.35714285714289,
              42.53571428571428
            ],
            [
              51.821428571428555,
              43.25
            ],
            [
              51.28571428571428,
              43.78571428571428
            ],
            [
              50.75,
              44.321428571428555
            ],
            [
              50.21428571428572,
              44.678571428571445
            ],
            [
              49.678571428571445,
              45.21428571428572
            ],
            [
              49.14285714285717,
              45.75
            ],
            [
              48.78571428571428,
              46.28571428571428
            ],
            [
              48.428571428571445,
              46.821428571428555
            ],
            [
              48.071428571428555,
              47.35714285714289
            ],
            [
              47.53571428571428,
              48.071428571428555
            ],
            [
              47.0,
              48.25
            ],
            [
              46.10714285714289,
              48.25
            ],
            [
              45.75,
              48.78571428571428
            ],
            [
              44.85714285714289,
              49.5
            ],
            [
              44.14285714285717,
              50.03571428571428
            ],
            [
              43.428571428571445,
              50.571428571428555
            ],
            [
              43.071428571428555,
              51.28571428571428
            ],
            [
              43.25,
              52.0
            ],
            [
              43.428571428571445,
              52.53571428571428
            ],
            [
              43.78571428571428,
              53.60714285714289
            ],
            [
              43.96428571428572,
              54.14285714285717
            ],
            [
              44.14285714285717,
              54.85714285714289
            ],
            [
              44.321428571428555,
              55.39285714285717
            ],
            [
              44.5,
              55.928571428571445
            ],
            [
              44.678571428571445,
              56.64285714285717
            ],
            [
              45.03571428571428,
              57.178571428571445
            ],
            [
              45.21428571428572,
              57.71428571428572
            ],
            [
              45.21428571428572,
              58.78571428571428
            ],
            [
              45.39285714285717,
              59.321428571428555
            ],
            [
              45.571428571428555,
              59.85714285714289
            ],
            [
              45.75,
              60.571428571428555
            ],
            [
              45.928571428571445,
              61.10714285714289
            ],
            [
              46.28571428571428,
              61.64285714285717
            ],
            [
              45.571428571428555,
              62.0
            ],
            [
              44.85714285714289,
              62.0
            ],
            [
              44.321428571428555,
              61.64285714285717
            ],
            [
              43.78571428571428,
              61.46428571428572
            ],
            [
              43.25,
              60.928571428571445
            ],
            [
              42.178571428571445,
              60.571428571428555
            ],
            [
              41.28571428571428,
              60.21428571428572
            ],
            [
              40.21428571428572,
              59.678571428571445
            ],
            [
              39.321428571428555,
              59.321428571428555
            ],
            [
              38.60714285714289,
              58.96428571428572
            ],
            [
              38.071428571428555,
              58.78571428571428
            ],
            [
              37.35714285714289,
              58.25
            ],
            [
              36.821428571428555,
              57.71428571428572
            ],
            [
              36.28571428571428,
              57.35714285714289
            ],
            [
              35.75,
              56.821428571428555
            ],
            [
              35.21428571428572,
              56.64285714285717
            ],
            [
              34.5,
              56.28571428571428
            ],
            [
              33.96428571428572,
              55.928571428571445
            ],
            [
              33.428571428571445,
              55.75
            ],
            [
              32.71428571428572,
              55.571428571428555
            ],
            [
              32.178571428571445,
              55.39285714285717
            ],
            [
              31.642857142857167,
              55.03571428571428
            ],
            [
              31.285714285714278,
              54.5
            ],
            [
              30.75,
              54.14285714285717
            ],
            [
              30.214285714285722,
              54.5
            ],
            [
              29.5,
              54.85714285714289
            ],
            [
              28.428571428571445,
              54.85714285714289
            ],
            [
              27.178571428571445,
              54.85714285714289
            ],
            [
              26.10714285714289,
              54.85714285714289
            ],
            [
              24.85714285714289,
              54.85714285714289
            ],
            [
              23.785714285714278,
              54.85714285714289
            ],
            [
              23.25,
              54.678571428571445
            ],
            [
              23.071428571428555,
              53.96428571428572
            ],
            [
              22.892857142857167,
              53.071428571428555
            ],
            [
              22.535714285714278,
              52.35714285714289
            ],
            [
              22.178571428571445,
              51.821428571428555
            ],
            [
              21.642857142857167,
              51.64285714285717
            ],
            [
              20.75,
              50.928571428571445
            ],
            [
              20.035714285714278,
              50.571428571428555
            ],
            [
              19.321428571428555,
              50.21428571428572
            ],
            [
              18.428571428571445,
              50.03571428571428
            ],
            [
              17.892857142857167,
              49.85714285714289
            ],
            [
              17.35714285714289,
              50.03571428571428
            ],
            [
              16.821428571428555,
              50.571428571428555
            ],
            [
              16.285714285714278,
              50.75
            ],
            [
              15.571428571428555,
              51.10714285714289
            ]
          ]
        ]
      }
    }
  ]
}