{
  "type": "FeatureCollection",
  "crs": {
    "type": "name",
    "properties": {
      "name": "urn:ogc:def:crs:OGC:1.3:CRS84"
    }
  },
  "features": [
    {
      "type": "Feature",
      "properties": {
        "timestamp": "2026-04-24T11:53:46.813513",
        "country_name": "Poland",
        "author": "",
        "author_id": "4b83a4da-95b1-4d20-b2e9-5a5cc3c2ca29",
        "validated": false,
        "ranking": [
          [
            "Poland",
            0.8728522062301636
          ],
          [
            "Libya",
            0.030969325453042984
          ],
          [
            "Tanzania",
            0.02751363255083561
          ],
          [
            "Reunion",
            0.01760775037109852
          ],
          [
            "Suriname",
            0.0058199744671583176
          ],
          [
            "Iran",
            0.005390975624322891
          ],
          [
            "Côte d'Ivoire",
            0.003896227339282632
          ],
          [
            "Kenya",
            0.0036355508491396904
          ],
          [
            "Egypt",
            0.0036071864888072014
          ],
          [
            "Bosnia & Herzegovina",
            0.0027546461205929518
          ],
          [
            "Lithuania",
            0.0018073130631819367
          ],
          [
            "Zimbabwe",
            0.0015127056976780295
          ],
          [
            "Sierra Leone",
            0.0014999579871073365
          ],
          [
            "Cape Verde",
            0.0012270748848095536
          ],
          [
            "Sudan",
            0.0010516670299693942
          ],
          [
            "Azerbaijan",
            0.0009727739379741251
          ],
          [
            "Australia",
            0.0007140979287214577
          ],
          [
            "Martinique",
            0.0007121420348994434
          ],
          [
            "North Macedonia",
            0.0006367292953655124
          ],
          [
            "Romania",
            0.0006272464524954557
          ],
          [
            "Algeria",
            0.0005962131544947624
          ],
          [
            "Nigeria",
            0.000591535004787147
          ],
          [
            "Cambodia",
            0.0005618869909085333
          ],
          [
            "Comoros",
            0.0005306816310621798
          ],
          [
            "Uruguay",
            0.0005224422202445567
          ],
          [
            "Namibia",
            0.00047219067346304655
          ],
          [
            "Botswana",
            0.00038429052801802754
          ],
          [
            "United States Virgin Islands",
            0.0003784257569350302
          ],
          [
            "Ecuador",
            0.00034967364626936615
          ],
          [
            "Iraq",
            0.00033827274455688894
          ],
          [
            "Equatorial Guinea",
            0.00033408059971407056
          ],
          [
            "Saudi Arabia",
            0.00033349613659083843
          ],
          [
            "DR Congo",
            0.0003301210526842624
          ],
          [
            "South Sudan",
            0.0003061126626562327
          ],
          [
            "Nicaragua",
            0.00030058150878176093
          ],
          [
            "Belgium",
            0.0002976235409732908
          ],
          [
            "Niger",
            0.000279436819255352
          ],
          [
            "Brazil",
            0.0002532163925934583
          ],
          [
            "Paraguay",
            0.0002501026610843837
          ],
          [
            "Liberia",
            0.00024506181944161654
          ],
          [
            "Sao Tome and Principe",
            0.00023904645058792084
          ],
          [
            "Spain",
            0.00021096094860695302
          ],
          [
            "Kuwait",
            0.0002080832637147978
          ],
          [
            "Eswatini",
            0.00020635055261664093
          ],
          [
            "Antigua & Barbuda",
            0.00019957349286414683
          ],
          [
            "Syria",
            0.0001946761622093618
          ],
          [
            "Gabon",
            0.0001861368800746277
          ],
          [
            "Yemen",
            0.00018158277089241892
          ],
          [
            "Bulgaria",
            0.00017979583935812116
          ],
          [
            "Mali",
            0.00016803370090201497
          ],
          [
            "Dominica",
            0.00016258265532087535
          ],
          [
            "Mauritania",
            0.00016058188339229673
          ],
          [
            "Guadeloupe",
            0.00015659445489291102
          ],
          [
            "Uganda",
            0.00015640162746421993
          ],
          [
            "Guinea",
            0.00015003261796664447
          ],
          [
            "Rwanda",
            0.0001447165705030784
          ],
          [
            "Latvia",
            0.00014182251470629126
          ],
          [
            "Solomon Islands",
            0.00011722165072569624
          ],
          [
            "Lesotho",
            0.00011344470840413123
          ],
          [
            "Czech Republic",
            0.0001115307240979746
          ],
          [
            "United Arab Emirates",
            0.00011145714233862236
          ],
          [
            "Ukraine",
            0.00010653222125256434
          ],
          [
            "Armenia",
            0.00010617316729621962
          ],
          [
            "Venezuela",
            0.00010456459858687595
          ],
          [
            "Belarus",
            0.00010448146349517629
          ],
          [
            "Netherlands Antilles",
            0.00010170495079364628
          ],
          [
            "Turkmenistan",
            9.420246351510286e-05
          ],
          [
            "Costa Rica",
            8.931575575843453e-05
          ],
          [
            "Switzerland",
            8.432150934822857e-05
          ],
          [
            "Peru",
            8.133052324410528e-05
          ],
          [
            "Moldova",
            8.064482972258702e-05
          ],
          [
            "Montenegro",
            7.964829273987561e-05
          ],
          [
            "India",
            7.818661106284708e-05
          ],
          [
            "Malaysia",
            7.241817365866154e-05
          ],
          [
            "Turkey",
            7.152561738621444e-05
          ],
          [
            "Bhutan",
            6.980838952586055e-05
          ],
          [
            "Angola",
            6.975595169933513e-05
          ],
          [
            "Senegal",
            6.822055001975968e-05
          ],
          [
            "Heard and McDonald Islands",
            6.785006553400308e-05
          ],
          [
            "Burundi",
            6.735172064509243e-05
          ],
          [
            "Iceland",
            6.728739390382543e-05
          ],
          [
            "Estonia",
            6.713714537909254e-05
          ],
          [
            "Vanuatu",
            6.419836427085102e-05
          ],
          [
            "Barbados",
            6.405709427781403e-05
          ],
          [
            "Burkina Faso",
            6.243003736017272e-05
          ],
          [
            "Ethiopia",
            6.24069434707053e-05
          ],
          [
            "Hungary",
            5.704478098778054e-05
          ],
          [
            "Chile",
            5.6035085435723886e-05
          ],
          [
            "French Guiana",
            5.0951286539202556e-05
          ],
          [
            "Faroe Islands",
            5.046373917139135e-05
          ],
          [
            "France",
            4.95758285978809e-05
          ],
          [
            "Togo",
            4.920513310935348e-05
          ],
          [
            "Colombia",
            4.745451587950811e-05
          ],
          [
            "Puerto Rico",
            4.7104804252739996e-05
          ],
          [
            "Mayotte",
            4.4721702579408884e-05
          ],
          [
            "Bahrain",
            4.359491140348837e-05
          ],
          [
            "Belize",
            3.8235430110944435e-05
          ],
          [
            "New Zealand",
            3.586053935578093e-05
          ],
          [
            "Bolivia",
            3.5774257412413135e-05
          ],
          [
            "Benin",
            3.5526743886293843e-05
          ],
          [
            "Croatia",
            3.536948133842088e-05
          ],
          [
            "Kazakhstan",
            3.466619091341272e-05
          ],
          [
            "El Salvador",
            3.435812323004939e-05
          ],
          [
            "Vietnam",
            3.3857402740977705e-05
          ],
          [
            "Honduras",
            3.2712978281779215e-05
          ],
          [
            "Papua New Guinea",
            3.100110552622937e-05
          ],
          [
            "Madeira Islands",
            3.092928818659857e-05
          ],
          [
            "Slovakia",
            3.016668779309839e-05
          ],
          [
            "Dominican Republic",
            3.0065761166042648e-05
          ],
          [
            "Eritrea",
            2.8896372896269895e-05
          ],
          [
            "Fiji",
            2.879491694329772e-05
          ],
          [
            "Somalia",
            2.8167130949441344e-05
          ],
          [
            "Timor-Leste",
            2.8049078537151217e-05
          ],
          [
            "Japan",
            2.7372212571208365e-05
          ],
          [
            "Thailand",
            2.7281050279270858e-05
          ],
          [
            "Serbia",
            2.7263988158665597e-05
          ],
          [
            "Bangladesh",
            2.612721800687723e-05
          ],
          [
            "Zambia",
            2.3532587874797173e-05
          ],
          [
            "Israel",
            2.3037844584905542e-05
          ],
          [
            "China",
            2.1774423657916486e-05
          ],
          [
            "Uzbekistan",
            2.1133620975888334e-05
          ],
          [
            "Austria",
            2.091782516799867e-05
          ],
          [
            "Malawi",
            2.077100180031266e-05
          ],
          [
            "Slovenia",
            2.0232724637025967e-05
          ],
          [
            "Germany",
            2.0055333152413368e-05
          ],
          [
            "Mongolia",
            1.9977067495347e-05
          ],
          [
            "Bahamas",
            1.968942342500668e-05
          ],
          [
            "Guyana",
            1.9362696548341773e-05
          ],
          [
            "Greenland",
            1.8769869711832143e-05
          ],
          [
            "United States of America",
            1.7790658603189513e-05
          ],
          [
            "Argentina",
            1.752249227138236e-05
          ],
          [
            "Georgia",
            1.7195903637912124e-05
          ],
          [
            "Italy",
            1.708901982055977e-05
          ],
          [
            "Mozambique",
            1.6836405848152936e-05
          ],
          [
            "New Caledonia",
            1.66928020917112e-05
          ],
          [
            "Guinea-Bissau",
            1.631242957955692e-05
          ],
          [
            "Jordan",
            1.598374183231499e-05
          ],
          [
            "South Africa",
            1.5590476323268376e-05
          ],
          [
            "South Georgia Islands",
            1.4996617210272234e-05
          ],
          [
            "Svalbard",
            1.4945532711863052e-05
          ],
          [
            "Cyprus",
            1.4115964404481929e-05
          ],
          [
            "Indonesia",
            1.4027528777660336e-05
          ],
          [
            "Portugal",
            1.4020706657902338e-05
          ],
          [
            "Cameroon",
            1.3911729183746502e-05
          ],
          [
            "Central African Republic",
            1.3574311196862254e-05
          ],
          [
            "Panama",
            1.2993798009119928e-05
          ],
          [
            "Brunei",
            1.2943658475705888e-05
          ],
          [
            "Myanmar",
            1.2886631338915322e-05
          ],
          [
            "Turks and Caicos Islands",
            1.2518915355030913e-05
          ],
          [
            "Sweden",
            1.2422178770066239e-05
          ],
          [
            "Haiti",
            1.2385084119159728e-05
          ],
          [
            "Qatar",
            1.2186746062070597e-05
          ],
          [
            "West Bank",
            1.1476898180262651e-05
          ],
          [
            "Mexico",
            1.1314557923469692e-05
          ],
          [
            "Ghana",
            1.1204131624253932e-05
          ],
          [
            "Hong Kong",
            1.036169305734802e-05
          ],
          [
            "Nepal",
            1.033027729135938e-05
          ],
          [
            "Kyrgyzstan",
            1.0089244824484922e-05
          ],
          [
            "Laos",
            9.86553368420573e-06
          ],
          [
            "Congo",
            9.439055247639772e-06
          ],
          [
            "Finland",
            9.433241757506039e-06
          ],
          [
            "South Korea",
            9.043509635375813e-06
          ],
          [
            "Guatemala",
            8.844048352329992e-06
          ],
          [
            "Guam",
            8.651279131299816e-06
          ],
          [
            "Saint Lucia",
            8.586492185713723e-06
          ],
          [
            "Albania",
            8.466941835649777e-06
          ],
          [
            "Tunisia",
            8.106735549517907e-06
          ],
          [
            "Russia",
            7.747386916889809e-06
          ],
          [
            "Tajikistan",
            7.484887646569405e-06
          ],
          [
            "Afghanistan",
            7.448742053384194e-06
          ],
          [
            "Greece",
            7.446285053447355e-06
          ],
          [
            "Pakistan",
            7.437115073116729e-06
          ],
          [
            "Oman",
            7.230786195577821e-06
          ],
          [
            "Norway",
            6.590904831682565e-06
          ],
          [
            "Sri Lanka",
            6.540200502058724e-06
          ],
          [
            "Cuba",
            6.409592515410623e-06
          ],
          [
            "Jamaica",
            6.403323823178653e-06
          ],
          [
            "Palau",
            6.296263109106803e-06
          ],
          [
            "Samoa",
            6.0024040067219175e-06
          ],
          [
            "Falkland Islands",
            5.7213533182221e-06
          ],
          [
            "Netherlands",
            5.560153567785164e-06
          ],
          [
            "Taiwan",
            5.474306362884818e-06
          ],
          [
            "North Korea",
            5.252222308627097e-06
          ],
          [
            "Chad",
            5.230628630670253e-06
          ],
          [
            "Canada",
            5.051282641943544e-06
          ],
          [
            "Isle of Man",
            4.989196895621717e-06
          ],
          [
            "Djibouti",
            4.976138825441012e-06
          ],
          [
            "Trinidad and Tobago",
            4.759580860991264e-06
          ],
          [
            "United Kingdom",
            4.139070370001718e-06
          ],
          [
            "Philippines",
            3.968474629800767e-06
          ],
          [
            "Morocco",
            3.6879223443975206e-06
          ],
          [
            "Gambia",
            3.3260837426496437e-06
          ],
          [
            "Western Sahara",
            3.1242266231856775e-06
          ],
          [
            "Luxembourg",
            2.673898961802479e-06
          ],
          [
            "Madagascar",
            2.0840000161115313e-06
          ],
          [
            "Lebanon",
            2.0667609987867763e-06
          ],
          [
            "Denmark",
            1.744228825373284e-06
          ],
          [
            "Ireland",
            1.5170751339610433e-06
          ],
          [
            "Kiribati",
            8.633966217530542e-07
          ]
        ]
      },
      "geometry": {
        "type": "MultiLineString",
        "coordinates": [
          [
            [
              19.068965517241367,
              59.413793103448256
            ],
            [
              17.51724137931035,
              59.241379310344826
            ],
            [
              16.82758620689654,
              59.06896551724137
            ],
            [
              15.793103448275872,
              58.72413793103448
            ],
            [
              14.931034482758605,
              58.55172413793102
            ],
            [
              14.413793103448256,
              58.37931034482759
            ],
            [
              13.896551724137936,
              58.20689655172413
            ],
            [
              13.379310344827587,
              57.86206896551724
            ],
            [
              12.517241379310349,
              57.34482758620689
            ],
            [
              12.0,
              57.17241379310343
            ],
            [
              11.655172413793082,
              56.48275862068965
            ],
            [
              10.965517241379303,
              55.79310344827584
            ],
            [
              10.448275862068954,
              55.448275862068954
            ],
            [
              9.931034482758605,
              55.103448275862064
            ],
            [
              9.068965517241367,
              54.413793103448256
            ],
            [
              8.206896551724128,
              54.06896551724137
            ],
            [
              7.517241379310349,
              53.72413793103448
            ],
            [
              6.827586206896541,
              53.37931034482759
            ],
            [
              6.137931034482762,
              52.68965517241378
            ],
            [
              5.620689655172413,
              52.34482758620689
            ],
            [
              5.103448275862064,
              51.82758620689654
            ],
            [
              4.068965517241367,
              50.9655172413793
            ],
            [
              3.379310344827587,
              50.448275862068954
            ],
            [
              2.8620689655172384,
              50.27586206896552
            ],
            [
              3.0344827586206975,
              49.586206896551715
            ],
            [
              3.379310344827587,
              48.89655172413791
            ],
            [
              3.551724137931018,
              48.20689655172413
            ],
            [
              3.551724137931018,
              47.51724137931035
            ],
            [
              3.551724137931018,
              46.13793103448276
            ],
            [
              3.379310344827587,
              44.931034482758605
            ]
          ],
          [
            [
              3.379310344827587,
              44.931034482758605
            ],
            [
              3.724137931034477,
              43.72413793103448
            ],
            [
              3.896551724137936,
              42.86206896551724
            ],
            [
              4.241379310344826,
              42.34482758620689
            ],
            [
              4.413793103448256,
              41.65517241379308
            ],
            [
              4.586206896551715,
              41.13793103448276
            ],
            [
              4.586206896551715,
              40.27586206896552
            ],
            [
              4.586206896551715,
              39.586206896551715
            ],
            [
              4.068965517241367,
              39.06896551724137
            ],
            [
              3.724137931034477,
              38.55172413793102
            ],
            [
              3.206896551724128,
              38.20689655172413
            ],
            [
              3.379310344827587,
              37.68965517241378
            ],
            [
              3.896551724137936,
              37.17241379310343
            ],
            [
              4.068965517241367,
              36.48275862068965
            ],
            [
              4.068965517241367,
              35.448275862068954
            ],
            [
              3.896551724137936,
              34.413793103448256
            ],
            [
              3.551724137931018,
              33.72413793103448
            ],
            [
              3.379310344827587,
              33.0344827586207
            ],
            [
              3.0344827586206975,
              32.51724137931035
            ],
            [
              2.6896551724137794,
              32.0
            ],
            [
              2.1724137931034306,
              31.655172413793082
            ],
            [
              2.0,
              31.137931034482733
            ],
            [
              2.3448275862068897,
              29.931034482758605
            ],
            [
              2.6896551724137794,
              28.896551724137908
            ],
            [
              3.724137931034477,
              27.68965517241378
            ],
            [
              4.068965517241367,
              27.0
            ],
            [
              4.413793103448256,
              26.137931034482733
            ],
            [
              5.620689655172413,
              24.068965517241367
            ],
            [
              6.65517241379311,
              22.34482758620689
            ],
            [
              7.0,
              21.82758620689654
            ],
            [
              7.172413793103431,
              21.310344827586192
            ],
            [
              7.517241379310349,
              20.793103448275843
            ]
          ],
          [
            [
              8.206896551724128,
              20.275862068965523
            ],
            [
              9.068965517241367,
              19.931034482758605
            ],
            [
              9.586206896551715,
              19.758620689655174
            ],
            [
              10.275862068965523,
              19.413793103448256
            ],
            [
              10.793103448275872,
              19.241379310344826
            ],
            [
              11.310344827586192,
              19.068965517241367
            ],
            [
              11.827586206896541,
              18.896551724137908
            ],
            [
              12.517241379310349,
              18.896551724137908
            ],
            [
              13.034482758620697,
              18.724137931034477
            ],
            [
              14.068965517241367,
              18.551724137931018
            ],
            [
              15.103448275862064,
              18.206896551724128
            ],
            [
              15.965517241379303,
              17.86206896551724
            ],
            [
              16.82758620689654,
              17.86206896551724
            ],
            [
              17.34482758620689,
              17.51724137931035
            ],
            [
              17.86206896551724,
              17.34482758620689
            ],
            [
              19.586206896551715,
              16.82758620689654
            ],
            [
              20.448275862068954,
              16.48275862068965
            ],
            [
              21.310344827586192,
              15.793103448275843
            ],
            [
              21.82758620689654,
              15.620689655172413
            ],
            [
              22.51724137931035,
              15.275862068965523
            ],
            [
              23.551724137931018,
              15.275862068965523
            ],
            [
              23.896551724137936,
              15.793103448275843
            ],
            [
              24.413793103448256,
              16.137931034482733
            ],
            [
              25.448275862068954,
              16.48275862068965
            ],
            [
              26.13793103448276,
              16.48275862068965
            ],
            [
              26.655172413793082,
              16.310344827586192
            ],
            [
              27.17241379310343,
              15.965517241379303
            ],
            [
              28.034482758620697,
              15.965517241379303
            ],
            [
              28.724137931034477,
              15.793103448275843
            ],
            [
              29.413793103448256,
              15.275862068965523
            ],
            [
              30.275862068965523,
              14.758620689655174
            ],
            [
              31.82758620689654,
              13.724137931034477
            ],
            [
              32.51724137931035,
              13.206896551724128
            ],
            [
              33.0344827586207,
              12.68965517241378
            ],
            [
              33.551724137931046,
              12.517241379310349
            ],
            [
              34.413793103448256,
              12.17241379310343
            ],
            [
              35.103448275862064,
              11.827586206896541
            ],
            [
              35.79310344827587,
              11.655172413793082
            ],
            [
              36.65517241379308,
              10.965517241379303
            ],
            [
              38.0344827586207,
              10.275862068965523
            ],
            [
              39.758620689655174,
              9.586206896551744
            ],
            [
              41.13793103448276,
              8.896551724137908
            ],
            [
              42.0,
              8.896551724137908
            ],
            [
              43.896551724137936,
              8.206896551724128
            ],
            [
              45.103448275862064,
              7.86206896551721
            ],
            [
              46.65517241379311,
              7.172413793103431
            ],
            [
              47.34482758620689,
              7.0
            ],
            [
              48.0344827586207,
              6.8275862068965125
            ],
            [
              48.896551724137936,
              6.310344827586164
            ],
            [
              50.103448275862064,
              6.137931034482733
            ],
            [
              50.79310344827587,
              6.137931034482733
            ],
            [
              51.65517241379311,
              6.137931034482733
            ],
            [
              52.51724137931035,
              5.793103448275872
            ],
            [
              53.0344827586207,
              5.620689655172384
            ],
            [
              53.72413793103448,
              5.275862068965523
            ],
            [
              54.06896551724137,
              4.758620689655174
            ],
            [
              54.06896551724137,
              4.068965517241395
            ],
            [
              54.06896551724137,
              3.3793103448275588
            ]
          ],
          [
            [
              55.448275862068954,
              2.6896551724137794
            ],
            [
              55.62068965517241,
              3.206896551724128
            ],
            [
              55.79310344827587,
              3.8965517241379075
            ],
            [
              56.48275862068965,
              4.758620689655174
            ],
            [
              56.31034482758622,
              5.793103448275872
            ],
            [
              55.79310344827587,
              6.137931034482733
            ],
            [
              55.62068965517241,
              6.655172413793082
            ],
            [
              55.103448275862064,
              7.0
            ],
            [
              54.586206896551715,
              7.172413793103431
            ],
            [
              54.586206896551715,
              8.034482758620697
            ],
            [
              55.103448275862064,
              8.379310344827559
            ],
            [
              55.27586206896552,
              8.896551724137908
            ],
            [
              55.79310344827587,
              9.413793103448256
            ],
            [
              56.48275862068965,
              9.931034482758605
            ],
            [
              57.0,
              10.620689655172413
            ],
            [
              57.51724137931035,
              10.965517241379303
            ],
            [
              57.86206896551724,
              11.482758620689651
            ],
            [
              58.0344827586207,
              12.17241379310343
            ],
            [
              58.551724137931046,
              12.68965517241378
            ],
            [
              59.068965517241395,
              13.379310344827559
            ],
            [
              59.241379310344826,
              14.068965517241367
            ],
            [
              59.931034482758605,
              14.586206896551715
            ],
            [
              60.448275862068954,
              14.758620689655174
            ],
            [
              59.931034482758605,
              15.965517241379303
            ],
            [
              59.586206896551744,
              16.48275862068965
            ],
            [
              59.241379310344826,
              17.0
            ],
            [
              59.241379310344826,
              17.86206896551724
            ],
            [
              59.241379310344826,
              18.551724137931018
            ],
            [
              59.586206896551744,
              19.413793103448256
            ],
            [
              59.931034482758605,
              19.931034482758605
            ],
            [
              60.27586206896552,
              20.620689655172413
            ],
            [
              61.13793103448279,
              21.310344827586192
            ],
            [
              61.48275862068965,
              21.82758620689654
            ],
            [
              60.9655172413793,
              22.0
            ],
            [
              60.448275862068954,
              22.17241379310343
            ],
            [
              59.931034482758605,
              22.51724137931035
            ],
            [
              59.241379310344826,
              23.37931034482756
            ],
            [
              59.241379310344826,
              24.241379310344826
            ],
            [
              59.068965517241395,
              24.758620689655174
            ],
            [
              58.89655172413791,
              25.793103448275843
            ],
            [
              58.551724137931046,
              26.310344827586192
            ],
            [
              58.37931034482756,
              27.17241379310343
            ],
            [
              58.0344827586207,
              28.206896551724128
            ],
            [
              58.0344827586207,
              28.896551724137908
            ],
            [
              58.0344827586207,
              29.586206896551715
            ],
            [
              58.20689655172413,
              30.103448275862064
            ],
            [
              58.551724137931046,
              30.793103448275843
            ],
            [
              59.068965517241395,
              31.48275862068965
            ],
            [
              59.758620689655174,
              32.68965517241378
            ],
            [
              60.10344827586209,
              33.37931034482759
            ],
            [
              60.10344827586209,
              34.241379310344826
            ],
            [
              60.10344827586209,
              35.103448275862064
            ],
            [
              60.62068965517244,
              35.62068965517241
            ],
            [
              61.13793103448279,
              35.9655172413793
            ],
            [
              61.48275862068965,
              36.48275862068965
            ],
            [
              62.0,
              37.0
            ],
            [
              62.0,
              37.68965517241378
            ],
            [
              62.0,
              38.55172413793102
            ],
            [
              62.0,
              39.586206896551715
            ],
            [
              62.0,
              40.448275862068954
            ],
            [
              62.0,
              41.13793103448276
            ],
            [
              61.48275862068965,
              41.31034482758619
            ],
            [
              60.79310344827587,
              41.31034482758619
            ],
            [
              60.10344827586209,
              41.31034482758619
            ],
            [
              59.758620689655174,
              41.82758620689654
            ],
            [
              59.758620689655174,
              42.51724137931035
            ],
            [
              59.931034482758605,
              43.20689655172413
            ],
            [
              60.62068965517244,
              43.37931034482759
            ],
            [
              59.931034482758605,
              43.55172413793102
            ],
            [
              59.931034482758605,
              45.448275862068954
            ],
            [
              59.758620689655174,
              46.65517241379308
            ],
            [
              59.586206896551744,
              47.51724137931035
            ],
            [
              59.413793103448256,
              48.03448275862067
            ],
            [
              59.413793103448256,
              48.72413793103448
            ],
            [
              59.413793103448256,
              49.413793103448256
            ],
            [
              59.413793103448256,
              50.448275862068954
            ],
            [
              59.413793103448256,
              51.31034482758619
            ],
            [
              59.413793103448256,
              52.0
            ],
            [
              59.586206896551744,
              52.86206896551724
            ],
            [
              60.62068965517244,
              53.72413793103448
            ],
            [
              61.31034482758622,
              53.72413793103448
            ],
            [
              61.31034482758622,
              54.413793103448256
            ],
            [
              61.13793103448279,
              55.448275862068954
            ],
            [
              60.62068965517244,
              55.79310344827584
            ],
            [
              59.931034482758605,
              55.9655172413793
            ]
          ],
          [
            [
              60.448275862068954,
              55.448275862068954
            ],
            [
              59.241379310344826,
              55.27586206896552
            ],
            [
              58.0344827586207,
              55.103448275862064
            ],
            [
              56.82758620689657,
              55.103448275862064
            ],
            [
              56.31034482758622,
              54.931034482758605
            ],
            [
              55.448275862068954,
              54.931034482758605
            ],
            [
              54.758620689655174,
              54.758620689655174
            ],
            [
              54.06896551724137,
              54.758620689655174
            ],
            [
              53.551724137931046,
              54.586206896551715
            ],
            [
              52.34482758620689,
              54.586206896551715
            ],
            [
              51.65517241379311,
              54.586206896551715
            ],
            [
              50.9655172413793,
              54.586206896551715
            ],
            [
              50.27586206896552,
              54.586206896551715
            ],
            [
              49.586206896551715,
              54.586206896551715
            ],
            [
              48.896551724137936,
              54.758620689655174
            ],
            [
              48.20689655172413,
              54.931034482758605
            ],
            [
              47.17241379310343,
              54.931034482758605
            ],
            [
              46.48275862068965,
              54.931034482758605
            ],
            [
              45.79310344827587,
              54.931034482758605
            ],
            [
              44.758620689655174,
              55.27586206896552
            ],
            [
              44.413793103448256,
              55.79310344827584
            ],
            [
              44.241379310344826,
              56.31034482758619
            ],
            [
              43.72413793103448,
              56.48275862068965
            ],
            [
              42.68965517241378,
              56.65517241379308
            ],
            [
              42.0,
              56.48275862068965
            ],
            [
              41.13793103448276,
              56.13793103448276
            ],
            [
              40.448275862068954,
              55.79310344827584
            ],
            [
              39.413793103448256,
              55.79310344827584
            ],
            [
              38.551724137931046,
              55.79310344827584
            ],
            [
              37.68965517241378,
              55.79310344827584
            ],
            [
              36.65517241379308,
              55.79310344827584
            ],
            [
              35.79310344827587,
              55.79310344827584
            ],
            [
              35.103448275862064,
              55.79310344827584
            ],
            [
              34.241379310344826,
              55.9655172413793
            ],
            [
              33.37931034482759,
              56.48275862068965
            ],
            [
              32.68965517241378,
              56.48275862068965
            ],
            [
              32.0,
              56.48275862068965
            ],
            [
              31.48275862068965,
              56.82758620689654
            ],
            [
              30.965517241379303,
              57.17241379310343
            ],
            [
              30.448275862068954,
              58.03448275862067
            ],
            [
              30.275862068965523,
              58.55172413793102
            ],
            [
              30.103448275862064,
              59.06896551724137
            ],
            [
              29.586206896551715,
              59.413793103448256
            ],
            [
              29.068965517241367,
              59.758620689655174
            ],
            [
              28.724137931034477,
              60.27586206896552
            ],
            [
              28.724137931034477,
              60.9655172413793
            ],
            [
              28.206896551724128,
              61.31034482758619
            ],
            [
              27.51724137931035,
              61.31034482758619
            ],
            [
              26.82758620689654,
              61.31034482758619
            ],
            [
              26.310344827586192,
              60.9655172413793
            ],
            [
              25.620689655172413,
              60.62068965517241
            ],
            [
              25.103448275862064,
              60.27586206896552
            ],
            [
              24.413793103448256,
              59.931034482758605
            ],
            [
              23.896551724137936,
              59.586206896551715
            ],
            [
              22.86206896551724,
              59.586206896551715
            ],
            [
              22.17241379310343,
              59.586206896551715
            ],
            [
              21.48275862068965,
              59.586206896551715
            ],
            [
              20.793103448275872,
              59.586206896551715
            ],
            [
              20.103448275862064,
              59.586206896551715
            ],
            [
              19.586206896551715,
              59.413793103448256
            ]
          ]
        ]
      }
    }
  ]
}