{
  "type": "FeatureCollection",
  "crs": {
    "type": "name",
    "properties": {
      "name": "urn:ogc:def:crs:OGC:1.3:CRS84"
    }
  },
  "features": [
    {
      "type": "Feature",
      "properties": {
        "timestamp": "2026-05-31T07:32:41.449068",
        "country_name": "Reunion",
        "author": "",
        "author_id": "55f23a75-0b26-4a5d-bdc0-d0fcf6e3ed4f",
        "validated": false,
        "ranking": [
          [
            "Reunion",
            0.2914375066757202
          ],
          [
            "United States Virgin Islands",
            0.17701275646686554
          ],
          [
            "Poland",
            0.05037713795900345
          ],
          [
            "Suriname",
            0.047595877200365067
          ],
          [
            "Antigua & Barbuda",
            0.04367085546255112
          ],
          [
            "Sao Tome and Principe",
            0.024277785792946815
          ],
          [
            "Libya",
            0.02259783260524273
          ],
          [
            "Martinique",
            0.022539442405104637
          ],
          [
            "Tanzania",
            0.017922293394804
          ],
          [
            "Comoros",
            0.01755763590335846
          ],
          [
            "Namibia",
            0.015296322293579578
          ],
          [
            "Kenya",
            0.014894592575728893
          ],
          [
            "Sierra Leone",
            0.013816334307193756
          ],
          [
            "Saudi Arabia",
            0.01208608690649271
          ],
          [
            "Uruguay",
            0.011996709741652012
          ],
          [
            "Romania",
            0.010807180777192116
          ],
          [
            "Ethiopia",
            0.010687856003642082
          ],
          [
            "Côte d'Ivoire",
            0.009297139011323452
          ],
          [
            "Cape Verde",
            0.009068840183317661
          ],
          [
            "Egypt",
            0.00872147735208273
          ],
          [
            "Barbados",
            0.007746677380055189
          ],
          [
            "Bahrain",
            0.007060617674142122
          ],
          [
            "Vanuatu",
            0.006882761139422655
          ],
          [
            "Ecuador",
            0.005728200078010559
          ],
          [
            "Dominica",
            0.0055816383101046085
          ],
          [
            "North Macedonia",
            0.0053565180860459805
          ],
          [
            "Chile",
            0.005347116384655237
          ],
          [
            "Botswana",
            0.004884147085249424
          ],
          [
            "Togo",
            0.0048832339234650135
          ],
          [
            "Iran",
            0.004849605727940798
          ],
          [
            "Eswatini",
            0.004243347328156233
          ],
          [
            "Lithuania",
            0.004078678786754608
          ],
          [
            "Iraq",
            0.004054262302815914
          ],
          [
            "Equatorial Guinea",
            0.003652005922049284
          ],
          [
            "Guadeloupe",
            0.0031705100554972887
          ],
          [
            "Sudan",
            0.003131803823634982
          ],
          [
            "Algeria",
            0.0028947992250323296
          ],
          [
            "Belize",
            0.0027110017836093903
          ],
          [
            "Cambodia",
            0.002543468726798892
          ],
          [
            "Spain",
            0.002463296987116337
          ],
          [
            "Solomon Islands",
            0.0024042711593210697
          ],
          [
            "Vietnam",
            0.0021199495531618595
          ],
          [
            "Zimbabwe",
            0.0020809811539947987
          ],
          [
            "Czech Republic",
            0.002012037904933095
          ],
          [
            "French Guiana",
            0.0019348878413438797
          ],
          [
            "Bosnia & Herzegovina",
            0.0018627627287060022
          ],
          [
            "Sri Lanka",
            0.0018178252503275871
          ],
          [
            "Nigeria",
            0.001643255352973938
          ],
          [
            "Heard and McDonald Islands",
            0.001642403076402843
          ],
          [
            "Bolivia",
            0.0015012520598247647
          ],
          [
            "Bahamas",
            0.0014880613889545202
          ],
          [
            "Angola",
            0.001486192224547267
          ],
          [
            "Guyana",
            0.0014841214288026094
          ],
          [
            "Albania",
            0.001429240801371634
          ],
          [
            "Serbia",
            0.001387922908179462
          ],
          [
            "Lesotho",
            0.0013651000335812569
          ],
          [
            "Azerbaijan",
            0.0012998972088098526
          ],
          [
            "Liberia",
            0.0012237027985975146
          ],
          [
            "Malawi",
            0.0012110737152397633
          ],
          [
            "Faroe Islands",
            0.0011512057390064
          ],
          [
            "Qatar",
            0.0011459044180810452
          ],
          [
            "Montenegro",
            0.0011153316590934992
          ],
          [
            "Moldova",
            0.0011141345603391528
          ],
          [
            "Gabon",
            0.0010683040600270033
          ],
          [
            "Burundi",
            0.0010355464182794094
          ],
          [
            "Syria",
            0.001006264123134315
          ],
          [
            "Turkmenistan",
            0.001002499833703041
          ],
          [
            "Paraguay",
            0.0009248857968486845
          ],
          [
            "Uganda",
            0.0009198437328450382
          ],
          [
            "Luxembourg",
            0.0008951127529144287
          ],
          [
            "Mauritania",
            0.0008778767078183591
          ],
          [
            "India",
            0.0008679007296450436
          ],
          [
            "Netherlands Antilles",
            0.0008174490067176521
          ],
          [
            "Eritrea",
            0.0008017298532649875
          ],
          [
            "Benin",
            0.0007724423776380718
          ],
          [
            "New Zealand",
            0.0007531468872912228
          ],
          [
            "Argentina",
            0.0007457708707079291
          ],
          [
            "Nicaragua",
            0.000741693889722228
          ],
          [
            "Thailand",
            0.0007329047075472772
          ],
          [
            "Peru",
            0.000719052623026073
          ],
          [
            "Australia",
            0.0006827202741988003
          ],
          [
            "Germany",
            0.0006568124517798424
          ],
          [
            "Finland",
            0.0006559961475431919
          ],
          [
            "Mayotte",
            0.000643424573354423
          ],
          [
            "Belarus",
            0.0006323265843093395
          ],
          [
            "Israel",
            0.0006023066234774888
          ],
          [
            "Rwanda",
            0.0005584702594205737
          ],
          [
            "Dominican Republic",
            0.0005447534495033324
          ],
          [
            "Mali",
            0.0005444916896522045
          ],
          [
            "Kuwait",
            0.0005215354030951858
          ],
          [
            "DR Congo",
            0.0005203639157116413
          ],
          [
            "Senegal",
            0.000519612105563283
          ],
          [
            "Malaysia",
            0.0005141945439390838
          ],
          [
            "Myanmar",
            0.0005139621789567173
          ],
          [
            "Saint Lucia",
            0.0005088742473162711
          ],
          [
            "Bhutan",
            0.00048369658179581165
          ],
          [
            "Puerto Rico",
            0.000479506968986243
          ],
          [
            "France",
            0.0004671982314903289
          ],
          [
            "Somalia",
            0.0004620908875949681
          ],
          [
            "Armenia",
            0.00045176726416684687
          ],
          [
            "Ghana",
            0.00044272266677580774
          ],
          [
            "Mozambique",
            0.00042932009091600776
          ],
          [
            "South Sudan",
            0.00042082599247805774
          ],
          [
            "Turkey",
            0.00041097801295109093
          ],
          [
            "Laos",
            0.00040207841084338725
          ],
          [
            "West Bank",
            0.00038771633990108967
          ],
          [
            "Italy",
            0.0003811931819655001
          ],
          [
            "El Salvador",
            0.00037778401747345924
          ],
          [
            "Guatemala",
            0.0003715009370353073
          ],
          [
            "United States of America",
            0.0003689679142553359
          ],
          [
            "Portugal",
            0.00035945139825344086
          ],
          [
            "South Korea",
            0.00032623097649775445
          ],
          [
            "Yemen",
            0.0003151179989799857
          ],
          [
            "Switzerland",
            0.0003091940307058394
          ],
          [
            "Slovakia",
            0.0002803963434416801
          ],
          [
            "Colombia",
            0.00027850415790453553
          ],
          [
            "Honduras",
            0.000278052466455847
          ],
          [
            "Sweden",
            0.00027485290775075555
          ],
          [
            "Jordan",
            0.000271487602731213
          ],
          [
            "United Arab Emirates",
            0.0002518591354601085
          ],
          [
            "Tunisia",
            0.00024943629978224635
          ],
          [
            "Latvia",
            0.0002413440524833277
          ],
          [
            "Greenland",
            0.00024082076561171561
          ],
          [
            "Timor-Leste",
            0.0002342638181289658
          ],
          [
            "Uzbekistan",
            0.0002312300493940711
          ],
          [
            "Svalbard",
            0.00023046524438541383
          ],
          [
            "Brazil",
            0.00021949366782791913
          ],
          [
            "Burkina Faso",
            0.00021900857973378152
          ],
          [
            "Croatia",
            0.00021584892238024622
          ],
          [
            "United Kingdom",
            0.00020224443869665265
          ],
          [
            "South Georgia Islands",
            0.00020093524653930217
          ],
          [
            "Bulgaria",
            0.00020065144053660333
          ],
          [
            "Ukraine",
            0.0001952999155037105
          ],
          [
            "Guinea",
            0.00019474938744679093
          ],
          [
            "Mongolia",
            0.0001894963497761637
          ],
          [
            "Cameroon",
            0.00018868739425670356
          ],
          [
            "Philippines",
            0.00018744339467957616
          ],
          [
            "Japan",
            0.00017642499005887657
          ],
          [
            "Belgium",
            0.00016897995374165475
          ],
          [
            "Mexico",
            0.0001637544482946396
          ],
          [
            "Costa Rica",
            0.00016082929505500942
          ],
          [
            "Indonesia",
            0.00016039246111176908
          ],
          [
            "Georgia",
            0.00015512654499616474
          ],
          [
            "Fiji",
            0.00015139755851123482
          ],
          [
            "Turks and Caicos Islands",
            0.00014802110672462732
          ],
          [
            "Venezuela",
            0.00014237900904845446
          ],
          [
            "Tajikistan",
            0.00014143627777229995
          ],
          [
            "Bangladesh",
            0.00013557373313233256
          ],
          [
            "Oman",
            0.00012995470024179667
          ],
          [
            "Madeira Islands",
            0.00012799656542483717
          ],
          [
            "Chad",
            0.00012791504559572786
          ],
          [
            "Hungary",
            0.00011943956633331254
          ],
          [
            "Guam",
            0.00011658666335279122
          ],
          [
            "Kazakhstan",
            0.00011058665404561907
          ],
          [
            "Norway",
            0.00010909521370194852
          ],
          [
            "Samoa",
            0.00010884185758186504
          ],
          [
            "Papua New Guinea",
            0.00010789086809381843
          ],
          [
            "Cyprus",
            0.00010779028525575995
          ],
          [
            "Slovenia",
            0.00010536966874497011
          ],
          [
            "Iceland",
            0.00010266800381941721
          ],
          [
            "Niger",
            0.00010122928506461903
          ],
          [
            "Jamaica",
            9.322690311819315e-05
          ],
          [
            "Cuba",
            9.171156125376001e-05
          ],
          [
            "Trinidad and Tobago",
            8.59025094541721e-05
          ],
          [
            "Russia",
            8.483987767249346e-05
          ],
          [
            "Taiwan",
            8.460524259135127e-05
          ],
          [
            "Nepal",
            8.445304410997778e-05
          ],
          [
            "New Caledonia",
            8.20139393908903e-05
          ],
          [
            "Palau",
            8.158473792718723e-05
          ],
          [
            "Kyrgyzstan",
            8.15503517515026e-05
          ],
          [
            "Afghanistan",
            7.167395961005241e-05
          ],
          [
            "Congo",
            6.797003152314574e-05
          ],
          [
            "Western Sahara",
            6.1406048189383e-05
          ],
          [
            "China",
            5.976772808935493e-05
          ],
          [
            "Panama",
            5.93534205108881e-05
          ],
          [
            "Central African Republic",
            4.94431697006803e-05
          ],
          [
            "Djibouti",
            4.91175742354244e-05
          ],
          [
            "Canada",
            4.227993485983461e-05
          ],
          [
            "Zambia",
            4.0858143620425835e-05
          ],
          [
            "Isle of Man",
            4.000396074843593e-05
          ],
          [
            "South Africa",
            3.9585665945196524e-05
          ],
          [
            "Estonia",
            3.881675365846604e-05
          ],
          [
            "Hong Kong",
            3.826265674433671e-05
          ],
          [
            "Falkland Islands",
            3.184069282724522e-05
          ],
          [
            "North Korea",
            3.0100200092419982e-05
          ],
          [
            "Ireland",
            2.7555246560950764e-05
          ],
          [
            "Greece",
            2.751685315161012e-05
          ],
          [
            "Brunei",
            2.5765666578081436e-05
          ],
          [
            "Gambia",
            2.5755447495612316e-05
          ],
          [
            "Netherlands",
            2.136105831596069e-05
          ],
          [
            "Guinea-Bissau",
            2.0591764041455463e-05
          ],
          [
            "Austria",
            2.0373379811644554e-05
          ],
          [
            "Madagascar",
            1.8427454051561654e-05
          ],
          [
            "Denmark",
            1.8251401343150064e-05
          ],
          [
            "Lebanon",
            1.5598512618453242e-05
          ],
          [
            "Kiribati",
            1.346518547507003e-05
          ],
          [
            "Pakistan",
            1.0674780241970439e-05
          ],
          [
            "Haiti",
            6.227019184734672e-06
          ],
          [
            "Morocco",
            5.382205017667729e-06
          ]
        ]
      },
      "geometry": {
        "type": "MultiLineString",
        "coordinates": [
          [
            [
              20.539325842696627,
              62.0
            ],
            [
              17.842696629213478,
              62.0
            ],
            [
              15.82022471910112,
              61.325842696629195
            ],
            [
              15.146067415730329,
              58.62921348314606
            ],
            [
              10.426966292134836,
              47.84269662921349
            ],
            [
              7.056179775280896,
              39.078651685393254
            ],
            [
              4.359550561797761,
              31.662921348314597
            ],
            [
              3.011235955056179,
              23.573033707865164
            ],
            [
              3.011235955056179,
              20.876404494382
            ],
            [
              3.6853932584269558,
              18.853932584269643
            ],
            [
              7.056179775280896,
              18.853932584269643
            ],
            [
              10.426966292134836,
              17.50561797752809
            ],
            [
              12.449438202247194,
              16.831460674157285
            ],
            [
              15.82022471910112,
              15.483146067415731
            ],
            [
              23.235955056179776,
              12.786516853932568
            ],
            [
              27.280898876404493,
              10.76404494382021
            ],
            [
              32.0,
              9.415730337078628
            ],
            [
              38.067415730337075,
              7.39325842696627
            ],
            [
              47.50561797752809,
              4.696629213483135
            ],
            [
              50.87640449438203,
              4.022471910112358
            ],
            [
              54.24719101123594,
              3.3483146067415532
            ],
            [
              58.96629213483146,
              2.6741573033707766
            ],
            [
              60.98876404494382,
              2.0
            ]
          ],
          [
            [
              21.887640449438194,
              57.28089887640448
            ],
            [
              23.910112359550567,
              57.95505617977528
            ],
            [
              27.955056179775283,
              57.95505617977528
            ],
            [
              30.65168539325842,
              57.95505617977528
            ],
            [
              33.34831460674157,
              57.95505617977528
            ],
            [
              36.04494382022472,
              57.95505617977528
            ]
          ]
        ]
      }
    }
  ]
}