{
  "type": "FeatureCollection",
  "crs": {
    "type": "name",
    "properties": {
      "name": "urn:ogc:def:crs:OGC:1.3:CRS84"
    }
  },
  "features": [
    {
      "type": "Feature",
      "properties": {
        "timestamp": "2026-03-31T22:43:51.618943",
        "country_name": "Romania",
        "author": "",
        "author_id": "a52544fb-8f8a-48c5-abe5-5995835cb942",
        "validated": false,
        "ranking": [
          [
            "Switzerland",
            0.11744040995836258
          ],
          [
            "Honduras",
            0.1102142184972763
          ],
          [
            "Kazakhstan",
            0.105746328830719
          ],
          [
            "Mongolia",
            0.09856200218200684
          ],
          [
            "Kyrgyzstan",
            0.04185570031404495
          ],
          [
            "Turkey",
            0.039895400404930115
          ],
          [
            "Slovakia",
            0.03712495043873787
          ],
          [
            "Jamaica",
            0.03673066198825836
          ],
          [
            "Falkland Islands",
            0.03278756141662598
          ],
          [
            "Hong Kong",
            0.0300621185451746
          ],
          [
            "Central African Republic",
            0.028361203148961067
          ],
          [
            "Czech Republic",
            0.023906681686639786
          ],
          [
            "Estonia",
            0.017578192055225372
          ],
          [
            "Burkina Faso",
            0.017474396154284477
          ],
          [
            "Ukraine",
            0.017300207167863846
          ],
          [
            "El Salvador",
            0.017162365838885307
          ],
          [
            "Bhutan",
            0.017038214951753616
          ],
          [
            "Puerto Rico",
            0.016581039875745773
          ],
          [
            "Panama",
            0.014083974994719028
          ],
          [
            "Russia",
            0.013363017700612545
          ],
          [
            "Turkmenistan",
            0.011076862923800945
          ],
          [
            "Latvia",
            0.01019726600497961
          ],
          [
            "Guinea-Bissau",
            0.010103253647685051
          ],
          [
            "Georgia",
            0.009549535810947418
          ],
          [
            "Indonesia",
            0.008720986545085907
          ],
          [
            "Papua New Guinea",
            0.008646585047245026
          ],
          [
            "Madeira Islands",
            0.0072808354161679745
          ],
          [
            "Uzbekistan",
            0.005570508539676666
          ],
          [
            "Bangladesh",
            0.0049789962358772755
          ],
          [
            "Tajikistan",
            0.004968854598701
          ],
          [
            "Yemen",
            0.004671026952564716
          ],
          [
            "Cuba",
            0.0037333020009100437
          ],
          [
            "Dominican Republic",
            0.003485702211037278
          ],
          [
            "China",
            0.00348391430452466
          ],
          [
            "Brunei",
            0.0027746323030442
          ],
          [
            "Iceland",
            0.0025622027460485697
          ],
          [
            "New Caledonia",
            0.0023953798227012157
          ],
          [
            "Slovenia",
            0.002352160168811679
          ],
          [
            "Fiji",
            0.0021653498988598585
          ],
          [
            "South Sudan",
            0.0021101003512740135
          ],
          [
            "Malaysia",
            0.0020345188677310944
          ],
          [
            "Heard and McDonald Islands",
            0.0018335457425564528
          ],
          [
            "Austria",
            0.0017909829039126635
          ],
          [
            "Hungary",
            0.0017808693228289485
          ],
          [
            "Rwanda",
            0.0017126714810729027
          ],
          [
            "Colombia",
            0.001688429620116949
          ],
          [
            "Timor-Leste",
            0.0014938157983124256
          ],
          [
            "Montenegro",
            0.0014765897067263722
          ],
          [
            "Cyprus",
            0.0014568226179108024
          ],
          [
            "Romania",
            0.0014554894296452403
          ],
          [
            "Gambia",
            0.0014264016645029187
          ],
          [
            "Ecuador",
            0.0011508886236697435
          ],
          [
            "Senegal",
            0.0011296275770291686
          ],
          [
            "Belgium",
            0.0010052330326288939
          ],
          [
            "Nepal",
            0.0009861849248409271
          ],
          [
            "South Africa",
            0.0008436574134975672
          ],
          [
            "Azerbaijan",
            0.0008269483805634081
          ],
          [
            "Croatia",
            0.0008208933868445456
          ],
          [
            "Netherlands Antilles",
            0.0007635473157279193
          ],
          [
            "Mexico",
            0.0007171658799052238
          ],
          [
            "Bulgaria",
            0.0006953556439839303
          ],
          [
            "Myanmar",
            0.0006602483335882425
          ],
          [
            "Niger",
            0.0006364459404721856
          ],
          [
            "Saudi Arabia",
            0.0006068366928957403
          ],
          [
            "Canada",
            0.0006006379844620824
          ],
          [
            "Lithuania",
            0.0005936641246080399
          ],
          [
            "South Korea",
            0.000589105999097228
          ],
          [
            "Greenland",
            0.0005874621565453708
          ],
          [
            "Guadeloupe",
            0.0005862063262611628
          ],
          [
            "North Korea",
            0.0005728596006520092
          ],
          [
            "Zambia",
            0.000569561670999974
          ],
          [
            "Armenia",
            0.000567136681638658
          ],
          [
            "India",
            0.0005509189213626087
          ],
          [
            "Mozambique",
            0.0005259873578324914
          ],
          [
            "Kuwait",
            0.0005257496377453208
          ],
          [
            "Turks and Caicos Islands",
            0.0005202958709560335
          ],
          [
            "Gabon",
            0.0004960164660587907
          ],
          [
            "Ireland",
            0.0004531795857474208
          ],
          [
            "Svalbard",
            0.0004470020649023354
          ],
          [
            "Samoa",
            0.0004382082843221724
          ],
          [
            "Afghanistan",
            0.00042949250200763345
          ],
          [
            "United States of America",
            0.0004178399103693664
          ],
          [
            "Mali",
            0.0004127230786252767
          ],
          [
            "Nicaragua",
            0.0003918727161362767
          ],
          [
            "Serbia",
            0.00038720015436410904
          ],
          [
            "Somalia",
            0.00037681503454223275
          ],
          [
            "Paraguay",
            0.00036418865784071386
          ],
          [
            "Guinea",
            0.00035914816544391215
          ],
          [
            "Iraq",
            0.0003507870133034885
          ],
          [
            "Iran",
            0.0003499489976093173
          ],
          [
            "Ethiopia",
            0.00034989361301995814
          ],
          [
            "Djibouti",
            0.00034171142033301294
          ],
          [
            "Benin",
            0.0003334952925797552
          ],
          [
            "Solomon Islands",
            0.0003289304149802774
          ],
          [
            "Venezuela",
            0.0003170088166370988
          ],
          [
            "Thailand",
            0.00031387960189022124
          ],
          [
            "Liberia",
            0.0003069502708967775
          ],
          [
            "Algeria",
            0.00029805678059346974
          ],
          [
            "Syria",
            0.0002970443165395409
          ],
          [
            "France",
            0.00029022249509580433
          ],
          [
            "Malawi",
            0.00028975680470466614
          ],
          [
            "DR Congo",
            0.0002887543523684144
          ],
          [
            "Australia",
            0.0002729067637119442
          ],
          [
            "Tunisia",
            0.0002687223895918578
          ],
          [
            "Belarus",
            0.0002684390638023615
          ],
          [
            "Denmark",
            0.00025415740674361587
          ],
          [
            "Costa Rica",
            0.00025137848570011556
          ],
          [
            "United Kingdom",
            0.00024834039504639804
          ],
          [
            "South Georgia Islands",
            0.00024234525335486978
          ],
          [
            "Taiwan",
            0.00022788734349887818
          ],
          [
            "Guyana",
            0.00022762887238059193
          ],
          [
            "Belize",
            0.00022441377223003656
          ],
          [
            "Bahamas",
            0.00022129135322757065
          ],
          [
            "Moldova",
            0.00021166211809031665
          ],
          [
            "Peru",
            0.00020634295651689172
          ],
          [
            "Philippines",
            0.00020613525703083724
          ],
          [
            "Greece",
            0.00020118162501603365
          ],
          [
            "Netherlands",
            0.0002003598347073421
          ],
          [
            "Sweden",
            0.00019791946397162974
          ],
          [
            "Italy",
            0.00019119272474199533
          ],
          [
            "Burundi",
            0.00019064394291490316
          ],
          [
            "Angola",
            0.00018348531739320606
          ],
          [
            "North Macedonia",
            0.00017989863408729434
          ],
          [
            "Haiti",
            0.0001750929222907871
          ],
          [
            "Brazil",
            0.0001674465020187199
          ],
          [
            "United Arab Emirates",
            0.00016609115118626505
          ],
          [
            "Guam",
            0.0001650147169129923
          ],
          [
            "Congo",
            0.0001649568002903834
          ],
          [
            "Spain",
            0.00016303158190567046
          ],
          [
            "Lesotho",
            0.00015876394172664732
          ],
          [
            "New Zealand",
            0.000156459427671507
          ],
          [
            "Bolivia",
            0.00014257371367421
          ],
          [
            "Zimbabwe",
            0.00014006833953317255
          ],
          [
            "Argentina",
            0.00013117182243149728
          ],
          [
            "Oman",
            0.00013072224101051688
          ],
          [
            "Morocco",
            0.00012839131522923708
          ],
          [
            "Mayotte",
            0.0001206173183163628
          ],
          [
            "Faroe Islands",
            0.00011874822666868567
          ],
          [
            "Saint Lucia",
            0.00011633243411779404
          ],
          [
            "Togo",
            0.00011581238504732028
          ],
          [
            "Jordan",
            0.00011432720202719793
          ],
          [
            "Qatar",
            0.00011211655510123819
          ],
          [
            "Portugal",
            0.00011146706674480811
          ],
          [
            "Comoros",
            0.00010613747144816443
          ],
          [
            "Vietnam",
            0.00010600919631542638
          ],
          [
            "Kenya",
            0.00010433184797875583
          ],
          [
            "Israel",
            0.00010411655239295214
          ],
          [
            "Germany",
            0.00010121818195329979
          ],
          [
            "Madagascar",
            9.505757770966738e-05
          ],
          [
            "Eritrea",
            8.909977623261511e-05
          ],
          [
            "Guatemala",
            8.725036605028436e-05
          ],
          [
            "Japan",
            8.719015022506937e-05
          ],
          [
            "Western Sahara",
            8.507524762535468e-05
          ],
          [
            "Bosnia & Herzegovina",
            8.35110986372456e-05
          ],
          [
            "Luxembourg",
            7.938510680105537e-05
          ],
          [
            "Nigeria",
            7.93173021520488e-05
          ],
          [
            "Mauritania",
            7.610039028804749e-05
          ],
          [
            "Martinique",
            7.443585491273552e-05
          ],
          [
            "Kiribati",
            7.288289634743705e-05
          ],
          [
            "Botswana",
            7.220725092338398e-05
          ],
          [
            "Lebanon",
            6.929866503924131e-05
          ],
          [
            "Albania",
            6.812364154029638e-05
          ],
          [
            "Vanuatu",
            6.714503979310393e-05
          ],
          [
            "Finland",
            6.339546962408349e-05
          ],
          [
            "Sri Lanka",
            5.734616570407525e-05
          ],
          [
            "Laos",
            5.7312045100843534e-05
          ],
          [
            "Eswatini",
            5.5210941354744136e-05
          ],
          [
            "West Bank",
            5.503231659531593e-05
          ],
          [
            "Isle of Man",
            5.2956169383833185e-05
          ],
          [
            "Cameroon",
            5.2837320254184306e-05
          ],
          [
            "Cape Verde",
            5.267802771413699e-05
          ],
          [
            "Pakistan",
            5.2277453505666927e-05
          ],
          [
            "Cambodia",
            5.2058447181480005e-05
          ],
          [
            "Uruguay",
            5.0397240556776524e-05
          ],
          [
            "Sierra Leone",
            4.813223858946003e-05
          ],
          [
            "Tanzania",
            4.800754686584696e-05
          ],
          [
            "Norway",
            4.7255776735255495e-05
          ],
          [
            "Palau",
            4.648456160794012e-05
          ],
          [
            "Equatorial Guinea",
            4.6411292714765295e-05
          ],
          [
            "Namibia",
            4.60854425909929e-05
          ],
          [
            "Chile",
            4.595448262989521e-05
          ],
          [
            "Uganda",
            4.558042564895004e-05
          ],
          [
            "French Guiana",
            4.4508335122372955e-05
          ],
          [
            "Sudan",
            4.349223308963701e-05
          ],
          [
            "Dominica",
            4.3428070057416335e-05
          ],
          [
            "Libya",
            4.2878913518507034e-05
          ],
          [
            "Reunion",
            4.039958366774954e-05
          ],
          [
            "Bahrain",
            3.956607906729914e-05
          ],
          [
            "Chad",
            3.426412513363175e-05
          ],
          [
            "Suriname",
            3.3589672966627404e-05
          ],
          [
            "Antigua & Barbuda",
            3.354159343871288e-05
          ],
          [
            "Trinidad and Tobago",
            3.081309478147887e-05
          ],
          [
            "Ghana",
            2.9415017706924118e-05
          ],
          [
            "Poland",
            2.7230971682001837e-05
          ],
          [
            "Egypt",
            2.7006692107534036e-05
          ],
          [
            "Barbados",
            2.4900809876271524e-05
          ],
          [
            "Côte d'Ivoire",
            1.6621561371721327e-05
          ],
          [
            "Sao Tome and Principe",
            1.3952910194348078e-05
          ],
          [
            "United States Virgin Islands",
            6.572234269697219e-06
          ]
        ]
      },
      "geometry": {
        "type": "MultiLineString",
        "coordinates": [
          [
            [
              20.5625,
              25.34375
            ],
            [
              19.625,
              25.34375
            ],
            [
              17.1875,
              25.34375
            ],
            [
              16.4375,
              25.34375
            ],
            [
              13.8125,
              25.71875
            ],
            [
              13.25,
              26.28125
            ],
            [
              12.5,
              26.84375
            ],
            [
              9.875,
              27.78125
            ],
            [
              9.125,
              28.15625
            ],
            [
              7.8125,
              28.34375
            ],
            [
              7.0625,
              28.53125
            ],
            [
              6.3125,
              29.28125
            ],
            [
              5.375,
              30.21875
            ],
            [
              4.8125,
              30.59375
            ],
            [
              4.0625,
              30.96875
            ],
            [
              2.75,
              31.34375
            ],
            [
              2.1875,
              31.71875
            ],
            [
              2.0,
              32.28125
            ],
            [
              2.0,
              33.21875
            ],
            [
              2.0,
              33.96875
            ],
            [
              2.0,
              34.71875
            ],
            [
              3.125,
              34.90625
            ],
            [
              3.6875,
              35.09375
            ],
            [
              4.8125,
              35.28125
            ],
            [
              5.5625,
              35.28125
            ],
            [
              6.3125,
              35.46875
            ],
            [
              7.0625,
              35.46875
            ],
            [
              7.8125,
              35.65625
            ],
            [
              8.5625,
              35.84375
            ],
            [
              9.5,
              35.84375
            ],
            [
              10.25,
              36.21875
            ],
            [
              11.0,
              36.78125
            ],
            [
              11.1875,
              37.53125
            ],
            [
              11.75,
              38.28125
            ],
            [
              11.9375,
              38.84375
            ],
            [
              12.3125,
              39.78125
            ],
            [
              12.875,
              40.53125
            ],
            [
              13.4375,
              40.90625
            ],
            [
              14.375,
              40.90625
            ],
            [
              15.125,
              41.28125
            ],
            [
              16.625,
              41.46875
            ],
            [
              17.1875,
              41.65625
            ],
            [
              17.9375,
              41.65625
            ],
            [
              18.875,
              41.84375
            ],
            [
              19.8125,
              42.21875
            ],
            [
              20.375,
              42.78125
            ],
            [
              21.125,
              43.15625
            ],
            [
              21.875,
              44.09375
            ],
            [
              22.4375,
              44.46875
            ],
            [
              23.375,
              45.03125
            ],
            [
              23.9375,
              45.40625
            ],
            [
              24.5,
              45.59375
            ],
            [
              25.625,
              46.34375
            ],
            [
              26.375,
              46.90625
            ],
            [
              26.9375,
              47.09375
            ],
            [
              27.5,
              47.28125
            ],
            [
              28.25,
              47.65625
            ],
            [
              29.0,
              47.84375
            ],
            [
              29.5625,
              48.03125
            ],
            [
              30.5,
              48.03125
            ],
            [
              31.8125,
              48.03125
            ],
            [
              32.5625,
              48.03125
            ],
            [
              33.6875,
              47.65625
            ],
            [
              34.25,
              47.09375
            ],
            [
              34.8125,
              46.71875
            ],
            [
              35.9375,
              45.96875
            ],
            [
              36.875,
              45.40625
            ],
            [
              37.4375,
              44.84375
            ],
            [
              38.0,
              44.28125
            ],
            [
              38.75,
              43.71875
            ],
            [
              39.3125,
              43.15625
            ],
            [
              40.25,
              42.59375
            ],
            [
              41.0,
              42.03125
            ],
            [
              41.5625,
              41.46875
            ],
            [
              42.3125,
              40.71875
            ],
            [
              42.875,
              40.15625
            ],
            [
              43.4375,
              39.96875
            ],
            [
              44.5625,
              39.40625
            ],
            [
              45.5,
              39.03125
            ],
            [
              46.25,
              38.28125
            ],
            [
              47.0,
              38.09375
            ],
            [
              47.9375,
              38.09375
            ],
            [
              48.875,
              38.09375
            ],
            [
              50.375,
              38.28125
            ],
            [
              51.3125,
              38.46875
            ],
            [
              52.0625,
              38.65625
            ],
            [
              52.8125,
              38.09375
            ],
            [
              53.1875,
              37.53125
            ],
            [
              53.375,
              36.59375
            ],
            [
              53.5625,
              36.03125
            ],
            [
              54.3125,
              35.09375
            ],
            [
              54.875,
              34.34375
            ],
            [
              55.625,
              33.21875
            ],
            [
              56.375,
              32.46875
            ],
            [
              57.3125,
              32.09375
            ],
            [
              58.25,
              31.90625
            ],
            [
              59.1875,
              31.90625
            ],
            [
              59.9375,
              31.90625
            ],
            [
              59.5625,
              31.34375
            ],
            [
              59.1875,
              30.21875
            ],
            [
              59.1875,
              29.46875
            ],
            [
              59.1875,
              28.71875
            ],
            [
              59.1875,
              27.59375
            ],
            [
              59.5625,
              26.65625
            ],
            [
              59.75,
              25.90625
            ],
            [
              59.9375,
              25.34375
            ],
            [
              60.3125,
              24.78125
            ],
            [
              60.5,
              24.03125
            ],
            [
              60.5,
              23.28125
            ],
            [
              59.9375,
              23.09375
            ],
            [
              59.0,
              22.90625
            ],
            [
              58.25,
              22.71875
            ],
            [
              57.6875,
              22.53125
            ],
            [
              56.375,
              22.90625
            ],
            [
              56.1875,
              23.46875
            ],
            [
              55.8125,
              24.03125
            ],
            [
              55.625,
              24.96875
            ],
            [
              54.5,
              25.71875
            ],
            [
              53.9375,
              26.09375
            ],
            [
              53.0,
              26.28125
            ],
            [
              52.0625,
              26.28125
            ],
            [
              51.3125,
              26.28125
            ],
            [
              50.375,
              26.28125
            ],
            [
              48.875,
              26.28125
            ],
            [
              47.9375,
              26.28125
            ],
            [
              47.0,
              26.28125
            ],
            [
              45.125,
              26.28125
            ],
            [
              43.25,
              26.28125
            ],
            [
              41.9375,
              26.28125
            ],
            [
              40.625,
              26.28125
            ],
            [
              38.75,
              26.28125
            ],
            [
              37.8125,
              26.28125
            ],
            [
              36.3125,
              26.28125
            ],
            [
              35.5625,
              26.09375
            ],
            [
              34.8125,
              25.90625
            ],
            [
              34.25,
              25.71875
            ],
            [
              33.3125,
              25.34375
            ],
            [
              32.5625,
              24.96875
            ],
            [
              31.8125,
              24.59375
            ],
            [
              31.4375,
              24.03125
            ],
            [
              30.875,
              23.28125
            ],
            [
              30.6875,
              22.71875
            ],
            [
              30.125,
              22.15625
            ],
            [
              29.1875,
              22.15625
            ],
            [
              28.625,
              21.96875
            ],
            [
              27.3125,
              21.78125
            ],
            [
              26.5625,
              21.78125
            ],
            [
              25.8125,
              21.59375
            ],
            [
              24.6875,
              21.40625
            ],
            [
              23.375,
              21.40625
            ],
            [
              21.875,
              21.40625
            ],
            [
              20.75,
              21.40625
            ],
            [
              19.625,
              21.59375
            ],
            [
              19.0625,
              22.53125
            ],
            [
              18.6875,
              23.46875
            ],
            [
              18.125,
              24.40625
            ],
            [
              17.1875,
              25.15625
            ]
          ],
          [
            [
              21.3125,
              20.46875
            ],
            [
              23.1875,
              20.28125
            ],
            [
              24.5,
              19.71875
            ],
            [
              25.8125,
              19.34375
            ],
            [
              27.5,
              19.34375
            ],
            [
              28.625,
              18.96875
            ],
            [
              29.5625,
              18.96875
            ],
            [
              30.125,
              18.78125
            ],
            [
              31.0625,
              18.59375
            ],
            [
              31.8125,
              17.46875
            ],
            [
              32.75,
              16.71875
            ],
            [
              33.6875,
              16.34375
            ],
            [
              35.1875,
              15.96875
            ],
            [
              36.875,
              15.96875
            ],
            [
              37.8125,
              15.96875
            ],
            [
              38.5625,
              16.15625
            ],
            [
              39.6875,
              16.53125
            ],
            [
              41.0,
              17.09375
            ],
            [
              41.75,
              17.46875
            ],
            [
              42.3125,
              17.65625
            ],
            [
              43.0625,
              17.84375
            ],
            [
              44.375,
              18.21875
            ],
            [
              45.3125,
              18.21875
            ],
            [
              45.875,
              18.59375
            ],
            [
              47.0,
              19.34375
            ],
            [
              48.125,
              19.53125
            ],
            [
              49.25,
              19.53125
            ],
            [
              50.1875,
              19.71875
            ],
            [
              50.75,
              19.90625
            ],
            [
              51.5,
              19.90625
            ],
            [
              52.25,
              19.90625
            ],
            [
              53.1875,
              19.90625
            ],
            [
              53.75,
              20.09375
            ],
            [
              54.125,
              21.21875
            ],
            [
              54.125,
              21.96875
            ],
            [
              54.3125,
              22.53125
            ],
            [
              54.875,
              22.90625
            ],
            [
              55.625,
              23.28125
            ]
          ],
          [
            [
              7.25,
              33.96875
            ],
            [
              9.5,
              35.65625
            ],
            [
              10.8125,
              36.96875
            ],
            [
              11.5625,
              37.71875
            ],
            [
              12.875,
              38.65625
            ],
            [
              14.375,
              39.96875
            ],
            [
              14.9375,
              40.34375
            ],
            [
              15.3125,
              40.90625
            ],
            [
              15.875,
              41.46875
            ],
            [
              16.625,
              41.84375
            ],
            [
              17.375,
              42.21875
            ],
            [
              18.3125,
              42.59375
            ],
            [
              20.0,
              42.96875
            ],
            [
              20.75,
              43.34375
            ],
            [
              22.0625,
              43.34375
            ],
            [
              23.375,
              43.71875
            ],
            [
              24.125,
              43.71875
            ],
            [
              24.6875,
              44.09375
            ],
            [
              25.625,
              44.84375
            ],
            [
              26.375,
              45.59375
            ],
            [
              26.9375,
              45.96875
            ],
            [
              27.5,
              46.53125
            ],
            [
              28.625,
              46.90625
            ],
            [
              29.75,
              47.28125
            ],
            [
              30.3125,
              47.46875
            ],
            [
              31.25,
              47.65625
            ],
            [
              32.1875,
              47.65625
            ],
            [
              32.9375,
              47.84375
            ],
            [
              33.875,
              48.03125
            ],
            [
              34.625,
              48.03125
            ],
            [
              36.125,
              48.03125
            ],
            [
              37.25,
              47.65625
            ],
            [
              38.0,
              47.28125
            ],
            [
              39.125,
              46.90625
            ],
            [
              40.4375,
              46.15625
            ],
            [
              41.1875,
              45.59375
            ],
            [
              41.75,
              45.21875
            ],
            [
              42.5,
              44.84375
            ],
            [
              43.8125,
              44.84375
            ],
            [
              44.9375,
              44.84375
            ],
            [
              45.875,
              44.84375
            ],
            [
              47.0,
              44.84375
            ],
            [
              47.5625,
              45.03125
            ],
            [
              48.5,
              45.03125
            ],
            [
              49.0625,
              45.21875
            ],
            [
              49.625,
              45.40625
            ],
            [
              50.375,
              45.59375
            ],
            [
              51.125,
              45.59375
            ],
            [
              51.125,
              44.84375
            ],
            [
              51.5,
              44.28125
            ],
            [
              51.875,
              43.34375
            ],
            [
              52.0625,
              42.78125
            ],
            [
              52.625,
              42.21875
            ],
            [
              53.0,
              41.46875
            ],
            [
              53.5625,
              40.71875
            ],
            [
              54.125,
              39.78125
            ],
            [
              54.6875,
              38.84375
            ],
            [
              55.25,
              38.28125
            ],
            [
              55.8125,
              37.71875
            ],
            [
              56.9375,
              37.34375
            ],
            [
              57.5,
              36.96875
            ],
            [
              58.25,
              36.59375
            ],
            [
              59.0,
              36.40625
            ],
            [
              59.75,
              36.03125
            ],
            [
              60.3125,
              35.65625
            ],
            [
              61.0625,
              35.09375
            ],
            [
              61.625,
              34.53125
            ],
            [
              62.0,
              33.96875
            ],
            [
              62.0,
              32.84375
            ],
            [
              62.0,
              32.09375
            ],
            [
              61.8125,
              30.96875
            ]
          ]
        ]
      }
    }
  ]
}