{
  "type": "FeatureCollection",
  "crs": {
    "type": "name",
    "properties": {
      "name": "urn:ogc:def:crs:OGC:1.3:CRS84"
    }
  },
  "features": [
    {
      "type": "Feature",
      "properties": {
        "timestamp": "2026-06-23T14:18:36.828889",
        "country_name": "Romania",
        "author": "",
        "author_id": "0d1b380e-42b2-4fc4-9bb2-6dd6aaa68dc0",
        "validated": false,
        "ranking": [
          [
            "Romania",
            0.13593842089176178
          ],
          [
            "North Macedonia",
            0.0545007698237896
          ],
          [
            "Lithuania",
            0.04994313046336174
          ],
          [
            "Iran",
            0.03378048539161682
          ],
          [
            "Iceland",
            0.03042292781174183
          ],
          [
            "Cambodia",
            0.027141880244016647
          ],
          [
            "Bulgaria",
            0.02709752507507801
          ],
          [
            "South Sudan",
            0.026048725470900536
          ],
          [
            "Gabon",
            0.02457502856850624
          ],
          [
            "Suriname",
            0.02427973411977291
          ],
          [
            "Czech Republic",
            0.023304477334022522
          ],
          [
            "Saudi Arabia",
            0.023041320964694023
          ],
          [
            "Poland",
            0.022235972806811333
          ],
          [
            "Bhutan",
            0.021637124940752983
          ],
          [
            "Ukraine",
            0.018585780635476112
          ],
          [
            "Rwanda",
            0.018113665282726288
          ],
          [
            "Heard and McDonald Islands",
            0.01633785478770733
          ],
          [
            "Libya",
            0.016021836549043655
          ],
          [
            "Switzerland",
            0.013958924449980259
          ],
          [
            "Cape Verde",
            0.01379990391433239
          ],
          [
            "Nigeria",
            0.013062183745205402
          ],
          [
            "Australia",
            0.012695982120931149
          ],
          [
            "Turkmenistan",
            0.011391137726604939
          ],
          [
            "Azerbaijan",
            0.011135967448353767
          ],
          [
            "Latvia",
            0.009377648122608662
          ],
          [
            "Guadeloupe",
            0.00886196456849575
          ],
          [
            "Reunion",
            0.008775074034929276
          ],
          [
            "Yemen",
            0.008510399609804153
          ],
          [
            "Estonia",
            0.007871869020164013
          ],
          [
            "Nicaragua",
            0.00783286802470684
          ],
          [
            "Tanzania",
            0.007757324259728193
          ],
          [
            "Côte d'Ivoire",
            0.007701905909925699
          ],
          [
            "Belgium",
            0.007683036848902702
          ],
          [
            "France",
            0.007272779941558838
          ],
          [
            "Burundi",
            0.006719233468174934
          ],
          [
            "Guinea",
            0.0066999089904129505
          ],
          [
            "Sudan",
            0.006376961711794138
          ],
          [
            "Hungary",
            0.006281234323978424
          ],
          [
            "Zimbabwe",
            0.0062330784276127815
          ],
          [
            "China",
            0.006136045325547457
          ],
          [
            "Turkey",
            0.006007409654557705
          ],
          [
            "Niger",
            0.0057219332084059715
          ],
          [
            "Venezuela",
            0.0055831726640462875
          ],
          [
            "Kenya",
            0.005354925524443388
          ],
          [
            "Algeria",
            0.005327256862074137
          ],
          [
            "Ethiopia",
            0.005234182346612215
          ],
          [
            "Syria",
            0.005217257887125015
          ],
          [
            "Sierra Leone",
            0.005194380879402161
          ],
          [
            "Ecuador",
            0.004379524849355221
          ],
          [
            "Kazakhstan",
            0.003976111765950918
          ],
          [
            "Peru",
            0.0038510244339704514
          ],
          [
            "Egypt",
            0.003797848243266344
          ],
          [
            "Madeira Islands",
            0.0035828736145049334
          ],
          [
            "El Salvador",
            0.003540246980264783
          ],
          [
            "Bosnia & Herzegovina",
            0.003476974554359913
          ],
          [
            "Honduras",
            0.003431416815146804
          ],
          [
            "Iraq",
            0.0034003262408077717
          ],
          [
            "Comoros",
            0.0033608456142246723
          ],
          [
            "Lesotho",
            0.0032718211878091097
          ],
          [
            "Uruguay",
            0.00322092417627573
          ],
          [
            "Angola",
            0.00318030989728868
          ],
          [
            "Croatia",
            0.00315730064176023
          ],
          [
            "Brazil",
            0.0030342447571456432
          ],
          [
            "Burkina Faso",
            0.0030145796481519938
          ],
          [
            "Namibia",
            0.0026476362254470587
          ],
          [
            "Bangladesh",
            0.0025901049375534058
          ],
          [
            "Martinique",
            0.002577385399490595
          ],
          [
            "Mongolia",
            0.0024794465862214565
          ],
          [
            "Montenegro",
            0.002441760851070285
          ],
          [
            "Slovenia",
            0.0024092337116599083
          ],
          [
            "Belarus",
            0.0023624999448657036
          ],
          [
            "India",
            0.0023512167390435934
          ],
          [
            "Spain",
            0.0023173531517386436
          ],
          [
            "Slovakia",
            0.002183284843340516
          ],
          [
            "Papua New Guinea",
            0.002124386141076684
          ],
          [
            "Colombia",
            0.0020761170890182257
          ],
          [
            "Botswana",
            0.0020727538503706455
          ],
          [
            "Jordan",
            0.0018899224232882261
          ],
          [
            "Georgia",
            0.0018191818380728364
          ],
          [
            "South Africa",
            0.001813130103982985
          ],
          [
            "Eswatini",
            0.001793107483536005
          ],
          [
            "Dominican Republic",
            0.001767049659974873
          ],
          [
            "Mali",
            0.0017309293616563082
          ],
          [
            "South Georgia Islands",
            0.00169558625202626
          ],
          [
            "Uganda",
            0.001695304992608726
          ],
          [
            "Belize",
            0.0016508769476786256
          ],
          [
            "Kuwait",
            0.0015977853909134865
          ],
          [
            "Senegal",
            0.0015934515977278352
          ],
          [
            "Fiji",
            0.0015891477232798934
          ],
          [
            "Liberia",
            0.001468589180149138
          ],
          [
            "Mexico",
            0.0013977953931316733
          ],
          [
            "Greenland",
            0.0013859656173735857
          ],
          [
            "Bolivia",
            0.0012910391669720411
          ],
          [
            "Faroe Islands",
            0.001264637103304267
          ],
          [
            "Svalbard",
            0.0012615822488442063
          ],
          [
            "Benin",
            0.001241000136360526
          ],
          [
            "Brunei",
            0.00119747593998909
          ],
          [
            "Puerto Rico",
            0.001192891621030867
          ],
          [
            "United Arab Emirates",
            0.0011723184725269675
          ],
          [
            "Moldova",
            0.0011193043319508433
          ],
          [
            "Tajikistan",
            0.001058152411133051
          ],
          [
            "Guinea-Bissau",
            0.001053749700076878
          ],
          [
            "Serbia",
            0.001043143100105226
          ],
          [
            "Russia",
            0.001027707359753549
          ],
          [
            "Mozambique",
            0.001026130630634725
          ],
          [
            "Mauritania",
            0.001018834882415831
          ],
          [
            "DR Congo",
            0.000955762283410877
          ],
          [
            "Vanuatu",
            0.0008707694942131639
          ],
          [
            "Somalia",
            0.0008703692583367229
          ],
          [
            "Costa Rica",
            0.0008560227579437196
          ],
          [
            "Antigua & Barbuda",
            0.0008316169842146337
          ],
          [
            "Vietnam",
            0.0008010176825337112
          ],
          [
            "Zambia",
            0.0007851067348383367
          ],
          [
            "Uzbekistan",
            0.0007790891104377806
          ],
          [
            "Solomon Islands",
            0.0007598217343911529
          ],
          [
            "Guyana",
            0.0007522081141360104
          ],
          [
            "Kyrgyzstan",
            0.0007438914035446942
          ],
          [
            "Qatar",
            0.0007310535875149071
          ],
          [
            "Afghanistan",
            0.0007156103383749723
          ],
          [
            "Congo",
            0.0006920789601281285
          ],
          [
            "United States of America",
            0.0006888156640343368
          ],
          [
            "New Caledonia",
            0.0006883362657390535
          ],
          [
            "Central African Republic",
            0.0006687291897833347
          ],
          [
            "Togo",
            0.0006474589463323355
          ],
          [
            "Italy",
            0.0006420712452381849
          ],
          [
            "Bahamas",
            0.00063082214910537
          ],
          [
            "Germany",
            0.0006291734171099961
          ],
          [
            "Sao Tome and Principe",
            0.0006253116298466921
          ],
          [
            "French Guiana",
            0.0006142412312328815
          ],
          [
            "United States Virgin Islands",
            0.0006099205347709358
          ],
          [
            "New Zealand",
            0.0006043078028596938
          ],
          [
            "Paraguay",
            0.0005907787708565593
          ],
          [
            "Thailand",
            0.000574965204577893
          ],
          [
            "Armenia",
            0.0005716453888453543
          ],
          [
            "Austria",
            0.0005675550200976431
          ],
          [
            "Haiti",
            0.0005528637557290494
          ],
          [
            "Dominica",
            0.0005521808634512126
          ],
          [
            "Falkland Islands",
            0.0005478252423927188
          ],
          [
            "Hong Kong",
            0.0005472372868098319
          ],
          [
            "Panama",
            0.0005350961000658572
          ],
          [
            "Malaysia",
            0.0005236596334725618
          ],
          [
            "Netherlands Antilles",
            0.0005204721819609404
          ],
          [
            "Greece",
            0.0005094327498227358
          ],
          [
            "Mayotte",
            0.0004968331777490675
          ],
          [
            "Sri Lanka",
            0.0004559910739772022
          ],
          [
            "Equatorial Guinea",
            0.00043776771053671837
          ],
          [
            "Eritrea",
            0.00043717026710510254
          ],
          [
            "Barbados",
            0.0004217364767100662
          ],
          [
            "Nepal",
            0.00041339246672578156
          ],
          [
            "Sweden",
            0.00040097872260957956
          ],
          [
            "Myanmar",
            0.0003950129612348974
          ],
          [
            "Bahrain",
            0.00038815668085590005
          ],
          [
            "Jamaica",
            0.0003808255132753402
          ],
          [
            "Laos",
            0.00037888597580604255
          ],
          [
            "Cameroon",
            0.0003785479348152876
          ],
          [
            "Israel",
            0.0003722003020811826
          ],
          [
            "Japan",
            0.0003721321700140834
          ],
          [
            "Indonesia",
            0.000369870598660782
          ],
          [
            "Guatemala",
            0.0003676928754430264
          ],
          [
            "South Korea",
            0.00036748393904417753
          ],
          [
            "Canada",
            0.0003604779194574803
          ],
          [
            "Malawi",
            0.00035580756957642734
          ],
          [
            "North Korea",
            0.00035416835453361273
          ],
          [
            "Chile",
            0.000347546098055318
          ],
          [
            "Timor-Leste",
            0.00033816002542153
          ],
          [
            "Saint Lucia",
            0.0003363255236763507
          ],
          [
            "Cyprus",
            0.00032686194754205644
          ],
          [
            "Oman",
            0.00032376081799156964
          ],
          [
            "Tunisia",
            0.0003190095885656774
          ],
          [
            "Albania",
            0.0003002905868925154
          ],
          [
            "Turks and Caicos Islands",
            0.00029625475872308016
          ],
          [
            "Portugal",
            0.0002857980434782803
          ],
          [
            "Ireland",
            0.00028401456074789166
          ],
          [
            "Argentina",
            0.00027282017981633544
          ],
          [
            "Cuba",
            0.0002712267742026597
          ],
          [
            "Taiwan",
            0.00023997346579562873
          ],
          [
            "Finland",
            0.00023835453612264246
          ],
          [
            "Norway",
            0.00023119656543713063
          ],
          [
            "Ghana",
            0.00022008060477674007
          ],
          [
            "Guam",
            0.00021884869784116745
          ],
          [
            "Netherlands",
            0.0001959137007361278
          ],
          [
            "Pakistan",
            0.00019093745504505932
          ],
          [
            "Samoa",
            0.00018625914526637644
          ],
          [
            "Palau",
            0.0001779664889909327
          ],
          [
            "United Kingdom",
            0.0001690680073807016
          ],
          [
            "Djibouti",
            0.000169000297319144
          ],
          [
            "Western Sahara",
            0.00015547552902717143
          ],
          [
            "Luxembourg",
            0.00015362461272161454
          ],
          [
            "Philippines",
            0.00015353762137237936
          ],
          [
            "Madagascar",
            0.00014627653581555933
          ],
          [
            "Trinidad and Tobago",
            0.00014331054990179837
          ],
          [
            "Chad",
            0.00013634914648719132
          ],
          [
            "Isle of Man",
            0.00011732058192137629
          ],
          [
            "West Bank",
            0.00011706643999787048
          ],
          [
            "Morocco",
            0.0001044044183799997
          ],
          [
            "Denmark",
            8.680179598741233e-05
          ],
          [
            "Kiribati",
            4.514053216553293e-05
          ],
          [
            "Lebanon",
            3.1887921068118885e-05
          ],
          [
            "Gambia",
            2.865205351554323e-05
          ]
        ]
      },
      "geometry": {
        "type": "MultiLineString",
        "coordinates": [
          [
            [
              17.490535025133738,
              48.89258846269291
            ],
            [
              14.185885088662275,
              48.4793118855269
            ],
            [
              12.843374202536978,
              48.3759943165185
            ],
            [
              11.087779973975273,
              48.06603950911585
            ],
            [
              9.641995626769017,
              47.96271983972997
            ],
            [
              9.125645124384079,
              47.96271983972997
            ],
            [
              8.402754000969708,
              47.96271983972997
            ],
            [
              7.989672758910785,
              47.96271983972997
            ],
            [
              7.060241014466925,
              47.96271983972997
            ],
            [
              6.440619151378542,
              47.8594022707216
            ],
            [
              6.027538959508348,
              47.549447463318955
            ],
            [
              5.82099728829013,
              47.03285121676706
            ],
            [
              5.82099728829013,
              46.61957884035601
            ],
            [
              5.82099728829013,
              45.896349556164836
            ],
            [
              5.82099728829013,
              45.37975540999042
            ],
            [
              5.717726977775385,
              44.55320645641339
            ],
            [
              5.6144577174493975,
              43.93329474123058
            ],
            [
              5.6144577174493975,
              43.52002026444205
            ],
            [
              5.304647836093949,
              43.21006125628443
            ],
            [
              4.788296283520282,
              43.416702695433685
            ],
            [
              3.8588634888876925,
              43.62333783345045
            ],
            [
              3.44578224682877,
              43.72665750283633
            ],
            [
              2.722891123414371,
              43.8299750718447
            ],
            [
              2.3098098813554486,
              43.93329474123058
            ],
            [
              2.0,
              43.52002026444205
            ],
            [
              2.103270310514745,
              43.10674578765352
            ],
            [
              2.206539570840704,
              42.59015164147914
            ],
            [
              2.3098098813554486,
              42.073557495304726
            ],
            [
              2.4130801918701934,
              41.247008541727666
            ],
            [
              2.516351552573667,
              40.73041649593077
            ],
            [
              2.6196208128996545,
              40.00718931211708
            ],
            [
              2.722891123414371,
              39.180636157785045
            ],
            [
              2.929430694255103,
              38.14745206619122
            ],
            [
              3.1359723654733216,
              37.42422488237753
            ],
            [
              3.44578224682877,
              36.70099349780887
            ],
            [
              3.44578224682877,
              36.287714820265336
            ],
            [
              3.44578224682877,
              35.77112277446844
            ],
            [
              3.3425119363140254,
              35.25453072867151
            ],
            [
              3.239242675988038,
              34.84125625188301
            ],
            [
              3.1359723654733216,
              34.324664206086084
            ],
            [
              3.1359723654733216,
              33.911393930052554
            ],
            [
              3.1359723654733216,
              33.18816254548386
            ],
            [
              3.1359723654733216,
              32.671566298931964
            ],
            [
              3.1359723654733216,
              32.15497425313504
            ],
            [
              3.1359723654733216,
              31.638382207338168
            ],
            [
              3.1359723654733216,
              31.22510773054961
            ],
            [
              3.1359723654733216,
              30.70851568475274
            ],
            [
              3.1359723654733216,
              30.191923638955814
            ],
            [
              3.239242675988038,
              29.675327392403915
            ],
            [
              3.3425119363140254,
              29.262052915615357
            ],
            [
              3.3425119363140254,
              28.848778438826855
            ],
            [
              3.3425119363140254,
              28.33218639302993
            ],
            [
              3.3425119363140254,
              27.712276778224634
            ],
            [
              3.44578224682877,
              27.195684732427708
            ],
            [
              3.5490525573434866,
              26.679092686630838
            ],
            [
              3.6523239180469886,
              26.16249644007894
            ],
            [
              3.755594228561705,
              25.645904394282013
            ],
            [
              3.755594228561705,
              25.232629917493455
            ],
            [
              3.8588634888876925,
              24.819355440704953
            ],
            [
              4.3752150414613595,
              25.129312348485087
            ],
            [
              4.581754612302092,
              24.716037871696585
            ],
            [
              4.581754612302092,
              24.302763394908027
            ],
            [
              4.788296283520282,
              23.786171349111157
            ],
            [
              4.994835854361014,
              23.372892671567627
            ],
            [
              5.304647836093949,
              23.062944165297438
            ],
            [
              5.717726977775385,
              22.649665487753964
            ],
            [
              6.130808219834336,
              22.339708579973774
            ],
            [
              6.543890512082015,
              22.133073441957038
            ],
            [
              6.956969653763451,
              21.823116534176904
            ],
            [
              7.473320156148361,
              21.61648139616011
            ],
            [
              7.886401398207283,
              21.306524488379978
            ],
            [
              8.299482640266234,
              20.893250011591476
            ],
            [
              8.81583524302863,
              20.686614873574683
            ],
            [
              9.22891648508758,
              20.37665376503952
            ],
            [
              10.055076868827939,
              20.066696857259387
            ],
            [
              10.777967992242338,
              19.756744150234226
            ],
            [
              11.500861216034195,
              19.446787242454093
            ],
            [
              12.017211718419105,
              19.343469673445725
            ],
            [
              12.843374202536978,
              19.13683453542893
            ],
            [
              13.359724704921916,
              19.03351276566559
            ],
            [
              14.082615828336287,
              18.8268776276488
            ],
            [
              15.012047572780148,
              18.620238288877033
            ],
            [
              15.631669435868531,
              18.516920719868665
            ],
            [
              16.767641801341853,
              18.413603150860297
            ],
            [
              17.18072094302329,
              18.310285581851872
            ],
            [
              17.800344906489187,
              18.206968012843504
            ],
            [
              18.62650739060703,
              18.00032867407174
            ],
            [
              19.039586532288467,
              17.89701110506337
            ],
            [
              19.659210495754365,
              17.793693536055002
            ],
            [
              20.17555889776179,
              17.690375967046634
            ],
            [
              20.898452121553674,
              17.48373242751984
            ],
            [
              21.31153126323511,
              17.38041485851147
            ],
            [
              21.93115522670101,
              17.277101490258076
            ],
            [
              22.344234368382445,
              17.07045795073134
            ],
            [
              23.06712759217433,
              16.760505243706177
            ],
            [
              23.583475994181754,
              16.65718347394278
            ],
            [
              23.99655513586316,
              16.450548335926044
            ],
            [
              24.409640578677113,
              16.34723076691762
            ],
            [
              24.822717619981034,
              16.14059142814591
            ],
            [
              25.132527501336483,
              15.623999382348984
            ],
            [
              25.545612944150406,
              15.00408976754369
            ],
            [
              25.958689985454356,
              14.694137060518528
            ],
            [
              26.37177542826828,
              14.280862583730027
            ],
            [
              26.888123830275703,
              13.764266337178128
            ],
            [
              27.404472232283126,
              13.454309429397938
            ],
            [
              27.81755767509705,
              13.144352521617805
            ],
            [
              28.127367556452498,
              12.834399814592643
            ],
            [
              28.437177437807946,
              12.52444290681251
            ],
            [
              28.643720159214922,
              12.937717383601068
            ],
            [
              28.850258679866897,
              13.35099186038957
            ],
            [
              29.160068561222317,
              13.660944567414731
            ],
            [
              29.469878442577794,
              13.970901475194864
            ],
            [
              29.779692524688244,
              14.280862583730027
            ],
            [
              30.089502406043664,
              14.590811090000159
            ],
            [
              30.502579447347614,
              15.107407336552058
            ],
            [
              30.915664890161537,
              15.314046675323823
            ],
            [
              31.01893205011004,
              14.900772198535321
            ],
            [
              31.328741931465487,
              14.280862583730027
            ],
            [
              31.535284652872463,
              13.764266337178128
            ],
            [
              31.74182317352441,
              13.35099186038957
            ],
            [
              32.05163725563486,
              12.627760475820878
            ],
            [
              32.46471849769378,
              12.00785086101564
            ],
            [
              32.77452417829426,
              11.59457218347211
            ],
            [
              33.18760962110815,
              11.181297706683551
            ],
            [
              33.600690863167074,
              10.664705660886625
            ],
            [
              34.117039265174526,
              10.251431184098124
            ],
            [
              34.63339186793695,
              9.838160908064594
            ],
            [
              34.94320174929237,
              9.528204000284461
            ],
            [
              35.25301163064785,
              9.218247092504328
            ],
            [
              35.66609287270677,
              9.011611954487535
            ],
            [
              36.07917411476569,
              8.804976816470798
            ],
            [
              36.492255356824614,
              8.804976816470798
            ],
            [
              36.80206523818009,
              9.114929523495903
            ],
            [
              37.11187511953551,
              9.424886431276036
            ],
            [
              37.215146480239014,
              9.838160908064594
            ],
            [
              37.42168500089099,
              10.561388091878257
            ],
            [
              37.52495636159449,
              10.974662568666815
            ],
            [
              37.628227722297936,
              11.801215722998847
            ],
            [
              37.93803760365341,
              12.834399814592643
            ],
            [
              38.04130896435686,
              13.867583906186496
            ],
            [
              38.14458032506036,
              14.694137060518528
            ],
            [
              38.14458032506036,
              15.623999382348984
            ],
            [
              38.14458032506036,
              16.14059142814591
            ],
            [
              38.55765736636431,
              16.34723076691762
            ],
            [
              38.970742809178205,
              16.24391319790925
            ],
            [
              39.48709121118566,
              16.24391319790925
            ],
            [
              39.90017245324458,
              16.24391319790925
            ],
            [
              40.62306357665898,
              16.24391319790925
            ],
            [
              41.0361448187179,
              16.24391319790925
            ],
            [
              41.6557645814288,
              16.24391319790925
            ],
            [
              42.37865990559817,
              16.24391319790925
            ],
            [
              43.308089549664544,
              16.24391319790925
            ],
            [
              44.13425203378239,
              16.24391319790925
            ],
            [
              44.54732907508634,
              16.24391319790925
            ],
            [
              45.06368167784876,
              16.34723076691762
            ],
            [
              45.68330144055966,
              16.34723076691762
            ],
            [
              46.50946812543248,
              16.34723076691762
            ],
            [
              47.12908788814343,
              16.34723076691762
            ],
            [
              47.9552461715063,
              16.450548335926044
            ],
            [
              48.36833581507517,
              16.553865904934412
            ],
            [
              48.78141285637912,
              16.450548335926044
            ],
            [
              49.1944940984381,
              16.450548335926044
            ],
            [
              49.814113861148996,
              16.34723076691762
            ],
            [
              50.22719090245289,
              16.34723076691762
            ],
            [
              50.743543505215314,
              16.34723076691762
            ],
            [
              51.156624747274236,
              16.450548335926044
            ],
            [
              51.36316326792621,
              16.037273859137485
            ],
            [
              51.67297735003666,
              15.727321152112381
            ],
            [
              51.98279143214711,
              15.314046675323823
            ],
            [
              52.29259711274756,
              15.00408976754369
            ],
            [
              52.70567835480654,
              14.590811090000159
            ],
            [
              53.11876379762043,
              14.384175951983366
            ],
            [
              53.63511219962788,
              14.280862583730027
            ],
            [
              54.04819764244178,
              14.384175951983366
            ],
            [
              54.46127468374573,
              14.797454629526896
            ],
            [
              54.46127468374573,
              15.210729106315455
            ],
            [
              54.25473616309375,
              15.933956290129117
            ],
            [
              53.944922080983304,
              16.24391319790925
            ],
            [
              53.222030957568904,
              16.450548335926044
            ],
            [
              52.80894971550998,
              16.553865904934412
            ],
            [
              51.98279143214711,
              16.760505243706177
            ],
            [
              50.020652381800915,
              16.760505243706177
            ],
            [
              49.1944940984381,
              16.760505243706177
            ],
            [
              48.26506025361675,
              16.65718347394278
            ],
            [
              47.74870765085433,
              16.65718347394278
            ],
            [
              46.61273528538101,
              16.553865904934412
            ],
            [
              46.096391084128584,
              16.34723076691762
            ],
            [
              46.30292960478056,
              15.933956290129117
            ],
            [
              47.02581652743993,
              15.314046675323823
            ],
            [
              48.16178889291325,
              14.694137060518528
            ],
            [
              49.40103261909002,
              14.177536613211657
            ],
            [
              50.53700498456334,
              13.764266337178128
            ],
            [
              51.36316326792621,
              13.557626998406363
            ],
            [
              51.776252911495135,
              13.454309429397938
            ],
            [
              51.87952007144361,
              14.177536613211657
            ],
            [
              51.67297735003666,
              14.797454629526896
            ],
            [
              51.25990030873271,
              15.314046675323823
            ],
            [
              50.84681906667379,
              15.520681813340616
            ],
            [
              50.433733623859894,
              15.727321152112381
            ],
            [
              51.466438829384686,
              15.00408976754369
            ],
            [
              52.39587267420603,
              14.280862583730027
            ],
            [
              53.325302318272406,
              13.660944567414731
            ],
            [
              54.358003323042226,
              13.35099186038957
            ],
            [
              55.080894446456625,
              13.144352521617805
            ],
            [
              55.49397568851555,
              13.041034952609436
            ],
            [
              55.70051420916752,
              13.454309429397938
            ],
            [
              55.49397568851555,
              13.970901475194864
            ],
            [
              55.28743716786357,
              14.384175951983366
            ],
            [
              54.77108456510115,
              14.797454629526896
            ],
            [
              54.358003323042226,
              15.107407336552058
            ],
            [
              54.77108456510115,
              14.590811090000159
            ],
            [
              55.390708528567075,
              13.660944567414731
            ],
            [
              56.01032829127797,
              12.937717383601068
            ],
            [
              56.62994805398887,
              12.317807768795774
            ],
            [
              57.249567816699766,
              12.00785086101564
            ],
            [
              57.66265325951372,
              11.904533292007216
            ],
            [
              58.07573450157264,
              11.697889752480478
            ],
            [
              58.592087104335064,
              11.491254614463685
            ],
            [
              59.21170686704596,
              11.38794124621029
            ],
            [
              59.624783908349855,
              11.181297706683551
            ],
            [
              60.14114071186731,
              11.077980137675183
            ],
            [
              60.5542177531712,
              11.181297706683551
            ],
            [
              60.96729479447515,
              11.491254614463685
            ],
            [
              61.2771088765856,
              11.904533292007216
            ],
            [
              61.48365159799255,
              12.421125337804142
            ],
            [
              61.48365159799255,
              12.937717383601068
            ],
            [
              61.3803802372891,
              13.35099186038957
            ],
            [
              60.86403183528165,
              14.177536613211657
            ],
            [
              60.450946392467756,
              14.590811090000159
            ],
            [
              60.14114071186731,
              15.00408976754369
            ],
            [
              59.83132662975686,
              15.417364244332191
            ],
            [
              59.52151254764641,
              15.83063872112075
            ],
            [
              59.31496982623946,
              16.24391319790925
            ],
            [
              59.10843130558749,
              16.760505243706177
            ],
            [
              58.90189278493551,
              17.173783921249708
            ],
            [
              58.69535426428354,
              17.690375967046634
            ],
            [
              58.48881154287659,
              18.103642042325134
            ],
            [
              58.17900166152111,
              18.620238288877033
            ],
            [
              57.86919178016569,
              18.930195196657223
            ],
            [
              57.559381898810216,
              19.343469673445725
            ],
            [
              57.249567816699766,
              19.756744150234226
            ],
            [
              56.93976213609932,
              20.066696857259387
            ],
            [
              57.04302929604779,
              20.479971334047946
            ],
            [
              57.45611473886174,
              20.583288903056314
            ],
            [
              57.86919178016569,
              20.893250011591476
            ],
            [
              58.282273022224615,
              21.099889350363185
            ],
            [
              58.592087104335064,
              21.513159626396714
            ],
            [
              58.90189278493551,
              21.926434103185272
            ],
            [
              59.00516414563896,
              22.339708579973774
            ],
            [
              59.10843130558749,
              22.752983056762332
            ],
            [
              59.31496982623946,
              23.166257533550834
            ],
            [
              59.72805526905336,
              23.372892671567627
            ],
            [
              59.83132662975686,
              23.786171349111157
            ],
            [
              59.934597990460304,
              24.302763394908027
            ],
            [
              60.037860949653805,
              24.716037871696585
            ],
            [
              60.037860949653805,
              25.439265055510248
            ],
            [
              59.934597990460304,
              26.059178871070515
            ],
            [
              59.72805526905336,
              26.472449147104044
            ],
            [
              59.21170686704596,
              26.98904119290097
            ],
            [
              58.79862562498704,
              27.299002301436133
            ],
            [
              58.38554018217309,
              27.712276778224634
            ],
            [
              58.592087104335064,
              28.22886882402156
            ],
            [
              59.00516414563896,
              28.745460869818487
            ],
            [
              59.21170686704596,
              29.262052915615357
            ],
            [
              59.41824958845291,
              29.778644961412283
            ],
            [
              59.52151254764641,
              30.191923638955814
            ],
            [
              59.52151254764641,
              30.605198115744315
            ],
            [
              59.52151254764641,
              31.12179016154124
            ],
            [
              59.41824958845291,
              31.638382207338168
            ],
            [
              59.41824958845291,
              32.05165668412667
            ],
            [
              59.41824958845291,
              32.4649353616702
            ],
            [
              59.624783908349855,
              32.98152740746713
            ],
            [
              59.934597990460304,
              33.39480188425563
            ],
            [
              59.934597990460304,
              33.80807216028916
            ],
            [
              59.72805526905336,
              34.221346637077716
            ],
            [
              59.72805526905336,
              34.63462111386622
            ],
            [
              59.624783908349855,
              35.15121315966314
            ],
            [
              59.31496982623946,
              35.46117426819828
            ],
            [
              58.90189278493551,
              35.66780520546004
            ],
            [
              58.48881154287659,
              35.977766313995176
            ],
            [
              58.282273022224615,
              36.391040790783705
            ],
            [
              57.972458940114166,
              36.70099349780887
            ],
            [
              57.559381898810216,
              36.90763283658063
            ],
            [
              57.14630065675129,
              37.010950405589
            ],
            [
              57.45611473886174,
              37.42422488237753
            ],
            [
              57.86919178016569,
              37.83749935916606
            ],
            [
              58.17900166152111,
              38.14745206619122
            ],
            [
              58.48881154287659,
              38.56072654297975
            ],
            [
              58.69535426428354,
              38.97400522052325
            ],
            [
              58.79862562498704,
              39.49059726632018
            ],
            [
              58.90189278493551,
              39.90387174310871
            ],
            [
              59.00516414563896,
              40.73041649593077
            ],
            [
              59.00516414563896,
              41.866926558042934
            ],
            [
              59.00516414563896,
              42.69346921048751
            ],
            [
              59.10843130558749,
              43.416702695433685
            ],
            [
              59.21170686704596,
              44.03661231023898
            ],
            [
              59.31496982623946,
              44.656526125799246
            ],
            [
              59.41824958845291,
              45.17311817159617
            ],
            [
              59.72805526905336,
              45.48307297899882
            ],
            [
              60.450946392467756,
              45.48307297899882
            ],
            [
              60.96729479447515,
              45.48307297899882
            ],
            [
              61.3803802372891,
              45.68971021739307
            ],
            [
              61.69019431939955,
              45.99966712517323
            ],
            [
              61.79345727859305,
              46.51625917097013
            ],
            [
              62.0,
              46.92953364775866
            ],
            [
              62.0,
              47.342810224924676
            ],
            [
              61.48365159799255,
              47.65276503232732
            ],
            [
              61.0705745566886,
              47.75608260133572
            ],
            [
              61.173837515882155,
              48.27267464713262
            ],
            [
              61.2771088765856,
              48.68594912392115
            ],
            [
              61.48365159799255,
              49.20254327009556
            ],
            [
              61.58691455718605,
              49.71913531589246
            ],
            [
              61.58691455718605,
              50.235727361689385
            ],
            [
              61.48365159799255,
              50.95895874625805
            ],
            [
              61.3803802372891,
              51.37223322304658
            ],
            [
              61.173837515882155,
              52.19878007624612
            ],
            [
              61.0705745566886,
              52.61205665341217
            ],
            [
              60.96729479447515,
              53.0253311302007
            ],
            [
              60.5542177531712,
              53.335285937603345
            ],
            [
              60.037860949653805,
              53.43860350661171
            ],
            [
              59.41824958845291,
              53.231970468972435
            ],
            [
              59.00516414563896,
              52.81869389180642
            ],
            [
              58.48881154287659,
              52.09546460761524
            ],
            [
              58.282273022224615,
              51.57887046144083
            ],
            [
              57.972458940114166,
              52.09546460761524
            ],
            [
              57.66265325951372,
              52.922011460814815
            ],
            [
              57.45611473886174,
              53.64524284538348
            ],
            [
              57.14630065675129,
              54.161834891180376
            ],
            [
              56.73321941469237,
              54.781746606363185
            ],
            [
              56.21686681192995,
              55.09170351414332
            ],
            [
              55.803789770626,
              55.1950231835292
            ],
            [
              55.28743716786357,
              54.98838594513495
            ],
            [
              54.667817405152675,
              54.575109367968906
            ],
            [
              54.358003323042226,
              54.26515456056626
            ],
            [
              54.04819764244178,
              53.95519975316361
            ],
            [
              53.73838356033133,
              53.64524284538348
            ],
            [
              53.42856947822088,
              53.231970468972435
            ],
            [
              53.01549243691693,
              52.61205665341217
            ],
            [
              52.70567835480654,
              52.19878007624612
            ],
            [
              52.49913563339953,
              51.682188030449225
            ],
            [
              52.189329952799085,
              51.16559598465233
            ],
            [
              51.98279143214711,
              50.752323608241284
            ],
            [
              51.87952007144361,
              50.339049131452754
            ],
            [
              51.776252911495135,
              49.92577255428674
            ],
            [
              51.67297735003666,
              49.512500177875694
            ],
            [
              51.569705989333215,
              49.099225701087164
            ],
            [
              51.569705989333215,
              48.58263155491278
            ],
            [
              51.466438829384686,
              48.16935707812425
            ],
            [
              51.36316326792621,
              47.75608260133572
            ],
            [
              51.156624747274236,
              47.342810224924676
            ],
            [
              51.05335758732576,
              46.92953364775866
            ],
            [
              50.743543505215314,
              46.51625917097013
            ],
            [
              50.433733623859894,
              45.79302778640147
            ],
            [
              50.123927943259446,
              45.37975540999042
            ],
            [
              49.60757113974199,
              44.55320645641339
            ],
            [
              49.1944940984381,
              43.93329474123058
            ],
            [
              48.88468001632765,
              43.416702695433685
            ],
            [
              48.78141285637912,
              43.003428218645155
            ],
            [
              48.36833581507517,
              42.383516503462374
            ],
            [
              48.05852173296478,
              41.866926558042934
            ],
            [
              47.74870765085433,
              41.45364788049943
            ],
            [
              47.335626408795406,
              41.1436909727193
            ],
            [
              47.02581652743993,
              40.83373826569414
            ],
            [
              46.50946812543248,
              40.62709892692237
            ],
            [
              45.99311552267011,
              40.523781357914004
            ],
            [
              45.476762919907685,
              40.42046378890561
            ],
            [
              45.06368167784876,
              40.31714621989721
            ],
            [
              44.54732907508634,
              40.21382445013384
            ],
            [
              44.030984873833916,
              40.00718931211708
            ],
            [
              43.617899431019964,
              39.90387174310871
            ],
            [
              43.20481818896104,
              39.80055417410031
            ],
            [
              43.617899431019964,
              40.21382445013384
            ],
            [
              44.030984873833916,
              40.523781357914004
            ],
            [
              44.34079055443436,
              40.937055834702505
            ],
            [
              44.85714315719679,
              41.45364788049943
            ],
            [
              45.37349575995921,
              41.97024412705133
            ],
            [
              46.096391084128584,
              42.90011064963676
            ],
            [
              46.71600664608445,
              43.72665750283633
            ],
            [
              47.12908788814343,
              44.449888887404995
            ],
            [
              47.335626408795406,
              44.863163364193525
            ],
            [
              47.54216913020235,
              45.48307297899882
            ],
            [
              47.6454404909058,
              45.99966712517323
            ],
            [
              47.12908788814343,
              46.20630436356748
            ],
            [
              46.199654043322084,
              45.99966712517323
            ],
            [
              45.786577002018134,
              45.79302778640147
            ],
            [
              45.37349575995921,
              45.48307297899882
            ],
            [
              44.96041451790029,
              45.27643574060454
            ],
            [
              44.54732907508634,
              44.96648093320192
            ],
            [
              44.13425203378239,
              44.75984369480764
            ],
            [
              43.721170791723466,
              44.55320645641339
            ],
            [
              43.308089549664544,
              44.34657131839663
            ],
            [
              42.895012508360594,
              44.55320645641339
            ],
            [
              42.99827966830907,
              45.06979850221029
            ],
            [
              43.308089549664544,
              45.37975540999042
            ],
            [
              43.721170791723466,
              45.79302778640147
            ],
            [
              44.65060463654481,
              46.20630436356748
            ],
            [
              45.27022439925571,
              46.51625917097013
            ],
            [
              45.88984416196661,
              46.72289640936441
            ],
            [
              46.40619676472903,
              46.82621607875029
            ],
            [
              46.81927380603298,
              46.92953364775866
            ],
            [
              47.232363449601905,
              47.23948845516131
            ],
            [
              47.43890197025382,
              47.65276503232732
            ],
            [
              47.43890197025382,
              48.27267464713262
            ],
            [
              47.335626408795406,
              48.68594912392115
            ],
            [
              47.02581652743993,
              49.099225701087164
            ],
            [
              46.61273528538101,
              49.30586293948144
            ],
            [
              45.99311552267011,
              49.30586293948144
            ],
            [
              45.476762919907685,
              49.30586293948144
            ],
            [
              45.06368167784876,
              49.20254327009556
            ],
            [
              44.54732907508634,
              49.099225701087164
            ],
            [
              44.030984873833916,
              48.89258846269291
            ],
            [
              43.617899431019964,
              48.68594912392115
            ],
            [
              43.10155102901257,
              48.4793118855269
            ],
            [
              42.68846978695365,
              48.16935707812425
            ],
            [
              42.06884582348772,
              47.75608260133572
            ],
            [
              41.6557645814288,
              47.44612779393307
            ],
            [
              41.34595470007332,
              47.13617088615291
            ],
            [
              41.0361448187179,
              46.82621607875029
            ],
            [
              40.72633493736248,
              46.51625917097013
            ],
            [
              40.3132536953035,
              45.79302778640147
            ],
            [
              40.10671517465153,
              45.37975540999042
            ],
            [
              39.796901092541134,
              44.656526125799246
            ],
            [
              39.48709121118566,
              44.03661231023898
            ],
            [
              39.17728132983018,
              43.52002026444205
            ],
            [
              38.970742809178205,
              43.10674578765352
            ],
            [
              38.76420008777126,
              43.72665750283633
            ],
            [
              38.76420008777126,
              44.34657131839663
            ],
            [
              38.76420008777126,
              44.75984369480764
            ],
            [
              38.86747144847476,
              45.48307297899882
            ],
            [
              39.17728132983018,
              46.20630436356748
            ],
            [
              39.69362973183763,
              46.82621607875029
            ],
            [
              40.10671517465153,
              47.13617088615291
            ],
            [
              40.62306357665898,
              47.44612779393307
            ],
            [
              41.0361448187179,
              47.65276503232732
            ],
            [
              41.44922606077682,
              47.8594022707216
            ],
            [
              42.17211718419122,
              48.27267464713262
            ],
            [
              42.895012508360594,
              48.4793118855269
            ],
            [
              43.41135670961302,
              48.68594912392115
            ],
            [
              44.34079055443436,
              48.89258846269291
            ],
            [
              44.96041451790029,
              49.099225701087164
            ],
            [
              45.58003428061119,
              49.20254327009556
            ],
            [
              46.096391084128584,
              49.30586293948144
            ],
            [
              46.50946812543248,
              49.512500177875694
            ],
            [
              46.71600664608445,
              49.92577255428674
            ],
            [
              46.81927380603298,
              50.339049131452754
            ],
            [
              46.61273528538101,
              50.752323608241284
            ],
            [
              46.199654043322084,
              51.06227841564393
            ],
            [
              45.786577002018134,
              51.26891565403821
            ],
            [
              44.96041451790029,
              51.475550792054975
            ],
            [
              44.030984873833916,
              51.682188030449225
            ],
            [
              43.20481818896104,
              51.785509800212594
            ],
            [
              42.48192706554664,
              51.888825268843505
            ],
            [
              42.06884582348772,
              51.99214703860687
            ],
            [
              41.552497421480325,
              51.99214703860687
            ],
            [
              41.1394161794214,
              51.888825268843505
            ],
            [
              40.519792215955476,
              51.785509800212594
            ],
            [
              40.00344381394808,
              51.682188030449225
            ],
            [
              39.48709121118566,
              51.475550792054975
            ],
            [
              38.970742809178205,
              51.26891565403821
            ],
            [
              38.45439020641584,
              51.06227841564393
            ],
            [
              37.93803760365341,
              50.85564117724968
            ],
            [
              37.11187511953551,
              50.6490039388554
            ],
            [
              36.59552671752812,
              50.442364600083636
            ],
            [
              36.182445475469194,
              50.235727361689385
            ],
            [
              35.87263559411372,
              49.92577255428674
            ],
            [
              35.5628257127583,
              49.512500177875694
            ],
            [
              35.35628299135135,
              49.099225701087164
            ],
            [
              35.04647310999587,
              48.68594912392115
            ],
            [
              34.736663228640396,
              48.3759943165185
            ],
            [
              34.426853347284975,
              48.68594912392115
            ],
            [
              34.220306425123,
              49.099225701087164
            ],
            [
              33.80722938381905,
              49.71913531589246
            ],
            [
              33.49741950246363,
              50.235727361689385
            ],
            [
              33.08433405964968,
              50.54568636984703
            ],
            [
              32.671257018345784,
              50.6490039388554
            ],
            [
              32.36144713699031,
              50.339049131452754
            ],
            [
              32.05163725563486,
              49.71913531589246
            ],
            [
              31.948361694176384,
              49.099225701087164
            ],
            [
              31.74182317352441,
              48.58263155491278
            ],
            [
              31.225474771516986,
              48.3759943165185
            ],
            [
              30.605850808051116,
              48.27267464713262
            ],
            [
              30.192769565992165,
              48.16935707812425
            ],
            [
              29.779692524688244,
              48.16935707812425
            ],
            [
              29.366607081874292,
              48.27267464713262
            ],
            [
              28.95353004057037,
              48.27267464713262
            ],
            [
              28.230634716401,
              48.3759943165185
            ],
            [
              27.81755767509705,
              48.4793118855269
            ],
            [
              26.78485246957223,
              48.4793118855269
            ],
            [
              25.958689985454356,
              48.4793118855269
            ],
            [
              25.235798862039985,
              48.58263155491278
            ],
            [
              24.71945046003256,
              48.58263155491278
            ],
            [
              24.203097857270137,
              48.68594912392115
            ],
            [
              23.686747354885227,
              48.68594912392115
            ],
            [
              23.06712759217433,
              48.68594912392115
            ],
            [
              22.550774989411906,
              48.68594912392115
            ],
            [
              22.137693747352984,
              48.78927089368452
            ],
            [
              21.31153126323511,
              48.78927089368452
            ],
            [
              20.795182861227687,
              48.78927089368452
            ],
            [
              20.17555889776179,
              48.68594912392115
            ],
            [
              19.555937034673406,
              48.58263155491278
            ],
            [
              19.039586532288467,
              48.4793118855269
            ],
            [
              18.523238130281072,
              48.3759943165185
            ],
            [
              17.903614166815174,
              48.27267464713262
            ],
            [
              17.283992303726762,
              48.16935707812425
            ],
            [
              16.251291298956914,
              48.06603950911585
            ],
            [
              15.734938696194519,
              48.06603950911585
            ]
          ]
        ]
      }
    }
  ]
}