{
  "type": "FeatureCollection",
  "crs": {
    "type": "name",
    "properties": {
      "name": "urn:ogc:def:crs:OGC:1.3:CRS84"
    }
  },
  "features": [
    {
      "type": "Feature",
      "properties": {
        "timestamp": "2026-07-30T16:44:07.558224",
        "country_name": "Russia",
        "author": "",
        "author_id": "9f96db94-f06b-4ca8-9e0f-a6185e05e49a",
        "validated": false,
        "ranking": [
          [
            "Yemen",
            0.09757999330759048
          ],
          [
            "Slovakia",
            0.0675709992647171
          ],
          [
            "Dominican Republic",
            0.06513508409261703
          ],
          [
            "Burkina Faso",
            0.04756154492497444
          ],
          [
            "Turkey",
            0.03171655535697937
          ],
          [
            "Switzerland",
            0.025109823793172836
          ],
          [
            "India",
            0.022865960374474525
          ],
          [
            "North Macedonia",
            0.019724195823073387
          ],
          [
            "Rwanda",
            0.019557397812604904
          ],
          [
            "Czech Republic",
            0.019525958225131035
          ],
          [
            "Syria",
            0.019349465146660805
          ],
          [
            "Honduras",
            0.018604082986712456
          ],
          [
            "Latvia",
            0.01772535964846611
          ],
          [
            "Bulgaria",
            0.017291948199272156
          ],
          [
            "Guadeloupe",
            0.01545512955635786
          ],
          [
            "Guinea-Bissau",
            0.014774712733924389
          ],
          [
            "Ukraine",
            0.013440371491014957
          ],
          [
            "Hong Kong",
            0.012391643598675728
          ],
          [
            "Central African Republic",
            0.012110249139368534
          ],
          [
            "Afghanistan",
            0.011559482663869858
          ],
          [
            "Kyrgyzstan",
            0.011532670818269253
          ],
          [
            "Slovenia",
            0.011485934257507324
          ],
          [
            "Turkmenistan",
            0.010836359113454819
          ],
          [
            "Bangladesh",
            0.010810225270688534
          ],
          [
            "Jamaica",
            0.009496636688709259
          ],
          [
            "Romania",
            0.009438004344701767
          ],
          [
            "Puerto Rico",
            0.009135108441114426
          ],
          [
            "Ecuador",
            0.008820170536637306
          ],
          [
            "Spain",
            0.008046911098062992
          ],
          [
            "Bhutan",
            0.0076905228197574615
          ],
          [
            "United States of America",
            0.0073925890028476715
          ],
          [
            "Montenegro",
            0.007189990486949682
          ],
          [
            "Australia",
            0.007136650383472443
          ],
          [
            "Nigeria",
            0.006988144479691982
          ],
          [
            "Tajikistan",
            0.006892254576086998
          ],
          [
            "Falkland Islands",
            0.006768479477614164
          ],
          [
            "Somalia",
            0.0065918429754674435
          ],
          [
            "El Salvador",
            0.006579420063644648
          ],
          [
            "Hungary",
            0.006469464395195246
          ],
          [
            "Kazakhstan",
            0.006428834516555071
          ],
          [
            "Iceland",
            0.006171181332319975
          ],
          [
            "Azerbaijan",
            0.005984132178127766
          ],
          [
            "Senegal",
            0.005814008880406618
          ],
          [
            "Estonia",
            0.005762055981904268
          ],
          [
            "Georgia",
            0.00554256234318018
          ],
          [
            "Mali",
            0.005189345683902502
          ],
          [
            "Gabon",
            0.005056397523730993
          ],
          [
            "Turks and Caicos Islands",
            0.004945619963109493
          ],
          [
            "Fiji",
            0.004908368922770023
          ],
          [
            "Indonesia",
            0.004460910800844431
          ],
          [
            "Russia",
            0.004453403875231743
          ],
          [
            "Burundi",
            0.004327020607888699
          ],
          [
            "Saudi Arabia",
            0.004238896071910858
          ],
          [
            "Panama",
            0.004078240133821964
          ],
          [
            "Cuba",
            0.0040745241567492485
          ],
          [
            "Angola",
            0.004037267528474331
          ],
          [
            "Ethiopia",
            0.003932507708668709
          ],
          [
            "Cambodia",
            0.0038467117119580507
          ],
          [
            "Mongolia",
            0.003816005075350404
          ],
          [
            "Papua New Guinea",
            0.0037640370428562164
          ],
          [
            "Uzbekistan",
            0.003759481245651841
          ],
          [
            "Malaysia",
            0.003718872321769595
          ],
          [
            "Guinea",
            0.003714059479534626
          ],
          [
            "Japan",
            0.003364242147654295
          ],
          [
            "Jordan",
            0.003362452145665884
          ],
          [
            "Solomon Islands",
            0.0032638900447636843
          ],
          [
            "China",
            0.00322159705683589
          ],
          [
            "Timor-Leste",
            0.0032157220412045717
          ],
          [
            "Mozambique",
            0.003161534434184432
          ],
          [
            "South Georgia Islands",
            0.0030624177306890488
          ],
          [
            "Heard and McDonald Islands",
            0.0030268263071775436
          ],
          [
            "Sudan",
            0.003004697849974036
          ],
          [
            "New Caledonia",
            0.002972259186208248
          ],
          [
            "Mexico",
            0.0029211207292973995
          ],
          [
            "Lithuania",
            0.002822711830958724
          ],
          [
            "Zambia",
            0.002793947933241725
          ],
          [
            "Cyprus",
            0.002782773692160845
          ],
          [
            "Svalbard",
            0.0027464376762509346
          ],
          [
            "Thailand",
            0.002659350400790572
          ],
          [
            "Belize",
            0.0025857591535896063
          ],
          [
            "Nepal",
            0.002520022913813591
          ],
          [
            "Bahamas",
            0.002422197489067912
          ],
          [
            "Niger",
            0.0024058842100203037
          ],
          [
            "Iran",
            0.0023896349593997
          ],
          [
            "South Africa",
            0.0023424590472131968
          ],
          [
            "Sierra Leone",
            0.0023372687865048647
          ],
          [
            "South Korea",
            0.0023182041477411985
          ],
          [
            "Venezuela",
            0.002094371011480689
          ],
          [
            "Mayotte",
            0.0018962830072268844
          ],
          [
            "Lesotho",
            0.0018953175749629736
          ],
          [
            "Uruguay",
            0.0018734221812337637
          ],
          [
            "Belgium",
            0.001859445939771831
          ],
          [
            "Samoa",
            0.0018507628701627254
          ],
          [
            "Equatorial Guinea",
            0.0017731725238263607
          ],
          [
            "Cape Verde",
            0.001771678333170712
          ],
          [
            "Botswana",
            0.0017255351413041353
          ],
          [
            "Namibia",
            0.0017198310233652592
          ],
          [
            "Brunei",
            0.0016826497158035636
          ],
          [
            "North Korea",
            0.001678354456089437
          ],
          [
            "South Sudan",
            0.0015939729055389762
          ],
          [
            "Netherlands Antilles",
            0.001579563831910491
          ],
          [
            "France",
            0.0015642463695257902
          ],
          [
            "Belarus",
            0.0014776212628930807
          ],
          [
            "Eritrea",
            0.0013956815237179399
          ],
          [
            "Sao Tome and Principe",
            0.001320069539360702
          ],
          [
            "Egypt",
            0.0013038022443652153
          ],
          [
            "Comoros",
            0.0012897016713395715
          ],
          [
            "Costa Rica",
            0.00128598278388381
          ],
          [
            "Bolivia",
            0.001271961024031043
          ],
          [
            "Côte d'Ivoire",
            0.0012613791041076183
          ],
          [
            "Peru",
            0.0012366916052997112
          ],
          [
            "Madeira Islands",
            0.0012293703621253371
          ],
          [
            "Benin",
            0.0012149759568274021
          ],
          [
            "Croatia",
            0.0011757771717384458
          ],
          [
            "New Zealand",
            0.0011735702864825726
          ],
          [
            "Djibouti",
            0.0011385203106328845
          ],
          [
            "Congo",
            0.0011347178369760513
          ],
          [
            "Argentina",
            0.0011217247229069471
          ],
          [
            "Poland",
            0.001105607021600008
          ],
          [
            "Reunion",
            0.0011036727810278535
          ],
          [
            "Kuwait",
            0.0010979974176734686
          ],
          [
            "Oman",
            0.001076692482456565
          ],
          [
            "Libya",
            0.0010758693097159266
          ],
          [
            "Iraq",
            0.001043950323946774
          ],
          [
            "Faroe Islands",
            0.0010358815779909492
          ],
          [
            "Guyana",
            0.0010302580194547772
          ],
          [
            "Haiti",
            0.0010137109784409404
          ],
          [
            "Mauritania",
            0.0010000221664085984
          ],
          [
            "Guam",
            0.0009925238555297256
          ],
          [
            "Italy",
            0.0009869926143437624
          ],
          [
            "Vanuatu",
            0.0009709662408567965
          ],
          [
            "United Arab Emirates",
            0.0009193975711241364
          ],
          [
            "Western Sahara",
            0.0008844948024488986
          ],
          [
            "Armenia",
            0.0008771246066316962
          ],
          [
            "Austria",
            0.0008646781207062304
          ],
          [
            "Myanmar",
            0.0008515551453456283
          ],
          [
            "Moldova",
            0.0008341724169440567
          ],
          [
            "Eswatini",
            0.0008138500852510333
          ],
          [
            "Algeria",
            0.000808251672424376
          ],
          [
            "Norway",
            0.0008039665990509093
          ],
          [
            "Suriname",
            0.0007538736099377275
          ],
          [
            "Barbados",
            0.0007536321063525975
          ],
          [
            "Greenland",
            0.0007495422032661736
          ],
          [
            "Martinique",
            0.0007368667866103351
          ],
          [
            "Nicaragua",
            0.0007266377797350287
          ],
          [
            "Brazil",
            0.0007195899961516261
          ],
          [
            "Liberia",
            0.0007022868376225233
          ],
          [
            "Serbia",
            0.0006941512692719698
          ],
          [
            "Trinidad and Tobago",
            0.0006670649163424969
          ],
          [
            "Uganda",
            0.0006607247050851583
          ],
          [
            "Sweden",
            0.0006481664022430778
          ],
          [
            "French Guiana",
            0.0006429052446037531
          ],
          [
            "Morocco",
            0.000642614730168134
          ],
          [
            "Tanzania",
            0.0006310598109848797
          ],
          [
            "Guatemala",
            0.0005630658124573529
          ],
          [
            "Bahrain",
            0.0005184317706152797
          ],
          [
            "Finland",
            0.0004801518516615033
          ],
          [
            "Zimbabwe",
            0.0004771309613715857
          ],
          [
            "Malawi",
            0.00047341157915070653
          ],
          [
            "Canada",
            0.00047106880811043084
          ],
          [
            "Lebanon",
            0.0004665780870709568
          ],
          [
            "Sri Lanka",
            0.0004531797021627426
          ],
          [
            "Chile",
            0.00044197062379680574
          ],
          [
            "Germany",
            0.0004161149845458567
          ],
          [
            "Vietnam",
            0.00041410315316170454
          ],
          [
            "Philippines",
            0.00041254848474636674
          ],
          [
            "Bosnia & Herzegovina",
            0.00039621390169486403
          ],
          [
            "Togo",
            0.00039172638207674026
          ],
          [
            "Paraguay",
            0.0003893174580298364
          ],
          [
            "Qatar",
            0.000386854080716148
          ],
          [
            "Ireland",
            0.00038108168519102037
          ],
          [
            "Gambia",
            0.00037767644971609116
          ],
          [
            "Laos",
            0.0003725515853147954
          ],
          [
            "Denmark",
            0.0003669065481517464
          ],
          [
            "Luxembourg",
            0.00035690501681528986
          ],
          [
            "Albania",
            0.000356116215698421
          ],
          [
            "Dominica",
            0.00035478672361932695
          ],
          [
            "Israel",
            0.0003259458753746003
          ],
          [
            "Antigua & Barbuda",
            0.00032029146677814424
          ],
          [
            "Kenya",
            0.0002986059698741883
          ],
          [
            "Taiwan",
            0.00029320488101802766
          ],
          [
            "Portugal",
            0.00027474944363348186
          ],
          [
            "West Bank",
            0.00026763344067148864
          ],
          [
            "Pakistan",
            0.0002617161371745169
          ],
          [
            "Palau",
            0.0002610142109915614
          ],
          [
            "Colombia",
            0.0002574890968389809
          ],
          [
            "Greece",
            0.0002375587064307183
          ],
          [
            "Tunisia",
            0.000233514656429179
          ],
          [
            "DR Congo",
            0.00023200432769954205
          ],
          [
            "Cameroon",
            0.00021759772789664567
          ],
          [
            "Netherlands",
            0.00020558404503390193
          ],
          [
            "Ghana",
            0.00018516906129661947
          ],
          [
            "Madagascar",
            0.0001653039362281561
          ],
          [
            "Isle of Man",
            0.00014706727233715355
          ],
          [
            "Saint Lucia",
            0.000122931829537265
          ],
          [
            "United Kingdom",
            0.00011956735397689044
          ],
          [
            "United States Virgin Islands",
            0.00010001112968893722
          ],
          [
            "Chad",
            9.37301738304086e-05
          ],
          [
            "Kiribati",
            7.127597200451419e-05
          ]
        ]
      },
      "geometry": {
        "type": "MultiLineString",
        "coordinates": [
          [
            [
              12.149892933618844,
              10.608137044967862
            ],
            [
              12.920770877944335,
              10.608137044967862
            ],
            [
              13.434689507494653,
              10.608137044967862
            ],
            [
              13.820128479657399,
              10.736616702355434
            ],
            [
              14.462526766595289,
              10.865096359743035
            ],
            [
              15.23340471092078,
              10.993576017130607
            ],
            [
              16.132762312633844,
              11.25053533190578
            ],
            [
              16.64668094218416,
              11.379014989293353
            ],
            [
              16.775160599571734,
              11.89293361884367
            ],
            [
              17.032119914346907,
              12.406852248393989
            ],
            [
              17.289079229122052,
              12.792291220556734
            ],
            [
              17.674518201284798,
              13.434689507494625
            ],
            [
              17.80299785867237,
              13.948608137044971
            ],
            [
              17.93147751605997,
              14.46252676659526
            ],
            [
              18.316916488222716,
              14.976445396145607
            ],
            [
              18.57387580299786,
              15.361884368308324
            ],
            [
              18.830835117773034,
              15.747323340471098
            ],
            [
              19.21627408993578,
              16.132762312633815
            ],
            [
              19.601713062098497,
              16.51820128479656
            ],
            [
              19.730192719486098,
              16.903640256959306
            ],
            [
              19.987152034261243,
              17.289079229122052
            ],
            [
              20.37259100642399,
              17.80299785867237
            ],
            [
              20.50107066381156,
              18.188436830835116
            ],
            [
              20.758029978586734,
              18.57387580299786
            ],
            [
              21.14346895074948,
              19.08779443254815
            ],
            [
              21.400428265524624,
              19.473233404710925
            ],
            [
              21.78586723768737,
              19.987152034261214
            ],
            [
              22.042826552462543,
              20.37259100642399
            ],
            [
              22.42826552462526,
              20.629550321199133
            ],
            [
              22.942184154175607,
              20.629550321199133
            ],
            [
              23.327623126338324,
              20.244111349036388
            ],
            [
              23.71306209850107,
              19.987152034261214
            ],
            [
              24.355460385438988,
              19.73019271948607
            ],
            [
              24.99785867237688,
              19.601713062098497
            ],
            [
              25.640256959314797,
              19.601713062098497
            ],
            [
              26.154175588865115,
              19.987152034261214
            ],
            [
              26.41113490364026,
              20.37259100642399
            ],
            [
              26.796573875803006,
              21.01498929336188
            ],
            [
              27.18201284796575,
              21.400428265524624
            ],
            [
              27.567451820128497,
              21.78586723768734
            ],
            [
              27.952890792291214,
              22.299785867237688
            ],
            [
              28.209850107066387,
              22.685224839400405
            ],
            [
              28.595289079229133,
              23.07066381156315
            ],
            [
              28.852248394004278,
              23.58458244111347
            ],
            [
              29.237687366167023,
              24.226980728051387
            ],
            [
              29.62312633832977,
              24.35546038543896
            ],
            [
              29.880085653104942,
              24.740899357601705
            ],
            [
              30.137044967880087,
              25.12633832976445
            ],
            [
              30.39400428265526,
              25.511777301927168
            ],
            [
              30.650963597430405,
              25.897216274089914
            ],
            [
              31.03640256959315,
              26.154175588865087
            ],
            [
              31.421841541755896,
              26.41113490364023
            ],
            [
              31.80728051391864,
              26.796573875802977
            ],
            [
              32.19271948608139,
              27.05353319057815
            ],
            [
              32.578158458244104,
              27.438972162740896
            ],
            [
              32.96359743040685,
              27.69593147751604
            ],
            [
              33.47751605995717,
              27.69593147751604
            ],
            [
              33.991434689507514,
              27.56745182012847
            ],
            [
              34.633832976445404,
              27.310492505353295
            ],
            [
              35.14775160599572,
              27.310492505353295
            ],
            [
              35.918629550321214,
              27.310492505353295
            ],
            [
              36.30406852248393,
              27.438972162740896
            ],
            [
              36.94646680942185,
              28.081370449678786
            ],
            [
              37.58886509635974,
              28.466809421841532
            ],
            [
              37.974304068522486,
              28.723768736616705
            ],
            [
              38.616702355460404,
              29.109207708779422
            ],
            [
              39.00214132762312,
              29.237687366167023
            ],
            [
              39.38758029978587,
              29.494646680942168
            ],
            [
              39.901498929336185,
              29.62312633832977
            ],
            [
              40.41541755888653,
              29.62312633832977
            ],
            [
              41.05781584582442,
              29.494646680942168
            ],
            [
              41.828693790149885,
              29.237687366167023
            ],
            [
              42.21413276231266,
              29.109207708779422
            ],
            [
              42.85653104925055,
              28.852248394004278
            ],
            [
              43.75588865096361,
              28.595289079229104
            ],
            [
              44.3982869379015,
              28.466809421841532
            ],
            [
              44.91220556745182,
              28.466809421841532
            ],
            [
              45.55460385438974,
              28.466809421841532
            ],
            [
              45.940042826552485,
              28.595289079229104
            ],
            [
              46.453961456102775,
              28.466809421841532
            ],
            [
              46.71092077087795,
              28.081370449678786
            ],
            [
              47.224839400428266,
              27.56745182012847
            ],
            [
              47.738758029978584,
              27.05353319057815
            ],
            [
              48.12419700214133,
              26.539614561027832
            ],
            [
              48.76659528907925,
              26.28265524625266
            ],
            [
              49.280513918629566,
              25.897216274089914
            ],
            [
              49.92291220556746,
              25.64025695931477
            ],
            [
              50.3083511777302,
              25.254817987152023
            ],
            [
              50.95074946466809,
              24.740899357601705
            ],
            [
              51.59314775160601,
              24.35546038543896
            ],
            [
              52.74946466809422,
              23.58458244111347
            ],
            [
              53.90578158458243,
              22.942184154175578
            ],
            [
              54.93361884368312,
              22.556745182012833
            ],
            [
              55.704496788008555,
              22.171306209850087
            ],
            [
              56.475374732334046,
              22.042826552462515
            ],
            [
              56.86081370449676,
              21.914346895074942
            ],
            [
              57.37473233404711,
              21.914346895074942
            ],
            [
              57.888650963597456,
              21.914346895074942
            ],
            [
              58.402569593147746,
              21.914346895074942
            ],
            [
              58.78800856531052,
              22.042826552462515
            ],
            [
              59.43040685224838,
              22.171306209850087
            ],
            [
              59.94432548179873,
              22.42826552462526
            ],
            [
              60.329764453961445,
              22.556745182012833
            ],
            [
              60.71520342612422,
              22.685224839400405
            ],
            [
              61.100642398286936,
              23.07066381156315
            ],
            [
              61.35760171306208,
              23.456102783725896
            ],
            [
              61.48608137044971,
              24.098501070663815
            ],
            [
              61.48608137044971,
              24.612419700214105
            ],
            [
              61.100642398286936,
              24.99785867237688
            ],
            [
              60.58672376873665,
              25.254817987152023
            ],
            [
              60.20128479657387,
              25.64025695931477
            ],
            [
              59.815845824411156,
              26.025695931477514
            ],
            [
              59.43040685224838,
              26.41113490364023
            ],
            [
              59.17344753747324,
              27.182012847965723
            ],
            [
              59.17344753747324,
              27.82441113490364
            ],
            [
              59.17344753747324,
              28.595289079229104
            ],
            [
              59.17344753747324,
              29.75160599571734
            ],
            [
              59.43040685224838,
              31.036402569593122
            ],
            [
              59.68736616702358,
              31.67880085653104
            ],
            [
              60.0728051391863,
              32.32119914346893
            ],
            [
              60.329764453961445,
              32.83511777301925
            ],
            [
              60.71520342612422,
              33.09207708779442
            ],
            [
              61.100642398286936,
              33.47751605995717
            ],
            [
              61.61456102783728,
              34.24839400428266
            ],
            [
              62.0,
              35.147751605995694
            ],
            [
              62.0,
              35.918629550321185
            ],
            [
              62.0,
              36.4325481798715
            ],
            [
              61.743040685224855,
              36.81798715203425
            ],
            [
              61.35760171306208,
              37.33190578158457
            ],
            [
              60.84368308351179,
              37.974304068522486
            ],
            [
              60.329764453961445,
              38.74518201284795
            ],
            [
              59.94432548179873,
              39.38758029978587
            ],
            [
              59.815845824411156,
              40.02997858672376
            ],
            [
              59.815845824411156,
              40.543897216274075
            ],
            [
              59.68736616702358,
              40.92933618843682
            ],
            [
              59.558886509635954,
              41.31477516059957
            ],
            [
              59.30192719486081,
              41.70021413276231
            ],
            [
              59.17344753747324,
              42.08565310492503
            ],
            [
              58.91648822269809,
              42.471092077087775
            ],
            [
              58.65952890792289,
              42.98501070663809
            ],
            [
              58.402569593147746,
              43.49892933618844
            ],
            [
              58.1456102783726,
              43.884368308351156
            ],
            [
              57.888650963597456,
              44.398286937901474
            ],
            [
              57.631691648822255,
              44.78372591006422
            ],
            [
              57.37473233404711,
              45.42612419700214
            ],
            [
              57.24625267665954,
              45.811563169164856
            ],
            [
              57.117773019271965,
              46.1970021413276
            ],
            [
              56.60385438972162,
              46.83940042826552
            ],
            [
              55.96145610278376,
              47.35331905781584
            ],
            [
              55.31905781584584,
              47.738758029978584
            ],
            [
              54.80513918629549,
              48.2526766595289
            ],
            [
              54.419700214132774,
              48.50963597430405
            ],
            [
              53.777301927194856,
              48.50963597430405
            ],
            [
              52.87794432548179,
              48.50963597430405
            ],
            [
              52.2355460385439,
              48.50963597430405
            ],
            [
              51.850107066381156,
              48.63811563169165
            ],
            [
              51.33618843683084,
              48.63811563169165
            ],
            [
              50.436830835117775,
              48.50963597430405
            ],
            [
              49.152034261241965,
              48.12419700214133
            ],
            [
              48.2526766595289,
              47.867237687366156
            ],
            [
              47.48179871520344,
              47.99571734475373
            ],
            [
              46.96788008565312,
              48.381156316916474
            ],
            [
              46.453961456102775,
              48.63811563169165
            ],
            [
              45.811563169164884,
              48.76659528907922
            ],
            [
              45.42612419700214,
              48.89507494646679
            ],
            [
              44.78372591006425,
              49.152034261241965
            ],
            [
              44.3982869379015,
              49.28051391862954
            ],
            [
              43.49892933618844,
              49.152034261241965
            ],
            [
              42.599571734475376,
              49.023554603854365
            ],
            [
              41.57173447537474,
              49.023554603854365
            ],
            [
              40.41541755888653,
              49.023554603854365
            ],
            [
              39.51605995717347,
              48.76659528907922
            ],
            [
              38.74518201284798,
              48.63811563169165
            ],
            [
              37.974304068522486,
              48.50963597430405
            ],
            [
              37.46038543897217,
              48.50963597430405
            ],
            [
              36.81798715203428,
              48.381156316916474
            ],
            [
              36.047109207708786,
              48.2526766595289
            ],
            [
              35.53319057815847,
              48.381156316916474
            ],
            [
              34.76231263383298,
              48.381156316916474
            ],
            [
              33.73447537473234,
              47.99571734475373
            ],
            [
              33.22055674518202,
              47.867237687366156
            ],
            [
              32.706638115631705,
              47.61027837259098
            ],
            [
              32.064239828693786,
              47.35331905781584
            ],
            [
              31.421841541755896,
              47.35331905781584
            ],
            [
              30.779443254818005,
              47.48179871520341
            ],
            [
              30.137044967880087,
              47.738758029978584
            ],
            [
              29.494646680942196,
              47.738758029978584
            ],
            [
              28.98072805139188,
              47.738758029978584
            ],
            [
              28.33832976445396,
              47.224839400428266
            ],
            [
              27.82441113490364,
              46.453961456102775
            ],
            [
              27.310492505353324,
              45.811563169164856
            ],
            [
              27.05353319057815,
              45.29764453961454
            ],
            [
              26.668094218415433,
              44.91220556745182
            ],
            [
              26.282655246252688,
              44.78372591006422
            ],
            [
              25.76873661670237,
              44.78372591006422
            ],
            [
              25.383297644539624,
              44.65524625267665
            ],
            [
              24.48394004282656,
              44.91220556745182
            ],
            [
              23.84154175588867,
              45.42612419700214
            ],
            [
              23.327623126338324,
              46.1970021413276
            ],
            [
              22.942184154175607,
              46.71092077087792
            ],
            [
              22.685224839400433,
              47.35331905781584
            ],
            [
              22.299785867237688,
              47.867237687366156
            ],
            [
              22.171306209850115,
              48.2526766595289
            ],
            [
              21.657387580299797,
              48.89507494646679
            ],
            [
              21.014989293361907,
              50.1798715203426
            ],
            [
              20.244111349036416,
              51.850107066381156
            ],
            [
              19.473233404710925,
              53.39186295503211
            ],
            [
              18.830835117773034,
              54.291220556745174
            ],
            [
              18.44539614561029,
              54.54817987152032
            ],
            [
              17.93147751605997,
              54.67665952890792
            ],
            [
              17.546038543897225,
              54.419700214132746
            ],
            [
              17.032119914346907,
              53.777301927194856
            ],
            [
              16.64668094218416,
              53.006423982869364
            ],
            [
              16.261241970021416,
              52.1070663811563
            ],
            [
              16.00428265524627,
              51.20770877944324
            ],
            [
              16.00428265524627,
              50.69379014989292
            ],
            [
              16.00428265524627,
              50.1798715203426
            ],
            [
              16.132762312633844,
              49.40899357601711
            ],
            [
              16.132762312633844,
              48.381156316916474
            ],
            [
              16.261241970021416,
              47.48179871520341
            ],
            [
              16.775160599571734,
              46.58244111349035
            ],
            [
              17.546038543897225,
              45.55460385438971
            ],
            [
              17.93147751605997,
              44.526766595289075
            ],
            [
              18.059957173447543,
              43.884368308351156
            ],
            [
              18.059957173447543,
              43.37044967880084
            ],
            [
              17.93147751605997,
              42.98501070663809
            ],
            [
              17.80299785867237,
              42.599571734475376
            ],
            [
              17.417558886509653,
              42.08565310492503
            ],
            [
              16.64668094218416,
              42.08565310492503
            ],
            [
              16.00428265524627,
              42.3426124197002
            ],
            [
              15.361884368308353,
              42.3426124197002
            ],
            [
              14.719486081370462,
              42.3426124197002
            ],
            [
              14.077087794432543,
              42.08565310492503
            ],
            [
              13.30620985010708,
              41.828693790149885
            ],
            [
              12.792291220556763,
              41.828693790149885
            ],
            [
              11.507494646680954,
              41.828693790149885
            ],
            [
              11.122055674518208,
              41.95717344753746
            ],
            [
              10.60813704496789,
              42.21413276231263
            ],
            [
              9.96573875803,
              42.21413276231263
            ],
            [
              9.194860813704508,
              42.08565310492503
            ],
            [
              8.423982869379017,
              41.95717344753746
            ],
            [
              8.038543897216272,
              41.70021413276231
            ],
            [
              7.6531049250535546,
              41.57173447537471
            ],
            [
              6.753747323340491,
              41.57173447537471
            ],
            [
              5.982869379015,
              41.57173447537471
            ],
            [
              5.083511777301936,
              41.95717344753746
            ],
            [
              4.698072805139191,
              42.471092077087775
            ],
            [
              4.184154175588873,
              43.113490364025694
            ],
            [
              4.0556745182013,
              43.755888650963584
            ],
            [
              3.9271948608136995,
              44.398286937901474
            ],
            [
              3.5417558886509823,
              45.169164882226966
            ],
            [
              3.0278372591006644,
              46.3254817987152
            ],
            [
              2.642398286937919,
              47.48179871520341
            ],
            [
              2.642398286937919,
              48.12419700214133
            ],
            [
              2.770877944325491,
              48.50963597430405
            ],
            [
              2.770877944325491,
              49.023554603854365
            ],
            [
              2.770877944325491,
              50.1798715203426
            ],
            [
              2.770877944325491,
              50.82226980728049
            ],
            [
              3.0278372591006644,
              51.33618843683081
            ],
            [
              3.1563169164882368,
              51.850107066381156
            ],
            [
              3.4132762312633815,
              52.364025695931474
            ],
            [
              3.4132762312633815,
              52.87794432548179
            ],
            [
              3.5417558886509823,
              53.26338329764454
            ],
            [
              3.6702355460385547,
              53.777301927194856
            ],
            [
              3.6702355460385547,
              54.291220556745174
            ],
            [
              3.798715203426127,
              53.90578158458243
            ],
            [
              3.284796573875809,
              53.26338329764454
            ],
            [
              3.1563169164882368,
              52.74946466809422
            ],
            [
              3.1563169164882368,
              52.1070663811563
            ],
            [
              2.8993576017130636,
              51.46466809421841
            ],
            [
              2.642398286937919,
              51.079229122055665
            ],
            [
              2.513918629550318,
              50.436830835117775
            ],
            [
              2.3854389721627456,
              49.92291220556743
            ],
            [
              2.256959314775173,
              49.40899357601711
            ],
            [
              2.128479657387601,
              48.76659528907922
            ],
            [
              2.128479657387601,
              47.99571734475373
            ],
            [
              2.0,
              47.48179871520341
            ],
            [
              2.0,
              46.96788008565309
            ],
            [
              2.3854389721627456,
              46.453961456102775
            ],
            [
              2.642398286937919,
              45.94004282655246
            ],
            [
              2.770877944325491,
              45.42612419700214
            ],
            [
              2.770877944325491,
              44.91220556745182
            ],
            [
              2.8993576017130636,
              44.2698072805139
            ],
            [
              3.0278372591006644,
              43.49892933618844
            ],
            [
              3.4132762312633815,
              42.599571734475376
            ],
            [
              3.6702355460385547,
              42.08565310492503
            ],
            [
              3.9271948608136995,
              41.57173447537471
            ],
            [
              4.184154175588873,
              40.92933618843682
            ],
            [
              4.184154175588873,
              40.2869379014989
            ],
            [
              4.312633832976445,
              39.64453961456101
            ],
            [
              4.441113490364046,
              38.87366167023555
            ],
            [
              4.441113490364046,
              38.3597430406852
            ],
            [
              4.184154175588873,
              37.46038543897214
            ],
            [
              3.798715203426127,
              36.81798715203425
            ],
            [
              3.6702355460385547,
              36.30406852248393
            ],
            [
              3.5417558886509823,
              35.40471092077087
            ],
            [
              3.4132762312633815,
              34.89079229122055
            ],
            [
              3.284796573875809,
              34.24839400428266
            ],
            [
              3.1563169164882368,
              33.86295503211991
            ],
            [
              2.8993576017130636,
              33.47751605995717
            ],
            [
              2.513918629550318,
              32.96359743040685
            ],
            [
              2.3854389721627456,
              32.44967880085653
            ],
            [
              2.3854389721627456,
              31.807280513918613
            ],
            [
              2.770877944325491,
              31.293361884368295
            ],
            [
              3.1563169164882368,
              30.779443254817977
            ],
            [
              3.284796573875809,
              30.39400428265523
            ],
            [
              3.1563169164882368,
              29.75160599571734
            ],
            [
              3.4132762312633815,
              29.366167023554596
            ],
            [
              3.1563169164882368,
              28.98072805139185
            ],
            [
              3.284796573875809,
              28.466809421841532
            ],
            [
              3.6702355460385547,
              28.081370449678786
            ],
            [
              3.798715203426127,
              27.56745182012847
            ],
            [
              3.9271948608136995,
              27.182012847965723
            ],
            [
              4.0556745182013,
              26.796573875802977
            ],
            [
              4.441113490364046,
              26.41113490364023
            ],
            [
              4.441113490364046,
              25.897216274089914
            ],
            [
              4.698072805139191,
              25.511777301927168
            ],
            [
              5.3404710920771095,
              25.254817987152023
            ],
            [
              5.725910064239827,
              24.869379014989278
            ],
            [
              6.239828693790145,
              24.35546038543896
            ],
            [
              6.62526766595289,
              24.226980728051387
            ],
            [
              7.524625267665954,
              23.970021413276214
            ],
            [
              7.910064239828699,
              23.84154175588864
            ],
            [
              8.167023554603873,
              23.327623126338324
            ],
            [
              8.295503211991445,
              22.42826552462526
            ],
            [
              8.68094218415419,
              21.914346895074942
            ],
            [
              8.809421841541763,
              21.528907922912197
            ],
            [
              8.809421841541763,
              21.01498929336188
            ],
            [
              8.68094218415419,
              20.629550321199133
            ],
            [
              8.68094218415419,
              20.115631691648815
            ],
            [
              8.68094218415419,
              19.601713062098497
            ],
            [
              8.55246252676659,
              18.95931477516058
            ],
            [
              8.423982869379017,
              18.188436830835116
            ],
            [
              8.038543897216272,
              17.16059957173445
            ],
            [
              8.038543897216272,
              16.646680942184133
            ],
            [
              8.038543897216272,
              16.004282655246243
            ],
            [
              7.910064239828699,
              15.10492505353318
            ],
            [
              7.910064239828699,
              14.334047109207688
            ],
            [
              7.910064239828699,
              13.691648822269798
            ],
            [
              7.910064239828699,
              13.17773019271948
            ],
            [
              7.781584582441127,
              12.792291220556734
            ],
            [
              7.6531049250535546,
              12.406852248393989
            ],
            [
              8.167023554603873,
              12.149892933618844
            ],
            [
              8.295503211991445,
              11.635974304068498
            ],
            [
              8.809421841541763,
              11.12205567451818
            ],
            [
              9.194860813704508,
              10.736616702355434
            ],
            [
              9.837259100642399,
              10.094218415417544
            ],
            [
              10.094218415417572,
              9.708779443254798
            ],
            [
              10.993576017130636,
              9.708779443254798
            ],
            [
              11.379014989293381,
              9.580299785867226
            ],
            [
              11.8929336188437,
              9.32334047109208
            ],
            [
              12.278372591006445,
              9.451820128479653
            ],
            [
              12.406852248394017,
              9.83725910064237
            ]
          ]
        ]
      }
    }
  ]
}