{
  "type": "FeatureCollection",
  "crs": {
    "type": "name",
    "properties": {
      "name": "urn:ogc:def:crs:OGC:1.3:CRS84"
    }
  },
  "features": [
    {
      "type": "Feature",
      "properties": {
        "timestamp": "2026-06-27T18:52:55.647063",
        "country_name": "Samoa",
        "author": "",
        "author_id": "24c2b605-57ce-4fc2-97e9-637449c3ebd3",
        "validated": false,
        "ranking": [
          [
            "Samoa",
            0.1109122782945633
          ],
          [
            "Turks and Caicos Islands",
            0.08221308141946793
          ],
          [
            "Solomon Islands",
            0.0793512761592865
          ],
          [
            "United States of America",
            0.06938602030277252
          ],
          [
            "Nepal",
            0.06673214584589005
          ],
          [
            "Cuba",
            0.0652288943529129
          ],
          [
            "Mexico",
            0.03676740452647209
          ],
          [
            "Comoros",
            0.03594423085451126
          ],
          [
            "Georgia",
            0.03308616578578949
          ],
          [
            "Bahamas",
            0.029002895578742027
          ],
          [
            "Italy",
            0.027237646281719208
          ],
          [
            "New Caledonia",
            0.017388425767421722
          ],
          [
            "Tajikistan",
            0.01721816323697567
          ],
          [
            "Eritrea",
            0.016779251396656036
          ],
          [
            "Uzbekistan",
            0.01575525477528572
          ],
          [
            "Indonesia",
            0.013075722381472588
          ],
          [
            "Turkey",
            0.01200990192592144
          ],
          [
            "Puerto Rico",
            0.011357459239661694
          ],
          [
            "Turkmenistan",
            0.007879695855081081
          ],
          [
            "Heard and McDonald Islands",
            0.007458553649485111
          ],
          [
            "El Salvador",
            0.007243695203214884
          ],
          [
            "Jamaica",
            0.006788397207856178
          ],
          [
            "Equatorial Guinea",
            0.006758102215826511
          ],
          [
            "Barbados",
            0.006712253671139479
          ],
          [
            "Costa Rica",
            0.006665737368166447
          ],
          [
            "Latvia",
            0.006624620873481035
          ],
          [
            "Papua New Guinea",
            0.006108710076659918
          ],
          [
            "Malaysia",
            0.005973293911665678
          ],
          [
            "Ukraine",
            0.005384628660976887
          ],
          [
            "Russia",
            0.005369388032704592
          ],
          [
            "Ecuador",
            0.004228910896927118
          ],
          [
            "Kazakhstan",
            0.004187414422631264
          ],
          [
            "Guadeloupe",
            0.00391567125916481
          ],
          [
            "Yemen",
            0.003795437514781952
          ],
          [
            "Armenia",
            0.0037430927623063326
          ],
          [
            "Mongolia",
            0.0037126042880117893
          ],
          [
            "Netherlands Antilles",
            0.0036538327112793922
          ],
          [
            "Laos",
            0.003357354551553726
          ],
          [
            "Guinea-Bissau",
            0.0033223123755306005
          ],
          [
            "Guinea",
            0.003260234836488962
          ],
          [
            "Azerbaijan",
            0.002949401969090104
          ],
          [
            "Cyprus",
            0.0029307114891707897
          ],
          [
            "Romania",
            0.0028683857526630163
          ],
          [
            "Panama",
            0.002826561452820897
          ],
          [
            "Slovakia",
            0.002689038636162877
          ],
          [
            "Czech Republic",
            0.002638476900756359
          ],
          [
            "Saudi Arabia",
            0.0025573191232979298
          ],
          [
            "Bangladesh",
            0.00253307051025331
          ],
          [
            "Madeira Islands",
            0.002511977916583419
          ],
          [
            "Hong Kong",
            0.0024150267709046602
          ],
          [
            "Switzerland",
            0.0023540398105978966
          ],
          [
            "North Macedonia",
            0.002326450077816844
          ],
          [
            "Martinique",
            0.0023224775213748217
          ],
          [
            "Philippines",
            0.0021819653920829296
          ],
          [
            "Dominican Republic",
            0.002173682674765587
          ],
          [
            "Bulgaria",
            0.002150957938283682
          ],
          [
            "Zambia",
            0.002111645182594657
          ],
          [
            "South Georgia Islands",
            0.0021062148734927177
          ],
          [
            "Ethiopia",
            0.0021043396554887295
          ],
          [
            "Gabon",
            0.0019403027836233377
          ],
          [
            "Timor-Leste",
            0.0018937549320980906
          ],
          [
            "Lithuania",
            0.0018605937948450446
          ],
          [
            "Australia",
            0.00184007512871176
          ],
          [
            "Sierra Leone",
            0.0018061858136206865
          ],
          [
            "Kyrgyzstan",
            0.001732789445668459
          ],
          [
            "Senegal",
            0.0017015315825119615
          ],
          [
            "Belgium",
            0.0016947588883340359
          ],
          [
            "Vanuatu",
            0.0015979624586179852
          ],
          [
            "Malawi",
            0.0015968837542459369
          ],
          [
            "Niger",
            0.0015503972535952926
          ],
          [
            "Gambia",
            0.0015014789532870054
          ],
          [
            "Slovenia",
            0.0014956652885302901
          ],
          [
            "France",
            0.0014598398702219129
          ],
          [
            "Central African Republic",
            0.0014527650782838464
          ],
          [
            "Rwanda",
            0.0014323905343189836
          ],
          [
            "Peru",
            0.0014026481658220291
          ],
          [
            "South Sudan",
            0.001341992523521185
          ],
          [
            "Denmark",
            0.0013057995820418
          ],
          [
            "Kiribati",
            0.0012903206516057253
          ],
          [
            "Burkina Faso",
            0.001258410164155066
          ],
          [
            "Iceland",
            0.0012496679555624723
          ],
          [
            "Canada",
            0.0012462141457945108
          ],
          [
            "Estonia",
            0.001240610028617084
          ],
          [
            "Sudan",
            0.0012272936291992664
          ],
          [
            "Cape Verde",
            0.0012097051367163658
          ],
          [
            "Guyana",
            0.0011825504479929805
          ],
          [
            "United Arab Emirates",
            0.001177942263893783
          ],
          [
            "Falkland Islands",
            0.0011464775307103992
          ],
          [
            "Moldova",
            0.0011098061222583055
          ],
          [
            "China",
            0.0010942185763269663
          ],
          [
            "Albania",
            0.0010907304240390658
          ],
          [
            "Luxembourg",
            0.0010812911204993725
          ],
          [
            "Brazil",
            0.001050428836606443
          ],
          [
            "Bhutan",
            0.001042693736962974
          ],
          [
            "Paraguay",
            0.0010382166365161538
          ],
          [
            "Mali",
            0.0010314052924513817
          ],
          [
            "Guatemala",
            0.001031261752359569
          ],
          [
            "Serbia",
            0.000981519347988069
          ],
          [
            "Bahrain",
            0.0009545291541144252
          ],
          [
            "Hungary",
            0.000941508449614048
          ],
          [
            "Vietnam",
            0.0009412338258698583
          ],
          [
            "United Kingdom",
            0.0009197932668030262
          ],
          [
            "Venezuela",
            0.0009150162804871798
          ],
          [
            "Austria",
            0.0008981366991065443
          ],
          [
            "South Korea",
            0.0008961056009866297
          ],
          [
            "Cambodia",
            0.0008960491977632046
          ],
          [
            "Namibia",
            0.0008948723552748561
          ],
          [
            "Suriname",
            0.0008688170346431434
          ],
          [
            "Côte d'Ivoire",
            0.0008682669722475111
          ],
          [
            "Honduras",
            0.0008080382249318063
          ],
          [
            "Uruguay",
            0.0008023926056921482
          ],
          [
            "Togo",
            0.0007896724273450673
          ],
          [
            "Syria",
            0.0007216414087451994
          ],
          [
            "Kenya",
            0.0007183208945207298
          ],
          [
            "Djibouti",
            0.0007150470628403127
          ],
          [
            "Iraq",
            0.0007141338428482413
          ],
          [
            "Ghana",
            0.0007026614039205015
          ],
          [
            "Fiji",
            0.0006856737309135497
          ],
          [
            "South Africa",
            0.000684125698171556
          ],
          [
            "Iran",
            0.0006253940518945456
          ],
          [
            "Trinidad and Tobago",
            0.0006191120482981205
          ],
          [
            "Uganda",
            0.0006030563381500542
          ],
          [
            "Bolivia",
            0.0006008461932651699
          ],
          [
            "Nigeria",
            0.0005965526215732098
          ],
          [
            "Burundi",
            0.0005950661143288016
          ],
          [
            "Sao Tome and Principe",
            0.0005776672624051571
          ],
          [
            "Chile",
            0.0005664325435645878
          ],
          [
            "Bosnia & Herzegovina",
            0.0005560629651881754
          ],
          [
            "Belarus",
            0.0005476467777043581
          ],
          [
            "India",
            0.00053134944755584
          ],
          [
            "Sri Lanka",
            0.0005152540979906917
          ],
          [
            "Mauritania",
            0.0005107998731546104
          ],
          [
            "Israel",
            0.0005069707985967398
          ],
          [
            "Finland",
            0.000503860937897116
          ],
          [
            "Lesotho",
            0.0005015195347368717
          ],
          [
            "Oman",
            0.0004750184598378837
          ],
          [
            "Dominica",
            0.0004680546699091792
          ],
          [
            "Botswana",
            0.0004606777511071414
          ],
          [
            "Svalbard",
            0.0004605345311574638
          ],
          [
            "Reunion",
            0.00044935860205441713
          ],
          [
            "Mozambique",
            0.0004378537996672094
          ],
          [
            "Eswatini",
            0.00043569199624471366
          ],
          [
            "Poland",
            0.0004291049554012716
          ],
          [
            "New Zealand",
            0.00042595405830070376
          ],
          [
            "Spain",
            0.0004056458710692823
          ],
          [
            "French Guiana",
            0.0003974435094278306
          ],
          [
            "Libya",
            0.0003967028169427067
          ],
          [
            "Nicaragua",
            0.00038977188523858786
          ],
          [
            "Algeria",
            0.0003889415820594877
          ],
          [
            "Zimbabwe",
            0.0003874843823723495
          ],
          [
            "Belize",
            0.00037809991044923663
          ],
          [
            "Somalia",
            0.000377586082322523
          ],
          [
            "Cameroon",
            0.00036595010897144675
          ],
          [
            "Liberia",
            0.0003616473695728928
          ],
          [
            "Benin",
            0.0003603528894018382
          ],
          [
            "Colombia",
            0.00035237681004218757
          ],
          [
            "Greece",
            0.0003522612096276134
          ],
          [
            "Montenegro",
            0.0003479958977550268
          ],
          [
            "Angola",
            0.00034651756868697703
          ],
          [
            "Thailand",
            0.0003451060620136559
          ],
          [
            "Greenland",
            0.0003315815411042422
          ],
          [
            "United States Virgin Islands",
            0.000317881116643548
          ],
          [
            "Croatia",
            0.0003112022241111845
          ],
          [
            "Kuwait",
            0.00031000201124697924
          ],
          [
            "Tunisia",
            0.0003092855913564563
          ],
          [
            "DR Congo",
            0.0003027405182365328
          ],
          [
            "Haiti",
            0.0003008036583196372
          ],
          [
            "Guam",
            0.00029625880415551364
          ],
          [
            "West Bank",
            0.0002890781906899065
          ],
          [
            "Congo",
            0.00027877744287252426
          ],
          [
            "Qatar",
            0.00027226918609812856
          ],
          [
            "Myanmar",
            0.0002652052789926529
          ],
          [
            "Egypt",
            0.00026311533292755485
          ],
          [
            "Portugal",
            0.0002613691904116422
          ],
          [
            "Isle of Man",
            0.00025771293439902365
          ],
          [
            "Brunei",
            0.0002525032905396074
          ],
          [
            "Argentina",
            0.0002500661357771605
          ],
          [
            "Japan",
            0.00024784813285805285
          ],
          [
            "Faroe Islands",
            0.0002447360020596534
          ],
          [
            "Germany",
            0.0002446272410452366
          ],
          [
            "Antigua & Barbuda",
            0.00022429254022426903
          ],
          [
            "Ireland",
            0.00019539873756002635
          ],
          [
            "Tanzania",
            0.0001846324885264039
          ],
          [
            "Sweden",
            0.00017831787408795208
          ],
          [
            "Jordan",
            0.00017600088904146105
          ],
          [
            "Pakistan",
            0.00014536541129928082
          ],
          [
            "Saint Lucia",
            0.00014393845049198717
          ],
          [
            "Mayotte",
            0.00013536888582166284
          ],
          [
            "Afghanistan",
            0.00013453337305691093
          ],
          [
            "North Korea",
            0.00012252628221176565
          ],
          [
            "Norway",
            0.00011125736637040973
          ],
          [
            "Netherlands",
            9.870815847534686e-05
          ],
          [
            "Taiwan",
            9.64535865932703e-05
          ],
          [
            "Palau",
            8.564993913751096e-05
          ],
          [
            "Western Sahara",
            8.227014041040093e-05
          ],
          [
            "Morocco",
            7.495440513594076e-05
          ],
          [
            "Lebanon",
            7.052470027701929e-05
          ],
          [
            "Chad",
            6.372543430188671e-05
          ],
          [
            "Madagascar",
            4.8791996960062534e-05
          ]
        ]
      },
      "geometry": {
        "type": "MultiLineString",
        "coordinates": [
          [
            [
              6.0,
              49.0
            ],
            [
              6.800000000000011,
              42.19999999999999
            ],
            [
              7.599999999999994,
              29.80000000000001
            ],
            [
              7.599999999999994,
              16.19999999999999
            ],
            [
              8.0,
              15.0
            ],
            [
              10.0,
              15.399999999999977
            ],
            [
              59.60000000000002,
              17.0
            ],
            [
              62.0,
              16.600000000000023
            ],
            [
              2.0,
              45.80000000000001
            ],
            [
              5.599999999999994,
              48.599999999999994
            ],
            [
              6.800000000000011,
              49.0
            ]
          ]
        ]
      }
    }
  ]
}