{
  "type": "FeatureCollection",
  "crs": {
    "type": "name",
    "properties": {
      "name": "urn:ogc:def:crs:OGC:1.3:CRS84"
    }
  },
  "features": [
    {
      "type": "Feature",
      "properties": {
        "timestamp": "2026-03-21T19:46:24.438996",
        "country_name": "Sao Tome and Principe",
        "author": "",
        "author_id": "cf11fa12-6064-4d60-8826-24dc9ae6caac",
        "validated": false,
        "ranking": [
          [
            "Sao Tome and Principe",
            0.45974406599998474
          ],
          [
            "Chile",
            0.30128157138824463
          ],
          [
            "United States Virgin Islands",
            0.05297693610191345
          ],
          [
            "Antigua & Barbuda",
            0.049044229090213776
          ],
          [
            "Vanuatu",
            0.01907273195683956
          ],
          [
            "Solomon Islands",
            0.017617590725421906
          ],
          [
            "Ecuador",
            0.011301535181701183
          ],
          [
            "Bahrain",
            0.011072189547121525
          ],
          [
            "Israel",
            0.007787814363837242
          ],
          [
            "Cape Verde",
            0.006266218144446611
          ],
          [
            "Togo",
            0.00561713008210063
          ],
          [
            "New Zealand",
            0.0054273782297968864
          ],
          [
            "Spain",
            0.005262578371912241
          ],
          [
            "Dominica",
            0.005011038854718208
          ],
          [
            "Comoros",
            0.003839071374386549
          ],
          [
            "Equatorial Guinea",
            0.0031753345392644405
          ],
          [
            "Netherlands Antilles",
            0.0023777394089847803
          ],
          [
            "Belize",
            0.0023486153222620487
          ],
          [
            "Namibia",
            0.0022611799649894238
          ],
          [
            "Martinique",
            0.002082020277157426
          ],
          [
            "Malawi",
            0.0017135724192485213
          ],
          [
            "Egypt",
            0.0015540077583864331
          ],
          [
            "Vietnam",
            0.001124348840676248
          ],
          [
            "Faroe Islands",
            0.0009791288757696748
          ],
          [
            "Benin",
            0.00096649129409343
          ],
          [
            "Timor-Leste",
            0.0009405742748640478
          ],
          [
            "Argentina",
            0.0006854325183667243
          ],
          [
            "Malaysia",
            0.0006851462530903518
          ],
          [
            "Japan",
            0.0006839946145191789
          ],
          [
            "Moldova",
            0.0006219579372555017
          ],
          [
            "Myanmar",
            0.0005850471206940711
          ],
          [
            "Puerto Rico",
            0.000508157245349139
          ],
          [
            "Heard and McDonald Islands",
            0.0004689075576607138
          ],
          [
            "Turkey",
            0.00040593650192022324
          ],
          [
            "Bahamas",
            0.00039808344445191324
          ],
          [
            "Suriname",
            0.000394111848436296
          ],
          [
            "Thailand",
            0.00034782971488311887
          ],
          [
            "Czech Republic",
            0.00034761280403472483
          ],
          [
            "Palau",
            0.0003474537224974483
          ],
          [
            "Reunion",
            0.00033171407994814217
          ],
          [
            "Guam",
            0.0003245761035941541
          ],
          [
            "Saudi Arabia",
            0.00031396537087857723
          ],
          [
            "Lithuania",
            0.00029773361166007817
          ],
          [
            "Indonesia",
            0.00029355354490689933
          ],
          [
            "Bosnia & Herzegovina",
            0.0002772336301859468
          ],
          [
            "Paraguay",
            0.0002723634825088084
          ],
          [
            "Barbados",
            0.00026484765112400055
          ],
          [
            "Sweden",
            0.0002572343510109931
          ],
          [
            "Turkmenistan",
            0.00024357292568311095
          ],
          [
            "Guadeloupe",
            0.00022527888359036297
          ],
          [
            "Libya",
            0.0002240157191408798
          ],
          [
            "Yemen",
            0.0002238636661786586
          ],
          [
            "Somalia",
            0.00022094856831245124
          ],
          [
            "Finland",
            0.00020083741401322186
          ],
          [
            "Poland",
            0.00019740268180612475
          ],
          [
            "Oman",
            0.0001969607692444697
          ],
          [
            "Albania",
            0.00019178666116204113
          ],
          [
            "Mozambique",
            0.00018934668332803994
          ],
          [
            "Mali",
            0.00018519170407671481
          ],
          [
            "Qatar",
            0.00018461824220139533
          ],
          [
            "Iran",
            0.0001668329059612006
          ],
          [
            "North Macedonia",
            0.00016599525406491011
          ],
          [
            "West Bank",
            0.00015273282770067453
          ],
          [
            "Latvia",
            0.00014988757902756333
          ],
          [
            "Portugal",
            0.00014822641969658434
          ],
          [
            "Georgia",
            0.00014800831559114158
          ],
          [
            "Norway",
            0.00013724452583119273
          ],
          [
            "Uruguay",
            0.00013175311323720962
          ],
          [
            "Uzbekistan",
            0.0001315682748099789
          ],
          [
            "Saint Lucia",
            0.00013092391600366682
          ],
          [
            "South Korea",
            0.0001305463956668973
          ],
          [
            "Tanzania",
            0.0001298201095778495
          ],
          [
            "Romania",
            0.00012736428470816463
          ],
          [
            "Rwanda",
            0.00012729872833006084
          ],
          [
            "Kenya",
            0.0001228762703249231
          ],
          [
            "Botswana",
            0.00012091935059288517
          ],
          [
            "Tunisia",
            0.00011639085278147832
          ],
          [
            "Turks and Caicos Islands",
            0.00011173127859365195
          ],
          [
            "Guyana",
            0.00011121207353426144
          ],
          [
            "Eswatini",
            0.00011094152432633564
          ],
          [
            "Fiji",
            0.00010776247654575855
          ],
          [
            "Slovakia",
            0.00010367686627432704
          ],
          [
            "Eritrea",
            0.00010270771599607542
          ],
          [
            "Cuba",
            9.736976790009066e-05
          ],
          [
            "Mongolia",
            9.469226642977446e-05
          ],
          [
            "New Caledonia",
            9.264403342967853e-05
          ],
          [
            "Sierra Leone",
            9.16858043638058e-05
          ],
          [
            "Serbia",
            8.998106204671785e-05
          ],
          [
            "Kazakhstan",
            8.900385000742972e-05
          ],
          [
            "Mayotte",
            8.81550440681167e-05
          ],
          [
            "Ethiopia",
            8.707351662451401e-05
          ],
          [
            "Cameroon",
            8.630696538602933e-05
          ],
          [
            "Svalbard",
            8.60449654283002e-05
          ],
          [
            "Peru",
            8.253473788499832e-05
          ],
          [
            "Jamaica",
            8.149790664901957e-05
          ],
          [
            "Azerbaijan",
            8.051371696637943e-05
          ],
          [
            "United Kingdom",
            7.909828127594665e-05
          ],
          [
            "Sri Lanka",
            7.823492342140526e-05
          ],
          [
            "South Sudan",
            7.751055090921e-05
          ],
          [
            "Syria",
            7.693024235777557e-05
          ],
          [
            "Cyprus",
            7.481806824216619e-05
          ],
          [
            "United States of America",
            7.43011332815513e-05
          ],
          [
            "Samoa",
            7.187214214354753e-05
          ],
          [
            "Niger",
            7.145143172238022e-05
          ],
          [
            "Honduras",
            6.970539834583178e-05
          ],
          [
            "Armenia",
            6.774544453946874e-05
          ],
          [
            "Mauritania",
            6.434165698010474e-05
          ],
          [
            "El Salvador",
            6.317593215499073e-05
          ],
          [
            "South Georgia Islands",
            6.24133535893634e-05
          ],
          [
            "Angola",
            6.141058111097664e-05
          ],
          [
            "Taiwan",
            6.134665454737842e-05
          ],
          [
            "United Arab Emirates",
            6.124330684542656e-05
          ],
          [
            "Mexico",
            5.937841342529282e-05
          ],
          [
            "Algeria",
            5.77590471948497e-05
          ],
          [
            "Zimbabwe",
            5.6374905398115516e-05
          ],
          [
            "Greenland",
            5.517212412087247e-05
          ],
          [
            "Brazil",
            5.506552042788826e-05
          ],
          [
            "Burkina Faso",
            5.3536397899733856e-05
          ],
          [
            "Madeira Islands",
            5.3140953241381794e-05
          ],
          [
            "Trinidad and Tobago",
            5.1510003686416894e-05
          ],
          [
            "Liberia",
            5.005746061215177e-05
          ],
          [
            "Switzerland",
            4.9947400839300826e-05
          ],
          [
            "Burundi",
            4.957052442478016e-05
          ],
          [
            "Hungary",
            4.871254350291565e-05
          ],
          [
            "India",
            4.753821121994406e-05
          ],
          [
            "Ukraine",
            4.681290010921657e-05
          ],
          [
            "Nepal",
            4.384465501061641e-05
          ],
          [
            "Bhutan",
            4.3602722143987194e-05
          ],
          [
            "Nigeria",
            4.3268766603432596e-05
          ],
          [
            "Belgium",
            4.325028567109257e-05
          ],
          [
            "Panama",
            4.293278107070364e-05
          ],
          [
            "Australia",
            4.2312505684094504e-05
          ],
          [
            "Kyrgyzstan",
            4.178685776423663e-05
          ],
          [
            "Nicaragua",
            4.1541934479027987e-05
          ],
          [
            "Côte d'Ivoire",
            4.1322877223137766e-05
          ],
          [
            "Jordan",
            4.06752442358993e-05
          ],
          [
            "Philippines",
            3.572099740267731e-05
          ],
          [
            "Dominican Republic",
            3.5715751437237486e-05
          ],
          [
            "Lesotho",
            3.479927545413375e-05
          ],
          [
            "Costa Rica",
            3.458383071119897e-05
          ],
          [
            "Isle of Man",
            3.4095486626029015e-05
          ],
          [
            "French Guiana",
            3.305354039184749e-05
          ],
          [
            "DR Congo",
            3.270149682066403e-05
          ],
          [
            "Sudan",
            3.2360112527385354e-05
          ],
          [
            "Iraq",
            3.22780069836881e-05
          ],
          [
            "Central African Republic",
            3.154556543449871e-05
          ],
          [
            "Ghana",
            3.139657565043308e-05
          ],
          [
            "Uganda",
            3.121922418358736e-05
          ],
          [
            "Colombia",
            3.080758324358612e-05
          ],
          [
            "Montenegro",
            3.0002625862834975e-05
          ],
          [
            "Gambia",
            2.9625613024109043e-05
          ],
          [
            "Laos",
            2.924530053860508e-05
          ],
          [
            "Guinea",
            2.790313374134712e-05
          ],
          [
            "Madagascar",
            2.769290586002171e-05
          ],
          [
            "Venezuela",
            2.6633277229848318e-05
          ],
          [
            "Cambodia",
            2.6522109692450613e-05
          ],
          [
            "Austria",
            2.6306377549190074e-05
          ],
          [
            "Gabon",
            2.6205269023193978e-05
          ],
          [
            "Guatemala",
            2.4946933990577236e-05
          ],
          [
            "Papua New Guinea",
            2.4078699425444938e-05
          ],
          [
            "Estonia",
            2.3558406610391103e-05
          ],
          [
            "Slovenia",
            2.281630804645829e-05
          ],
          [
            "Western Sahara",
            2.210985439887736e-05
          ],
          [
            "Croatia",
            2.084219340758864e-05
          ],
          [
            "Russia",
            2.072145616693888e-05
          ],
          [
            "Bolivia",
            1.9521294234436937e-05
          ],
          [
            "Congo",
            1.9369121218915097e-05
          ],
          [
            "Hong Kong",
            1.710871401883196e-05
          ],
          [
            "Bulgaria",
            1.6975380276562646e-05
          ],
          [
            "Brunei",
            1.62778960657306e-05
          ],
          [
            "Zambia",
            1.5540863387286663e-05
          ],
          [
            "Iceland",
            1.454156699765008e-05
          ],
          [
            "Italy",
            1.3760932233708445e-05
          ],
          [
            "Bangladesh",
            1.3569286238634959e-05
          ],
          [
            "Luxembourg",
            1.2921085726702586e-05
          ],
          [
            "Senegal",
            1.2347483789199032e-05
          ],
          [
            "Belarus",
            1.2135667020629626e-05
          ],
          [
            "Afghanistan",
            1.1280768376309425e-05
          ],
          [
            "Falkland Islands",
            1.0857281267817598e-05
          ],
          [
            "North Korea",
            1.0545300028752536e-05
          ],
          [
            "Tajikistan",
            9.821597814152483e-06
          ],
          [
            "Lebanon",
            9.374891305924393e-06
          ],
          [
            "Guinea-Bissau",
            8.884047929313965e-06
          ],
          [
            "Kuwait",
            8.23482059786329e-06
          ],
          [
            "South Africa",
            7.034740065137157e-06
          ],
          [
            "France",
            6.702987775497604e-06
          ],
          [
            "China",
            6.477147508121561e-06
          ],
          [
            "Chad",
            6.321965429378906e-06
          ],
          [
            "Canada",
            6.050438059901353e-06
          ],
          [
            "Morocco",
            5.68820905755274e-06
          ],
          [
            "Germany",
            4.337939571996685e-06
          ],
          [
            "Djibouti",
            3.973912043875316e-06
          ],
          [
            "Pakistan",
            3.9358560570690315e-06
          ],
          [
            "Ireland",
            2.90545813186327e-06
          ],
          [
            "Netherlands",
            1.4867307527310913e-06
          ],
          [
            "Haiti",
            8.033737799451046e-07
          ],
          [
            "Greece",
            6.724869194840721e-07
          ],
          [
            "Kiribati",
            3.406769621960848e-07
          ],
          [
            "Denmark",
            2.9430376002892444e-07
          ]
        ]
      },
      "geometry": {
        "type": "MultiLineString",
        "coordinates": [
          [
            [
              32.32967032967032,
              62.0
            ],
            [
              32.32967032967032,
              56.72527472527472
            ],
            [
              32.32967032967032,
              51.450549450549445
            ],
            [
              32.32967032967032,
              46.175824175824175
            ],
            [
              32.32967032967032,
              39.582417582417584
            ],
            [
              32.32967032967032,
              34.967032967032964
            ],
            [
              32.32967032967032,
              27.05494505494505
            ],
            [
              31.67032967032968,
              19.80219780219781
            ],
            [
              31.67032967032968,
              12.54945054945054
            ],
            [
              31.67032967032968,
              9.252747252747255
            ],
            [
              31.67032967032968,
              4.637362637362642
            ],
            [
              32.32967032967032,
              2.0
            ]
          ]
        ]
      }
    }
  ]
}