{
  "type": "FeatureCollection",
  "crs": {
    "type": "name",
    "properties": {
      "name": "urn:ogc:def:crs:OGC:1.3:CRS84"
    }
  },
  "features": [
    {
      "type": "Feature",
      "properties": {
        "timestamp": "2026-04-09T13:19:54.045547",
        "country_name": "Sao Tome and Principe",
        "author": "",
        "author_id": "163b8fce-584f-4c78-943c-ce5e4bdaa793",
        "validated": false,
        "ranking": [
          [
            "Sao Tome and Principe",
            0.8595252633094788
          ],
          [
            "Antigua & Barbuda",
            0.029579661786556244
          ],
          [
            "Chile",
            0.018070805817842484
          ],
          [
            "United States Virgin Islands",
            0.010965694673359394
          ],
          [
            "Ecuador",
            0.009234621189534664
          ],
          [
            "Equatorial Guinea",
            0.008688943460583687
          ],
          [
            "Comoros",
            0.00353366625495255
          ],
          [
            "Namibia",
            0.0029326064977794886
          ],
          [
            "Cape Verde",
            0.0027937048580497503
          ],
          [
            "Belize",
            0.002483573742210865
          ],
          [
            "Japan",
            0.0023267955984920263
          ],
          [
            "New Zealand",
            0.0021840345580130816
          ],
          [
            "Israel",
            0.001982657006010413
          ],
          [
            "Solomon Islands",
            0.0018772046314552426
          ],
          [
            "Togo",
            0.0016656810184940696
          ],
          [
            "Palau",
            0.0015134381828829646
          ],
          [
            "Spain",
            0.0014855930348858237
          ],
          [
            "Netherlands Antilles",
            0.001296570640988648
          ],
          [
            "Vanuatu",
            0.0012894776882603765
          ],
          [
            "Timor-Leste",
            0.0011793144512921572
          ],
          [
            "Malaysia",
            0.001126243849284947
          ],
          [
            "Egypt",
            0.0010024913353845477
          ],
          [
            "Poland",
            0.0009330978500656784
          ],
          [
            "Libya",
            0.000925975909922272
          ],
          [
            "Suriname",
            0.000923110346775502
          ],
          [
            "Dominica",
            0.0008977400721050799
          ],
          [
            "Argentina",
            0.0008412778261117637
          ],
          [
            "Guam",
            0.0007891806890256703
          ],
          [
            "Oman",
            0.0007813458796590567
          ],
          [
            "United Arab Emirates",
            0.0007462369394488633
          ],
          [
            "Bahrain",
            0.000728184764739126
          ],
          [
            "Reunion",
            0.0006673384923487902
          ],
          [
            "Somalia",
            0.0006672608433291316
          ],
          [
            "Mali",
            0.0006651083822362125
          ],
          [
            "West Bank",
            0.0006476325215771794
          ],
          [
            "Puerto Rico",
            0.0006287877331487834
          ],
          [
            "Botswana",
            0.0006227305857464671
          ],
          [
            "Sweden",
            0.0006117292796261609
          ],
          [
            "Benin",
            0.0005892960471101105
          ],
          [
            "Turkey",
            0.0005891185137443244
          ],
          [
            "Trinidad and Tobago",
            0.0005395764019340277
          ],
          [
            "Thailand",
            0.0005131027428433299
          ],
          [
            "Yemen",
            0.00048335042083635926
          ],
          [
            "Kenya",
            0.0004201039264444262
          ],
          [
            "Slovakia",
            0.0004197274975012988
          ],
          [
            "Mozambique",
            0.0003852965892292559
          ],
          [
            "Czech Republic",
            0.00038481553201563656
          ],
          [
            "Fiji",
            0.00037897599395364523
          ],
          [
            "Portugal",
            0.00037720700493082404
          ],
          [
            "Tanzania",
            0.0003717026556842029
          ],
          [
            "Cyprus",
            0.0003710863529704511
          ],
          [
            "Vietnam",
            0.000357039796654135
          ],
          [
            "Malawi",
            0.00035317506990395486
          ],
          [
            "Sierra Leone",
            0.00034507803502492607
          ],
          [
            "Martinique",
            0.0003300183161627501
          ],
          [
            "Mayotte",
            0.0003288702864665538
          ],
          [
            "Finland",
            0.0003211123403161764
          ],
          [
            "Burkina Faso",
            0.00031803175806999207
          ],
          [
            "Rwanda",
            0.00031201672391034663
          ],
          [
            "Niger",
            0.0003061388269998133
          ],
          [
            "Moldova",
            0.0003049621591344476
          ],
          [
            "Guadeloupe",
            0.0003005441394634545
          ],
          [
            "Qatar",
            0.00029007814009673893
          ],
          [
            "Cameroon",
            0.00028850004309788346
          ],
          [
            "Nigeria",
            0.00027325996779836714
          ],
          [
            "Syria",
            0.00027111844974569976
          ],
          [
            "Norway",
            0.00026195429381914437
          ],
          [
            "North Macedonia",
            0.0002606883062981069
          ],
          [
            "Saudi Arabia",
            0.00025519062182866037
          ],
          [
            "Romania",
            0.0002546281029935926
          ],
          [
            "Myanmar",
            0.00023074171622283757
          ],
          [
            "Barbados",
            0.0002208246587542817
          ],
          [
            "Switzerland",
            0.000214951898669824
          ],
          [
            "Heard and McDonald Islands",
            0.00021346757421270013
          ],
          [
            "Bosnia & Herzegovina",
            0.00020744318317156285
          ],
          [
            "Lithuania",
            0.00020127992320340127
          ],
          [
            "Albania",
            0.00019815861014649272
          ],
          [
            "Faroe Islands",
            0.00019742370932362974
          ],
          [
            "Congo",
            0.00018600159091874957
          ],
          [
            "Indonesia",
            0.00018342657131142914
          ],
          [
            "Kazakhstan",
            0.0001763959153322503
          ],
          [
            "Central African Republic",
            0.00017198300338350236
          ],
          [
            "Burundi",
            0.00016381460591219366
          ],
          [
            "Saint Lucia",
            0.0001629423932172358
          ],
          [
            "India",
            0.00016195460921153426
          ],
          [
            "South Korea",
            0.00016186843276955187
          ],
          [
            "Paraguay",
            0.00015758434892632067
          ],
          [
            "Eswatini",
            0.00015577932936139405
          ],
          [
            "Azerbaijan",
            0.0001531759335193783
          ],
          [
            "Honduras",
            0.0001518254284746945
          ],
          [
            "Montenegro",
            0.00015150893887039274
          ],
          [
            "Mauritania",
            0.00015134114073589444
          ],
          [
            "Hungary",
            0.00014973810175433755
          ],
          [
            "Mongolia",
            0.0001444694062229246
          ],
          [
            "Slovenia",
            0.00014305234071798623
          ],
          [
            "Turkmenistan",
            0.0001357617584289983
          ],
          [
            "Uruguay",
            0.00013384243356995285
          ],
          [
            "South Sudan",
            0.0001324810873484239
          ],
          [
            "Isle of Man",
            0.00012210922432132065
          ],
          [
            "Cambodia",
            0.00012069996591890231
          ],
          [
            "Sudan",
            0.00011993850785074756
          ],
          [
            "Taiwan",
            0.00011676526628434658
          ],
          [
            "Iran",
            0.0001148703959188424
          ],
          [
            "French Guiana",
            0.00011418187204981223
          ],
          [
            "Bhutan",
            0.00011340333730913699
          ],
          [
            "North Korea",
            0.0001128453659475781
          ],
          [
            "Jordan",
            0.00011120250564999878
          ],
          [
            "Côte d'Ivoire",
            0.000107088744698558
          ],
          [
            "Madagascar",
            0.00010377042053733021
          ],
          [
            "Dominican Republic",
            9.38929952098988e-05
          ],
          [
            "Greenland",
            9.226680413121358e-05
          ],
          [
            "Serbia",
            9.096394933294505e-05
          ],
          [
            "Algeria",
            9.03354593901895e-05
          ],
          [
            "Latvia",
            8.59235879033804e-05
          ],
          [
            "Austria",
            8.539293048670515e-05
          ],
          [
            "Georgia",
            8.29464552225545e-05
          ],
          [
            "Gabon",
            8.09043922345154e-05
          ],
          [
            "Ghana",
            8.070634794421494e-05
          ],
          [
            "Lesotho",
            7.823953637853265e-05
          ],
          [
            "Ethiopia",
            7.780781743349507e-05
          ],
          [
            "Afghanistan",
            7.740341970929876e-05
          ],
          [
            "Kyrgyzstan",
            7.580820238217711e-05
          ],
          [
            "United Kingdom",
            7.561729580629617e-05
          ],
          [
            "Bulgaria",
            7.550905866082758e-05
          ],
          [
            "Uzbekistan",
            6.788913742639124e-05
          ],
          [
            "Ukraine",
            6.609209231100976e-05
          ],
          [
            "Zimbabwe",
            6.140939512988552e-05
          ],
          [
            "Madeira Islands",
            6.0368256526999176e-05
          ],
          [
            "Jamaica",
            5.9364359913161024e-05
          ],
          [
            "Sri Lanka",
            5.876648356206715e-05
          ],
          [
            "Western Sahara",
            5.7977460528491065e-05
          ],
          [
            "Angola",
            5.7172743254341185e-05
          ],
          [
            "Lebanon",
            5.716805753763765e-05
          ],
          [
            "Panama",
            5.689610406989232e-05
          ],
          [
            "Tunisia",
            5.398633220465854e-05
          ],
          [
            "Nicaragua",
            5.246365981292911e-05
          ],
          [
            "New Caledonia",
            5.20697831234429e-05
          ],
          [
            "Philippines",
            5.180350490263663e-05
          ],
          [
            "Guyana",
            5.164388130651787e-05
          ],
          [
            "Uganda",
            5.098694236949086e-05
          ],
          [
            "Iraq",
            4.618259481503628e-05
          ],
          [
            "Senegal",
            4.506848563323729e-05
          ],
          [
            "Bahamas",
            4.4957560021430254e-05
          ],
          [
            "Bolivia",
            4.357419311418198e-05
          ],
          [
            "Brazil",
            4.2950137867592275e-05
          ],
          [
            "Morocco",
            4.2284660594305024e-05
          ],
          [
            "El Salvador",
            4.199122486170381e-05
          ],
          [
            "Hong Kong",
            4.189673927612603e-05
          ],
          [
            "Zambia",
            4.1021550714503974e-05
          ],
          [
            "Brunei",
            3.990927871200256e-05
          ],
          [
            "Guatemala",
            3.9138554711826146e-05
          ],
          [
            "Colombia",
            3.7938803870929405e-05
          ],
          [
            "Australia",
            3.556605224730447e-05
          ],
          [
            "Chad",
            3.512810144457035e-05
          ],
          [
            "DR Congo",
            3.474759796517901e-05
          ],
          [
            "Russia",
            3.461325468379073e-05
          ],
          [
            "Armenia",
            3.3931668440345675e-05
          ],
          [
            "Turks and Caicos Islands",
            3.108013333985582e-05
          ],
          [
            "Cuba",
            3.0322546081151813e-05
          ],
          [
            "Pakistan",
            2.985232276841998e-05
          ],
          [
            "Svalbard",
            2.8649785235757008e-05
          ],
          [
            "Papua New Guinea",
            2.8114625820307992e-05
          ],
          [
            "China",
            2.681299338291865e-05
          ],
          [
            "Belarus",
            2.636685167090036e-05
          ],
          [
            "Eritrea",
            2.6062702090712264e-05
          ],
          [
            "South Africa",
            2.5551047656335868e-05
          ],
          [
            "Iceland",
            2.4797585865599103e-05
          ],
          [
            "Kuwait",
            2.4520188162568957e-05
          ],
          [
            "Belgium",
            2.3917345970403403e-05
          ],
          [
            "Liberia",
            2.376623342570383e-05
          ],
          [
            "United States of America",
            2.349965689063538e-05
          ],
          [
            "Gambia",
            2.3210066501633264e-05
          ],
          [
            "Estonia",
            2.0565608792821877e-05
          ],
          [
            "Peru",
            1.982859248528257e-05
          ],
          [
            "Germany",
            1.9741044525289908e-05
          ],
          [
            "Samoa",
            1.918234738695901e-05
          ],
          [
            "Luxembourg",
            1.8332924810238183e-05
          ],
          [
            "Canada",
            1.8309616280021146e-05
          ],
          [
            "Venezuela",
            1.6549627616768703e-05
          ],
          [
            "Tajikistan",
            1.649633668421302e-05
          ],
          [
            "Nepal",
            1.571343636896927e-05
          ],
          [
            "Bangladesh",
            1.4869297046971042e-05
          ],
          [
            "Croatia",
            1.4786261090193875e-05
          ],
          [
            "Falkland Islands",
            1.3833693628839683e-05
          ],
          [
            "Ireland",
            1.341007009614259e-05
          ],
          [
            "Mexico",
            1.2283752766961697e-05
          ],
          [
            "Guinea-Bissau",
            1.2256394256837666e-05
          ],
          [
            "Netherlands",
            1.1496130355226342e-05
          ],
          [
            "France",
            1.0990710507030599e-05
          ],
          [
            "South Georgia Islands",
            8.495732799929101e-06
          ],
          [
            "Guinea",
            8.457867807010189e-06
          ],
          [
            "Costa Rica",
            8.25890037958743e-06
          ],
          [
            "Djibouti",
            8.125478416332044e-06
          ],
          [
            "Italy",
            7.987155186128803e-06
          ],
          [
            "Haiti",
            5.4789734349469654e-06
          ],
          [
            "Laos",
            4.621720563591225e-06
          ],
          [
            "Denmark",
            9.41295866141445e-07
          ],
          [
            "Greece",
            9.135333129961509e-07
          ],
          [
            "Kiribati",
            1.724402949321302e-07
          ]
        ]
      },
      "geometry": {
        "type": "MultiLineString",
        "coordinates": [
          [
            [
              21.259259259259238,
              12.925925925925924
            ],
            [
              21.259259259259238,
              13.666666666666629
            ],
            [
              21.074074074074076,
              14.222222222222229
            ],
            [
              21.074074074074076,
              14.962962962962933
            ],
            [
              21.074074074074076,
              15.888888888888914
            ],
            [
              21.44444444444443,
              16.81481481481478
            ],
            [
              22.185185185185162,
              17.555555555555543
            ],
            [
              22.925925925925924,
              18.296296296296305
            ],
            [
              23.851851851851848,
              18.66666666666663
            ],
            [
              24.59259259259261,
              19.22222222222223
            ],
            [
              25.148148148148152,
              19.40740740740739
            ],
            [
              25.703703703703695,
              19.77777777777777
            ],
            [
              26.444444444444457,
              20.148148148148152
            ],
            [
              27.555555555555543,
              20.518518518518476
            ],
            [
              28.111111111111086,
              20.703703703703695
            ],
            [
              29.03703703703701,
              20.888888888888857
            ],
            [
              29.962962962962933,
              20.888888888888857
            ],
            [
              31.074074074074076,
              20.703703703703695
            ],
            [
              31.62962962962962,
              20.518518518518476
            ],
            [
              32.37037037037038,
              20.148148148148152
            ],
            [
              33.111111111111086,
              19.59259259259261
            ],
            [
              33.66666666666663,
              19.22222222222223
            ],
            [
              34.22222222222223,
              18.66666666666663
            ],
            [
              34.96296296296293,
              17.925925925925924
            ],
            [
              35.703703703703695,
              17.0
            ],
            [
              36.25925925925924,
              16.444444444444457
            ],
            [
              36.81481481481478,
              15.518518518518476
            ],
            [
              37.18518518518516,
              14.962962962962933
            ],
            [
              37.55555555555554,
              14.40740740740739
            ],
            [
              37.740740740740705,
              13.481481481481467
            ],
            [
              37.740740740740705,
              12.740740740740762
            ],
            [
              37.740740740740705,
              12.0
            ],
            [
              37.740740740740705,
              11.074074074074076
            ],
            [
              37.740740740740705,
              10.333333333333314
            ],
            [
              37.740740740740705,
              9.40740740740739
            ],
            [
              37.55555555555554,
              8.296296296296305
            ],
            [
              37.37037037037038,
              7.370370370370381
            ],
            [
              37.0,
              6.259259259259238
            ],
            [
              36.44444444444446,
              5.333333333333314
            ],
            [
              35.88888888888886,
              4.407407407407391
            ],
            [
              35.703703703703695,
              3.8518518518518476
            ],
            [
              35.14814814814815,
              2.925925925925924
            ],
            [
              34.22222222222223,
              2.370370370370381
            ],
            [
              33.48148148148147,
              2.0
            ],
            [
              32.740740740740705,
              2.0
            ],
            [
              31.81481481481478,
              2.0
            ],
            [
              30.333333333333314,
              2.0
            ],
            [
              29.77777777777777,
              2.185185185185162
            ],
            [
              28.851851851851848,
              2.555555555555543
            ],
            [
              27.925925925925924,
              2.925925925925924
            ],
            [
              26.62962962962962,
              3.4814814814814667
            ],
            [
              25.333333333333314,
              4.03703703703701
            ],
            [
              24.03703703703701,
              4.7777777777777715
            ],
            [
              22.370370370370352,
              5.888888888888914
            ],
            [
              20.888888888888886,
              6.814814814814781
            ],
            [
              19.40740740740739,
              7.925925925925924
            ],
            [
              17.740740740740733,
              9.40740740740739
            ],
            [
              16.259259259259238,
              10.518518518518476
            ],
            [
              14.962962962962962,
              12.185185185185162
            ],
            [
              13.481481481481467,
              13.851851851851848
            ],
            [
              12.185185185185162,
              15.888888888888914
            ],
            [
              10.518518518518505,
              18.111111111111086
            ],
            [
              9.40740740740739,
              20.148148148148152
            ],
            [
              8.111111111111086,
              21.81481481481478
            ],
            [
              7.185185185185162,
              23.296296296296305
            ],
            [
              6.629629629629619,
              24.40740740740739
            ],
            [
              6.074074074074076,
              25.148148148148152
            ],
            [
              6.074074074074076,
              26.074074074074076
            ],
            [
              6.259259259259238,
              26.81481481481478
            ],
            [
              7.0,
              27.0
            ],
            [
              8.111111111111086,
              27.37037037037038
            ]
          ],
          [
            [
              54.03703703703701,
              60.333333333333314
            ],
            [
              54.59259259259261,
              60.888888888888886
            ],
            [
              54.96296296296293,
              61.44444444444443
            ],
            [
              55.518518518518476,
              61.25925925925924
            ],
            [
              56.44444444444446,
              60.703703703703695
            ],
            [
              57.0,
              59.96296296296293
            ],
            [
              57.370370370370324,
              59.40740740740739
            ],
            [
              57.74074074074076,
              58.66666666666663
            ],
            [
              57.925925925925924,
              58.111111111111086
            ],
            [
              57.925925925925924,
              57.37037037037038
            ],
            [
              57.74074074074076,
              56.81481481481478
            ],
            [
              57.18518518518516,
              57.0
            ],
            [
              57.0,
              57.55555555555554
            ],
            [
              56.62962962962962,
              58.111111111111086
            ],
            [
              56.25925925925924,
              58.66666666666663
            ],
            [
              55.88888888888886,
              59.77777777777777
            ],
            [
              55.518518518518476,
              60.703703703703695
            ],
            [
              55.333333333333314,
              61.44444444444443
            ],
            [
              55.14814814814815,
              62.0
            ]
          ]
        ]
      }
    }
  ]
}