{
  "type": "FeatureCollection",
  "crs": {
    "type": "name",
    "properties": {
      "name": "urn:ogc:def:crs:OGC:1.3:CRS84"
    }
  },
  "features": [
    {
      "type": "Feature",
      "properties": {
        "timestamp": "2026-07-20T11:08:37.713751",
        "country_name": "Sao Tome and Principe",
        "author": "",
        "author_id": "5323bdf5-fa5c-404f-a974-a442021e4c91",
        "validated": false,
        "ranking": [
          [
            "Sao Tome and Principe",
            0.9914761185646057
          ],
          [
            "Japan",
            0.0016030616825446486
          ],
          [
            "Ecuador",
            0.0007696086540818214
          ],
          [
            "Spain",
            0.0006027118652127683
          ],
          [
            "Namibia",
            0.0005499605322256684
          ],
          [
            "New Zealand",
            0.00043108189129270613
          ],
          [
            "Antigua & Barbuda",
            0.00039056249079294503
          ],
          [
            "Egypt",
            0.00032855395693331957
          ],
          [
            "United States Virgin Islands",
            0.00027225850499235094
          ],
          [
            "Chile",
            0.00027053087251260877
          ],
          [
            "Belize",
            0.00026621122378855944
          ],
          [
            "Palau",
            0.00021285425464157015
          ],
          [
            "Cape Verde",
            0.00015184048970695585
          ],
          [
            "Guam",
            0.00010987635323544964
          ],
          [
            "Comoros",
            0.00010070655116578564
          ],
          [
            "Argentina",
            9.243115346180275e-05
          ],
          [
            "Equatorial Guinea",
            8.994570089271292e-05
          ],
          [
            "Trinidad and Tobago",
            8.267983503174037e-05
          ],
          [
            "Somalia",
            8.110617636702955e-05
          ],
          [
            "Norway",
            7.745718176010996e-05
          ],
          [
            "Israel",
            5.737626270274632e-05
          ],
          [
            "Mozambique",
            5.6480694183846936e-05
          ],
          [
            "Solomon Islands",
            5.641501775244251e-05
          ],
          [
            "Botswana",
            5.444234921014868e-05
          ],
          [
            "Reunion",
            5.222125764703378e-05
          ],
          [
            "Netherlands Antilles",
            4.734600588562898e-05
          ],
          [
            "Sweden",
            4.1106923163169995e-05
          ],
          [
            "Dominica",
            4.104847175767645e-05
          ],
          [
            "Benin",
            4.079752761754207e-05
          ],
          [
            "Cameroon",
            4.0209863072959706e-05
          ],
          [
            "Fiji",
            3.9223978092195466e-05
          ],
          [
            "Thailand",
            3.80658675567247e-05
          ],
          [
            "Suriname",
            3.518127778079361e-05
          ],
          [
            "Yemen",
            3.3670567063381895e-05
          ],
          [
            "West Bank",
            3.3463642466813326e-05
          ],
          [
            "Mali",
            3.236344127799384e-05
          ],
          [
            "Guadeloupe",
            3.09749084408395e-05
          ],
          [
            "Timor-Leste",
            3.08014678012114e-05
          ],
          [
            "Poland",
            3.060259768972173e-05
          ],
          [
            "Oman",
            3.045911216759123e-05
          ],
          [
            "Qatar",
            3.0261937354225665e-05
          ],
          [
            "Malaysia",
            2.9704593544011004e-05
          ],
          [
            "Mayotte",
            2.581070293672383e-05
          ],
          [
            "Vanuatu",
            2.5628703951952048e-05
          ],
          [
            "Libya",
            2.554057391535025e-05
          ],
          [
            "Rwanda",
            2.384751678619068e-05
          ],
          [
            "Tanzania",
            2.3048383809509687e-05
          ],
          [
            "Syria",
            2.2793379685026594e-05
          ],
          [
            "Sierra Leone",
            2.223880437668413e-05
          ],
          [
            "North Macedonia",
            2.1809748432133347e-05
          ],
          [
            "French Guiana",
            2.155306538043078e-05
          ],
          [
            "Eswatini",
            2.1407415260910057e-05
          ],
          [
            "South Sudan",
            2.110537388944067e-05
          ],
          [
            "Martinique",
            2.056666744465474e-05
          ],
          [
            "United Arab Emirates",
            1.9803457689704373e-05
          ],
          [
            "Bahrain",
            1.976293424377218e-05
          ],
          [
            "Portugal",
            1.9633911506389268e-05
          ],
          [
            "Mauritania",
            1.9432392946328036e-05
          ],
          [
            "Togo",
            1.93673786270665e-05
          ],
          [
            "South Korea",
            1.929897553054616e-05
          ],
          [
            "Burkina Faso",
            1.9037281163036823e-05
          ],
          [
            "Niger",
            1.864501064119395e-05
          ],
          [
            "Kenya",
            1.828626773203723e-05
          ],
          [
            "Romania",
            1.7838799976743758e-05
          ],
          [
            "Saint Lucia",
            1.7420479707652703e-05
          ],
          [
            "Burundi",
            1.7088555978261866e-05
          ],
          [
            "Hungary",
            1.6339014109689742e-05
          ],
          [
            "Puerto Rico",
            1.6204474377445877e-05
          ],
          [
            "Finland",
            1.6049109035520814e-05
          ],
          [
            "Lithuania",
            1.5847344911890104e-05
          ],
          [
            "Moldova",
            1.581660399097018e-05
          ],
          [
            "India",
            1.3741206203121692e-05
          ],
          [
            "Vietnam",
            1.323479136772221e-05
          ],
          [
            "Madagascar",
            1.2984551176487003e-05
          ],
          [
            "Faroe Islands",
            1.27424700622214e-05
          ],
          [
            "Turkey",
            1.2722143765131477e-05
          ],
          [
            "Heard and McDonald Islands",
            1.260713816009229e-05
          ],
          [
            "Slovakia",
            1.2508360669016838e-05
          ],
          [
            "Cyprus",
            1.2365110706014093e-05
          ],
          [
            "Iran",
            1.2021947441098746e-05
          ],
          [
            "Ghana",
            1.2010167665721383e-05
          ],
          [
            "Bosnia & Herzegovina",
            1.196838820760604e-05
          ],
          [
            "Saudi Arabia",
            1.160936699307058e-05
          ],
          [
            "Taiwan",
            1.1555948731256649e-05
          ],
          [
            "Nigeria",
            1.1478032320155762e-05
          ],
          [
            "Jordan",
            1.0639444553817157e-05
          ],
          [
            "Greenland",
            1.0479210686753504e-05
          ],
          [
            "Czech Republic",
            1.0273840416630264e-05
          ],
          [
            "Uruguay",
            1.0087413102155551e-05
          ],
          [
            "Angola",
            1.0015328371082433e-05
          ],
          [
            "Cambodia",
            9.908166248351336e-06
          ],
          [
            "Afghanistan",
            8.813362910586875e-06
          ],
          [
            "Côte d'Ivoire",
            8.812875421426725e-06
          ],
          [
            "Slovenia",
            8.633604920760263e-06
          ],
          [
            "North Korea",
            8.312981663038954e-06
          ],
          [
            "Isle of Man",
            8.21290541352937e-06
          ],
          [
            "Indonesia",
            8.080642146524042e-06
          ],
          [
            "Barbados",
            7.921779797470663e-06
          ],
          [
            "Lebanon",
            7.784770787111484e-06
          ],
          [
            "Malawi",
            7.639750037924387e-06
          ],
          [
            "Central African Republic",
            7.426721822412219e-06
          ],
          [
            "Congo",
            7.358055881923065e-06
          ],
          [
            "Switzerland",
            7.152856142056407e-06
          ],
          [
            "Azerbaijan",
            6.608840521948878e-06
          ],
          [
            "Myanmar",
            6.566446700162487e-06
          ],
          [
            "Honduras",
            6.5283948060823604e-06
          ],
          [
            "Chad",
            6.096914148656651e-06
          ],
          [
            "Sudan",
            5.963112471363274e-06
          ],
          [
            "Albania",
            5.912860160606215e-06
          ],
          [
            "Algeria",
            5.886405233468395e-06
          ],
          [
            "Brunei",
            5.816362318000756e-06
          ],
          [
            "Morocco",
            5.578656327998033e-06
          ],
          [
            "Svalbard",
            5.443785539682722e-06
          ],
          [
            "Iraq",
            5.196201072976692e-06
          ],
          [
            "Serbia",
            5.162238721823087e-06
          ],
          [
            "Montenegro",
            4.988471573597053e-06
          ],
          [
            "Kazakhstan",
            4.966379947290989e-06
          ],
          [
            "Bulgaria",
            4.662511400965741e-06
          ],
          [
            "Paraguay",
            4.636527137336088e-06
          ],
          [
            "Sri Lanka",
            4.610969426721567e-06
          ],
          [
            "Mongolia",
            4.604150035447674e-06
          ],
          [
            "Western Sahara",
            4.562598860502476e-06
          ],
          [
            "Lesotho",
            4.118388915230753e-06
          ],
          [
            "Gabon",
            4.079292011738289e-06
          ],
          [
            "Bhutan",
            4.023217115900479e-06
          ],
          [
            "Latvia",
            3.917057711078087e-06
          ],
          [
            "Georgia",
            3.723771214936278e-06
          ],
          [
            "Turkmenistan",
            3.680865347632789e-06
          ],
          [
            "Zimbabwe",
            3.563441396181588e-06
          ],
          [
            "Uganda",
            3.5396778912399895e-06
          ],
          [
            "New Caledonia",
            3.4007134672719985e-06
          ],
          [
            "Belarus",
            3.27896623275592e-06
          ],
          [
            "Iceland",
            3.261756546635297e-06
          ],
          [
            "Pakistan",
            3.1848549042479135e-06
          ],
          [
            "Panama",
            3.023232466148329e-06
          ],
          [
            "Tunisia",
            2.9515495043597184e-06
          ],
          [
            "Zambia",
            2.897803369705798e-06
          ],
          [
            "Nicaragua",
            2.8424756237654947e-06
          ],
          [
            "Kyrgyzstan",
            2.8228312203282258e-06
          ],
          [
            "Guyana",
            2.7949295144935604e-06
          ],
          [
            "Austria",
            2.7731632599170553e-06
          ],
          [
            "Ukraine",
            2.657571485542576e-06
          ],
          [
            "Dominican Republic",
            2.576219458205742e-06
          ],
          [
            "Ethiopia",
            2.5616277525841724e-06
          ],
          [
            "Peru",
            2.4780740659480216e-06
          ],
          [
            "Armenia",
            2.3205541310744593e-06
          ],
          [
            "South Africa",
            2.3053826225805096e-06
          ],
          [
            "France",
            2.295645799677004e-06
          ],
          [
            "Guatemala",
            2.2905724108568393e-06
          ],
          [
            "Australia",
            2.2713861653755885e-06
          ],
          [
            "Bahamas",
            2.1251228190521942e-06
          ],
          [
            "Madeira Islands",
            2.1071093669888796e-06
          ],
          [
            "Hong Kong",
            2.100067831634078e-06
          ],
          [
            "Belgium",
            2.0788343135791365e-06
          ],
          [
            "Bolivia",
            2.0418092390173115e-06
          ],
          [
            "Colombia",
            2.0360262169560883e-06
          ],
          [
            "China",
            2.025745743594598e-06
          ],
          [
            "Jamaica",
            2.0212341951264534e-06
          ],
          [
            "Brazil",
            2.012870254475274e-06
          ],
          [
            "Bangladesh",
            1.8713764120548149e-06
          ],
          [
            "Germany",
            1.8670339159143623e-06
          ],
          [
            "Ireland",
            1.8160849322157446e-06
          ],
          [
            "Canada",
            1.7111998431573738e-06
          ],
          [
            "Philippines",
            1.6739879811211722e-06
          ],
          [
            "Cuba",
            1.6564115412620595e-06
          ],
          [
            "Uzbekistan",
            1.5761424947413616e-06
          ],
          [
            "United Kingdom",
            1.5710970728832763e-06
          ],
          [
            "Senegal",
            1.4681374977953965e-06
          ],
          [
            "Turks and Caicos Islands",
            1.3769823681286653e-06
          ],
          [
            "Croatia",
            1.3157539342500968e-06
          ],
          [
            "Estonia",
            1.183709400720545e-06
          ],
          [
            "Russia",
            1.1575996268220479e-06
          ],
          [
            "South Georgia Islands",
            1.1570675724215107e-06
          ],
          [
            "Liberia",
            1.1308916327834595e-06
          ],
          [
            "Costa Rica",
            1.0910001719821594e-06
          ],
          [
            "Venezuela",
            1.0878769671762711e-06
          ],
          [
            "Gambia",
            1.0652495348040247e-06
          ],
          [
            "Luxembourg",
            1.042420535668498e-06
          ],
          [
            "Papua New Guinea",
            1.023627987706277e-06
          ],
          [
            "El Salvador",
            9.620993068892858e-07
          ],
          [
            "Kuwait",
            8.600613909948152e-07
          ],
          [
            "United States of America",
            8.142493470586487e-07
          ],
          [
            "Guinea",
            8.042290460252843e-07
          ],
          [
            "Samoa",
            7.664689292141702e-07
          ],
          [
            "Falkland Islands",
            7.110155024747655e-07
          ],
          [
            "Guinea-Bissau",
            6.716099960613064e-07
          ],
          [
            "Eritrea",
            6.617553367505025e-07
          ],
          [
            "DR Congo",
            6.421848297577526e-07
          ],
          [
            "Mexico",
            5.564562002291495e-07
          ],
          [
            "Netherlands",
            5.266934408609814e-07
          ],
          [
            "Nepal",
            4.511264535267401e-07
          ],
          [
            "Italy",
            3.9472126900363946e-07
          ],
          [
            "Tajikistan",
            3.5415061461208097e-07
          ],
          [
            "Djibouti",
            2.832769894212106e-07
          ],
          [
            "Laos",
            2.6039123213195126e-07
          ],
          [
            "Haiti",
            2.0731590666400734e-07
          ],
          [
            "Greece",
            9.377589549330878e-08
          ],
          [
            "Denmark",
            2.2928668741428737e-08
          ],
          [
            "Kiribati",
            5.868700636568747e-09
          ]
        ]
      },
      "geometry": {
        "type": "MultiLineString",
        "coordinates": [
          [
            [
              16.588918893414785,
              11.221042352275447
            ],
            [
              16.588918893414785,
              12.050442987367774
            ],
            [
              16.588918893414785,
              12.68374409738675
            ],
            [
              16.588918893414785,
              13.542364174300815
            ],
            [
              16.837998081615495,
              14.255567192517049
            ],
            [
              17.0512229832583,
              15.176810654608744
            ],
            [
              17.27607125003462,
              15.810607238436944
            ],
            [
              17.753550351362236,
              16.48790642271439
            ],
            [
              18.175808896652654,
              16.91016271585113
            ],
            [
              18.620649786874935,
              17.11523482117866
            ],
            [
              19.33729634806525,
              17.34082404651508
            ],
            [
              19.88436925020474,
              17.429820151265176
            ],
            [
              20.401225006443042,
              17.429820151265176
            ],
            [
              21.08588648109469,
              17.429820151265176
            ],
            [
              21.644296724850562,
              17.163957913854063
            ],
            [
              22.2003962589325,
              16.963696408783335
            ],
            [
              22.599678332397303,
              16.519134785617098
            ],
            [
              23.05806367484064,
              16.171622968754434
            ],
            [
              23.388610018045,
              15.841069869089097
            ],
            [
              23.873877066792033,
              15.244938303376045
            ],
            [
              24.27001738587566,
              14.596056794210881
            ],
            [
              24.480071255139507,
              13.934905551806537
            ],
            [
              24.704511882100064,
              13.261588175232305
            ],
            [
              24.81902038371743,
              12.832827662272734
            ],
            [
              24.79337961409047,
              11.856176715388528
            ],
            [
              24.553894600559147,
              11.150067981258758
            ],
            [
              24.33279842181082,
              10.248589419847463
            ],
            [
              23.993966405224143,
              9.21965697747612
            ],
            [
              23.6696562755549,
              8.53011058149633
            ],
            [
              22.961691766794274,
              7.205808184221382
            ],
            [
              22.42108930217242,
              6.3655927071660585
            ],
            [
              21.99635338783594,
              5.5764921099925004
            ],
            [
              21.089199399155405,
              4.500629289273604
            ],
            [
              20.4245775879329,
              3.858720447896303
            ],
            [
              19.09759287562713,
              3.025964103823412
            ],
            [
              17.73600832636228,
              2.659799950197396
            ],
            [
              16.375849390375777,
              2.1996038761967043
            ],
            [
              15.534845659533062,
              2.0
            ],
            [
              14.59630340503864,
              2.018737918603108
            ],
            [
              13.881492349096135,
              2.018737918603108
            ],
            [
              13.094094380103314,
              2.018737918603108
            ],
            [
              12.45077794267712,
              2.3693081601608696
            ],
            [
              12.016387045521952,
              2.462223012311142
            ],
            [
              11.47076453035126,
              2.7948390847457745
            ],
            [
              11.045364230679695,
              3.0165771272924076
            ],
            [
              10.712750410398712,
              3.3491931997270967
            ],
            [
              10.712750410398712,
              3.792678293435074
            ],
            [
              11.200620948797791,
              4.036613562634614
            ],
            [
              11.851669029801457,
              4.473008876563426
            ],
            [
              12.643530767384561,
              5.03524552941866
            ],
            [
              13.602308622678152,
              5.7658261654163425
            ],
            [
              14.091670086812258,
              6.138566607782877
            ],
            [
              14.51380701580402,
              6.5958979423047595
            ],
            [
              14.967501122135559,
              7.049589796482621
            ],
            [
              15.551930497336343,
              7.744892697264106
            ],
            [
              15.83927602868431,
              8.25398302761971
            ],
            [
              16.16778417280983,
              8.693355688711222
            ],
            [
              16.662661161302026,
              9.545431007036257
            ],
            [
              16.952321906631255,
              10.395650550730409
            ],
            [
              17.16321582921708,
              10.928311921482702
            ],
            [
              17.383710682933327,
              11.480179658803252
            ],
            [
              17.500304678856764,
              11.93509668458205
            ],
            [
              17.601647090071054,
              12.47040658806003
            ],
            [
              17.715718673874846,
              13.03116132379489
            ],
            [
              17.830042498890634,
              13.592411533339032
            ],
            [
              17.934742871239195,
              14.260670572751962
            ],
            [
              17.919371922385068,
              14.802385601290894
            ],
            [
              18.050733289976876,
              15.495616520688316
            ],
            [
              18.165230530825852,
              16.171717559208957
            ]
          ],
          [
            [
              48.0763064949935,
              57.45428454595418
            ],
            [
              48.16677100394179,
              58.68269023960889
            ],
            [
              48.491599128957034,
              59.669791179560235
            ],
            [
              48.82424222723586,
              60.16973326167482
            ],
            [
              49.47609657925631,
              60.93985946410905
            ],
            [
              50.20498809999532,
              61.578646820488274
            ],
            [
              51.012137456746444,
              61.94231108353142
            ],
            [
              51.572320145447065,
              62.0
            ],
            [
              52.13670535291135,
              62.0
            ],
            [
              52.78343830746746,
              61.6168478511789
            ],
            [
              53.147197160965106,
              61.08969524832361
            ],
            [
              53.28724958960129,
              59.73158802433798
            ],
            [
              53.19811385132317,
              57.93904486012363
            ],
            [
              52.98299714059061,
              56.76325848500775
            ],
            [
              52.871511029209444,
              56.290195857043216
            ],
            [
              52.47427165913081,
              55.55725946829807
            ],
            [
              51.910710739912815,
              54.14685723590327
            ],
            [
              51.54448803029118,
              53.08178673561059
            ],
            [
              51.431456941486715,
              52.552136494326135
            ],
            [
              51.29157117222269,
              51.73952116059786
            ],
            [
              51.20348493755864,
              51.18021005537071
            ],
            [
              51.0983183693987,
              50.36162876654873
            ],
            [
              51.0698286253687,
              49.145242817074916
            ],
            [
              51.0698286253687,
              48.52404928523026
            ],
            [
              51.0698286253687,
              47.96117527288408
            ],
            [
              51.0698286253687,
              47.393092029080094
            ],
            [
              51.0698286253687,
              46.839812191403325
            ],
            [
              50.76325195376208,
              46.282345600038695
            ],
            [
              50.35673821483638,
              46.055567237560126
            ],
            [
              49.747580192248336,
              45.92369237892967
            ],
            [
              48.97369964963244,
              45.92369237892967
            ],
            [
              47.9832430007005,
              46.09396420562075
            ],
            [
              46.94262188073901,
              46.74623745822538
            ],
            [
              46.27709245158414,
              47.4726313405352
            ],
            [
              45.88704646035387,
              48.084791483976346
            ],
            [
              45.76814175475653,
              49.35079913544325
            ],
            [
              45.7480165094876,
              50.4656782664843
            ],
            [
              45.858885530760915,
              50.93869359922161
            ],
            [
              46.05480037923263,
              51.58567879498969
            ],
            [
              46.38967761396029,
              52.283531133734925
            ],
            [
              46.61573979156918,
              52.75920625996628
            ],
            [
              47.050427973009874,
              53.406846832454704
            ],
            [
              47.52195238001218,
              54.36636114200107
            ],
            [
              47.54164971608225,
              55.470986217345
            ],
            [
              47.21663241015801,
              55.98566639313009
            ],
            [
              46.45783228857175,
              56.96620906157037
            ],
            [
              46.01332021278648,
              57.29985211608232
            ],
            [
              45.4440658490698,
              57.7582329542183
            ],
            [
              45.19365789019895,
              58.29665983838697
            ],
            [
              45.55529521493165,
              59.035503626230195
            ],
            [
              46.13322487461696,
              59.7243045593425
            ],
            [
              46.69698398335868,
              59.89344805704076
            ],
            [
              47.27360288960324,
              60.00431933046775
            ],
            [
              47.918155759398815,
              60.00431933046775
            ],
            [
              48.54124560464058,
              60.00431933046775
            ],
            [
              48.97705535861306,
              59.42240561092561
            ],
            [
              49.206693956263024,
              58.9848053947789
            ],
            [
              49.42096385721254,
              58.54879294697537
            ],
            [
              49.762381346221844,
              58.207377710119744
            ],
            [
              51.15836078646106,
              58.46687986554343
            ]
          ]
        ]
      }
    }
  ]
}