{
  "type": "FeatureCollection",
  "crs": {
    "type": "name",
    "properties": {
      "name": "urn:ogc:def:crs:OGC:1.3:CRS84"
    }
  },
  "features": [
    {
      "type": "Feature",
      "properties": {
        "timestamp": "2026-07-19T15:52:26.727660",
        "country_name": "Sierra Leone",
        "author": "",
        "author_id": "6805471c-8f0c-4949-9262-17f35d3cefc2",
        "validated": false,
        "ranking": [
          [
            "Lesotho",
            0.1696987897157669
          ],
          [
            "North Macedonia",
            0.14193016290664673
          ],
          [
            "Uganda",
            0.07340151816606522
          ],
          [
            "Rwanda",
            0.07053585350513458
          ],
          [
            "Belarus",
            0.06183793023228645
          ],
          [
            "Nicaragua",
            0.04763659089803696
          ],
          [
            "Romania",
            0.045286573469638824
          ],
          [
            "Sudan",
            0.02424614503979683
          ],
          [
            "Zimbabwe",
            0.02313852496445179
          ],
          [
            "Côte d'Ivoire",
            0.019779089838266373
          ],
          [
            "Gabon",
            0.01624448597431183
          ],
          [
            "Zambia",
            0.016037603840231895
          ],
          [
            "South Africa",
            0.014894045889377594
          ],
          [
            "Mauritania",
            0.01478327065706253
          ],
          [
            "Cambodia",
            0.01358642615377903
          ],
          [
            "Lithuania",
            0.011664144694805145
          ],
          [
            "Guatemala",
            0.010750822722911835
          ],
          [
            "Eswatini",
            0.010665461421012878
          ],
          [
            "Cape Verde",
            0.008657398633658886
          ],
          [
            "Ethiopia",
            0.00846195686608553
          ],
          [
            "Sierra Leone",
            0.007636732887476683
          ],
          [
            "Suriname",
            0.007606786675751209
          ],
          [
            "Algeria",
            0.007413445971906185
          ],
          [
            "Burundi",
            0.007277472410351038
          ],
          [
            "Bosnia & Herzegovina",
            0.005180589389055967
          ],
          [
            "Peru",
            0.004677140153944492
          ],
          [
            "Kenya",
            0.0045335423201322556
          ],
          [
            "Niger",
            0.004452364519238472
          ],
          [
            "Uruguay",
            0.004338305909186602
          ],
          [
            "Burkina Faso",
            0.004175196867436171
          ],
          [
            "Angola",
            0.004099410958588123
          ],
          [
            "Egypt",
            0.003690710524097085
          ],
          [
            "Namibia",
            0.00335784163326025
          ],
          [
            "Guadeloupe",
            0.0032601046841591597
          ],
          [
            "Azerbaijan",
            0.0030172208789736032
          ],
          [
            "France",
            0.0028627836145460606
          ],
          [
            "Spain",
            0.0027054655365645885
          ],
          [
            "Germany",
            0.0026458853390067816
          ],
          [
            "Czech Republic",
            0.0026368219405412674
          ],
          [
            "Syria",
            0.002512970007956028
          ],
          [
            "Qatar",
            0.002474146895110607
          ],
          [
            "Greenland",
            0.0023614014498889446
          ],
          [
            "Comoros",
            0.0023435030598193407
          ],
          [
            "Australia",
            0.0023209278006106615
          ],
          [
            "Brazil",
            0.002280708635225892
          ],
          [
            "Switzerland",
            0.0022615576162934303
          ],
          [
            "Sri Lanka",
            0.0022411393001675606
          ],
          [
            "Iran",
            0.002156795933842659
          ],
          [
            "Heard and McDonald Islands",
            0.001987509662285447
          ],
          [
            "Botswana",
            0.001975208753719926
          ],
          [
            "United States Virgin Islands",
            0.0018880998250097036
          ],
          [
            "Saudi Arabia",
            0.0018875597743317485
          ],
          [
            "Nigeria",
            0.0018779141828417778
          ],
          [
            "United States of America",
            0.0018757556099444628
          ],
          [
            "Djibouti",
            0.0018736066995188594
          ],
          [
            "Belize",
            0.0017886810237541795
          ],
          [
            "Bahrain",
            0.0017417131457477808
          ],
          [
            "Saint Lucia",
            0.0016603288240730762
          ],
          [
            "Ecuador",
            0.001648303703404963
          ],
          [
            "South Sudan",
            0.0016007538652047515
          ],
          [
            "Reunion",
            0.0015619732439517975
          ],
          [
            "Benin",
            0.0015563349006697536
          ],
          [
            "Estonia",
            0.0015354183269664645
          ],
          [
            "Jordan",
            0.0015350376488640904
          ],
          [
            "French Guiana",
            0.001461695646867156
          ],
          [
            "Bhutan",
            0.001452394062653184
          ],
          [
            "Venezuela",
            0.0014003441901877522
          ],
          [
            "Poland",
            0.0013847901718690991
          ],
          [
            "Guyana",
            0.0013711834326386452
          ],
          [
            "Iceland",
            0.001339698676019907
          ],
          [
            "Antigua & Barbuda",
            0.001337768160738051
          ],
          [
            "Faroe Islands",
            0.0013320368016138673
          ],
          [
            "Vietnam",
            0.0012859057169407606
          ],
          [
            "Colombia",
            0.0012675982434302568
          ],
          [
            "Vanuatu",
            0.0012287059798836708
          ],
          [
            "Bolivia",
            0.0011435316409915686
          ],
          [
            "Costa Rica",
            0.0011400384828448296
          ],
          [
            "Ukraine",
            0.0010888016549870372
          ],
          [
            "Luxembourg",
            0.0010691260686144233
          ],
          [
            "Bahamas",
            0.0010497058974578977
          ],
          [
            "Sao Tome and Principe",
            0.0010056967148557305
          ],
          [
            "Latvia",
            0.001003045355901122
          ],
          [
            "Turkmenistan",
            0.0010016439482569695
          ],
          [
            "Ghana",
            0.0009674365865066648
          ],
          [
            "Dominica",
            0.0009545419597998261
          ],
          [
            "Belgium",
            0.0009091206593438983
          ],
          [
            "Martinique",
            0.0009063125471584499
          ],
          [
            "Iraq",
            0.0008645966881886125
          ],
          [
            "Barbados",
            0.000863385503180325
          ],
          [
            "Yemen",
            0.000855384801980108
          ],
          [
            "Solomon Islands",
            0.0008551124483346939
          ],
          [
            "Bulgaria",
            0.0008396613993681967
          ],
          [
            "Serbia",
            0.0008136631804518402
          ],
          [
            "Ireland",
            0.0007920935750007629
          ],
          [
            "Moldova",
            0.0007386730285361409
          ],
          [
            "Hungary",
            0.0007274498348124325
          ],
          [
            "Fiji",
            0.0007147117285057902
          ],
          [
            "Cuba",
            0.0006966908695176244
          ],
          [
            "Guinea",
            0.0006656130426563323
          ],
          [
            "El Salvador",
            0.0006359433173201978
          ],
          [
            "Svalbard",
            0.000613909971434623
          ],
          [
            "Malawi",
            0.0006085390923544765
          ],
          [
            "Tajikistan",
            0.000600096071138978
          ],
          [
            "Chad",
            0.0005741621134802699
          ],
          [
            "Togo",
            0.0005687678349204361
          ],
          [
            "Kazakhstan",
            0.000564370711799711
          ],
          [
            "Mali",
            0.0005525645683519542
          ],
          [
            "Brunei",
            0.0005179826403036714
          ],
          [
            "Mozambique",
            0.0005113360821269453
          ],
          [
            "Italy",
            0.0005026821745559573
          ],
          [
            "Hong Kong",
            0.0004959197249263525
          ],
          [
            "Finland",
            0.0004956417251378298
          ],
          [
            "Myanmar",
            0.0004919384373351932
          ],
          [
            "Slovakia",
            0.0004868614487349987
          ],
          [
            "Afghanistan",
            0.0004862044006586075
          ],
          [
            "Croatia",
            0.0004724946920759976
          ],
          [
            "Bangladesh",
            0.0004551474703475833
          ],
          [
            "Albania",
            0.00044808167149312794
          ],
          [
            "Mexico",
            0.000419835327193141
          ],
          [
            "China",
            0.00041616070666350424
          ],
          [
            "Western Sahara",
            0.0003924215561710298
          ],
          [
            "Canada",
            0.0003897473798133433
          ],
          [
            "DR Congo",
            0.0003868936328217387
          ],
          [
            "Libya",
            0.00038482408854179084
          ],
          [
            "Tunisia",
            0.00037813096423633397
          ],
          [
            "Turkey",
            0.00036388784064911306
          ],
          [
            "Samoa",
            0.0003529364475980401
          ],
          [
            "South Korea",
            0.00034998689079657197
          ],
          [
            "Mongolia",
            0.00033862871350720525
          ],
          [
            "Tanzania",
            0.00032387208193540573
          ],
          [
            "Trinidad and Tobago",
            0.0003231914306525141
          ],
          [
            "Uzbekistan",
            0.00031972237047739327
          ],
          [
            "South Georgia Islands",
            0.00031564690289087594
          ],
          [
            "Isle of Man",
            0.0003124917857348919
          ],
          [
            "United Arab Emirates",
            0.00031213139300234616
          ],
          [
            "Central African Republic",
            0.0003006568585988134
          ],
          [
            "Chile",
            0.00029193179216235876
          ],
          [
            "Somalia",
            0.0002893937926273793
          ],
          [
            "Slovenia",
            0.0002814772888086736
          ],
          [
            "Guam",
            0.0002759724739007652
          ],
          [
            "West Bank",
            0.0002660224854480475
          ],
          [
            "United Kingdom",
            0.00025640384410507977
          ],
          [
            "Laos",
            0.00025290867779403925
          ],
          [
            "Turks and Caicos Islands",
            0.0002499488473404199
          ],
          [
            "New Zealand",
            0.00024141462927218527
          ],
          [
            "Argentina",
            0.00023015301849227399
          ],
          [
            "Congo",
            0.0002286496019223705
          ],
          [
            "Senegal",
            0.00021914028911851346
          ],
          [
            "Honduras",
            0.00021731096785515547
          ],
          [
            "India",
            0.0002106145693687722
          ],
          [
            "Taiwan",
            0.00020865454280283302
          ],
          [
            "North Korea",
            0.0002048870810540393
          ],
          [
            "Papua New Guinea",
            0.00020408013369888067
          ],
          [
            "Portugal",
            0.00019620095554273576
          ],
          [
            "Norway",
            0.00019286462338641286
          ],
          [
            "Guinea-Bissau",
            0.0001911503350129351
          ],
          [
            "Georgia",
            0.00018762161198537797
          ],
          [
            "Israel",
            0.000178732632775791
          ],
          [
            "Russia",
            0.00017098888929467648
          ],
          [
            "Jamaica",
            0.00017000192019622773
          ],
          [
            "Sweden",
            0.0001635890657780692
          ],
          [
            "Kuwait",
            0.00016206079453695565
          ],
          [
            "Oman",
            0.00016111646255012602
          ],
          [
            "Cameroon",
            0.00016019228496588767
          ],
          [
            "Denmark",
            0.00015898417041171342
          ],
          [
            "Equatorial Guinea",
            0.0001588162558618933
          ],
          [
            "Thailand",
            0.000156186826643534
          ],
          [
            "Montenegro",
            0.00015471679216716439
          ],
          [
            "Pakistan",
            0.00015173644351307303
          ],
          [
            "Puerto Rico",
            0.0001479161874158308
          ],
          [
            "Kyrgyzstan",
            0.00013857697194907814
          ],
          [
            "Malaysia",
            0.0001377232256345451
          ],
          [
            "Paraguay",
            0.00013452465645968914
          ],
          [
            "Armenia",
            0.00013281065912451595
          ],
          [
            "Netherlands Antilles",
            0.00013278430560603738
          ],
          [
            "Liberia",
            0.00012561195762827992
          ],
          [
            "Falkland Islands",
            0.00011744734365493059
          ],
          [
            "Indonesia",
            0.00010586871940176934
          ],
          [
            "New Caledonia",
            0.00010120346996700391
          ],
          [
            "Madeira Islands",
            9.637857147026807e-05
          ],
          [
            "Nepal",
            8.808504935586825e-05
          ],
          [
            "Philippines",
            8.015417552087456e-05
          ],
          [
            "Dominican Republic",
            7.916672620922327e-05
          ],
          [
            "Cyprus",
            7.270181231433526e-05
          ],
          [
            "Eritrea",
            7.225929584819824e-05
          ],
          [
            "Japan",
            6.99046504450962e-05
          ],
          [
            "Netherlands",
            6.89500302542001e-05
          ],
          [
            "Madagascar",
            6.841358845122159e-05
          ],
          [
            "Mayotte",
            6.671747541986406e-05
          ],
          [
            "Panama",
            6.40021899016574e-05
          ],
          [
            "Timor-Leste",
            5.5374697694787756e-05
          ],
          [
            "Morocco",
            5.069463804829866e-05
          ],
          [
            "Greece",
            5.067492020316422e-05
          ],
          [
            "Austria",
            3.505044514895417e-05
          ],
          [
            "Palau",
            3.224812826374546e-05
          ],
          [
            "Gambia",
            3.175240635755472e-05
          ],
          [
            "Haiti",
            2.6891644665738568e-05
          ],
          [
            "Lebanon",
            1.8945876945508644e-05
          ],
          [
            "Kiribati",
            9.367357961309608e-06
          ]
        ]
      },
      "geometry": {
        "type": "MultiLineString",
        "coordinates": [
          [
            [
              11.041095890410958,
              37.753424657534254
            ],
            [
              14.32876712328769,
              43.50684931506851
            ],
            [
              16.79452054794521,
              45.15068493150687
            ],
            [
              19.26027397260276,
              46.79452054794521
            ],
            [
              21.72602739726028,
              48.43835616438358
            ],
            [
              25.013698630136986,
              49.26027397260276
            ],
            [
              27.479452054794535,
              50.082191780821915
            ],
            [
              29.945205479452056,
              50.90410958904113
            ],
            [
              32.410958904109606,
              51.72602739726028
            ],
            [
              35.69863013698631,
              52.547945205479465
            ],
            [
              38.16438356164383,
              53.36986301369865
            ],
            [
              41.45205479452056,
              54.1917808219178
            ],
            [
              43.917808219178085,
              55.83561643835617
            ],
            [
              47.20547945205479,
              55.83561643835617
            ],
            [
              50.49315068493152,
              55.83561643835617
            ],
            [
              53.780821917808225,
              55.83561643835617
            ],
            [
              56.246575342465746,
              54.1917808219178
            ],
            [
              58.712328767123296,
              52.547945205479465
            ],
            [
              61.17808219178082,
              50.082191780821915
            ],
            [
              62.0,
              47.616438356164394
            ],
            [
              62.0,
              44.32876712328769
            ],
            [
              62.0,
              41.04109589041096
            ],
            [
              62.0,
              37.753424657534254
            ],
            [
              62.0,
              34.46575342465755
            ],
            [
              60.35616438356166,
              30.356164383561662
            ],
            [
              59.53424657534248,
              27.890410958904113
            ],
            [
              58.712328767123296,
              25.42465753424659
            ],
            [
              56.246575342465746,
              22.958904109589042
            ],
            [
              53.780821917808225,
              19.671232876712338
            ],
            [
              51.315068493150704,
              16.383561643835634
            ],
            [
              48.849315068493155,
              14.739726027397268
            ],
            [
              44.73972602739727,
              12.273972602739747
            ],
            [
              42.27397260273975,
              10.63013698630138
            ],
            [
              38.16438356164383,
              9.808219178082197
            ],
            [
              35.69863013698631,
              8.986301369863014
            ],
            [
              32.410958904109606,
              8.16438356164386
            ],
            [
              27.479452054794535,
              8.16438356164386
            ],
            [
              22.547945205479465,
              8.16438356164386
            ],
            [
              17.616438356164394,
              8.16438356164386
            ],
            [
              14.32876712328769,
              8.16438356164386
            ],
            [
              10.219178082191803,
              8.986301369863014
            ],
            [
              7.753424657534254,
              9.808219178082197
            ],
            [
              4.465753424657549,
              10.63013698630138
            ],
            [
              2.821917808219183,
              13.917808219178085
            ],
            [
              2.0,
              18.027397260273972
            ],
            [
              2.0,
              22.958904109589042
            ],
            [
              2.0,
              27.068493150684958
            ],
            [
              2.821917808219183,
              30.356164383561662
            ],
            [
              5.287671232876733,
              32.82191780821918
            ],
            [
              7.753424657534254,
              34.46575342465755
            ],
            [
              11.041095890410958,
              36.109589041095916
            ],
            [
              14.32876712328769,
              39.39726027397262
            ]
          ]
        ]
      }
    }
  ]
}