{
  "type": "FeatureCollection",
  "crs": {
    "type": "name",
    "properties": {
      "name": "urn:ogc:def:crs:OGC:1.3:CRS84"
    }
  },
  "features": [
    {
      "type": "Feature",
      "properties": {
        "timestamp": "2026-06-06T19:33:49.816731",
        "country_name": "Slovakia",
        "author": "",
        "author_id": "c099d4f0-d4b8-4862-aa84-cd179c1cc257",
        "validated": false,
        "ranking": [
          [
            "Slovakia",
            0.0780099481344223
          ],
          [
            "Honduras",
            0.07603080570697784
          ],
          [
            "Malaysia",
            0.06628212332725525
          ],
          [
            "Ecuador",
            0.05971398949623108
          ],
          [
            "Dominican Republic",
            0.05731296166777611
          ],
          [
            "Montenegro",
            0.05503203719854355
          ],
          [
            "India",
            0.04985005035996437
          ],
          [
            "Kyrgyzstan",
            0.046280764043331146
          ],
          [
            "Timor-Leste",
            0.04085318744182587
          ],
          [
            "Turkey",
            0.0401175357401371
          ],
          [
            "Puerto Rico",
            0.039350032806396484
          ],
          [
            "Cyprus",
            0.032249487936496735
          ],
          [
            "Yemen",
            0.030617034062743187
          ],
          [
            "Slovenia",
            0.012781605124473572
          ],
          [
            "Panama",
            0.012215662747621536
          ],
          [
            "Japan",
            0.009521100670099258
          ],
          [
            "Netherlands Antilles",
            0.009443404152989388
          ],
          [
            "Syria",
            0.008932976983487606
          ],
          [
            "Czech Republic",
            0.00882777664810419
          ],
          [
            "Indonesia",
            0.008735086768865585
          ],
          [
            "Turkmenistan",
            0.008334648795425892
          ],
          [
            "United Arab Emirates",
            0.0071450527757406235
          ],
          [
            "Mongolia",
            0.007093439809978008
          ],
          [
            "Nigeria",
            0.006878949236124754
          ],
          [
            "Bulgaria",
            0.006545298732817173
          ],
          [
            "Jamaica",
            0.006509554572403431
          ],
          [
            "Switzerland",
            0.006506302393972874
          ],
          [
            "Falkland Islands",
            0.006297553889453411
          ],
          [
            "Hungary",
            0.006012940313667059
          ],
          [
            "Afghanistan",
            0.005764506291598082
          ],
          [
            "China",
            0.005327657796442509
          ],
          [
            "Kazakhstan",
            0.0051161558367311954
          ],
          [
            "Guinea-Bissau",
            0.005045501049607992
          ],
          [
            "Bhutan",
            0.004249183461070061
          ],
          [
            "Mayotte",
            0.004240908659994602
          ],
          [
            "Spain",
            0.004113668575882912
          ],
          [
            "Burkina Faso",
            0.004093771800398827
          ],
          [
            "Latvia",
            0.004061573185026646
          ],
          [
            "Ukraine",
            0.003757573664188385
          ],
          [
            "Saudi Arabia",
            0.003530641086399555
          ],
          [
            "Somalia",
            0.0034985647071152925
          ],
          [
            "Equatorial Guinea",
            0.0034940766636282206
          ],
          [
            "Georgia",
            0.0034503210335969925
          ],
          [
            "Hong Kong",
            0.0034434308763593435
          ],
          [
            "Senegal",
            0.0033776601776480675
          ],
          [
            "Uzbekistan",
            0.0033532290253788233
          ],
          [
            "Madeira Islands",
            0.003275870345532894
          ],
          [
            "Sao Tome and Principe",
            0.00320198736153543
          ],
          [
            "Russia",
            0.0031886280048638582
          ],
          [
            "Austria",
            0.0031360331922769547
          ],
          [
            "Guadeloupe",
            0.003046965692192316
          ],
          [
            "New Caledonia",
            0.0030422559939324856
          ],
          [
            "El Salvador",
            0.0028059203177690506
          ],
          [
            "Central African Republic",
            0.0027115580160170794
          ],
          [
            "Solomon Islands",
            0.0026173368096351624
          ],
          [
            "Lithuania",
            0.002574052195996046
          ],
          [
            "Namibia",
            0.0025308169424533844
          ],
          [
            "Fiji",
            0.0024726667907088995
          ],
          [
            "Mali",
            0.002336559584364295
          ],
          [
            "Papua New Guinea",
            0.0023352496791630983
          ],
          [
            "Bangladesh",
            0.0022693800274282694
          ],
          [
            "Thailand",
            0.002177219372242689
          ],
          [
            "Sierra Leone",
            0.00216856156475842
          ],
          [
            "Tanzania",
            0.0021025999449193478
          ],
          [
            "Romania",
            0.0020108968019485474
          ],
          [
            "New Zealand",
            0.0019695365335792303
          ],
          [
            "Iceland",
            0.0018770522437989712
          ],
          [
            "Azerbaijan",
            0.001867585233412683
          ],
          [
            "Kuwait",
            0.0018563697813078761
          ],
          [
            "Comoros",
            0.001837309217080474
          ],
          [
            "Belize",
            0.0018110061064362526
          ],
          [
            "Guam",
            0.0017664547776803374
          ],
          [
            "Poland",
            0.00175392534583807
          ],
          [
            "Heard and McDonald Islands",
            0.001745628542266786
          ],
          [
            "Botswana",
            0.0016831436660140753
          ],
          [
            "Reunion",
            0.0016146547859534621
          ],
          [
            "Libya",
            0.001489749876782298
          ],
          [
            "Eritrea",
            0.0014560422860085964
          ],
          [
            "Armenia",
            0.0013527716509997845
          ],
          [
            "Suriname",
            0.0013230942422524095
          ],
          [
            "Gambia",
            0.0012648070696741343
          ],
          [
            "Burundi",
            0.001204004161991179
          ],
          [
            "Iran",
            0.0011832935269922018
          ],
          [
            "South Sudan",
            0.0011368861887603998
          ],
          [
            "Turks and Caicos Islands",
            0.0010798841249197721
          ],
          [
            "Argentina",
            0.0010766901541501284
          ],
          [
            "North Korea",
            0.0010704979067668319
          ],
          [
            "Jordan",
            0.0010206815786659718
          ],
          [
            "Benin",
            0.0010076038306578994
          ],
          [
            "Cape Verde",
            0.0010068679694086313
          ],
          [
            "Rwanda",
            0.0009888408239930868
          ],
          [
            "Nepal",
            0.0009764262358658016
          ],
          [
            "Iraq",
            0.000970886496361345
          ],
          [
            "Liberia",
            0.0009562044288031757
          ],
          [
            "Mozambique",
            0.0009288556175306439
          ],
          [
            "Ethiopia",
            0.0009181584464386106
          ],
          [
            "North Macedonia",
            0.0008902407716959715
          ],
          [
            "South Korea",
            0.0008761163335293531
          ],
          [
            "Guinea",
            0.0008754046866670251
          ],
          [
            "Gabon",
            0.0008671553805470467
          ],
          [
            "Palau",
            0.0008478322997689247
          ],
          [
            "Australia",
            0.0008353456505574286
          ],
          [
            "Chile",
            0.0008339575142599642
          ],
          [
            "Paraguay",
            0.0007815976860001683
          ],
          [
            "Serbia",
            0.000693783164024353
          ],
          [
            "Cambodia",
            0.000654831703286618
          ],
          [
            "Tajikistan",
            0.0006528787198476493
          ],
          [
            "Cuba",
            0.0006441939622163773
          ],
          [
            "Israel",
            0.0006206234684213996
          ],
          [
            "Sweden",
            0.0006199562340043485
          ],
          [
            "Congo",
            0.0006016952684149146
          ],
          [
            "Lebanon",
            0.0005889296880923212
          ],
          [
            "Martinique",
            0.0005688267410732806
          ],
          [
            "Belgium",
            0.0005490255425684154
          ],
          [
            "Barbados",
            0.0005450596217997372
          ],
          [
            "Niger",
            0.000537410203833133
          ],
          [
            "Estonia",
            0.000533693062607199
          ],
          [
            "Uruguay",
            0.0005249951500445604
          ],
          [
            "Cameroon",
            0.0005232806433923542
          ],
          [
            "Kenya",
            0.0005182180902920663
          ],
          [
            "French Guiana",
            0.0005107193719595671
          ],
          [
            "Egypt",
            0.0004913535667583346
          ],
          [
            "Western Sahara",
            0.00048248175880871713
          ],
          [
            "Oman",
            0.000480862072436139
          ],
          [
            "Mexico",
            0.0004724589525721967
          ],
          [
            "Trinidad and Tobago",
            0.0004716152907349169
          ],
          [
            "Angola",
            0.00046643122914247215
          ],
          [
            "Morocco",
            0.00045823221444152296
          ],
          [
            "Moldova",
            0.0004535687912721187
          ],
          [
            "Sudan",
            0.0004464210360310972
          ],
          [
            "United States of America",
            0.0004425770603120327
          ],
          [
            "Svalbard",
            0.0004202433046884835
          ],
          [
            "Bolivia",
            0.0004175499780103564
          ],
          [
            "Croatia",
            0.0004041425127070397
          ],
          [
            "Bahamas",
            0.00038634889642708004
          ],
          [
            "Antigua & Barbuda",
            0.0003727569419424981
          ],
          [
            "Côte d'Ivoire",
            0.0003637062618508935
          ],
          [
            "Venezuela",
            0.000362901744665578
          ],
          [
            "Portugal",
            0.00035905366530641913
          ],
          [
            "Brunei",
            0.00034322557621635497
          ],
          [
            "Guyana",
            0.0003384287701919675
          ],
          [
            "France",
            0.0003367321041878313
          ],
          [
            "Myanmar",
            0.0003229623835068196
          ],
          [
            "Vanuatu",
            0.00031449267407879233
          ],
          [
            "Samoa",
            0.0002956369426101446
          ],
          [
            "Taiwan",
            0.0002811458252836019
          ],
          [
            "Dominica",
            0.00027921824948862195
          ],
          [
            "South Georgia Islands",
            0.0002696980081964284
          ],
          [
            "Bosnia & Herzegovina",
            0.0002656190481502563
          ],
          [
            "Greenland",
            0.00025507333339191973
          ],
          [
            "Faroe Islands",
            0.0002544052549637854
          ],
          [
            "Togo",
            0.00024446926545351744
          ],
          [
            "Malawi",
            0.00023857079213485122
          ],
          [
            "DR Congo",
            0.00023844250245019794
          ],
          [
            "Brazil",
            0.00023615185637027025
          ],
          [
            "Pakistan",
            0.00023578414402436465
          ],
          [
            "Zambia",
            0.00023259801673702896
          ],
          [
            "Albania",
            0.0002288386458531022
          ],
          [
            "South Africa",
            0.00021598010789602995
          ],
          [
            "Norway",
            0.00020590068015735596
          ],
          [
            "Algeria",
            0.00019373593386262655
          ],
          [
            "Eswatini",
            0.00017854635370895267
          ],
          [
            "United States Virgin Islands",
            0.00017549650510773063
          ],
          [
            "Peru",
            0.00017410189320798963
          ],
          [
            "Italy",
            0.00017366047541145235
          ],
          [
            "Vietnam",
            0.00017351246788166463
          ],
          [
            "Lesotho",
            0.0001709984353510663
          ],
          [
            "West Bank",
            0.00015985846403054893
          ],
          [
            "Philippines",
            0.00015708108549006283
          ],
          [
            "Djibouti",
            0.00015215038729365915
          ],
          [
            "Qatar",
            0.00014460503007285297
          ],
          [
            "Tunisia",
            0.00013794624828733504
          ],
          [
            "Sri Lanka",
            0.00013245681475382298
          ],
          [
            "Isle of Man",
            0.00013084523379802704
          ],
          [
            "Costa Rica",
            0.00012902126763947308
          ],
          [
            "Luxembourg",
            0.00012739826343022287
          ],
          [
            "Netherlands",
            0.00012163338396931067
          ],
          [
            "Bahrain",
            0.00011788819392677397
          ],
          [
            "Madagascar",
            0.00011444633128121495
          ],
          [
            "Finland",
            0.00011386823462089524
          ],
          [
            "Laos",
            0.00011045817518606782
          ],
          [
            "Germany",
            0.00010671417840057984
          ],
          [
            "Zimbabwe",
            9.804885485209525e-05
          ],
          [
            "Colombia",
            9.784764552023262e-05
          ],
          [
            "Nicaragua",
            9.658215276431292e-05
          ],
          [
            "Mauritania",
            9.39214660320431e-05
          ],
          [
            "Haiti",
            9.17648576432839e-05
          ],
          [
            "Ghana",
            8.943520515458658e-05
          ],
          [
            "Guatemala",
            7.571485184598714e-05
          ],
          [
            "Canada",
            7.205027941381559e-05
          ],
          [
            "Uganda",
            7.097235356923193e-05
          ],
          [
            "United Kingdom",
            5.889484964427538e-05
          ],
          [
            "Belarus",
            5.711976336897351e-05
          ],
          [
            "Saint Lucia",
            5.5430315114790574e-05
          ],
          [
            "Greece",
            5.16042928211391e-05
          ],
          [
            "Ireland",
            4.480407005758025e-05
          ],
          [
            "Chad",
            3.26127847074531e-05
          ],
          [
            "Denmark",
            2.1863097572349943e-05
          ],
          [
            "Kiribati",
            1.3855001270712819e-05
          ]
        ]
      },
      "geometry": {
        "type": "MultiLineString",
        "coordinates": [
          [
            [
              17.62326894346897,
              51.93837593786017
            ],
            [
              16.626020915459634,
              52.27068563644261
            ],
            [
              15.628808324368293,
              52.27068563644261
            ],
            [
              14.299162005481506,
              51.772223303376336
            ],
            [
              12.470900531819552,
              50.44299558308347
            ],
            [
              10.310223048821157,
              48.2830046903714
            ],
            [
              8.31579786663849,
              45.45839883010922
            ],
            [
              6.986151547751703,
              42.4676469797853
            ],
            [
              5.988903519742365,
              39.47688627023189
            ],
            [
              5.324071501069469,
              36.81843525926092
            ],
            [
              4.659257200855578,
              34.32614352719591
            ],
            [
              4.326858909978128,
              31.99999778519262
            ],
            [
              4.1606420460803974,
              29.175400784159933
            ],
            [
              4.659257200855578,
              26.18464007460652
            ],
            [
              5.656505228864916,
              23.526193493250304
            ],
            [
              7.152332974731422,
              21.200047751247013
            ],
            [
              9.146793593832086,
              19.372366557117374
            ],
            [
              11.307488795289501,
              17.876986202340674
            ],
            [
              13.46814855982889,
              17.046220815114083
            ],
            [
              15.462609178929569,
              16.54776069685518
            ],
            [
              17.12465378869379,
              16.381601417949213
            ],
            [
              18.620481534560298,
              16.54776069685518
            ],
            [
              19.9501278534471,
              16.880070395437613
            ],
            [
              20.947358162997432,
              17.54467650375824
            ],
            [
              21.944588472547764,
              18.541596740276034
            ],
            [
              22.277004481884205,
              20.036972665437986
            ],
            [
              21.944588472547764,
              21.864658289182387
            ],
            [
              20.947358162997432,
              23.692339483312026
            ],
            [
              19.119096689335464,
              25.187719838088725
            ],
            [
              16.79223777935735,
              26.01848965493005
            ],
            [
              14.299162005481506,
              26.18464007460652
            ],
            [
              11.639869367707945,
              25.686179956347615
            ],
            [
              9.313028176188823,
              24.68926414944457
            ],
            [
              7.152332974731422,
              23.360034214344324
            ],
            [
              5.324071501069469,
              22.0308219977031
            ],
            [
              3.828243755202962,
              20.701587632988108
            ],
            [
              2.664814300213905,
              19.372366557117374
            ],
            [
              2.000000000000014,
              18.2092870416936
            ]
          ],
          [
            [
              34.74238335126344,
              43.7968724852708
            ],
            [
              37.734074279914466,
              44.461483023206156
            ],
            [
              42.88642497310485,
              45.292252840047496
            ],
            [
              48.703607684968176,
              45.624553679400435
            ],
            [
              53.689759232719865,
              45.12609799075628
            ],
            [
              57.34626446158478,
              44.461483023206156
            ],
            [
              59.83934023546061,
              43.63071763597958
            ],
            [
              61.33516798132712,
              42.799956678367735
            ],
            [
              62.0,
              41.80303644184994
            ],
            [
              60.67037139957222,
              40.30765608707323
            ],
            [
              53.357343223383396,
              36.65228483958445
            ],
            [
              44.04985442809391,
              31.833847365516164
            ],
            [
              36.23821109712995,
              26.18464007460652
            ],
            [
              30.58724524916437,
              21.033892901955795
            ],
            [
              27.09695688419717,
              16.381601417949213
            ],
            [
              26.099708856187846,
              13.39084956762531
            ],
            [
              26.265925720085562,
              11.729314363557364
            ]
          ]
        ]
      }
    }
  ]
}