{
  "type": "FeatureCollection",
  "crs": {
    "type": "name",
    "properties": {
      "name": "urn:ogc:def:crs:OGC:1.3:CRS84"
    }
  },
  "features": [
    {
      "type": "Feature",
      "properties": {
        "timestamp": "2026-06-26T20:19:21.418134",
        "country_name": "Slovakia",
        "author": "",
        "author_id": "c11c2589-0414-4b95-9d62-be824c78426f",
        "validated": false,
        "ranking": [
          [
            "Slovakia",
            0.47489380836486816
          ],
          [
            "Cyprus",
            0.12382864207029343
          ],
          [
            "Honduras",
            0.1089949831366539
          ],
          [
            "Kyrgyzstan",
            0.0474759079515934
          ],
          [
            "Slovenia",
            0.03914852440357208
          ],
          [
            "Turkey",
            0.019672822207212448
          ],
          [
            "Falkland Islands",
            0.0144120492041111
          ],
          [
            "Afghanistan",
            0.01374453492462635
          ],
          [
            "Yemen",
            0.01229330338537693
          ],
          [
            "Hungary",
            0.011955805122852325
          ],
          [
            "Puerto Rico",
            0.011485072784125805
          ],
          [
            "Mongolia",
            0.011451627127826214
          ],
          [
            "Switzerland",
            0.007917556911706924
          ],
          [
            "North Korea",
            0.0056335581466555595
          ],
          [
            "Jamaica",
            0.005629680119454861
          ],
          [
            "Malaysia",
            0.005312100052833557
          ],
          [
            "China",
            0.004984595812857151
          ],
          [
            "Hong Kong",
            0.004888478666543961
          ],
          [
            "Timor-Leste",
            0.004678251687437296
          ],
          [
            "Central African Republic",
            0.004435218404978514
          ],
          [
            "Burkina Faso",
            0.004181892145425081
          ],
          [
            "Panama",
            0.004141880199313164
          ],
          [
            "Kazakhstan",
            0.0033281068317592144
          ],
          [
            "Fiji",
            0.003258246462792158
          ],
          [
            "Indonesia",
            0.0031952504068613052
          ],
          [
            "Guinea-Bissau",
            0.0029228241182863712
          ],
          [
            "Brunei",
            0.0028784212190657854
          ],
          [
            "Bhutan",
            0.002799514913931489
          ],
          [
            "Ecuador",
            0.00219588540494442
          ],
          [
            "Czech Republic",
            0.002174562308937311
          ],
          [
            "Russia",
            0.0019390563247725368
          ],
          [
            "India",
            0.0016458849422633648
          ],
          [
            "Bulgaria",
            0.0015601066406816244
          ],
          [
            "South Africa",
            0.001160290790721774
          ],
          [
            "Cuba",
            0.00110296078491956
          ],
          [
            "Uzbekistan",
            0.0010427217930555344
          ],
          [
            "Guam",
            0.0009431730140931904
          ],
          [
            "Syria",
            0.0009298372315242887
          ],
          [
            "Georgia",
            0.0009102278272621334
          ],
          [
            "United Arab Emirates",
            0.0008271705009974539
          ],
          [
            "Montenegro",
            0.000811347970739007
          ],
          [
            "Dominican Republic",
            0.0007522600935772061
          ],
          [
            "South Sudan",
            0.0007400579052045941
          ],
          [
            "Somalia",
            0.0007160257082432508
          ],
          [
            "Zambia",
            0.0007026910316199064
          ],
          [
            "Estonia",
            0.000658862991258502
          ],
          [
            "Gambia",
            0.0006432482041418552
          ],
          [
            "Spain",
            0.0006108987727202475
          ],
          [
            "Iceland",
            0.0006071305251680315
          ],
          [
            "Rwanda",
            0.0005848737200722098
          ],
          [
            "Western Sahara",
            0.0005828558350913227
          ],
          [
            "Guadeloupe",
            0.0005434689810499549
          ],
          [
            "Lebanon",
            0.0005309504340402782
          ],
          [
            "Austria",
            0.0005024904967285693
          ],
          [
            "Bangladesh",
            0.0004965823027305305
          ],
          [
            "El Salvador",
            0.0004935248871333897
          ],
          [
            "Japan",
            0.00045928722829557955
          ],
          [
            "Tajikistan",
            0.0004543235700111836
          ],
          [
            "Papua New Guinea",
            0.00044522437383420765
          ],
          [
            "Netherlands Antilles",
            0.0004037901817355305
          ],
          [
            "Latvia",
            0.00035729710361920297
          ],
          [
            "New Caledonia",
            0.00035313580883666873
          ],
          [
            "Turkmenistan",
            0.00035181004204787314
          ],
          [
            "Ukraine",
            0.0003500817110762
          ],
          [
            "Jordan",
            0.0003382137219887227
          ],
          [
            "Morocco",
            0.0003308923332951963
          ],
          [
            "South Korea",
            0.00029836781322956085
          ],
          [
            "Nigeria",
            0.0002958325494546443
          ],
          [
            "Niger",
            0.0002939068363048136
          ],
          [
            "Gabon",
            0.0002866361173801124
          ],
          [
            "Kuwait",
            0.00027803724515251815
          ],
          [
            "Mozambique",
            0.00027712713927030563
          ],
          [
            "Solomon Islands",
            0.0002584606991149485
          ],
          [
            "Benin",
            0.0002534031227696687
          ],
          [
            "Congo",
            0.0002530891797505319
          ],
          [
            "Netherlands",
            0.0002528498589526862
          ],
          [
            "Azerbaijan",
            0.00024948068312369287
          ],
          [
            "Taiwan",
            0.00022991742298472673
          ],
          [
            "Burundi",
            0.00022422372421715409
          ],
          [
            "Madeira Islands",
            0.00020026501442771405
          ],
          [
            "Heard and McDonald Islands",
            0.0001939710055012256
          ],
          [
            "Belize",
            0.000190666425623931
          ],
          [
            "Djibouti",
            0.000173595457454212
          ],
          [
            "Trinidad and Tobago",
            0.00016143023094628006
          ],
          [
            "Greenland",
            0.00015129573876038194
          ],
          [
            "Mauritania",
            0.0001463047810830176
          ],
          [
            "Thailand",
            0.00014163558080326766
          ],
          [
            "Myanmar",
            0.00013884154031984508
          ],
          [
            "Palau",
            0.00013690114428754896
          ],
          [
            "Canada",
            0.00012977741425856948
          ],
          [
            "Algeria",
            0.0001289697684114799
          ],
          [
            "Romania",
            0.00012125114153604954
          ],
          [
            "Sweden",
            0.0001143354456871748
          ],
          [
            "Isle of Man",
            0.00011151487706229091
          ],
          [
            "Pakistan",
            0.0001106926501961425
          ],
          [
            "Mali",
            0.00010812062828335911
          ],
          [
            "Oman",
            0.00010772314271889627
          ],
          [
            "Namibia",
            0.00010717676195781678
          ],
          [
            "Mayotte",
            0.00010582148388493806
          ],
          [
            "Madagascar",
            9.789726027520373e-05
          ],
          [
            "New Zealand",
            9.70816909102723e-05
          ],
          [
            "Argentina",
            9.563730418449268e-05
          ],
          [
            "Croatia",
            9.419518755748868e-05
          ],
          [
            "Nepal",
            9.142693306785077e-05
          ],
          [
            "Iraq",
            9.029664215631783e-05
          ],
          [
            "Nicaragua",
            8.653206168673933e-05
          ],
          [
            "Svalbard",
            8.376136247534305e-05
          ],
          [
            "Norway",
            8.205529593396932e-05
          ],
          [
            "Botswana",
            8.086208254098892e-05
          ],
          [
            "France",
            8.032529149204493e-05
          ],
          [
            "Turks and Caicos Islands",
            7.731927325949073e-05
          ],
          [
            "Lithuania",
            7.029654807411134e-05
          ],
          [
            "Equatorial Guinea",
            6.682025559712201e-05
          ],
          [
            "DR Congo",
            6.510115781566128e-05
          ],
          [
            "Saudi Arabia",
            6.487593054771423e-05
          ],
          [
            "Sao Tome and Principe",
            6.472378299804404e-05
          ],
          [
            "Qatar",
            6.363289139699191e-05
          ],
          [
            "Malawi",
            6.219927308848128e-05
          ],
          [
            "Lesotho",
            6.205293902894482e-05
          ],
          [
            "Belarus",
            6.133221904747188e-05
          ],
          [
            "Israel",
            6.12028525210917e-05
          ],
          [
            "Comoros",
            6.029607175150886e-05
          ],
          [
            "Senegal",
            5.7086082961177453e-05
          ],
          [
            "Chile",
            5.671913459082134e-05
          ],
          [
            "North Macedonia",
            5.454085112432949e-05
          ],
          [
            "Samoa",
            5.3146181016927585e-05
          ],
          [
            "Cape Verde",
            5.2605115342885256e-05
          ],
          [
            "Tunisia",
            5.126532050780952e-05
          ],
          [
            "Portugal",
            5.125007010065019e-05
          ],
          [
            "United States of America",
            5.0707410991890356e-05
          ],
          [
            "Moldova",
            4.8981757572619244e-05
          ],
          [
            "Colombia",
            4.883008296019398e-05
          ],
          [
            "Iran",
            4.629201430361718e-05
          ],
          [
            "Ethiopia",
            4.4933702156413347e-05
          ],
          [
            "Bahamas",
            4.466573227546178e-05
          ],
          [
            "Egypt",
            4.3072839616797864e-05
          ],
          [
            "Saint Lucia",
            4.232869468978606e-05
          ],
          [
            "Faroe Islands",
            4.173313936917111e-05
          ],
          [
            "Serbia",
            4.116967102163471e-05
          ],
          [
            "Mexico",
            3.985592775279656e-05
          ],
          [
            "Cameroon",
            3.967140582972206e-05
          ],
          [
            "Angola",
            3.891470259986818e-05
          ],
          [
            "Sierra Leone",
            3.7842084566364065e-05
          ],
          [
            "Belgium",
            3.758872480830178e-05
          ],
          [
            "Philippines",
            3.754594945348799e-05
          ],
          [
            "Togo",
            3.733663834282197e-05
          ],
          [
            "Brazil",
            3.705618655658327e-05
          ],
          [
            "Guyana",
            3.539643876138143e-05
          ],
          [
            "South Georgia Islands",
            3.38772006216459e-05
          ],
          [
            "Vanuatu",
            3.350481347297318e-05
          ],
          [
            "Armenia",
            3.224345709895715e-05
          ],
          [
            "Sudan",
            3.152286444674246e-05
          ],
          [
            "Albania",
            3.1363870220957324e-05
          ],
          [
            "Venezuela",
            3.062944233533926e-05
          ],
          [
            "Libya",
            3.049781298614107e-05
          ],
          [
            "Ireland",
            3.0177534426911734e-05
          ],
          [
            "Vietnam",
            2.9624345188494772e-05
          ],
          [
            "Suriname",
            2.9296526918187737e-05
          ],
          [
            "Germany",
            2.7813523047370836e-05
          ],
          [
            "Kenya",
            2.7687656256603077e-05
          ],
          [
            "Guatemala",
            2.5844778065220453e-05
          ],
          [
            "Cambodia",
            2.565309296187479e-05
          ],
          [
            "Peru",
            2.5611292585381307e-05
          ],
          [
            "Antigua & Barbuda",
            2.5477451345068403e-05
          ],
          [
            "West Bank",
            2.5275761800003238e-05
          ],
          [
            "Tanzania",
            2.3600709027959965e-05
          ],
          [
            "Bolivia",
            2.3440015866071917e-05
          ],
          [
            "Paraguay",
            2.3390486603602767e-05
          ],
          [
            "Bosnia & Herzegovina",
            2.3102507839212194e-05
          ],
          [
            "Australia",
            2.1844622096978128e-05
          ],
          [
            "Uganda",
            2.135157774318941e-05
          ],
          [
            "Barbados",
            2.0951945771230385e-05
          ],
          [
            "Eswatini",
            2.082377795886714e-05
          ],
          [
            "Liberia",
            2.070172740786802e-05
          ],
          [
            "Guinea",
            2.0621017029043287e-05
          ],
          [
            "United Kingdom",
            2.0617871996364556e-05
          ],
          [
            "Poland",
            2.0491788745857775e-05
          ],
          [
            "Zimbabwe",
            1.9894421711796895e-05
          ],
          [
            "Eritrea",
            1.8948336219182238e-05
          ],
          [
            "Chad",
            1.8321134120924398e-05
          ],
          [
            "Finland",
            1.64642642630497e-05
          ],
          [
            "Martinique",
            1.6453621356049553e-05
          ],
          [
            "French Guiana",
            1.643025825615041e-05
          ],
          [
            "Luxembourg",
            1.550130036775954e-05
          ],
          [
            "Costa Rica",
            1.5148999409575481e-05
          ],
          [
            "Côte d'Ivoire",
            1.492811043135589e-05
          ],
          [
            "Dominica",
            1.3725402823183686e-05
          ],
          [
            "Bahrain",
            1.3581392522610258e-05
          ],
          [
            "Italy",
            1.3567877431341913e-05
          ],
          [
            "Sri Lanka",
            1.3534587196772918e-05
          ],
          [
            "Reunion",
            1.3319010577106383e-05
          ],
          [
            "Ghana",
            1.2577036613947712e-05
          ],
          [
            "Haiti",
            1.2557740774354897e-05
          ],
          [
            "Uruguay",
            1.1225361959077418e-05
          ],
          [
            "Greece",
            9.803997272683773e-06
          ],
          [
            "Denmark",
            8.01541409600759e-06
          ],
          [
            "United States Virgin Islands",
            5.4018310038372874e-06
          ],
          [
            "Laos",
            4.463548066269141e-06
          ],
          [
            "Kiribati",
            1.2124430668336572e-06
          ]
        ]
      },
      "geometry": {
        "type": "MultiLineString",
        "coordinates": [
          [
            [
              2.0,
              34.530120481927725
            ],
            [
              2.361445783132524,
              33.445783132530096
            ],
            [
              2.7228915662650763,
              30.554216867469847
            ],
            [
              2.7228915662650763,
              29.10843373493975
            ],
            [
              2.7228915662650763,
              27.662650602409627
            ],
            [
              2.7228915662650763,
              25.85542168674698
            ],
            [
              3.0843373493976003,
              24.77108433734938
            ],
            [
              4.168674698795172,
              23.68674698795178
            ],
            [
              4.5301204819277245,
              22.602409638554207
            ],
            [
              5.614457831325296,
              21.156626506024082
            ],
            [
              5.97590361445782,
              20.072289156626482
            ],
            [
              7.060240963855421,
              19.349397590361434
            ],
            [
              8.144578313253021,
              18.98795180722891
            ],
            [
              9.228915662650593,
              18.626506024096386
            ],
            [
              10.313253012048193,
              18.98795180722891
            ]
          ],
          [
            [
              10.313253012048193,
              18.98795180722891
            ],
            [
              11.759036144578317,
              18.98795180722891
            ],
            [
              13.204819277108442,
              18.98795180722891
            ],
            [
              14.650602409638566,
              18.98795180722891
            ]
          ],
          [
            [
              15.01204819277109,
              18.265060240963834
            ],
            [
              16.457831325301214,
              18.265060240963834
            ],
            [
              17.542168674698786,
              17.90361445783131
            ],
            [
              18.626506024096386,
              17.542168674698786
            ],
            [
              20.07228915662651,
              17.90361445783131
            ],
            [
              21.15662650602411,
              18.626506024096386
            ],
            [
              22.240963855421683,
              19.710843373493958
            ],
            [
              22.96385542168676,
              18.626506024096386
            ],
            [
              22.96385542168676,
              16.81927710843371
            ],
            [
              22.96385542168676,
              15.012048192771061
            ],
            [
              22.96385542168676,
              13.566265060240937
            ],
            [
              24.409638554216883,
              13.927710843373461
            ],
            [
              24.771084337349407,
              15.012048192771061
            ],
            [
              26.21686746987953,
              16.09638554216866
            ],
            [
              27.301204819277103,
              16.81927710843371
            ],
            [
              27.662650602409656,
              17.90361445783131
            ],
            [
              27.301204819277103,
              19.349397590361434
            ]
          ],
          [
            [
              27.301204819277103,
              19.710843373493958
            ],
            [
              28.385542168674704,
              20.433734939759006
            ],
            [
              29.831325301204828,
              20.433734939759006
            ]
          ],
          [
            [
              30.192771084337352,
              20.79518072289156
            ],
            [
              31.277108433734952,
              21.156626506024082
            ],
            [
              32.361445783132524,
              21.87951807228916
            ],
            [
              33.445783132530124,
              22.602409638554207
            ]
          ],
          [
            [
              34.16867469879517,
              22.96385542168673
            ],
            [
              35.25301204819277,
              24.409638554216855
            ],
            [
              36.33734939759037,
              25.13253012048193
            ],
            [
              37.42168674698797,
              25.493975903614455
            ],
            [
              38.506024096385545,
              25.85542168674698
            ],
            [
              39.59036144578312,
              27.301204819277103
            ]
          ],
          [
            [
              39.59036144578312,
              27.301204819277103
            ],
            [
              40.67469879518072,
              27.662650602409627
            ],
            [
              41.39759036144579,
              28.746987951807228
            ],
            [
              42.481927710843365,
              29.469879518072275
            ],
            [
              43.566265060240966,
              30.554216867469847
            ]
          ],
          [
            [
              43.566265060240966,
              30.9156626506024
            ],
            [
              46.09638554216866,
              30.9156626506024
            ],
            [
              47.90361445783134,
              30.9156626506024
            ],
            [
              50.07228915662651,
              30.554216867469847
            ],
            [
              51.87951807228916,
              30.192771084337323
            ],
            [
              52.96385542168673,
              29.8313253012048
            ],
            [
              52.24096385542168,
              30.9156626506024
            ],
            [
              51.518072289156635,
              32.0
            ],
            [
              50.433734939759034,
              33.08433734939757
            ],
            [
              50.07228915662651,
              34.168674698795144
            ],
            [
              49.71084337349399,
              35.25301204819277
            ],
            [
              48.626506024096386,
              35.97590361445782
            ],
            [
              47.18072289156626,
              36.337349397590344
            ]
          ],
          [
            [
              46.81927710843374,
              36.337349397590344
            ],
            [
              47.90361445783134,
              36.69879518072287
            ],
            [
              49.349397590361434,
              36.69879518072287
            ],
            [
              50.433734939759034,
              38.14457831325302
            ],
            [
              50.79518072289156,
              39.22891566265059
            ],
            [
              51.15662650602411,
              40.313253012048165
            ],
            [
              52.24096385542168,
              41.397590361445765
            ],
            [
              53.32530120481928,
              42.12048192771084
            ]
          ],
          [
            [
              53.68674698795181,
              42.481927710843365
            ],
            [
              54.409638554216855,
              43.92771084337346
            ],
            [
              55.493975903614455,
              45.01204819277106
            ],
            [
              56.2168674698795,
              46.09638554216866
            ],
            [
              57.662650602409656,
              47.180722891566234
            ],
            [
              59.10843373493975,
              47.542168674698786
            ],
            [
              60.9156626506024,
              48.26506024096386
            ],
            [
              62.0,
              48.626506024096386
            ],
            [
              62.0,
              50.07228915662651
            ],
            [
              60.9156626506024,
              50.433734939759006
            ],
            [
              59.469879518072275,
              50.433734939759006
            ],
            [
              58.02409638554218,
              49.71084337349396
            ],
            [
              57.30120481927713,
              48.626506024096386
            ],
            [
              56.2168674698795,
              47.90361445783131
            ],
            [
              55.13253012048193,
              47.542168674698786
            ],
            [
              53.68674698795181,
              47.180722891566234
            ],
            [
              52.60240963855421,
              46.457831325301186
            ],
            [
              51.518072289156635,
              45.73493975903614
            ],
            [
              50.07228915662651,
              45.73493975903614
            ],
            [
              48.626506024096386,
              45.73493975903614
            ],
            [
              47.18072289156626,
              45.73493975903614
            ],
            [
              45.73493975903614,
              45.73493975903614
            ],
            [
              44.650602409638566,
              45.373493975903614
            ],
            [
              43.566265060240966,
              44.650602409638566
            ],
            [
              42.481927710843365,
              44.28915662650601
            ]
          ],
          [
            [
              42.481927710843365,
              44.28915662650601
            ],
            [
              41.03614457831327,
              44.28915662650601
            ],
            [
              39.59036144578312,
              44.28915662650601
            ],
            [
              38.506024096385545,
              43.92771084337346
            ],
            [
              36.6987951807229,
              43.56626506024094
            ],
            [
              34.89156626506025,
              42.84337349397589
            ],
            [
              33.445783132530124,
              42.84337349397589
            ],
            [
              32.0,
              42.84337349397589
            ],
            [
              29.831325301204828,
              42.84337349397589
            ],
            [
              28.746987951807228,
              42.481927710843365
            ],
            [
              27.301204819277103,
              42.481927710843365
            ],
            [
              23.686746987951807,
              42.84337349397589
            ],
            [
              22.602409638554207,
              43.20481927710841
            ],
            [
              20.795180722891587,
              43.20481927710841
            ],
            [
              19.349397590361434,
              43.20481927710841
            ]
          ],
          [
            [
              19.349397590361434,
              43.20481927710841
            ],
            [
              19.349397590361434,
              41.75903614457832
            ],
            [
              19.349397590361434,
              39.95180722891564
            ],
            [
              19.349397590361434,
              38.14457831325302
            ],
            [
              18.626506024096386,
              37.06024096385539
            ],
            [
              17.542168674698786,
              36.337349397590344
            ],
            [
              16.457831325301214,
              35.614457831325296
            ],
            [
              15.01204819277109,
              35.614457831325296
            ],
            [
              13.566265060240966,
              35.614457831325296
            ],
            [
              12.481927710843365,
              36.337349397590344
            ],
            [
              11.397590361445793,
              37.06024096385539
            ],
            [
              10.313253012048193,
              38.14457831325302
            ],
            [
              9.95180722891567,
              39.22891566265059
            ],
            [
              8.867469879518069,
              38.506024096385545
            ],
            [
              7.783132530120497,
              37.78313253012047
            ],
            [
              6.698795180722897,
              37.421686746987916
            ],
            [
              5.614457831325296,
              36.69879518072287
            ],
            [
              4.5301204819277245,
              35.614457831325296
            ],
            [
              3.4457831325301242,
              34.530120481927725
            ]
          ]
        ]
      }
    }
  ]
}