{
  "type": "FeatureCollection",
  "crs": {
    "type": "name",
    "properties": {
      "name": "urn:ogc:def:crs:OGC:1.3:CRS84"
    }
  },
  "features": [
    {
      "type": "Feature",
      "properties": {
        "timestamp": "2026-05-13T21:04:44.667889",
        "country_name": "Solomon Islands",
        "author": "",
        "author_id": "c6438ec8-6e9a-4cc3-904e-32efeaba707d",
        "validated": false,
        "ranking": [
          [
            "Solomon Islands",
            0.18445084989070892
          ],
          [
            "Netherlands Antilles",
            0.09672679752111435
          ],
          [
            "Cuba",
            0.07334107905626297
          ],
          [
            "Indonesia",
            0.06566331535577774
          ],
          [
            "Samoa",
            0.05082475021481514
          ],
          [
            "Ecuador",
            0.048495881259441376
          ],
          [
            "Gambia",
            0.0482264943420887
          ],
          [
            "Turks and Caicos Islands",
            0.04764740914106369
          ],
          [
            "Malaysia",
            0.037970226258039474
          ],
          [
            "Puerto Rico",
            0.03721646964550018
          ],
          [
            "Timor-Leste",
            0.02353825978934765
          ],
          [
            "Comoros",
            0.021430522203445435
          ],
          [
            "Equatorial Guinea",
            0.018635218963027
          ],
          [
            "Jamaica",
            0.015564873814582825
          ],
          [
            "Uzbekistan",
            0.01089741475880146
          ],
          [
            "United States of America",
            0.010285114869475365
          ],
          [
            "Nepal",
            0.010178403928875923
          ],
          [
            "Sao Tome and Principe",
            0.009556721895933151
          ],
          [
            "Bahamas",
            0.007290539797395468
          ],
          [
            "Panama",
            0.006876237224787474
          ],
          [
            "Georgia",
            0.006739162839949131
          ],
          [
            "Turkey",
            0.006059046369045973
          ],
          [
            "Turkmenistan",
            0.006047858390957117
          ],
          [
            "Chile",
            0.005091219209134579
          ],
          [
            "New Zealand",
            0.004989299923181534
          ],
          [
            "Slovakia",
            0.0046382080763578415
          ],
          [
            "Vanuatu",
            0.004524753428995609
          ],
          [
            "Spain",
            0.003606546437367797
          ],
          [
            "New Caledonia",
            0.003584990743547678
          ],
          [
            "Eritrea",
            0.0035514722112566233
          ],
          [
            "Mongolia",
            0.003460512263700366
          ],
          [
            "Barbados",
            0.0033409034367650747
          ],
          [
            "Bahrain",
            0.0033040724229067564
          ],
          [
            "Heard and McDonald Islands",
            0.003160799853503704
          ],
          [
            "Kyrgyzstan",
            0.003060480346903205
          ],
          [
            "Martinique",
            0.0030411614570766687
          ],
          [
            "Malawi",
            0.002974818227812648
          ],
          [
            "Latvia",
            0.002972447080537677
          ],
          [
            "Cyprus",
            0.0028580022044479847
          ],
          [
            "Kazakhstan",
            0.0028045896906405687
          ],
          [
            "Costa Rica",
            0.0026390186976641417
          ],
          [
            "Israel",
            0.0025376968551427126
          ],
          [
            "Paraguay",
            0.002423857804387808
          ],
          [
            "Yemen",
            0.002404444618150592
          ],
          [
            "Mexico",
            0.0023971684277057648
          ],
          [
            "Armenia",
            0.0022410948295146227
          ],
          [
            "El Salvador",
            0.001912921667098999
          ],
          [
            "Cape Verde",
            0.0017970474436879158
          ],
          [
            "Czech Republic",
            0.001754528610035777
          ],
          [
            "Japan",
            0.0017471716273576021
          ],
          [
            "Dominica",
            0.0017220539739355445
          ],
          [
            "Dominican Republic",
            0.001628521247766912
          ],
          [
            "Togo",
            0.0015884347958490252
          ],
          [
            "United States Virgin Islands",
            0.0015237039187923074
          ],
          [
            "Guadeloupe",
            0.0014995317906141281
          ],
          [
            "Russia",
            0.001375627820380032
          ],
          [
            "Antigua & Barbuda",
            0.0013552490854635835
          ],
          [
            "Saudi Arabia",
            0.0013532110024243593
          ],
          [
            "Central African Republic",
            0.0013392223045229912
          ],
          [
            "Namibia",
            0.001316133071668446
          ],
          [
            "Lithuania",
            0.0012986502842977643
          ],
          [
            "United Arab Emirates",
            0.0012692955788224936
          ],
          [
            "Hong Kong",
            0.0012114752316847444
          ],
          [
            "Honduras",
            0.0012044573668390512
          ],
          [
            "South Georgia Islands",
            0.0011276027653366327
          ],
          [
            "Belize",
            0.0010874040890485048
          ],
          [
            "Guatemala",
            0.0010047333780676126
          ],
          [
            "Fiji",
            0.0009981854818761349
          ],
          [
            "Falkland Islands",
            0.0009970590472221375
          ],
          [
            "Egypt",
            0.0009743598056957126
          ],
          [
            "South Korea",
            0.0009715298074297607
          ],
          [
            "Myanmar",
            0.0009683404350653291
          ],
          [
            "Moldova",
            0.0009476370178163052
          ],
          [
            "Burkina Faso",
            0.0009295065538026392
          ],
          [
            "Guinea-Bissau",
            0.0009146055672317743
          ],
          [
            "Thailand",
            0.0008516025263816118
          ],
          [
            "Benin",
            0.0008395198383368552
          ],
          [
            "Ethiopia",
            0.000795044528786093
          ],
          [
            "Trinidad and Tobago",
            0.0007863757200539112
          ],
          [
            "Mali",
            0.0007813984411768615
          ],
          [
            "Austria",
            0.0007790560484863818
          ],
          [
            "Italy",
            0.0007625101716257632
          ],
          [
            "Papua New Guinea",
            0.0007509247516281903
          ],
          [
            "Madeira Islands",
            0.0007196520455181599
          ],
          [
            "Peru",
            0.0007106034317985177
          ],
          [
            "Switzerland",
            0.0007058430928736925
          ],
          [
            "Argentina",
            0.0007021237397566438
          ],
          [
            "Ukraine",
            0.0007020835182629526
          ],
          [
            "Laos",
            0.0006839412963017821
          ],
          [
            "Rwanda",
            0.0006699953810311854
          ],
          [
            "Guam",
            0.0006529712700285017
          ],
          [
            "Mauritania",
            0.0006351367337629199
          ],
          [
            "Zambia",
            0.0006334236240945756
          ],
          [
            "Svalbard",
            0.0006165038794279099
          ],
          [
            "Vietnam",
            0.0006135887233540416
          ],
          [
            "Niger",
            0.0006012505036778748
          ],
          [
            "Iran",
            0.0005833046161569655
          ],
          [
            "South Sudan",
            0.0005722254863940179
          ],
          [
            "Estonia",
            0.0005709618562832475
          ],
          [
            "Liberia",
            0.0005652148392982781
          ],
          [
            "Romania",
            0.0005648958031088114
          ],
          [
            "Guyana",
            0.0005517805693671107
          ],
          [
            "Tajikistan",
            0.000550616707187146
          ],
          [
            "Azerbaijan",
            0.0005442008259706199
          ],
          [
            "Bosnia & Herzegovina",
            0.000523028546012938
          ],
          [
            "Belgium",
            0.0005134730599820614
          ],
          [
            "Guinea",
            0.0005038951640017331
          ],
          [
            "Somalia",
            0.0005019708769395947
          ],
          [
            "Serbia",
            0.00047915667528286576
          ],
          [
            "Faroe Islands",
            0.00047857119352556765
          ],
          [
            "Uruguay",
            0.00046909015509299934
          ],
          [
            "Reunion",
            0.00046193564776331186
          ],
          [
            "Iraq",
            0.0004614662902895361
          ],
          [
            "Albania",
            0.00045999171561561525
          ],
          [
            "Eswatini",
            0.0004566836869344115
          ],
          [
            "Angola",
            0.00045406154822558165
          ],
          [
            "Sierra Leone",
            0.0004459565971046686
          ],
          [
            "Mozambique",
            0.0004371333634480834
          ],
          [
            "Suriname",
            0.000434098212281242
          ],
          [
            "Cameroon",
            0.0004041088104713708
          ],
          [
            "Qatar",
            0.0003987682575825602
          ],
          [
            "Sri Lanka",
            0.00038841718924231827
          ],
          [
            "North Macedonia",
            0.0003792632487602532
          ],
          [
            "Bhutan",
            0.0003729811287485063
          ],
          [
            "Tunisia",
            0.0003618099435698241
          ],
          [
            "Hungary",
            0.000361680198693648
          ],
          [
            "Luxembourg",
            0.0003511427203193307
          ],
          [
            "Oman",
            0.00034767590113915503
          ],
          [
            "Philippines",
            0.0003306643047835678
          ],
          [
            "Bangladesh",
            0.00032465296681039035
          ],
          [
            "Australia",
            0.00031985450186766684
          ],
          [
            "Botswana",
            0.00031549620325677097
          ],
          [
            "Algeria",
            0.0003078299341723323
          ],
          [
            "Uganda",
            0.00030762041569687426
          ],
          [
            "Nicaragua",
            0.00030753828468732536
          ],
          [
            "Brunei",
            0.000305584748275578
          ],
          [
            "Finland",
            0.000301069812849164
          ],
          [
            "West Bank",
            0.00029851272120140493
          ],
          [
            "Brazil",
            0.0002947564935311675
          ],
          [
            "Portugal",
            0.0002919811231549829
          ],
          [
            "Ghana",
            0.000281348213320598
          ],
          [
            "Syria",
            0.00028038822347298265
          ],
          [
            "United Kingdom",
            0.00027149426750838757
          ],
          [
            "Norway",
            0.0002626533678267151
          ],
          [
            "Venezuela",
            0.0002530218625906855
          ],
          [
            "Greenland",
            0.0002465014986228198
          ],
          [
            "Zimbabwe",
            0.00024562058388255537
          ],
          [
            "Kenya",
            0.00024450532509945333
          ],
          [
            "Sweden",
            0.00024413577921222895
          ],
          [
            "DR Congo",
            0.00024203730572480708
          ],
          [
            "Poland",
            0.00024196115555241704
          ],
          [
            "Bolivia",
            0.00023792700085323304
          ],
          [
            "Côte d'Ivoire",
            0.00023237020650412887
          ],
          [
            "Slovenia",
            0.00022994661412667483
          ],
          [
            "Saint Lucia",
            0.00022686964075546712
          ],
          [
            "India",
            0.00021818673121742904
          ],
          [
            "French Guiana",
            0.00021189454128034413
          ],
          [
            "Isle of Man",
            0.0002101409190800041
          ],
          [
            "Canada",
            0.00020863726967945695
          ],
          [
            "Tanzania",
            0.0002070519549306482
          ],
          [
            "Burundi",
            0.00020283971389289945
          ],
          [
            "Senegal",
            0.00020191099611110985
          ],
          [
            "Palau",
            0.00018661715148482472
          ],
          [
            "Lesotho",
            0.00018373409693595022
          ],
          [
            "Belarus",
            0.00018367207667324692
          ],
          [
            "China",
            0.0001783745683496818
          ],
          [
            "Sudan",
            0.00017617273260839283
          ],
          [
            "Mayotte",
            0.00017130376363638788
          ],
          [
            "Libya",
            0.00017013608885463327
          ],
          [
            "South Africa",
            0.00017011920863296837
          ],
          [
            "Djibouti",
            0.0001699288550298661
          ],
          [
            "Iceland",
            0.00016625798889435828
          ],
          [
            "Colombia",
            0.00016497359320055693
          ],
          [
            "Montenegro",
            0.00016428028175141662
          ],
          [
            "Gabon",
            0.00014357559848576784
          ],
          [
            "Bulgaria",
            0.00014029809972271323
          ],
          [
            "Kuwait",
            0.00013562050298787653
          ],
          [
            "Croatia",
            0.00013434275751933455
          ],
          [
            "France",
            0.000127395658637397
          ],
          [
            "Nigeria",
            0.00011462335532996804
          ],
          [
            "Jordan",
            0.00011122100841021165
          ],
          [
            "Congo",
            0.00011013447510777041
          ],
          [
            "Taiwan",
            0.00010205551370745525
          ],
          [
            "North Korea",
            9.954167762771249e-05
          ],
          [
            "Cambodia",
            9.151303675025702e-05
          ],
          [
            "Pakistan",
            7.755153637845069e-05
          ],
          [
            "Afghanistan",
            7.244608423206955e-05
          ],
          [
            "Western Sahara",
            7.12629480403848e-05
          ],
          [
            "Morocco",
            6.695070624118671e-05
          ],
          [
            "Lebanon",
            6.258478970266879e-05
          ],
          [
            "Chad",
            6.139853212516755e-05
          ],
          [
            "Ireland",
            5.1934319344582036e-05
          ],
          [
            "Germany",
            4.403423736221157e-05
          ],
          [
            "Kiribati",
            4.0421578887617216e-05
          ],
          [
            "Madagascar",
            3.6508172343019396e-05
          ],
          [
            "Netherlands",
            2.6879060897044837e-05
          ],
          [
            "Greece",
            2.2580621589440852e-05
          ],
          [
            "Denmark",
            2.042925189016387e-05
          ],
          [
            "Haiti",
            1.0554015716479626e-05
          ]
        ]
      },
      "geometry": {
        "type": "MultiLineString",
        "coordinates": [
          [
            [
              5.555555555555557,
              30.888888888888886
            ],
            [
              4.2222222222222285,
              30.888888888888886
            ],
            [
              3.333333333333343,
              30.888888888888886
            ],
            [
              2.0,
              30.888888888888886
            ]
          ],
          [
            [
              62.0,
              27.77777777777777
            ],
            [
              61.111111111111114,
              27.77777777777777
            ],
            [
              59.77777777777777,
              27.77777777777777
            ],
            [
              58.888888888888886,
              27.77777777777777
            ],
            [
              57.77777777777777,
              28.0
            ],
            [
              56.66666666666666,
              28.22222222222223
            ],
            [
              54.888888888888886,
              28.444444444444457
            ],
            [
              53.55555555555554,
              28.666666666666657
            ],
            [
              51.77777777777777,
              28.888888888888886
            ],
            [
              50.0,
              29.111111111111114
            ],
            [
              48.22222222222223,
              29.333333333333343
            ],
            [
              46.44444444444446,
              29.555555555555543
            ],
            [
              44.66666666666666,
              30.0
            ],
            [
              42.888888888888886,
              30.22222222222223
            ],
            [
              40.888888888888886,
              30.444444444444457
            ],
            [
              38.888888888888886,
              30.888888888888886
            ],
            [
              37.111111111111114,
              31.111111111111114
            ],
            [
              34.888888888888886,
              31.333333333333343
            ],
            [
              32.888888888888886,
              31.77777777777777
            ],
            [
              30.666666666666657,
              32.0
            ],
            [
              28.666666666666657,
              32.22222222222223
            ],
            [
              26.444444444444457,
              32.66666666666667
            ],
            [
              24.22222222222223,
              33.111111111111114
            ],
            [
              21.77777777777777,
              33.33333333333333
            ],
            [
              19.555555555555557,
              33.77777777777777
            ],
            [
              17.111111111111114,
              34.0
            ],
            [
              14.888888888888886,
              34.44444444444444
            ],
            [
              12.222222222222229,
              34.888888888888886
            ],
            [
              10.0,
              35.33333333333333
            ],
            [
              7.333333333333343,
              35.55555555555556
            ],
            [
              4.888888888888886,
              36.0
            ],
            [
              3.1111111111111143,
              36.22222222222223
            ]
          ]
        ]
      }
    }
  ]
}