{
  "type": "FeatureCollection",
  "crs": {
    "type": "name",
    "properties": {
      "name": "urn:ogc:def:crs:OGC:1.3:CRS84"
    }
  },
  "features": [
    {
      "type": "Feature",
      "properties": {
        "timestamp": "2026-07-20T18:14:39.914880",
        "country_name": "Solomon Islands",
        "author": "",
        "author_id": "bc485ed6-61ee-4f06-86b7-ad8c0309745e",
        "validated": false,
        "ranking": [
          [
            "Solomon Islands",
            0.6094995141029358
          ],
          [
            "Comoros",
            0.12176849693059921
          ],
          [
            "Bahamas",
            0.037172831594944
          ],
          [
            "Turks and Caicos Islands",
            0.024408336728811264
          ],
          [
            "Samoa",
            0.016139913350343704
          ],
          [
            "Eritrea",
            0.009744623675942421
          ],
          [
            "Nepal",
            0.008918186649680138
          ],
          [
            "United States of America",
            0.008680730126798153
          ],
          [
            "Mexico",
            0.008486169390380383
          ],
          [
            "New Caledonia",
            0.007594441995024681
          ],
          [
            "Vanuatu",
            0.00742206210270524
          ],
          [
            "Cuba",
            0.007221038453280926
          ],
          [
            "Ecuador",
            0.0071918233297765255
          ],
          [
            "Netherlands Antilles",
            0.006740338169038296
          ],
          [
            "Equatorial Guinea",
            0.006150043569505215
          ],
          [
            "Latvia",
            0.005348363425582647
          ],
          [
            "Costa Rica",
            0.004422951955348253
          ],
          [
            "Martinique",
            0.004401983227580786
          ],
          [
            "Georgia",
            0.004324212670326233
          ],
          [
            "Bahrain",
            0.004199043847620487
          ],
          [
            "Indonesia",
            0.003994699101895094
          ],
          [
            "Chile",
            0.0037767416797578335
          ],
          [
            "Heard and McDonald Islands",
            0.003715140512213111
          ],
          [
            "Puerto Rico",
            0.0032817251048982143
          ],
          [
            "Turkmenistan",
            0.0031370334327220917
          ],
          [
            "Cape Verde",
            0.0027607420925050974
          ],
          [
            "Guadeloupe",
            0.0026234453544020653
          ],
          [
            "Uzbekistan",
            0.0024479636922478676
          ],
          [
            "Sao Tome and Principe",
            0.0024319172371178865
          ],
          [
            "Guinea",
            0.002115019364282489
          ],
          [
            "Armenia",
            0.001989504788070917
          ],
          [
            "Turkey",
            0.001977787120267749
          ],
          [
            "Laos",
            0.001895323395729065
          ],
          [
            "South Georgia Islands",
            0.0017229259246960282
          ],
          [
            "Dominica",
            0.0015499333385378122
          ],
          [
            "Malaysia",
            0.001543284161016345
          ],
          [
            "Namibia",
            0.0014615061227232218
          ],
          [
            "El Salvador",
            0.0012768945889547467
          ],
          [
            "New Zealand",
            0.0012657113838940859
          ],
          [
            "Paraguay",
            0.0012493844842538238
          ],
          [
            "Jamaica",
            0.0012372263008728623
          ],
          [
            "United States Virgin Islands",
            0.0012000486021861434
          ],
          [
            "Belgium",
            0.0011759938206523657
          ],
          [
            "Malawi",
            0.0011159152491018176
          ],
          [
            "Suriname",
            0.0011029943125322461
          ],
          [
            "Israel",
            0.0010981662198901176
          ],
          [
            "Barbados",
            0.0010662527056410909
          ],
          [
            "Lithuania",
            0.0010374190751463175
          ],
          [
            "Peru",
            0.000987720675766468
          ],
          [
            "Czech Republic",
            0.0009522399050183594
          ],
          [
            "Saudi Arabia",
            0.0009363312856294215
          ],
          [
            "Yemen",
            0.0009312623296864331
          ],
          [
            "Australia",
            0.0009269702713936567
          ],
          [
            "Timor-Leste",
            0.0009007324115373194
          ],
          [
            "Togo",
            0.0008685900829732418
          ],
          [
            "Spain",
            0.0008024140843190253
          ],
          [
            "Azerbaijan",
            0.0007906656828708947
          ],
          [
            "Bosnia & Herzegovina",
            0.0007760904263705015
          ],
          [
            "Madeira Islands",
            0.0007335148402489722
          ],
          [
            "North Macedonia",
            0.0007166651193983853
          ],
          [
            "Panama",
            0.0007106636185199022
          ],
          [
            "Egypt",
            0.0007092674495652318
          ],
          [
            "Uruguay",
            0.0006186470855027437
          ],
          [
            "Italy",
            0.000608410220593214
          ],
          [
            "Romania",
            0.0006040211301296949
          ],
          [
            "Ukraine",
            0.0005958419060334563
          ],
          [
            "Guyana",
            0.0005533946678042412
          ],
          [
            "Papua New Guinea",
            0.000503205053973943
          ],
          [
            "Moldova",
            0.0004885740345343947
          ],
          [
            "Antigua & Barbuda",
            0.0004769586375914514
          ],
          [
            "Mongolia",
            0.0004553941253107041
          ],
          [
            "Brazil",
            0.00042583714821375906
          ],
          [
            "Côte d'Ivoire",
            0.00042417855001986027
          ],
          [
            "Sierra Leone",
            0.00040535276639275253
          ],
          [
            "Estonia",
            0.0003822884464170784
          ],
          [
            "Faroe Islands",
            0.0003801057755481452
          ],
          [
            "Benin",
            0.00037043337943032384
          ],
          [
            "Kazakhstan",
            0.0003701205423567444
          ],
          [
            "Iran",
            0.00036312377778813243
          ],
          [
            "Svalbard",
            0.0003601605130825192
          ],
          [
            "Reunion",
            0.00034965528175234795
          ],
          [
            "Belize",
            0.0003314083442091942
          ],
          [
            "Kenya",
            0.00032985134748741984
          ],
          [
            "South Sudan",
            0.0003242750826757401
          ],
          [
            "Iraq",
            0.00031990784918889403
          ],
          [
            "Eswatini",
            0.0003176544851157814
          ],
          [
            "Poland",
            0.0003159969055559486
          ],
          [
            "Liberia",
            0.00031409444636665285
          ],
          [
            "Zimbabwe",
            0.0003108481178060174
          ],
          [
            "Myanmar",
            0.00030182956834323704
          ],
          [
            "Rwanda",
            0.0002858591906260699
          ],
          [
            "Ethiopia",
            0.00028066776576451957
          ],
          [
            "Vietnam",
            0.00028027777443639934
          ],
          [
            "Serbia",
            0.00027827968006022274
          ],
          [
            "Venezuela",
            0.0002746565151028335
          ],
          [
            "Gambia",
            0.00026867049746215343
          ],
          [
            "Tajikistan",
            0.00025943119544535875
          ],
          [
            "Argentina",
            0.0002543299051467329
          ],
          [
            "Dominican Republic",
            0.00025313597870990634
          ],
          [
            "Japan",
            0.00023607563343830407
          ],
          [
            "Bangladesh",
            0.00022759794956073165
          ],
          [
            "Libya",
            0.00020332640269771218
          ],
          [
            "Slovakia",
            0.00019971189612988383
          ],
          [
            "Thailand",
            0.00019773108942899853
          ],
          [
            "South Korea",
            0.0001925279648276046
          ],
          [
            "Russia",
            0.00018819040269590914
          ],
          [
            "Sri Lanka",
            0.00018735628691501915
          ],
          [
            "Angola",
            0.00018565730715636164
          ],
          [
            "Mozambique",
            0.0001789318339433521
          ],
          [
            "Tanzania",
            0.00017435135669074953
          ],
          [
            "Guinea-Bissau",
            0.0001688717893557623
          ],
          [
            "United Kingdom",
            0.0001683732698438689
          ],
          [
            "Algeria",
            0.00016768038040027022
          ],
          [
            "Fiji",
            0.0001671366044320166
          ],
          [
            "Croatia",
            0.0001650168269407004
          ],
          [
            "DR Congo",
            0.0001620283437659964
          ],
          [
            "Albania",
            0.00016022376075852662
          ],
          [
            "Mauritania",
            0.00015911947411950678
          ],
          [
            "Guatemala",
            0.0001577881776029244
          ],
          [
            "Finland",
            0.0001481409271946177
          ],
          [
            "Cyprus",
            0.00014377330080606043
          ],
          [
            "Gabon",
            0.0001393469428876415
          ],
          [
            "India",
            0.00013896182645112276
          ],
          [
            "Bhutan",
            0.00013798668805975467
          ],
          [
            "Mali",
            0.00013611714530270547
          ],
          [
            "Burkina Faso",
            0.00013235723599791527
          ],
          [
            "Austria",
            0.00013120453513693064
          ],
          [
            "Sudan",
            0.00013052138092461973
          ],
          [
            "Somalia",
            0.00012514778063632548
          ],
          [
            "Niger",
            0.0001210974296554923
          ],
          [
            "United Arab Emirates",
            0.00012021257862215862
          ],
          [
            "Nicaragua",
            0.00011975145025644451
          ],
          [
            "Senegal",
            0.00011692432599375024
          ],
          [
            "Uganda",
            0.00011409580474719405
          ],
          [
            "Switzerland",
            0.00010972570453304797
          ],
          [
            "Kyrgyzstan",
            0.00010759068391053006
          ],
          [
            "Qatar",
            0.00010747378109954298
          ],
          [
            "France",
            9.928141662385315e-05
          ],
          [
            "Honduras",
            9.757512452779338e-05
          ],
          [
            "Iceland",
            9.633263107389212e-05
          ],
          [
            "West Bank",
            9.593491267878562e-05
          ],
          [
            "Hong Kong",
            9.498612052993849e-05
          ],
          [
            "Ghana",
            9.245577530236915e-05
          ],
          [
            "Lesotho",
            8.959343540482223e-05
          ],
          [
            "Cambodia",
            8.924788562580943e-05
          ],
          [
            "Trinidad and Tobago",
            8.915294893085957e-05
          ],
          [
            "Falkland Islands",
            8.867741416906938e-05
          ],
          [
            "Syria",
            8.852143946569413e-05
          ],
          [
            "Bulgaria",
            8.849173173075542e-05
          ],
          [
            "Botswana",
            8.688116213306785e-05
          ],
          [
            "Philippines",
            8.681523468112573e-05
          ],
          [
            "Bolivia",
            8.611434168415144e-05
          ],
          [
            "Zambia",
            8.583507587900385e-05
          ],
          [
            "Tunisia",
            8.560895366827026e-05
          ],
          [
            "Sweden",
            8.23084483272396e-05
          ],
          [
            "Guam",
            8.021000394364819e-05
          ],
          [
            "Kuwait",
            7.859711331548169e-05
          ],
          [
            "Cameroon",
            7.77429377194494e-05
          ],
          [
            "Greenland",
            7.711086800554767e-05
          ],
          [
            "Portugal",
            7.632232882315293e-05
          ],
          [
            "Central African Republic",
            7.559922232758254e-05
          ],
          [
            "Burundi",
            7.42320844437927e-05
          ],
          [
            "Hungary",
            6.358957034535706e-05
          ],
          [
            "Belarus",
            6.0426624258980155e-05
          ],
          [
            "Luxembourg",
            5.997719563310966e-05
          ],
          [
            "Colombia",
            5.786507244920358e-05
          ],
          [
            "Kiribati",
            5.55954611627385e-05
          ],
          [
            "French Guiana",
            5.478544335346669e-05
          ],
          [
            "Oman",
            5.367406993173063e-05
          ],
          [
            "China",
            5.054238863522187e-05
          ],
          [
            "Saint Lucia",
            4.773370164912194e-05
          ],
          [
            "Norway",
            4.52247477369383e-05
          ],
          [
            "Nigeria",
            4.356901627033949e-05
          ],
          [
            "Canada",
            4.1271639929618686e-05
          ],
          [
            "Palau",
            3.694101542350836e-05
          ],
          [
            "Jordan",
            3.538253076840192e-05
          ],
          [
            "Mayotte",
            3.5215154639445245e-05
          ],
          [
            "Slovenia",
            3.2929419830907136e-05
          ],
          [
            "Montenegro",
            3.265889608883299e-05
          ],
          [
            "Djibouti",
            2.2476095182355493e-05
          ],
          [
            "Taiwan",
            2.210755701526068e-05
          ],
          [
            "Brunei",
            2.1441441276692785e-05
          ],
          [
            "Greece",
            1.983024412766099e-05
          ],
          [
            "South Africa",
            1.9497982066241093e-05
          ],
          [
            "Germany",
            1.816510848584585e-05
          ],
          [
            "Congo",
            1.4063545677345246e-05
          ],
          [
            "Ireland",
            1.2362130291876383e-05
          ],
          [
            "Isle of Man",
            1.2277607311261818e-05
          ],
          [
            "Denmark",
            1.1758423170249444e-05
          ],
          [
            "Afghanistan",
            1.0283890333084855e-05
          ],
          [
            "Western Sahara",
            9.49444165598834e-06
          ],
          [
            "Haiti",
            7.401079528790433e-06
          ],
          [
            "Chad",
            7.1729346018400975e-06
          ],
          [
            "Madagascar",
            6.480552656284999e-06
          ],
          [
            "North Korea",
            6.344017037918093e-06
          ],
          [
            "Pakistan",
            5.6818503253452946e-06
          ],
          [
            "Morocco",
            3.056808736801031e-06
          ],
          [
            "Lebanon",
            2.960613755931263e-06
          ],
          [
            "Netherlands",
            2.174040446334402e-06
          ]
        ]
      },
      "geometry": {
        "type": "MultiLineString",
        "coordinates": [
          [
            [
              4.857142857142861,
              50.809523809523796
            ],
            [
              6.285714285714292,
              48.9047619047619
            ],
            [
              7.714285714285722,
              47.47619047619047
            ],
            [
              8.666666666666686,
              46.04761904761904
            ],
            [
              9.142857142857139,
              44.14285714285714
            ],
            [
              10.571428571428584,
              42.71428571428571
            ],
            [
              11.523809523809518,
              41.28571428571428
            ],
            [
              13.428571428571445,
              41.28571428571428
            ],
            [
              14.38095238095238,
              39.85714285714286
            ],
            [
              13.904761904761926,
              38.428571428571416
            ],
            [
              12.476190476190482,
              37.47619047619048
            ],
            [
              11.047619047619037,
              37.0
            ],
            [
              9.142857142857139,
              37.47619047619048
            ],
            [
              7.714285714285722,
              38.9047619047619
            ],
            [
              7.238095238095241,
              40.33333333333333
            ],
            [
              6.761904761904759,
              41.76190476190476
            ],
            [
              5.333333333333343,
              42.23809523809524
            ],
            [
              3.904761904761912,
              43.190476190476176
            ],
            [
              2.0,
              44.61904761904762
            ],
            [
              2.0,
              47.0
            ],
            [
              2.0,
              48.9047619047619
            ],
            [
              2.4761904761904816,
              50.33333333333333
            ],
            [
              4.857142857142861,
              50.33333333333333
            ]
          ],
          [
            [
              28.666666666666686,
              36.52380952380952
            ],
            [
              30.095238095238102,
              35.57142857142857
            ],
            [
              31.52380952380952,
              34.61904761904762
            ],
            [
              32.95238095238096,
              33.190476190476176
            ],
            [
              34.38095238095238,
              31.76190476190476
            ],
            [
              35.809523809523796,
              30.33333333333333
            ],
            [
              36.76190476190476,
              28.904761904761898
            ],
            [
              36.76190476190476,
              27.0
            ],
            [
              35.809523809523796,
              25.571428571428555
            ],
            [
              34.38095238095238,
              25.095238095238074
            ],
            [
              32.95238095238096,
              24.61904761904762
            ],
            [
              31.52380952380952,
              25.571428571428555
            ],
            [
              30.571428571428555,
              27.47619047619048
            ],
            [
              30.095238095238102,
              28.904761904761898
            ],
            [
              29.142857142857167,
              30.33333333333333
            ],
            [
              28.666666666666686,
              31.76190476190476
            ],
            [
              27.714285714285722,
              33.190476190476176
            ],
            [
              26.76190476190476,
              34.61904761904762
            ],
            [
              26.285714285714278,
              36.04761904761904
            ],
            [
              28.190476190476204,
              36.04761904761904
            ],
            [
              29.61904761904762,
              36.52380952380952
            ]
          ],
          [
            [
              53.904761904761926,
              20.333333333333314
            ],
            [
              55.333333333333314,
              19.857142857142833
            ],
            [
              56.76190476190476,
              18.428571428571445
            ],
            [
              58.190476190476204,
              17.952380952380963
            ],
            [
              60.0952380952381,
              17.47619047619048
            ],
            [
              61.52380952380952,
              16.047619047619037
            ],
            [
              62.0,
              14.61904761904762
            ],
            [
              60.0952380952381,
              13.666666666666657
            ],
            [
              57.71428571428572,
              13.190476190476204
            ],
            [
              55.333333333333314,
              13.190476190476204
            ],
            [
              53.428571428571445,
              13.666666666666657
            ],
            [
              52.47619047619048,
              15.571428571428555
            ],
            [
              52.0,
              17.0
            ],
            [
              51.52380952380952,
              18.904761904761898
            ],
            [
              51.52380952380952,
              20.809523809523796
            ],
            [
              52.47619047619048,
              22.23809523809524
            ],
            [
              53.904761904761926,
              21.285714285714278
            ],
            [
              54.85714285714286,
              19.857142857142833
            ]
          ]
        ]
      }
    }
  ]
}