{
  "type": "FeatureCollection",
  "crs": {
    "type": "name",
    "properties": {
      "name": "urn:ogc:def:crs:OGC:1.3:CRS84"
    }
  },
  "features": [
    {
      "type": "Feature",
      "properties": {
        "timestamp": "2026-05-07T17:51:32.525570",
        "country_name": "Solomon Islands",
        "author": "",
        "author_id": "354684da-e6b0-45cb-88cd-8cd60c9ddb9e",
        "validated": false,
        "ranking": [
          [
            "Solomon Islands",
            0.24762465059757233
          ],
          [
            "Cuba",
            0.12507952749729156
          ],
          [
            "Turks and Caicos Islands",
            0.08362366259098053
          ],
          [
            "Samoa",
            0.07589322328567505
          ],
          [
            "Netherlands Antilles",
            0.050046198070049286
          ],
          [
            "Indonesia",
            0.04778416454792023
          ],
          [
            "Ecuador",
            0.0364948995411396
          ],
          [
            "Comoros",
            0.027839420363307
          ],
          [
            "Puerto Rico",
            0.025243045762181282
          ],
          [
            "Malaysia",
            0.023287896066904068
          ],
          [
            "Jamaica",
            0.017306655645370483
          ],
          [
            "Gambia",
            0.01676943711936474
          ],
          [
            "Nepal",
            0.014624581672251225
          ],
          [
            "Equatorial Guinea",
            0.013920540921390057
          ],
          [
            "United States of America",
            0.012546834535896778
          ],
          [
            "Bahamas",
            0.012519892305135727
          ],
          [
            "Uzbekistan",
            0.010241813957691193
          ],
          [
            "Timor-Leste",
            0.00888691283762455
          ],
          [
            "Georgia",
            0.007237518206238747
          ],
          [
            "Turkey",
            0.005772598087787628
          ],
          [
            "Costa Rica",
            0.004898485727608204
          ],
          [
            "Sao Tome and Principe",
            0.004791039973497391
          ],
          [
            "Turkmenistan",
            0.004566169809550047
          ],
          [
            "New Caledonia",
            0.0044753155671060085
          ],
          [
            "Panama",
            0.004208880010992289
          ],
          [
            "Mexico",
            0.003839625744149089
          ],
          [
            "Vanuatu",
            0.0038198959082365036
          ],
          [
            "Eritrea",
            0.0035290210507810116
          ],
          [
            "Chile",
            0.0029948814772069454
          ],
          [
            "Heard and McDonald Islands",
            0.002985789906233549
          ],
          [
            "Martinique",
            0.0029818799812346697
          ],
          [
            "Barbados",
            0.0027532733511179686
          ],
          [
            "Slovakia",
            0.002713562222197652
          ],
          [
            "Bahrain",
            0.002600499428808689
          ],
          [
            "New Zealand",
            0.0024395210202783346
          ],
          [
            "Spain",
            0.002434705151244998
          ],
          [
            "Mongolia",
            0.0023782236967235804
          ],
          [
            "Latvia",
            0.002307618036866188
          ],
          [
            "Malawi",
            0.002057584235444665
          ],
          [
            "Armenia",
            0.002010856056585908
          ],
          [
            "Yemen",
            0.0018619917100295424
          ],
          [
            "South Georgia Islands",
            0.0018574052955955267
          ],
          [
            "Kyrgyzstan",
            0.0018329144222661853
          ],
          [
            "Cape Verde",
            0.001786743407137692
          ],
          [
            "Cyprus",
            0.0017818630440160632
          ],
          [
            "Guadeloupe",
            0.0016978414496406913
          ],
          [
            "El Salvador",
            0.0016728999326005578
          ],
          [
            "Paraguay",
            0.001672000391408801
          ],
          [
            "Kazakhstan",
            0.001508741290308535
          ],
          [
            "Israel",
            0.001366509241051972
          ],
          [
            "Czech Republic",
            0.0013027787208557129
          ],
          [
            "Dominican Republic",
            0.0012299363734200597
          ],
          [
            "Togo",
            0.0011944257421419024
          ],
          [
            "Dominica",
            0.001140973181463778
          ],
          [
            "United States Virgin Islands",
            0.0011259374441578984
          ],
          [
            "Japan",
            0.0010439627803862095
          ],
          [
            "Namibia",
            0.0010298145934939384
          ],
          [
            "Saudi Arabia",
            0.0009765182039700449
          ],
          [
            "Laos",
            0.0009432947263121605
          ],
          [
            "Lithuania",
            0.0009236904443241656
          ],
          [
            "Russia",
            0.0009130301186814904
          ],
          [
            "Guinea-Bissau",
            0.0008955225348472595
          ],
          [
            "Italy",
            0.0008896167273633182
          ],
          [
            "Antigua & Barbuda",
            0.0008615096448920667
          ],
          [
            "Egypt",
            0.0008084941655397415
          ],
          [
            "South Korea",
            0.0007755291881039739
          ],
          [
            "Hong Kong",
            0.0007457024767063558
          ],
          [
            "Ethiopia",
            0.0007451095734722912
          ],
          [
            "Peru",
            0.000726686732377857
          ],
          [
            "Moldova",
            0.0007234257645905018
          ],
          [
            "Falkland Islands",
            0.00072210788493976
          ],
          [
            "Papua New Guinea",
            0.0007183410925790668
          ],
          [
            "Myanmar",
            0.0006885514594614506
          ],
          [
            "Honduras",
            0.0006637730402871966
          ],
          [
            "Ukraine",
            0.0006621368229389191
          ],
          [
            "Central African Republic",
            0.000655338226351887
          ],
          [
            "Guinea",
            0.000645626278128475
          ],
          [
            "Guatemala",
            0.0006401060381904244
          ],
          [
            "United Arab Emirates",
            0.000638953351881355
          ],
          [
            "Madeira Islands",
            0.0006377820391207933
          ],
          [
            "Belize",
            0.0006148248212412
          ],
          [
            "Burkina Faso",
            0.0006002594600431621
          ],
          [
            "Guyana",
            0.0005893819034099579
          ],
          [
            "Benin",
            0.000585195841267705
          ],
          [
            "Tajikistan",
            0.0005713029531762004
          ],
          [
            "Fiji",
            0.0005634668632410467
          ],
          [
            "Belgium",
            0.0005538082332350314
          ],
          [
            "Svalbard",
            0.000553081976249814
          ],
          [
            "Azerbaijan",
            0.0005243991035968065
          ],
          [
            "Liberia",
            0.0005173770477995276
          ],
          [
            "Rwanda",
            0.0005064727738499641
          ],
          [
            "Zambia",
            0.0005031797918491066
          ],
          [
            "Trinidad and Tobago",
            0.0004996097995899618
          ],
          [
            "Thailand",
            0.00048687972594052553
          ],
          [
            "South Sudan",
            0.00048629313823767006
          ],
          [
            "Bosnia & Herzegovina",
            0.00048606598284095526
          ],
          [
            "Romania",
            0.0004822842893190682
          ],
          [
            "Vietnam",
            0.0004615359066519886
          ],
          [
            "Mali",
            0.00045479749678634107
          ],
          [
            "Mauritania",
            0.00044585889554582536
          ],
          [
            "Brazil",
            0.00044311798410490155
          ],
          [
            "Suriname",
            0.0004390268586575985
          ],
          [
            "Iran",
            0.0004224480362609029
          ],
          [
            "Austria",
            0.00041613110806792974
          ],
          [
            "Uruguay",
            0.0004097452329006046
          ],
          [
            "North Macedonia",
            0.00040613184683024883
          ],
          [
            "Faroe Islands",
            0.0004023599612992257
          ],
          [
            "Switzerland",
            0.00040128696127794683
          ],
          [
            "Estonia",
            0.0003888175415340811
          ],
          [
            "Eswatini",
            0.00038478864007629454
          ],
          [
            "Sierra Leone",
            0.0003726007998920977
          ],
          [
            "Argentina",
            0.0003638987254817039
          ],
          [
            "Niger",
            0.00035101285902783275
          ],
          [
            "Angola",
            0.0003437552077230066
          ],
          [
            "Iraq",
            0.00033806770807132125
          ],
          [
            "Bangladesh",
            0.00031934858998283744
          ],
          [
            "Albania",
            0.00031206573476083577
          ],
          [
            "Reunion",
            0.00031146276160143316
          ],
          [
            "Mozambique",
            0.00030897767283022404
          ],
          [
            "Somalia",
            0.0003068943624384701
          ],
          [
            "Serbia",
            0.00029708820511586964
          ],
          [
            "Australia",
            0.0002914848446380347
          ],
          [
            "Venezuela",
            0.0002824990078806877
          ],
          [
            "Guam",
            0.00028152219601906836
          ],
          [
            "Tunisia",
            0.00027537657297216356
          ],
          [
            "Sri Lanka",
            0.00027103073080070317
          ],
          [
            "Luxembourg",
            0.0002643213956616819
          ],
          [
            "Hungary",
            0.0002626629138831049
          ],
          [
            "Algeria",
            0.0002456131624057889
          ],
          [
            "Uganda",
            0.00023841310758143663
          ],
          [
            "Philippines",
            0.0002373255993006751
          ],
          [
            "Bhutan",
            0.00023731429246254265
          ],
          [
            "Botswana",
            0.00023726042127236724
          ],
          [
            "Qatar",
            0.00022884231293573976
          ],
          [
            "Syria",
            0.00022879386960994452
          ],
          [
            "Nicaragua",
            0.00022805189655628055
          ],
          [
            "Zimbabwe",
            0.00022503119544126093
          ],
          [
            "Côte d'Ivoire",
            0.0002219784801127389
          ],
          [
            "Finland",
            0.00020702947222162038
          ],
          [
            "DR Congo",
            0.00020402904192451388
          ],
          [
            "Ghana",
            0.00020200542348902673
          ],
          [
            "Cameroon",
            0.00019930499547626823
          ],
          [
            "Greenland",
            0.00019785396580118686
          ],
          [
            "United Kingdom",
            0.0001940685760928318
          ],
          [
            "Kenya",
            0.0001919228961924091
          ],
          [
            "Poland",
            0.00018479235586710274
          ],
          [
            "India",
            0.00018412037752568722
          ],
          [
            "West Bank",
            0.00018132220429833978
          ],
          [
            "Bolivia",
            0.00017970845510717481
          ],
          [
            "Djibouti",
            0.00017600282444618642
          ],
          [
            "Brunei",
            0.00017523740825708956
          ],
          [
            "Canada",
            0.00017176773690152913
          ],
          [
            "Burundi",
            0.0001667073229327798
          ],
          [
            "Lesotho",
            0.0001625324657652527
          ],
          [
            "Croatia",
            0.00016031780978664756
          ],
          [
            "Portugal",
            0.00015752374019939452
          ],
          [
            "Gabon",
            0.00015599292237311602
          ],
          [
            "Slovenia",
            0.00015527484356425703
          ],
          [
            "Oman",
            0.00015444074233528227
          ],
          [
            "Belarus",
            0.00015067850472405553
          ],
          [
            "Iceland",
            0.00015017065743450075
          ],
          [
            "Norway",
            0.00014897843357175589
          ],
          [
            "Bulgaria",
            0.00014755767188034952
          ],
          [
            "South Africa",
            0.00014513566566165537
          ],
          [
            "Senegal",
            0.00014394168101716787
          ],
          [
            "France",
            0.00014372852456290275
          ],
          [
            "Saint Lucia",
            0.00014230080705601722
          ],
          [
            "China",
            0.00013611861504614353
          ],
          [
            "Tanzania",
            0.00013380781456362456
          ],
          [
            "French Guiana",
            0.00013377769209910184
          ],
          [
            "Isle of Man",
            0.00013255699013825506
          ],
          [
            "Sweden",
            0.00013246828166302294
          ],
          [
            "Sudan",
            0.00013073931040707976
          ],
          [
            "Libya",
            0.00012852570216637105
          ],
          [
            "Montenegro",
            0.00011594421812333167
          ],
          [
            "Kuwait",
            0.00011249665840296075
          ],
          [
            "Colombia",
            0.00010615456994855776
          ],
          [
            "Mayotte",
            0.00010538211790844798
          ],
          [
            "Palau",
            9.417266846867278e-05
          ],
          [
            "Nigeria",
            9.062026219908148e-05
          ],
          [
            "Cambodia",
            8.292230631923303e-05
          ],
          [
            "Jordan",
            8.08627883088775e-05
          ],
          [
            "Taiwan",
            6.076407225918956e-05
          ],
          [
            "Congo",
            5.630572559311986e-05
          ],
          [
            "North Korea",
            5.422268804977648e-05
          ],
          [
            "Kiribati",
            5.418981163529679e-05
          ],
          [
            "Afghanistan",
            5.2784584113396704e-05
          ],
          [
            "Western Sahara",
            4.4354899728205055e-05
          ],
          [
            "Germany",
            4.076582263223827e-05
          ],
          [
            "Pakistan",
            3.9366408600471914e-05
          ],
          [
            "Chad",
            3.622648728196509e-05
          ],
          [
            "Morocco",
            3.456492049735971e-05
          ],
          [
            "Lebanon",
            3.3773565519368276e-05
          ],
          [
            "Ireland",
            3.211050352547318e-05
          ],
          [
            "Greece",
            2.251714795420412e-05
          ],
          [
            "Madagascar",
            2.192885040130932e-05
          ],
          [
            "Denmark",
            2.008247611229308e-05
          ],
          [
            "Netherlands",
            1.6170924936886877e-05
          ],
          [
            "Haiti",
            8.356083526450675e-06
          ]
        ]
      },
      "geometry": {
        "type": "MultiLineString",
        "coordinates": [
          [
            [
              2.0,
              38.921015917306136
            ],
            [
              62.0,
              25.078984082693864
            ]
          ]
        ]
      }
    }
  ]
}