{
  "type": "FeatureCollection",
  "crs": {
    "type": "name",
    "properties": {
      "name": "urn:ogc:def:crs:OGC:1.3:CRS84"
    }
  },
  "features": [
    {
      "type": "Feature",
      "properties": {
        "timestamp": "2026-05-19T16:03:21.697194",
        "country_name": "Somalia",
        "author": "",
        "author_id": "93760cca-f161-431e-a478-7579de3b4c09",
        "validated": false,
        "ranking": [
          [
            "Somalia",
            0.4277046024799347
          ],
          [
            "Congo",
            0.06486839801073074
          ],
          [
            "Lebanon",
            0.03997486084699631
          ],
          [
            "Mozambique",
            0.03971244767308235
          ],
          [
            "Thailand",
            0.03411342203617096
          ],
          [
            "Mayotte",
            0.03149291127920151
          ],
          [
            "Oman",
            0.020571565255522728
          ],
          [
            "Guam",
            0.017406722530722618
          ],
          [
            "Spain",
            0.014552213251590729
          ],
          [
            "Belize",
            0.013189074583351612
          ],
          [
            "Philippines",
            0.01261935569345951
          ],
          [
            "Timor-Leste",
            0.012440403923392296
          ],
          [
            "South Korea",
            0.008168799802660942
          ],
          [
            "Jordan",
            0.00794274639338255
          ],
          [
            "Cyprus",
            0.007856681942939758
          ],
          [
            "Sweden",
            0.00743245892226696
          ],
          [
            "Benin",
            0.007109722122550011
          ],
          [
            "Mali",
            0.006188331171870232
          ],
          [
            "Malawi",
            0.005772021599113941
          ],
          [
            "India",
            0.005712255369871855
          ],
          [
            "Slovakia",
            0.0056924172677099705
          ],
          [
            "Israel",
            0.0054686772637069225
          ],
          [
            "Portugal",
            0.005278369877487421
          ],
          [
            "Montenegro",
            0.004966567736119032
          ],
          [
            "Dominican Republic",
            0.004815580788999796
          ],
          [
            "Netherlands",
            0.004568623378872871
          ],
          [
            "Argentina",
            0.00456424243748188
          ],
          [
            "Isle of Man",
            0.004494646098464727
          ],
          [
            "Japan",
            0.004418351221829653
          ],
          [
            "Bangladesh",
            0.004332892596721649
          ],
          [
            "Norway",
            0.0042281802743673325
          ],
          [
            "Guadeloupe",
            0.004192076623439789
          ],
          [
            "North Korea",
            0.004135413561016321
          ],
          [
            "Albania",
            0.003584777470678091
          ],
          [
            "Taiwan",
            0.003580841002985835
          ],
          [
            "Togo",
            0.003394083119928837
          ],
          [
            "Hong Kong",
            0.003389128018170595
          ],
          [
            "Palau",
            0.0033876351080834866
          ],
          [
            "Kyrgyzstan",
            0.0033406789880245924
          ],
          [
            "New Zealand",
            0.003320623654872179
          ],
          [
            "Syria",
            0.003209441201761365
          ],
          [
            "Vietnam",
            0.003162770764902234
          ],
          [
            "Turkmenistan",
            0.003130451776087284
          ],
          [
            "Afghanistan",
            0.002970048924908042
          ],
          [
            "Moldova",
            0.002905472880229354
          ],
          [
            "Papua New Guinea",
            0.0028751417994499207
          ],
          [
            "Finland",
            0.0028036742005497217
          ],
          [
            "Russia",
            0.0027999223675578833
          ],
          [
            "Tajikistan",
            0.002797274850308895
          ],
          [
            "Western Sahara",
            0.0027599281165748835
          ],
          [
            "Turkey",
            0.0027155643329024315
          ],
          [
            "Myanmar",
            0.0027007139287889004
          ],
          [
            "Falkland Islands",
            0.002513312269002199
          ],
          [
            "Central African Republic",
            0.0023705502972006798
          ],
          [
            "Tunisia",
            0.0023325567599385977
          ],
          [
            "Svalbard",
            0.0022741337306797504
          ],
          [
            "Honduras",
            0.0022676626686006784
          ],
          [
            "Madagascar",
            0.00221144687384367
          ],
          [
            "Trinidad and Tobago",
            0.002175218891352415
          ],
          [
            "Fiji",
            0.002156217582523823
          ],
          [
            "Faroe Islands",
            0.0019469104008749127
          ],
          [
            "Slovenia",
            0.0018012607470154762
          ],
          [
            "Burundi",
            0.0017962140263989568
          ],
          [
            "United Kingdom",
            0.001759887090884149
          ],
          [
            "Vanuatu",
            0.001677167252637446
          ],
          [
            "West Bank",
            0.001622936106286943
          ],
          [
            "Cameroon",
            0.0015992962289601564
          ],
          [
            "Yemen",
            0.0015984972706064582
          ],
          [
            "Guinea-Bissau",
            0.001480685081332922
          ],
          [
            "Puerto Rico",
            0.0014380775392055511
          ],
          [
            "South Georgia Islands",
            0.001401317771524191
          ],
          [
            "Nigeria",
            0.001306047197431326
          ],
          [
            "Switzerland",
            0.0012647517723962665
          ],
          [
            "Namibia",
            0.0012491446686908603
          ],
          [
            "Saudi Arabia",
            0.0012144059874117374
          ],
          [
            "Morocco",
            0.0011848430149257183
          ],
          [
            "Chile",
            0.0011720334878191352
          ],
          [
            "Greenland",
            0.0011606302578002214
          ],
          [
            "Indonesia",
            0.0011458051158115268
          ],
          [
            "Ecuador",
            0.0011386092519387603
          ],
          [
            "Bhutan",
            0.0010987892746925354
          ],
          [
            "Uzbekistan",
            0.001064369804225862
          ],
          [
            "Guyana",
            0.0010535296751186252
          ],
          [
            "Senegal",
            0.001046849531121552
          ],
          [
            "New Caledonia",
            0.001042983029037714
          ],
          [
            "Kazakhstan",
            0.0010214627254754305
          ],
          [
            "Serbia",
            0.000992947956547141
          ],
          [
            "Rwanda",
            0.0009692306048236787
          ],
          [
            "Georgia",
            0.0009688480058684945
          ],
          [
            "Burkina Faso",
            0.0009468922507949173
          ],
          [
            "Heard and McDonald Islands",
            0.0009389484184794128
          ],
          [
            "Eritrea",
            0.0009309362503699958
          ],
          [
            "Qatar",
            0.0009175213635899127
          ],
          [
            "Czech Republic",
            0.0009069339721463621
          ],
          [
            "Antigua & Barbuda",
            0.0009043256868608296
          ],
          [
            "United Arab Emirates",
            0.000892869895324111
          ],
          [
            "Canada",
            0.0008826242410577834
          ],
          [
            "Ireland",
            0.00085117993876338
          ],
          [
            "Italy",
            0.0008203504839912057
          ],
          [
            "Ukraine",
            0.000771165534388274
          ],
          [
            "Mongolia",
            0.0007642337586730719
          ],
          [
            "El Salvador",
            0.0007343553006649017
          ],
          [
            "Jamaica",
            0.0007043889490887523
          ],
          [
            "Bolivia",
            0.0007029072730802
          ],
          [
            "Pakistan",
            0.0007027772371657193
          ],
          [
            "Angola",
            0.0006649929564446211
          ],
          [
            "Croatia",
            0.000622240302618593
          ],
          [
            "Dominica",
            0.0005972373182885349
          ],
          [
            "Equatorial Guinea",
            0.0005922031123191118
          ],
          [
            "Panama",
            0.0005918440292589366
          ],
          [
            "Brunei",
            0.0005855203489772975
          ],
          [
            "Cape Verde",
            0.0005586988991126418
          ],
          [
            "Bahrain",
            0.0005487314774654806
          ],
          [
            "Latvia",
            0.0005459045059978962
          ],
          [
            "Colombia",
            0.0005419435328803957
          ],
          [
            "Saint Lucia",
            0.0005387259880080819
          ],
          [
            "French Guiana",
            0.0005242498009465635
          ],
          [
            "Botswana",
            0.0005122285801917315
          ],
          [
            "Malaysia",
            0.0004778139991685748
          ],
          [
            "Guatemala",
            0.00045859863166697323
          ],
          [
            "Austria",
            0.0004202305863145739
          ],
          [
            "Martinique",
            0.00041800978942774236
          ],
          [
            "Gabon",
            0.000386793544748798
          ],
          [
            "Sri Lanka",
            0.00038641307037323713
          ],
          [
            "North Macedonia",
            0.00038489923463203013
          ],
          [
            "Sao Tome and Principe",
            0.00038352736737579107
          ],
          [
            "Mexico",
            0.0003825097228400409
          ],
          [
            "Egypt",
            0.00037683668779209256
          ],
          [
            "Haiti",
            0.0003696191997732967
          ],
          [
            "Paraguay",
            0.0003693499893415719
          ],
          [
            "China",
            0.0003584481601137668
          ],
          [
            "Bahamas",
            0.0003491330717224628
          ],
          [
            "Ghana",
            0.0003400107380002737
          ],
          [
            "Solomon Islands",
            0.0003395642270334065
          ],
          [
            "Cuba",
            0.0003391913487575948
          ],
          [
            "Australia",
            0.00032936371280811727
          ],
          [
            "Laos",
            0.0003217119083274156
          ],
          [
            "Chad",
            0.0003146564995404333
          ],
          [
            "Guinea",
            0.00031146733090281487
          ],
          [
            "Kuwait",
            0.0003086170181632042
          ],
          [
            "South Africa",
            0.0003058849251829088
          ],
          [
            "Lithuania",
            0.00030435610096901655
          ],
          [
            "Niger",
            0.00029916808125562966
          ],
          [
            "Peru",
            0.0002973192895296961
          ],
          [
            "United States of America",
            0.00029336148872971535
          ],
          [
            "Ethiopia",
            0.00027579430025070906
          ],
          [
            "Gambia",
            0.00026273741968907416
          ],
          [
            "Zambia",
            0.0002588338393252343
          ],
          [
            "Iceland",
            0.0002561987203080207
          ],
          [
            "Hungary",
            0.0002534907835070044
          ],
          [
            "Romania",
            0.0002529257326386869
          ],
          [
            "Libya",
            0.0002489964244887233
          ],
          [
            "Greece",
            0.0002476163499522954
          ],
          [
            "Mauritania",
            0.00023681088350713253
          ],
          [
            "Turks and Caicos Islands",
            0.00023575991508550942
          ],
          [
            "Bulgaria",
            0.00022595403424929827
          ],
          [
            "Nepal",
            0.00022207321308087558
          ],
          [
            "France",
            0.00021933030802756548
          ],
          [
            "Djibouti",
            0.00021920943981967866
          ],
          [
            "Armenia",
            0.0002148445346392691
          ],
          [
            "Cambodia",
            0.00021191587438806891
          ],
          [
            "Barbados",
            0.00019128395069856197
          ],
          [
            "Iran",
            0.00017880607629194856
          ],
          [
            "Lesotho",
            0.00017865505651570857
          ],
          [
            "Netherlands Antilles",
            0.00017684430349618196
          ],
          [
            "Reunion",
            0.00017301051411777735
          ],
          [
            "Estonia",
            0.00017253730038646609
          ],
          [
            "Costa Rica",
            0.00016894793952815235
          ],
          [
            "Suriname",
            0.00016852698172442615
          ],
          [
            "Iraq",
            0.00016249174950644374
          ],
          [
            "Luxembourg",
            0.00015889666974544525
          ],
          [
            "Azerbaijan",
            0.00015832549252081662
          ],
          [
            "Brazil",
            0.00015797889500390738
          ],
          [
            "Belgium",
            0.0001538262004032731
          ],
          [
            "United States Virgin Islands",
            0.0001535594492452219
          ],
          [
            "Uganda",
            0.000142856573802419
          ],
          [
            "Venezuela",
            0.00013972229498904198
          ],
          [
            "Sudan",
            0.00013602823310066015
          ],
          [
            "Samoa",
            0.0001287012710236013
          ],
          [
            "Denmark",
            0.00012429883645381778
          ],
          [
            "Madeira Islands",
            0.00012039830471621826
          ],
          [
            "South Sudan",
            0.00011474404891487211
          ],
          [
            "Uruguay",
            0.00010846667282748967
          ],
          [
            "Belarus",
            9.867097105598077e-05
          ],
          [
            "Germany",
            9.225502435583621e-05
          ],
          [
            "Sierra Leone",
            9.170992416329682e-05
          ],
          [
            "Liberia",
            8.731515117688105e-05
          ],
          [
            "Poland",
            8.467961015412584e-05
          ],
          [
            "Algeria",
            7.914278103271499e-05
          ],
          [
            "Bosnia & Herzegovina",
            7.085212564561516e-05
          ],
          [
            "Eswatini",
            6.321063119685277e-05
          ],
          [
            "DR Congo",
            6.277856300584972e-05
          ],
          [
            "Côte d'Ivoire",
            6.201274663908407e-05
          ],
          [
            "Comoros",
            6.134114664746448e-05
          ],
          [
            "Kenya",
            5.954773223493248e-05
          ],
          [
            "Tanzania",
            5.721529305446893e-05
          ],
          [
            "Nicaragua",
            2.3794402295607142e-05
          ],
          [
            "Kiribati",
            1.99637288460508e-05
          ],
          [
            "Zimbabwe",
            1.8531736714066938e-05
          ]
        ]
      },
      "geometry": {
        "type": "MultiLineString",
        "coordinates": [
          [
            [
              17.578820561349943,
              2.499996691174033
            ],
            [
              16.74524076290328,
              2.499996691174033
            ],
            [
              15.911660964456587,
              2.8333354543756286
            ],
            [
              14.911331609010801,
              3.1666589460727437
            ],
            [
              14.077736539059657,
              3.4999977092743393
            ],
            [
              12.910703441128078,
              4.16665996417305
            ],
            [
              12.24382738516718,
              4.666656655347083
            ],
            [
              11.410232315216064,
              5.333326545998034
            ],
            [
              10.576652516769371,
              6.33332756409834
            ],
            [
              9.743042175313803,
              7.666659709647973
            ],
            [
              9.076166119352905,
              9.166657418922313
            ],
            [
              8.576024348886676,
              10.833328327673541
            ],
            [
              8.24257104940179,
              12.33332603694788
            ],
            [
              8.075867306915995,
              13.666665818249754
            ],
            [
              7.909148292925778,
              14.500001272625354
            ],
            [
              7.742414007431108,
              15.33332145549656
            ],
            [
              7.5757102649453145,
              16.16665690987216
            ],
            [
              8.576024348886676,
              16.666661236798404
            ],
            [
              9.576323161323586,
              17.166657927972466
            ],
            [
              10.409918231274702,
              17.6666546191465
            ],
            [
              11.24352857273027,
              17.999993382348066
            ],
            [
              11.910404628691168,
              18.4999900735221
            ],
            [
              12.74398442713786,
              19.166667599925262
            ],
            [
              13.410860483098759,
              19.833329854824
            ],
            [
              14.41117456704012,
              20.333326545998034
            ],
            [
              15.244784908495689,
              20.999996436648956
            ],
            [
              15.911660964456587,
              21.666658691547696
            ],
            [
              16.411802734922816,
              22.333320946446406
            ],
            [
              16.911944505389044,
              23.166656400822006
            ],
            [
              17.578820561349943,
              23.66666072774828
            ],
            [
              18.41243090280551,
              24.333330618399202
            ],
            [
              19.079306958766438,
              24.833327309573235
            ],
            [
              20.07962104270777,
              25.499993382348066
            ],
            [
              21.246638869134898,
              25.99999389139822
            ],
            [
              22.580390981056723,
              26.999991091622405
            ],
            [
              23.247267037017593,
              27.49999923642477
            ],
            [
              24.08087737847319,
              28.16666149132351
            ],
            [
              24.914457176919854,
              29.166662509423787
            ],
            [
              25.748036975366546,
              29.999997963799416
            ],
            [
              26.581647316822114,
              30.833333418175016
            ],
            [
              27.415227115268806,
              31.499995673073727
            ],
            [
              27.91539942874391,
              32.333331127449355
            ],
            [
              28.582260213200357,
              32.83332781862339
            ],
            [
              29.4158552831515,
              33.4999900735221
            ],
            [
              30.0827313391124,
              34.000002036200584
            ],
            [
              31.08304542305376,
              35.166660982273356
            ],
            [
              31.583217736528866,
              35.999996436648956
            ],
            [
              31.916640493004877,
              36.833331891024585
            ],
            [
              32.250093792489764,
              37.66665970964797
            ],
            [
              32.583516548965775,
              38.4999951640236
            ],
            [
              32.75022029145157,
              39.49999236424779
            ],
            [
              32.91693930544179,
              40.33332781862339
            ],
            [
              32.75022029145157,
              41.16666327299902
            ],
            [
              31.416483451034196,
              42.1666604732232
            ],
            [
              30.0827313391124,
              42.833330363874126
            ],
            [
              28.582260213200357,
              43.499996436648956
            ],
            [
              26.414913031327444,
              44.66666301847394
            ],
            [
              23.91414309297852,
              45.833329600298924
            ],
            [
              21.413373154629568,
              47.16666556372468
            ],
            [
              18.745868930785974,
              48.66666327299902
            ],
            [
              16.078364706942352,
              50.4999959275988
            ],
            [
              13.744298511079222,
              52.499997963799416
            ],
            [
              11.743670343196527,
              54.66666174584856
            ],
            [
              10.07649547479869,
              56.66666378204917
            ],
            [
              9.076166119352905,
              58.499994527710896
            ],
            [
              8.576024348886676,
              59.83332858219862
            ],
            [
              8.24257104940179,
              60.83332769136085
            ],
            [
              8.24257104940179,
              61.66666314573648
            ],
            [
              10.409918231274702,
              62.0
            ],
            [
              12.910703441128078,
              62.0
            ],
            [
              15.5782076649717,
              61.33333201828711
            ],
            [
              18.41243090280551,
              60.499996563911495
            ],
            [
              21.07991985514468,
              59.49999745474926
            ],
            [
              23.414001322512263,
              58.499994527710896
            ],
            [
              25.581333232880752,
              57.66666480014945
            ],
            [
              27.248523372783012,
              56.99999681843656
            ],
            [
              28.915713512685272,
              56.1666594551229
            ],
            [
              30.416169367092834,
              55.33333163649951
            ],
            [
              31.583217736528866,
              54.49999618212388
            ],
            [
              32.583516548965775,
              53.66666454562437
            ],
            [
              33.75056491840181,
              52.499997963799416
            ],
            [
              34.41742570285825,
              51.66666250942379
            ],
            [
              35.084317030323604,
              50.6666653091996
            ],
            [
              35.91789682877027,
              49.833329854824
            ],
            [
              36.58475761322674,
              49.16665996417305
            ],
            [
              37.084929926701875,
              48.49999389139822
            ],
            [
              38.085228739138756,
              47.333327309573235
            ],
            [
              39.085527551575694,
              46.16666072774828
            ],
            [
              39.5856998650508,
              45.49999847284954
            ],
            [
              40.252560649507245,
              44.83333240007474
            ],
            [
              40.919451976972596,
              43.666665818249754
            ],
            [
              41.25290527645748,
              42.833330363874126
            ],
            [
              41.91976606091396,
              42.1666604732232
            ],
            [
              42.92006487335087,
              41.83332552789773
            ],
            [
              44.08709797128245,
              41.66666378204917
            ],
            [
              45.254115797709574,
              41.66666378204917
            ],
            [
              46.25444515315536,
              41.66666378204917
            ],
            [
              47.42149352259139,
              41.66666378204917
            ],
            [
              48.25507332103808,
              41.66666378204917
            ],
            [
              49.088653119484746,
              41.999994909498525
            ],
            [
              50.088997746434984,
              42.49999923642477
            ],
            [
              51.25600030135769,
              43.1666653091996
            ],
            [
              52.25632965680347,
              43.83332756409831
            ],
            [
              53.25662846924038,
              44.66666301847394
            ],
            [
              54.090208267687046,
              45.16666352752409
            ],
            [
              55.09053762313286,
              45.833329600298924
            ],
            [
              55.924132693083976,
              46.49999567307373
            ],
            [
              56.42428973505466,
              47.16666556372468
            ],
            [
              55.924132693083976,
              46.49999567307373
            ],
            [
              55.25725663712308,
              45.833329600298924
            ],
            [
              54.42366156717196,
              44.999994145923296
            ],
            [
              53.42336275473505,
              43.99999694569911
            ],
            [
              52.92319044125992,
              43.33332323717207
            ],
            [
              52.42304867079369,
              42.666660982273356
            ],
            [
              51.75615734332837,
              41.83332552789773
            ],
            [
              50.922577544881676,
              40.9999900735221
            ],
            [
              50.25570148892075,
              39.99999669117403
            ],
            [
              49.42210641896963,
              38.99999949094985
            ],
            [
              48.25507332103808,
              37.83333290912486
            ],
            [
              47.254774508601145,
              36.33333519985055
            ],
            [
              46.25444515315536,
              34.83332603694788
            ],
            [
              45.08741205522378,
              33.33332832767354
            ],
            [
              43.920409500301105,
              31.666668872550645
            ],
            [
              42.75334585936065,
              29.999997963799416
            ],
            [
              41.41960901894328,
              28.16666149132351
            ],
            [
              40.08585690702148,
              26.166667090875137
            ],
            [
              38.75210479509968,
              24.333330618399202
            ],
            [
              37.25164894069209,
              22.333320946446406
            ],
            [
              35.91789682877027,
              20.499999745474923
            ],
            [
              34.41742570285825,
              18.4999900735221
            ],
            [
              32.91693930544179,
              16.666661236798404
            ],
            [
              31.24976443704398,
              14.999997963799416
            ],
            [
              29.749293311131964,
              13.333327055048187
            ],
            [
              28.41554119921014,
              12.166668108975415
            ],
            [
              27.081789087288342,
              10.99999389139822
            ],
            [
              25.914771260861215,
              9.833334945325475
            ],
            [
              24.747753434434088,
              8.999999490949847
            ],
            [
              23.580705064998057,
              8.166664036574247
            ],
            [
              22.580390981056723,
              7.333328582198618
            ],
            [
              21.58007689711536,
              6.499993127823018
            ],
            [
              20.579762813174,
              5.499992109722712
            ],
            [
              19.9128867572131,
              4.833329854824001
            ],
            [
              19.246010701252203,
              3.9999944004483723
            ],
            [
              18.579134645291305,
              3.4999977092743393
            ],
            [
              17.912258589330406,
              2.999985746595854
            ],
            [
              16.911944505389044,
              2.3333234916971435
            ],
            [
              16.078364706942352,
              2.0
            ]
          ]
        ]
      }
    }
  ]
}