{
  "type": "FeatureCollection",
  "crs": {
    "type": "name",
    "properties": {
      "name": "urn:ogc:def:crs:OGC:1.3:CRS84"
    }
  },
  "features": [
    {
      "type": "Feature",
      "properties": {
        "timestamp": "2026-05-17T14:17:54.170834",
        "country_name": "Somalia",
        "author": "FelixGeograhyExpert",
        "author_id": "8b16f210-3083-470c-903f-ba93b4193321",
        "validated": false,
        "ranking": [
          [
            "Congo",
            0.03957490995526314
          ],
          [
            "Slovakia",
            0.03825860470533371
          ],
          [
            "Somalia",
            0.03485579416155815
          ],
          [
            "Bangladesh",
            0.029064947739243507
          ],
          [
            "India",
            0.024633390828967094
          ],
          [
            "Tajikistan",
            0.023553410544991493
          ],
          [
            "South Georgia Islands",
            0.02308661676943302
          ],
          [
            "Russia",
            0.019527990370988846
          ],
          [
            "Bulgaria",
            0.0184027086943388
          ],
          [
            "Burundi",
            0.017581937834620476
          ],
          [
            "Oman",
            0.01652420312166214
          ],
          [
            "Slovenia",
            0.015995169058442116
          ],
          [
            "Falkland Islands",
            0.015526486560702324
          ],
          [
            "Dominican Republic",
            0.014849226921796799
          ],
          [
            "Mozambique",
            0.014773177914321423
          ],
          [
            "Nigeria",
            0.014653682708740234
          ],
          [
            "Jordan",
            0.014457984827458858
          ],
          [
            "Uzbekistan",
            0.014283004216849804
          ],
          [
            "Turkey",
            0.013389239087700844
          ],
          [
            "Syria",
            0.01327751949429512
          ],
          [
            "Thailand",
            0.012983632273972034
          ],
          [
            "South Africa",
            0.01239140797406435
          ],
          [
            "Hong Kong",
            0.012260109186172485
          ],
          [
            "Guinea-Bissau",
            0.012221748940646648
          ],
          [
            "Philippines",
            0.011113859713077545
          ],
          [
            "Guadeloupe",
            0.011026045307517052
          ],
          [
            "North Korea",
            0.010994503274559975
          ],
          [
            "Afghanistan",
            0.01090836152434349
          ],
          [
            "Spain",
            0.010551492683589458
          ],
          [
            "Zambia",
            0.01019847672432661
          ],
          [
            "Papua New Guinea",
            0.010012710466980934
          ],
          [
            "Honduras",
            0.009962969459593296
          ],
          [
            "Heard and McDonald Islands",
            0.00949019193649292
          ],
          [
            "Trinidad and Tobago",
            0.008872105740010738
          ],
          [
            "Kyrgyzstan",
            0.008318563923239708
          ],
          [
            "Cyprus",
            0.008258048444986343
          ],
          [
            "Georgia",
            0.008116740733385086
          ],
          [
            "Rwanda",
            0.007928111590445042
          ],
          [
            "Mayotte",
            0.007818637415766716
          ],
          [
            "Netherlands",
            0.0075132898055016994
          ],
          [
            "Lebanon",
            0.007375984452664852
          ],
          [
            "Czech Republic",
            0.006797395646572113
          ],
          [
            "Saudi Arabia",
            0.0067749773152172565
          ],
          [
            "Switzerland",
            0.00649277912452817
          ],
          [
            "Central African Republic",
            0.006444907281547785
          ],
          [
            "Iceland",
            0.0064151412807404995
          ],
          [
            "Timor-Leste",
            0.006407058332115412
          ],
          [
            "Italy",
            0.006372847128659487
          ],
          [
            "Mongolia",
            0.006268506869673729
          ],
          [
            "Bolivia",
            0.006243068724870682
          ],
          [
            "Ukraine",
            0.006222644355148077
          ],
          [
            "Indonesia",
            0.005968061275780201
          ],
          [
            "Ireland",
            0.005750758573412895
          ],
          [
            "Turkmenistan",
            0.005585842300206423
          ],
          [
            "China",
            0.005457320250570774
          ],
          [
            "Yemen",
            0.005385886877775192
          ],
          [
            "Belize",
            0.005332956090569496
          ],
          [
            "Angola",
            0.005228780210018158
          ],
          [
            "Montenegro",
            0.005201664287596941
          ],
          [
            "Morocco",
            0.005161922890692949
          ],
          [
            "Jamaica",
            0.005074397660791874
          ],
          [
            "Finland",
            0.004952351097017527
          ],
          [
            "Gabon",
            0.00469251349568367
          ],
          [
            "Moldova",
            0.004681080114096403
          ],
          [
            "Cambodia",
            0.004642012529075146
          ],
          [
            "Guatemala",
            0.004459192976355553
          ],
          [
            "Cape Verde",
            0.004456523340195417
          ],
          [
            "Bhutan",
            0.004381192848086357
          ],
          [
            "Burkina Faso",
            0.0043799057602882385
          ],
          [
            "Puerto Rico",
            0.00435600383207202
          ],
          [
            "El Salvador",
            0.004273462574928999
          ],
          [
            "Kazakhstan",
            0.004195740912109613
          ],
          [
            "Cuba",
            0.004117853939533234
          ],
          [
            "South Korea",
            0.00410390505567193
          ],
          [
            "Svalbard",
            0.004054213408380747
          ],
          [
            "Hungary",
            0.004013068974018097
          ],
          [
            "North Macedonia",
            0.003999185282737017
          ],
          [
            "Ecuador",
            0.0038910394068807364
          ],
          [
            "Canada",
            0.0038135896902531385
          ],
          [
            "Sweden",
            0.0037228544242680073
          ],
          [
            "Japan",
            0.0037056535948067904
          ],
          [
            "Mali",
            0.003586139064282179
          ],
          [
            "United Arab Emirates",
            0.003578711533918977
          ],
          [
            "New Caledonia",
            0.0035784863866865635
          ],
          [
            "Vietnam",
            0.0035411964636296034
          ],
          [
            "Pakistan",
            0.003526354907080531
          ],
          [
            "Benin",
            0.0034501838963478804
          ],
          [
            "Panama",
            0.0034281041007488966
          ],
          [
            "Albania",
            0.003392129437997937
          ],
          [
            "Faroe Islands",
            0.003267690073698759
          ],
          [
            "Isle of Man",
            0.003188592614606023
          ],
          [
            "Mexico",
            0.003175028832629323
          ],
          [
            "Denmark",
            0.003159985411912203
          ],
          [
            "Ethiopia",
            0.00309982942417264
          ],
          [
            "Botswana",
            0.0030976482667028904
          ],
          [
            "Guam",
            0.0030356028582900763
          ],
          [
            "Senegal",
            0.0030136173591017723
          ],
          [
            "Fiji",
            0.0029842795338481665
          ],
          [
            "French Guiana",
            0.0029785246588289738
          ],
          [
            "United States of America",
            0.002808555494993925
          ],
          [
            "Malawi",
            0.0027787378057837486
          ],
          [
            "Djibouti",
            0.00265055475756526
          ],
          [
            "Sudan",
            0.0025613829493522644
          ],
          [
            "Brunei",
            0.002520590554922819
          ],
          [
            "Myanmar",
            0.002441973192617297
          ],
          [
            "Equatorial Guinea",
            0.0023367342073470354
          ],
          [
            "Serbia",
            0.002246546559035778
          ],
          [
            "Venezuela",
            0.0021980786696076393
          ],
          [
            "Vanuatu",
            0.002193254418671131
          ],
          [
            "France",
            0.002137688221409917
          ],
          [
            "Togo",
            0.0020897623617202044
          ],
          [
            "Western Sahara",
            0.002086062915623188
          ],
          [
            "Guyana",
            0.0020740495529025793
          ],
          [
            "Luxembourg",
            0.002062070183455944
          ],
          [
            "Lesotho",
            0.001954485895112157
          ],
          [
            "Lithuania",
            0.0019415076822042465
          ],
          [
            "Peru",
            0.001824810286052525
          ],
          [
            "Croatia",
            0.0018115248531103134
          ],
          [
            "Nepal",
            0.0017504867864772677
          ],
          [
            "Brazil",
            0.0017259500455111265
          ],
          [
            "Argentina",
            0.001723472960293293
          ],
          [
            "Haiti",
            0.0017221521120518446
          ],
          [
            "Cameroon",
            0.0017063010018318892
          ],
          [
            "Qatar",
            0.0017010595183819532
          ],
          [
            "Greenland",
            0.0016994931502267718
          ],
          [
            "Israel",
            0.0016783804167062044
          ],
          [
            "United Kingdom",
            0.00166985800024122
          ],
          [
            "Norway",
            0.0016370820812880993
          ],
          [
            "Romania",
            0.0016363641479983926
          ],
          [
            "Portugal",
            0.0015840897103771567
          ],
          [
            "Palau",
            0.0015792386839166284
          ],
          [
            "Bahamas",
            0.0014965313021093607
          ],
          [
            "Barbados",
            0.0014861319214105606
          ],
          [
            "Niger",
            0.0014628515345975757
          ],
          [
            "Namibia",
            0.0014255399582907557
          ],
          [
            "West Bank",
            0.0014244555495679379
          ],
          [
            "Turks and Caicos Islands",
            0.0014137881807982922
          ],
          [
            "Malaysia",
            0.0013672776985913515
          ],
          [
            "Greece",
            0.0013146725250408053
          ],
          [
            "New Zealand",
            0.0012767445296049118
          ],
          [
            "Madagascar",
            0.0012562315678223968
          ],
          [
            "Sri Lanka",
            0.0012413662625476718
          ],
          [
            "Tunisia",
            0.0011893556220456958
          ],
          [
            "Laos",
            0.0011315689189359546
          ],
          [
            "Austria",
            0.0011033130576834083
          ],
          [
            "Taiwan",
            0.0010950799332931638
          ],
          [
            "Latvia",
            0.0010468775872141123
          ],
          [
            "Uganda",
            0.001038172049447894
          ],
          [
            "Guinea",
            0.0009857622208073735
          ],
          [
            "Eritrea",
            0.0009094718843698502
          ],
          [
            "Martinique",
            0.0008655032725073397
          ],
          [
            "South Sudan",
            0.0008614140097051859
          ],
          [
            "Colombia",
            0.000846749811898917
          ],
          [
            "Madeira Islands",
            0.0008458216325379908
          ],
          [
            "Iran",
            0.0008128759218379855
          ],
          [
            "Estonia",
            0.000799742410890758
          ],
          [
            "Sierra Leone",
            0.0007802469772286713
          ],
          [
            "Egypt",
            0.0007695479434914887
          ],
          [
            "Kuwait",
            0.0007607840816490352
          ],
          [
            "Gambia",
            0.0007512884330935776
          ],
          [
            "Belarus",
            0.0007503776578232646
          ],
          [
            "Côte d'Ivoire",
            0.0007439618348143995
          ],
          [
            "Mauritania",
            0.0007428473909385502
          ],
          [
            "Costa Rica",
            0.0007323090685531497
          ],
          [
            "Antigua & Barbuda",
            0.0007126826676540077
          ],
          [
            "Paraguay",
            0.0006800387636758387
          ],
          [
            "Azerbaijan",
            0.0006790640181861818
          ],
          [
            "Solomon Islands",
            0.0006604954833164811
          ],
          [
            "Samoa",
            0.0006253755418583751
          ],
          [
            "Ghana",
            0.000612144882325083
          ],
          [
            "Chad",
            0.0006045968038961291
          ],
          [
            "Germany",
            0.0005325005040504038
          ],
          [
            "Saint Lucia",
            0.0005318478215485811
          ],
          [
            "Suriname",
            0.0005297804018482566
          ],
          [
            "Uruguay",
            0.000513661012519151
          ],
          [
            "Armenia",
            0.0004994761548005044
          ],
          [
            "Bahrain",
            0.0004992817994207144
          ],
          [
            "Australia",
            0.0004941017250530422
          ],
          [
            "Chile",
            0.0004923866363242269
          ],
          [
            "Libya",
            0.00041965951095335186
          ],
          [
            "Belgium",
            0.0004154187918175012
          ],
          [
            "Iraq",
            0.0004047683032695204
          ],
          [
            "Sao Tome and Principe",
            0.0003984268114436418
          ],
          [
            "Dominica",
            0.0003545756917446852
          ],
          [
            "Netherlands Antilles",
            0.0003023045719601214
          ],
          [
            "Nicaragua",
            0.0002886289148591459
          ],
          [
            "Reunion",
            0.0002723161887843162
          ],
          [
            "Bosnia & Herzegovina",
            0.0002361235674470663
          ],
          [
            "Comoros",
            0.00023337487073149532
          ],
          [
            "Eswatini",
            0.00021581753389909863
          ],
          [
            "Liberia",
            0.00021070154616609216
          ],
          [
            "Kenya",
            0.0002034479839494452
          ],
          [
            "Poland",
            0.0001912726875161752
          ],
          [
            "United States Virgin Islands",
            0.00018444225133862346
          ],
          [
            "Algeria",
            0.00017169165948871523
          ],
          [
            "Tanzania",
            0.00015524633636232466
          ],
          [
            "DR Congo",
            0.00010210902837570757
          ],
          [
            "Kiribati",
            9.93741414276883e-05
          ],
          [
            "Zimbabwe",
            6.460456643253565e-05
          ]
        ]
      },
      "geometry": {
        "type": "MultiLineString",
        "coordinates": [
          [
            [
              6.670658682634723,
              57.50898203592814
            ],
            [
              7.748502994011972,
              57.1497005988024
            ],
            [
              8.82634730538922,
              56.79041916167665
            ],
            [
              9.904191616766468,
              55.353293413173645
            ],
            [
              11.341317365269447,
              54.9940119760479
            ],
            [
              12.419161676646695,
              54.2754491017964
            ],
            [
              14.574850299401191,
              53.91616766467065
            ],
            [
              15.65269461077844,
              53.19760479041915
            ],
            [
              16.730538922155688,
              52.47904191616766
            ],
            [
              18.167664670658667,
              51.76047904191617
            ],
            [
              20.323353293413163,
              51.04191616766468
            ],
            [
              21.76047904191617,
              50.32335329341316
            ],
            [
              24.275449101796397,
              49.96407185628743
            ],
            [
              25.353293413173645,
              49.604790419161674
            ],
            [
              26.431137724550894,
              48.886227544910184
            ],
            [
              27.508982035928142,
              48.526946107784426
            ],
            [
              28.94610778443115,
              47.808383233532936
            ],
            [
              30.742514970059858,
              47.44910179640718
            ],
            [
              32.898203592814355,
              46.37125748502993
            ],
            [
              33.9760479041916,
              46.0119760479042
            ],
            [
              35.41317365269461,
              46.0119760479042
            ],
            [
              37.568862275449106,
              45.65269461077844
            ],
            [
              39.365269461077844,
              45.65269461077844
            ],
            [
              41.16167664670658,
              45.65269461077844
            ],
            [
              43.31736526946108,
              45.65269461077844
            ],
            [
              45.113772455089816,
              45.65269461077844
            ],
            [
              47.62874251497004,
              46.0119760479042
            ],
            [
              49.78443113772454,
              46.0119760479042
            ],
            [
              51.580838323353305,
              46.73053892215569
            ],
            [
              53.377245508982014,
              47.44910179640718
            ],
            [
              54.81437125748502,
              48.16766467065867
            ],
            [
              56.25149700598803,
              48.16766467065867
            ],
            [
              58.407185628742525,
              49.245508982035915
            ],
            [
              59.48502994011977,
              49.604790419161674
            ],
            [
              60.56287425149702,
              49.96407185628743
            ],
            [
              62.0,
              49.96407185628743
            ],
            [
              62.0,
              48.526946107784426
            ],
            [
              61.28143712574848,
              47.44910179640718
            ],
            [
              61.28143712574848,
              45.65269461077844
            ],
            [
              60.56287425149702,
              44.21556886227546
            ],
            [
              60.203592814371234,
              43.13772455089821
            ],
            [
              59.48502994011977,
              42.059880239520965
            ],
            [
              58.407185628742525,
              39.18562874251495
            ],
            [
              56.97005988023952,
              36.67065868263472
            ],
            [
              56.25149700598803,
              35.233532934131745
            ],
            [
              54.45508982035926,
              32.35928143712573
            ],
            [
              53.377245508982014,
              30.203592814371262
            ],
            [
              51.940119760479035,
              28.766467065868255
            ],
            [
              50.86227544910179,
              27.329341317365277
            ],
            [
              49.78443113772454,
              25.17365269461078
            ],
            [
              48.34730538922156,
              23.017964071856284
            ],
            [
              47.26946107784431,
              21.580838323353305
            ],
            [
              46.191616766467064,
              20.502994011976057
            ],
            [
              45.113772455089816,
              19.42514970059881
            ],
            [
              42.59880239520959,
              16.91017964071858
            ],
            [
              39.365269461077844,
              14.395209580838326
            ],
            [
              36.85029940119759,
              11.52095808383234
            ],
            [
              35.77245508982037,
              10.083832335329333
            ],
            [
              33.9760479041916,
              8.646706586826326
            ],
            [
              32.538922155688624,
              7.928143712574865
            ],
            [
              31.101796407185617,
              7.928143712574865
            ],
            [
              29.30538922155688,
              8.646706586826326
            ],
            [
              26.071856287425135,
              8.287425149700596
            ],
            [
              22.83832335329339,
              7.2095808383233475
            ],
            [
              20.323353293413163,
              6.850299401197617
            ],
            [
              16.37125748502993,
              6.491017964071858
            ],
            [
              13.856287425149702,
              6.491017964071858
            ],
            [
              12.059880239520965,
              6.491017964071858
            ],
            [
              10.982035928143716,
              6.850299401197617
            ],
            [
              8.82634730538922,
              7.2095808383233475
            ],
            [
              7.389221556886227,
              7.2095808383233475
            ],
            [
              5.2335329341317305,
              7.2095808383233475
            ],
            [
              3.7964071856287376,
              7.568862275449106
            ],
            [
              2.3592814371257447,
              7.928143712574865
            ],
            [
              2.0,
              9.005988023952114
            ],
            [
              3.0778443113772482,
              9.724550898203574
            ],
            [
              4.514970059880227,
              10.802395209580823
            ],
            [
              5.952095808383234,
              11.161676646706582
            ],
            [
              6.670658682634723,
              12.23952095808383
            ],
            [
              7.748502994011972,
              12.598802395209589
            ],
            [
              9.904191616766468,
              13.676646706586837
            ],
            [
              11.341317365269447,
              14.395209580838326
            ],
            [
              15.29341317365268,
              16.191616766467064
            ],
            [
              18.526946107784426,
              17.9880239520958
            ],
            [
              21.04191616766468,
              18.70658682634729
            ],
            [
              22.1197604790419,
              19.06586826347305
            ],
            [
              24.275449101796397,
              19.78443113772454
            ],
            [
              25.353293413173645,
              20.862275449101787
            ],
            [
              26.790419161676652,
              21.221556886227546
            ],
            [
              27.8682634730539,
              21.580838323353305
            ],
            [
              30.742514970059858,
              23.017964071856284
            ],
            [
              33.9760479041916,
              25.17365269461078
            ],
            [
              36.85029940119759,
              26.61077844311376
            ],
            [
              39.365269461077844,
              28.047904191616766
            ],
            [
              41.52095808383234,
              29.485029940119773
            ],
            [
              43.31736526946108,
              30.56287425149702
            ],
            [
              44.03592814371257,
              31.64071856287424
            ],
            [
              44.3952095808383,
              33.07784431137725
            ],
            [
              44.3952095808383,
              34.51497005988023
            ],
            [
              45.473053892215546,
              35.592814371257475
            ],
            [
              44.03592814371257,
              36.67065868263472
            ],
            [
              40.44311377245509,
              36.67065868263472
            ],
            [
              37.568862275449106,
              37.02994011976048
            ],
            [
              33.61676646706587,
              38.10778443113773
            ],
            [
              32.538922155688624,
              38.46706586826346
            ],
            [
              28.22754491017963,
              39.54491017964071
            ],
            [
              26.071856287425135,
              40.2634730538922
            ],
            [
              22.83832335329339,
              41.700598802395206
            ],
            [
              21.76047904191617,
              42.059880239520965
            ],
            [
              18.886227544910184,
              43.13772455089821
            ],
            [
              16.730538922155688,
              43.8562874251497
            ],
            [
              15.29341317365268,
              44.57485029940119
            ],
            [
              13.856287425149702,
              44.93413173652695
            ],
            [
              11.700598802395206,
              46.0119760479042
            ],
            [
              10.263473053892199,
              46.37125748502993
            ],
            [
              8.82634730538922,
              46.73053892215569
            ],
            [
              7.389221556886227,
              48.16766467065867
            ],
            [
              5.592814371257475,
              50.32335329341316
            ],
            [
              4.874251497005986,
              51.76047904191617
            ],
            [
              4.155688622754482,
              52.83832335329342
            ],
            [
              4.514970059880227,
              54.634730538922156
            ],
            [
              5.2335329341317305,
              55.712574850299404
            ],
            [
              6.311377245508979,
              56.431137724550894
            ],
            [
              7.389221556886227,
              57.1497005988024
            ],
            [
              8.82634730538922,
              57.1497005988024
            ]
          ]
        ]
      }
    }
  ]
}