{
  "type": "FeatureCollection",
  "crs": {
    "type": "name",
    "properties": {
      "name": "urn:ogc:def:crs:OGC:1.3:CRS84"
    }
  },
  "features": [
    {
      "type": "Feature",
      "properties": {
        "timestamp": "2026-06-06T21:16:48.279279",
        "country_name": "Somalia",
        "author": "dummy",
        "author_id": "56bc3182-38fb-4e9f-b44d-cf3830fd0855",
        "validated": false,
        "ranking": [
          [
            "Somalia",
            0.08547119796276093
          ],
          [
            "India",
            0.05368683487176895
          ],
          [
            "Thailand",
            0.05182849243283272
          ],
          [
            "Mozambique",
            0.04321946203708649
          ],
          [
            "Japan",
            0.043056096881628036
          ],
          [
            "Guinea-Bissau",
            0.04282357916235924
          ],
          [
            "Spain",
            0.0312171820551157
          ],
          [
            "Slovakia",
            0.02914474532008171
          ],
          [
            "Falkland Islands",
            0.02784612402319908
          ],
          [
            "Svalbard",
            0.02414042130112648
          ],
          [
            "Yemen",
            0.024045206606388092
          ],
          [
            "Dominican Republic",
            0.022177523002028465
          ],
          [
            "Bangladesh",
            0.017977727577090263
          ],
          [
            "Papua New Guinea",
            0.01618601195514202
          ],
          [
            "Guadeloupe",
            0.015830738469958305
          ],
          [
            "Kyrgyzstan",
            0.01424302626401186
          ],
          [
            "Mayotte",
            0.012928586453199387
          ],
          [
            "Afghanistan",
            0.01292604673653841
          ],
          [
            "Fiji",
            0.01214076578617096
          ],
          [
            "Honduras",
            0.010116552002727985
          ],
          [
            "New Zealand",
            0.009538852609694004
          ],
          [
            "Indonesia",
            0.009470146149396896
          ],
          [
            "Turkey",
            0.009412952698767185
          ],
          [
            "Timor-Leste",
            0.009069007821381092
          ],
          [
            "Sweden",
            0.008992443792521954
          ],
          [
            "South Georgia Islands",
            0.008950332179665565
          ],
          [
            "Hong Kong",
            0.008886747062206268
          ],
          [
            "Turkmenistan",
            0.008668211288750172
          ],
          [
            "Argentina",
            0.008460954762995243
          ],
          [
            "Central African Republic",
            0.008397272787988186
          ],
          [
            "Cyprus",
            0.008134182542562485
          ],
          [
            "Syria",
            0.007953396067023277
          ],
          [
            "Tajikistan",
            0.007921814918518066
          ],
          [
            "Jordan",
            0.007346113212406635
          ],
          [
            "Guam",
            0.007114504463970661
          ],
          [
            "Burkina Faso",
            0.006715351715683937
          ],
          [
            "Norway",
            0.006419271230697632
          ],
          [
            "Slovenia",
            0.00616848049685359
          ],
          [
            "Russia",
            0.00616435194388032
          ],
          [
            "New Caledonia",
            0.006100500002503395
          ],
          [
            "Panama",
            0.0057893600314855576
          ],
          [
            "Lebanon",
            0.005024714861065149
          ],
          [
            "Uzbekistan",
            0.004995930474251509
          ],
          [
            "Benin",
            0.004942409228533506
          ],
          [
            "Namibia",
            0.004842822439968586
          ],
          [
            "Jamaica",
            0.00474318815395236
          ],
          [
            "Puerto Rico",
            0.004725984763354063
          ],
          [
            "Belize",
            0.004717672243714333
          ],
          [
            "Latvia",
            0.004648351110517979
          ],
          [
            "Georgia",
            0.0045811147429049015
          ],
          [
            "Congo",
            0.004550608340650797
          ],
          [
            "China",
            0.004520701710134745
          ],
          [
            "Ukraine",
            0.004338569473475218
          ],
          [
            "Montenegro",
            0.0041449409909546375
          ],
          [
            "Myanmar",
            0.0041098385117948055
          ],
          [
            "South Korea",
            0.0041043940000236034
          ],
          [
            "Solomon Islands",
            0.003866347949951887
          ],
          [
            "Senegal",
            0.003854456590488553
          ],
          [
            "North Korea",
            0.003428335767239332
          ],
          [
            "Croatia",
            0.003379635512828827
          ],
          [
            "Faroe Islands",
            0.0032949235755950212
          ],
          [
            "Israel",
            0.003291368717327714
          ],
          [
            "Kazakhstan",
            0.003149505937471986
          ],
          [
            "Western Sahara",
            0.003026003483682871
          ],
          [
            "Mali",
            0.002960996003821492
          ],
          [
            "Bulgaria",
            0.0028619039803743362
          ],
          [
            "Rwanda",
            0.0028385440818965435
          ],
          [
            "Heard and McDonald Islands",
            0.00281807710416615
          ],
          [
            "Cuba",
            0.00279799266718328
          ],
          [
            "Italy",
            0.002780659357085824
          ],
          [
            "Switzerland",
            0.0027492442168295383
          ],
          [
            "Ecuador",
            0.0026920149102807045
          ],
          [
            "Philippines",
            0.002628305461257696
          ],
          [
            "Trinidad and Tobago",
            0.002599588129669428
          ],
          [
            "Eritrea",
            0.0025202366523444653
          ],
          [
            "El Salvador",
            0.0024824042338877916
          ],
          [
            "Iceland",
            0.0024456295650452375
          ],
          [
            "Czech Republic",
            0.0024096982087939978
          ],
          [
            "Malawi",
            0.0023238288704305887
          ],
          [
            "Burundi",
            0.0023026636335998774
          ],
          [
            "Oman",
            0.0021305298432707787
          ],
          [
            "Turks and Caicos Islands",
            0.0019468864193186164
          ],
          [
            "Canada",
            0.0019117225892841816
          ],
          [
            "Nigeria",
            0.0018799817189574242
          ],
          [
            "Nepal",
            0.0018449246417731047
          ],
          [
            "Guinea",
            0.001824181992560625
          ],
          [
            "Azerbaijan",
            0.001798005192540586
          ],
          [
            "Equatorial Guinea",
            0.001797305652871728
          ],
          [
            "Venezuela",
            0.0017640460282564163
          ],
          [
            "Peru",
            0.0017499474342912436
          ],
          [
            "Malaysia",
            0.0017351870192214847
          ],
          [
            "Mexico",
            0.0017277301521971822
          ],
          [
            "Saudi Arabia",
            0.001723395544104278
          ],
          [
            "United States of America",
            0.0016711815260350704
          ],
          [
            "Estonia",
            0.001660581910982728
          ],
          [
            "Moldova",
            0.0016603443073108792
          ],
          [
            "North Macedonia",
            0.0016590685117989779
          ],
          [
            "Australia",
            0.0016383362235501409
          ],
          [
            "Taiwan",
            0.0016049419064074755
          ],
          [
            "United Arab Emirates",
            0.0015977672301232815
          ],
          [
            "Bhutan",
            0.0015841907588765025
          ],
          [
            "Haiti",
            0.0015692801680415869
          ],
          [
            "Vanuatu",
            0.0015031121438369155
          ],
          [
            "Gabon",
            0.0014698953600600362
          ],
          [
            "Belgium",
            0.0014080089749768376
          ],
          [
            "Togo",
            0.0013965775724500418
          ],
          [
            "Mongolia",
            0.00137133221141994
          ],
          [
            "Chile",
            0.0013381124008446932
          ],
          [
            "Morocco",
            0.0013365871272981167
          ],
          [
            "Kuwait",
            0.0013351754751056433
          ],
          [
            "Costa Rica",
            0.0013218470849096775
          ],
          [
            "Brunei",
            0.0013012271374464035
          ],
          [
            "Portugal",
            0.0012530736858025193
          ],
          [
            "Bahamas",
            0.0012482574675232172
          ],
          [
            "Armenia",
            0.001230042427778244
          ],
          [
            "Angola",
            0.0012239249190315604
          ],
          [
            "Niger",
            0.0012166908709332347
          ],
          [
            "Finland",
            0.0011821961961686611
          ],
          [
            "Laos",
            0.0011721127666532993
          ],
          [
            "Lithuania",
            0.0011177575215697289
          ],
          [
            "Hungary",
            0.0010833119740709662
          ],
          [
            "Guyana",
            0.001061931368894875
          ],
          [
            "Netherlands",
            0.0010432347189635038
          ],
          [
            "Austria",
            0.0010401173494756222
          ],
          [
            "Zambia",
            0.000999115640297532
          ],
          [
            "Gambia",
            0.0009898762218654156
          ],
          [
            "Greece",
            0.0009806716116145253
          ],
          [
            "Ireland",
            0.0009776889346539974
          ],
          [
            "Brazil",
            0.000977586372755468
          ],
          [
            "Albania",
            0.0009739887318573892
          ],
          [
            "Madagascar",
            0.0009198580519296229
          ],
          [
            "Romania",
            0.0009102969779632986
          ],
          [
            "Martinique",
            0.0008907258161343634
          ],
          [
            "Cape Verde",
            0.000871595402713865
          ],
          [
            "Libya",
            0.0008712995331734419
          ],
          [
            "Cameroon",
            0.0008214269182644784
          ],
          [
            "Palau",
            0.0008195583941414952
          ],
          [
            "South Africa",
            0.0008171218796633184
          ],
          [
            "Iran",
            0.000805406947620213
          ],
          [
            "Bahrain",
            0.000796485401224345
          ],
          [
            "United Kingdom",
            0.0007867887616157532
          ],
          [
            "Netherlands Antilles",
            0.0007854617433622479
          ],
          [
            "Mauritania",
            0.00077962432987988
          ],
          [
            "West Bank",
            0.000779170950409025
          ],
          [
            "Greenland",
            0.0007735306862741709
          ],
          [
            "Serbia",
            0.0007634317153133452
          ],
          [
            "South Sudan",
            0.0007453387370333076
          ],
          [
            "Vietnam",
            0.0007185182184912264
          ],
          [
            "France",
            0.0006938090664334595
          ],
          [
            "Tunisia",
            0.0006824522861279547
          ],
          [
            "Cambodia",
            0.0006754116620868444
          ],
          [
            "Paraguay",
            0.0006744538550265133
          ],
          [
            "Samoa",
            0.0006463435711339116
          ],
          [
            "Sao Tome and Principe",
            0.0006440362194553018
          ],
          [
            "Dominica",
            0.0006263047689571977
          ],
          [
            "Pakistan",
            0.0006173974252305925
          ],
          [
            "Egypt",
            0.0006043228786438704
          ],
          [
            "Qatar",
            0.000569429830648005
          ],
          [
            "Madeira Islands",
            0.0005510698538273573
          ],
          [
            "Isle of Man",
            0.0005173268727958202
          ],
          [
            "Bolivia",
            0.0004886381793767214
          ],
          [
            "Ethiopia",
            0.00046738103264942765
          ],
          [
            "Iraq",
            0.0004667369939852506
          ],
          [
            "Sudan",
            0.00043600198114290833
          ],
          [
            "French Guiana",
            0.0004305765323806554
          ],
          [
            "Botswana",
            0.0004214044311083853
          ],
          [
            "Djibouti",
            0.00041805568616837263
          ],
          [
            "Antigua & Barbuda",
            0.00037840145523659885
          ],
          [
            "Poland",
            0.0003542731574270874
          ],
          [
            "Comoros",
            0.000354199466528371
          ],
          [
            "Sri Lanka",
            0.00034510009572841227
          ],
          [
            "Côte d'Ivoire",
            0.00033845880534499884
          ],
          [
            "Denmark",
            0.0003371463972143829
          ],
          [
            "Sierra Leone",
            0.00032558891689404845
          ],
          [
            "Suriname",
            0.0003246432461310178
          ],
          [
            "Reunion",
            0.00032076193019747734
          ],
          [
            "Guatemala",
            0.0003155734157189727
          ],
          [
            "Uruguay",
            0.00029266485944390297
          ],
          [
            "Colombia",
            0.0002835312334354967
          ],
          [
            "Lesotho",
            0.0002785254910122603
          ],
          [
            "Belarus",
            0.00026508132577873766
          ],
          [
            "Barbados",
            0.0002622275205794722
          ],
          [
            "Kenya",
            0.0002604778273962438
          ],
          [
            "Saint Lucia",
            0.0002480230759829283
          ],
          [
            "Liberia",
            0.00024713532184250653
          ],
          [
            "Tanzania",
            0.00024120100715663284
          ],
          [
            "Bosnia & Herzegovina",
            0.00022803546744398773
          ],
          [
            "Uganda",
            0.00022212552721612155
          ],
          [
            "Ghana",
            0.00017377895710524172
          ],
          [
            "Algeria",
            0.00017015273624565452
          ],
          [
            "Luxembourg",
            0.0001303327881032601
          ],
          [
            "Nicaragua",
            0.00011695172725012526
          ],
          [
            "Eswatini",
            0.00011566153989406303
          ],
          [
            "DR Congo",
            0.00011111441563116387
          ],
          [
            "Chad",
            0.00010718592966441065
          ],
          [
            "Zimbabwe",
            0.00010624211427057162
          ],
          [
            "Germany",
            9.641551150707528e-05
          ],
          [
            "United States Virgin Islands",
            8.065180008998141e-05
          ],
          [
            "Kiribati",
            7.44279968785122e-05
          ]
        ]
      },
      "geometry": {
        "type": "MultiLineString",
        "coordinates": [
          [
            [
              17.0,
              49.5
            ],
            [
              18.0,
              49.5
            ],
            [
              19.571428571428584,
              49.5
            ],
            [
              22.285714285714278,
              49.5
            ],
            [
              24.428571428571445,
              49.5
            ],
            [
              28.14285714285714,
              49.5
            ],
            [
              31.428571428571445,
              49.5
            ],
            [
              34.71428571428572,
              49.5
            ],
            [
              40.14285714285714,
              49.5
            ],
            [
              43.0,
              49.64285714285717
            ],
            [
              46.71428571428572,
              49.64285714285717
            ],
            [
              49.14285714285714,
              49.785714285714306
            ],
            [
              51.71428571428572,
              49.928571428571445
            ],
            [
              53.428571428571445,
              49.928571428571445
            ],
            [
              55.428571428571445,
              49.928571428571445
            ],
            [
              58.28571428571428,
              49.928571428571445
            ],
            [
              59.571428571428555,
              49.928571428571445
            ],
            [
              60.571428571428555,
              49.928571428571445
            ],
            [
              61.428571428571445,
              49.928571428571445
            ],
            [
              62.0,
              49.928571428571445
            ],
            [
              61.71428571428572,
              49.5
            ],
            [
              61.14285714285717,
              49.071428571428584
            ],
            [
              60.14285714285717,
              48.071428571428584
            ],
            [
              57.571428571428584,
              45.785714285714306
            ],
            [
              50.571428571428584,
              39.928571428571445
            ],
            [
              43.28571428571428,
              33.78571428571428
            ],
            [
              29.285714285714278,
              24.214285714285722
            ],
            [
              22.571428571428584,
              19.35714285714289
            ],
            [
              18.285714285714278,
              16.642857142857167
            ],
            [
              17.285714285714278,
              16.214285714285722
            ],
            [
              15.0,
              13.5
            ],
            [
              12.857142857142861,
              10.928571428571445
            ],
            [
              10.285714285714306,
              8.071428571428555
            ],
            [
              9.285714285714306,
              7.071428571428555
            ],
            [
              8.571428571428584,
              6.642857142857167
            ],
            [
              6.428571428571445,
              5.5
            ],
            [
              4.571428571428584,
              4.642857142857167
            ],
            [
              2.5714285714285836,
              3.642857142857167
            ],
            [
              2.0,
              3.5
            ],
            [
              2.285714285714306,
              4.35714285714289
            ],
            [
              2.428571428571445,
              5.071428571428555
            ],
            [
              2.7142857142857224,
              5.5
            ],
            [
              2.857142857142861,
              6.214285714285722
            ],
            [
              3.0,
              6.785714285714278
            ],
            [
              3.142857142857139,
              7.35714285714289
            ],
            [
              3.285714285714306,
              8.928571428571445
            ],
            [
              3.5714285714285836,
              9.785714285714278
            ],
            [
              3.7142857142857224,
              10.785714285714278
            ],
            [
              4.0,
              11.785714285714278
            ],
            [
              4.0,
              12.5
            ],
            [
              5.142857142857139,
              14.928571428571445
            ],
            [
              5.714285714285722,
              16.071428571428555
            ],
            [
              6.142857142857139,
              16.642857142857167
            ],
            [
              6.285714285714306,
              17.071428571428555
            ],
            [
              6.857142857142861,
              16.928571428571445
            ],
            [
              8.142857142857139,
              17.071428571428555
            ],
            [
              9.714285714285722,
              17.642857142857167
            ],
            [
              11.714285714285722,
              18.35714285714289
            ],
            [
              15.428571428571445,
              19.928571428571445
            ],
            [
              18.428571428571445,
              21.214285714285722
            ],
            [
              22.14285714285714,
              22.928571428571445
            ],
            [
              24.714285714285722,
              24.35714285714289
            ],
            [
              26.85714285714286,
              25.35714285714289
            ],
            [
              28.14285714285714,
              25.785714285714278
            ],
            [
              29.0,
              26.5
            ],
            [
              30.14285714285714,
              27.071428571428555
            ],
            [
              30.714285714285722,
              27.642857142857167
            ],
            [
              33.0,
              28.928571428571445
            ],
            [
              33.71428571428572,
              29.214285714285722
            ],
            [
              34.85714285714286,
              30.071428571428555
            ],
            [
              36.0,
              30.785714285714278
            ],
            [
              36.571428571428584,
              31.071428571428555
            ],
            [
              37.571428571428584,
              31.642857142857167
            ],
            [
              38.85714285714286,
              32.5
            ],
            [
              39.71428571428572,
              32.64285714285717
            ],
            [
              40.571428571428584,
              33.071428571428555
            ],
            [
              41.71428571428572,
              33.78571428571428
            ],
            [
              42.28571428571428,
              34.071428571428555
            ],
            [
              42.571428571428584,
              34.5
            ],
            [
              42.428571428571445,
              34.928571428571445
            ],
            [
              42.28571428571428,
              35.35714285714289
            ],
            [
              41.71428571428572,
              35.64285714285717
            ],
            [
              41.14285714285714,
              36.071428571428555
            ],
            [
              39.571428571428584,
              36.64285714285717
            ],
            [
              37.571428571428584,
              37.21428571428572
            ],
            [
              35.428571428571445,
              37.928571428571445
            ],
            [
              30.714285714285722,
              38.64285714285717
            ],
            [
              27.714285714285722,
              39.071428571428555
            ],
            [
              23.14285714285714,
              39.071428571428555
            ],
            [
              20.571428571428584,
              38.928571428571445
            ],
            [
              18.428571428571445,
              38.78571428571428
            ],
            [
              17.428571428571445,
              38.64285714285717
            ],
            [
              16.428571428571445,
              38.64285714285717
            ],
            [
              15.428571428571445,
              38.64285714285717
            ],
            [
              14.714285714285722,
              38.64285714285717
            ],
            [
              13.857142857142861,
              38.64285714285717
            ],
            [
              13.142857142857139,
              38.64285714285717
            ],
            [
              12.142857142857139,
              38.78571428571428
            ],
            [
              11.571428571428584,
              38.928571428571445
            ],
            [
              11.142857142857139,
              39.071428571428555
            ],
            [
              10.857142857142861,
              39.5
            ],
            [
              10.285714285714306,
              40.64285714285717
            ],
            [
              10.0,
              41.78571428571428
            ],
            [
              9.714285714285722,
              43.21428571428572
            ],
            [
              9.714285714285722,
              45.64285714285717
            ],
            [
              9.714285714285722,
              46.785714285714306
            ],
            [
              9.571428571428584,
              48.071428571428584
            ],
            [
              9.714285714285722,
              48.64285714285717
            ],
            [
              9.857142857142861,
              49.21428571428572
            ],
            [
              10.428571428571445,
              49.5
            ],
            [
              10.857142857142861,
              49.785714285714306
            ],
            [
              11.428571428571445,
              49.928571428571445
            ],
            [
              12.0,
              50.21428571428572
            ],
            [
              12.571428571428584,
              50.5
            ],
            [
              13.0,
              50.64285714285717
            ],
            [
              13.571428571428584,
              50.5
            ],
            [
              13.571428571428584,
              49.785714285714306
            ],
            [
              12.571428571428584,
              49.35714285714286
            ],
            [
              11.857142857142861,
              49.64285714285717
            ],
            [
              10.857142857142861,
              49.785714285714306
            ],
            [
              9.714285714285722,
              50.21428571428572
            ],
            [
              9.142857142857139,
              50.35714285714286
            ],
            [
              8.428571428571445,
              50.785714285714306
            ],
            [
              8.0,
              50.928571428571445
            ],
            [
              7.428571428571445,
              50.928571428571445
            ],
            [
              7.0,
              51.071428571428584
            ],
            [
              6.714285714285722,
              51.785714285714306
            ],
            [
              6.714285714285722,
              52.928571428571445
            ],
            [
              7.285714285714306,
              53.928571428571445
            ],
            [
              7.571428571428584,
              54.64285714285714
            ],
            [
              8.0,
              55.785714285714306
            ],
            [
              8.714285714285722,
              56.928571428571445
            ],
            [
              9.571428571428584,
              58.21428571428572
            ],
            [
              10.142857142857139,
              58.928571428571445
            ],
            [
              11.0,
              59.928571428571445
            ],
            [
              11.428571428571445,
              60.071428571428584
            ],
            [
              12.0,
              60.35714285714286
            ],
            [
              12.571428571428584,
              60.5
            ],
            [
              13.142857142857139,
              60.21428571428572
            ],
            [
              13.571428571428584,
              59.785714285714306
            ],
            [
              13.857142857142861,
              59.071428571428584
            ],
            [
              14.571428571428584,
              58.071428571428584
            ],
            [
              14.857142857142861,
              57.64285714285714
            ],
            [
              15.428571428571445,
              56.785714285714306
            ],
            [
              15.428571428571445,
              56.071428571428584
            ],
            [
              15.571428571428584,
              55.35714285714286
            ],
            [
              15.857142857142861,
              54.071428571428584
            ],
            [
              16.0,
              53.5
            ],
            [
              16.14285714285714,
              52.928571428571445
            ],
            [
              16.571428571428584,
              52.21428571428572
            ],
            [
              17.285714285714278,
              51.64285714285717
            ],
            [
              18.0,
              51.071428571428584
            ],
            [
              18.428571428571445,
              50.928571428571445
            ],
            [
              18.85714285714286,
              50.64285714285717
            ],
            [
              19.428571428571445,
              50.21428571428572
            ],
            [
              20.0,
              50.21428571428572
            ],
            [
              20.428571428571445,
              49.928571428571445
            ]
          ]
        ]
      }
    }
  ]
}