{
  "type": "FeatureCollection",
  "crs": {
    "type": "name",
    "properties": {
      "name": "urn:ogc:def:crs:OGC:1.3:CRS84"
    }
  },
  "features": [
    {
      "type": "Feature",
      "properties": {
        "timestamp": "2026-07-20T18:14:21.783932",
        "country_name": "Somalia",
        "author": "",
        "author_id": "bc485ed6-61ee-4f06-86b7-ad8c0309745e",
        "validated": false,
        "ranking": [
          [
            "Somalia",
            0.27232232689857483
          ],
          [
            "Belize",
            0.07087501883506775
          ],
          [
            "Spain",
            0.04499920457601547
          ],
          [
            "Thailand",
            0.04161487892270088
          ],
          [
            "India",
            0.03600073605775833
          ],
          [
            "Syria",
            0.029644280672073364
          ],
          [
            "Mayotte",
            0.026126030832529068
          ],
          [
            "Afghanistan",
            0.02472289465367794
          ],
          [
            "Mozambique",
            0.02231159806251526
          ],
          [
            "Jordan",
            0.02142348699271679
          ],
          [
            "Lebanon",
            0.019656071439385414
          ],
          [
            "Congo",
            0.01918814517557621
          ],
          [
            "Sweden",
            0.014094877056777477
          ],
          [
            "North Korea",
            0.01394499558955431
          ],
          [
            "Benin",
            0.013873286545276642
          ],
          [
            "Japan",
            0.010566405951976776
          ],
          [
            "Palau",
            0.010420739650726318
          ],
          [
            "Bangladesh",
            0.010259591974318027
          ],
          [
            "Nigeria",
            0.00996636226773262
          ],
          [
            "Argentina",
            0.009898238815367222
          ],
          [
            "Vietnam",
            0.008726505562663078
          ],
          [
            "Oman",
            0.008652024902403355
          ],
          [
            "Montenegro",
            0.008072099648416042
          ],
          [
            "Finland",
            0.008015761151909828
          ],
          [
            "Moldova",
            0.007815230637788773
          ],
          [
            "Antigua & Barbuda",
            0.00736317178234458
          ],
          [
            "Faroe Islands",
            0.00720074400305748
          ],
          [
            "Guam",
            0.006172977387905121
          ],
          [
            "Burundi",
            0.0060484218411147594
          ],
          [
            "Namibia",
            0.005807321052998304
          ],
          [
            "Myanmar",
            0.005180253181606531
          ],
          [
            "Portugal",
            0.005011898465454578
          ],
          [
            "West Bank",
            0.004895620979368687
          ],
          [
            "Guadeloupe",
            0.004484666511416435
          ],
          [
            "Togo",
            0.004256343003362417
          ],
          [
            "Botswana",
            0.004252951126545668
          ],
          [
            "Cape Verde",
            0.004169594030827284
          ],
          [
            "South Korea",
            0.0038656701799482107
          ],
          [
            "Taiwan",
            0.003863311605527997
          ],
          [
            "Saudi Arabia",
            0.003788356902077794
          ],
          [
            "Israel",
            0.0037150622811168432
          ],
          [
            "Dominican Republic",
            0.0036706391256302595
          ],
          [
            "Slovenia",
            0.00343459309078753
          ],
          [
            "Western Sahara",
            0.0033308907877653837
          ],
          [
            "Rwanda",
            0.0032767492812126875
          ],
          [
            "Fiji",
            0.0031875555869191885
          ],
          [
            "Qatar",
            0.003139735898002982
          ],
          [
            "Trinidad and Tobago",
            0.002986668376252055
          ],
          [
            "Greenland",
            0.00298289954662323
          ],
          [
            "Equatorial Guinea",
            0.002887807786464691
          ],
          [
            "Switzerland",
            0.0028820959851145744
          ],
          [
            "New Zealand",
            0.002721198135986924
          ],
          [
            "Madagascar",
            0.0026915683411061764
          ],
          [
            "Tunisia",
            0.0025049636606127024
          ],
          [
            "Honduras",
            0.0023789959959685802
          ],
          [
            "Gabon",
            0.002370946342125535
          ],
          [
            "Slovakia",
            0.0023110725451260805
          ],
          [
            "Albania",
            0.0022885389626026154
          ],
          [
            "Cambodia",
            0.0022651709150522947
          ],
          [
            "Ecuador",
            0.0020657647401094437
          ],
          [
            "Malawi",
            0.0020592892542481422
          ],
          [
            "Chile",
            0.0020324194338172674
          ],
          [
            "Yemen",
            0.0019664685241878033
          ],
          [
            "Libya",
            0.0019476815359666944
          ],
          [
            "Sao Tome and Principe",
            0.0019376104464754462
          ],
          [
            "Guyana",
            0.0018992458935827017
          ],
          [
            "Isle of Man",
            0.0018935707630589604
          ],
          [
            "Burkina Faso",
            0.0018852315843105316
          ],
          [
            "Mali",
            0.0018800141988322139
          ],
          [
            "South Georgia Islands",
            0.0018508108332753181
          ],
          [
            "Svalbard",
            0.001822398160584271
          ],
          [
            "Ukraine",
            0.0018204214284196496
          ],
          [
            "Egypt",
            0.0018139745807275176
          ],
          [
            "Brunei",
            0.0017808853881433606
          ],
          [
            "North Macedonia",
            0.0017530845943838358
          ],
          [
            "Philippines",
            0.0016452757408842444
          ],
          [
            "Bolivia",
            0.0016013674903661013
          ],
          [
            "Vanuatu",
            0.0015496878186240792
          ],
          [
            "French Guiana",
            0.0015373025089502335
          ],
          [
            "Peru",
            0.0015004368033260107
          ],
          [
            "Croatia",
            0.0015004053711891174
          ],
          [
            "Senegal",
            0.0014467176515609026
          ],
          [
            "Czech Republic",
            0.0014264362398535013
          ],
          [
            "Romania",
            0.0013938393676653504
          ],
          [
            "Netherlands",
            0.001375930616632104
          ],
          [
            "Norway",
            0.0013693799264729023
          ],
          [
            "Angola",
            0.0013574645854532719
          ],
          [
            "Morocco",
            0.0013533668825402856
          ],
          [
            "Hong Kong",
            0.0013282464351505041
          ],
          [
            "Central African Republic",
            0.0012772597838193178
          ],
          [
            "Iran",
            0.001275541028007865
          ],
          [
            "Cyprus",
            0.0012721952516585588
          ],
          [
            "Bulgaria",
            0.0012434670934453607
          ],
          [
            "Lithuania",
            0.0012161806225776672
          ],
          [
            "Papua New Guinea",
            0.0012032641097903252
          ],
          [
            "Sudan",
            0.001172057120129466
          ],
          [
            "Heard and McDonald Islands",
            0.001116649596951902
          ],
          [
            "Serbia",
            0.0011077928356826305
          ],
          [
            "Cameroon",
            0.0011064540594816208
          ],
          [
            "Turkey",
            0.001103309798054397
          ],
          [
            "Dominica",
            0.0010515213944017887
          ],
          [
            "Zambia",
            0.0010284057352691889
          ],
          [
            "Timor-Leste",
            0.0010197702795267105
          ],
          [
            "France",
            0.0008769499254412949
          ],
          [
            "South Africa",
            0.0008432596223428845
          ],
          [
            "Armenia",
            0.0008370756404474378
          ],
          [
            "Uzbekistan",
            0.0008329347474500537
          ],
          [
            "Turkmenistan",
            0.0008314553997479379
          ],
          [
            "Bhutan",
            0.0008314110455103219
          ],
          [
            "Ireland",
            0.000819491280708462
          ],
          [
            "Canada",
            0.0008150190697051585
          ],
          [
            "Martinique",
            0.0007930520223453641
          ],
          [
            "Falkland Islands",
            0.000782298156991601
          ],
          [
            "Saint Lucia",
            0.0007597638759762049
          ],
          [
            "Reunion",
            0.0007518367492593825
          ],
          [
            "United States Virgin Islands",
            0.0007309742504730821
          ],
          [
            "Kyrgyzstan",
            0.0007178360829129815
          ],
          [
            "Ethiopia",
            0.0006740140961483121
          ],
          [
            "Hungary",
            0.0006691504386253655
          ],
          [
            "Djibouti",
            0.0006632127333432436
          ],
          [
            "Guinea-Bissau",
            0.0006596060120500624
          ],
          [
            "Chad",
            0.0006376302917487919
          ],
          [
            "United Arab Emirates",
            0.0006210908177308738
          ],
          [
            "Suriname",
            0.0006078406586311758
          ],
          [
            "Venezuela",
            0.0005928977043367922
          ],
          [
            "Pakistan",
            0.0005856729694642127
          ],
          [
            "Mauritania",
            0.0005550648202188313
          ],
          [
            "Lesotho",
            0.0005549261113628745
          ],
          [
            "Paraguay",
            0.0005390688311308622
          ],
          [
            "Bahrain",
            0.000534754479303956
          ],
          [
            "Malaysia",
            0.0005342610529623926
          ],
          [
            "United Kingdom",
            0.0005314741865731776
          ],
          [
            "New Caledonia",
            0.0005216042045503855
          ],
          [
            "Russia",
            0.0005198998260311782
          ],
          [
            "Iceland",
            0.0005097234388813376
          ],
          [
            "South Sudan",
            0.000503079267218709
          ],
          [
            "Mongolia",
            0.00048184781917370856
          ],
          [
            "Kuwait",
            0.000471494480734691
          ],
          [
            "Brazil",
            0.0004673535004258156
          ],
          [
            "Tajikistan",
            0.0004569767916109413
          ],
          [
            "Indonesia",
            0.00043973777792416513
          ],
          [
            "El Salvador",
            0.00043799332343041897
          ],
          [
            "Sri Lanka",
            0.0004297077830415219
          ],
          [
            "Liberia",
            0.00042460591066628695
          ],
          [
            "Puerto Rico",
            0.00041724398033693433
          ],
          [
            "Colombia",
            0.0003979775356128812
          ],
          [
            "Belgium",
            0.0003759189276024699
          ],
          [
            "Guinea",
            0.00037440191954374313
          ],
          [
            "Australia",
            0.00036584195913746953
          ],
          [
            "Georgia",
            0.00036161078605800867
          ],
          [
            "China",
            0.0003517214208841324
          ],
          [
            "Kazakhstan",
            0.00033875854569487274
          ],
          [
            "Panama",
            0.00033655212610028684
          ],
          [
            "Poland",
            0.0003363416180945933
          ],
          [
            "Italy",
            0.00032629520865157247
          ],
          [
            "Kenya",
            0.00032075337367132306
          ],
          [
            "Greece",
            0.000306876958347857
          ],
          [
            "Haiti",
            0.00030573594267480075
          ],
          [
            "Bahamas",
            0.00030285833054222167
          ],
          [
            "Azerbaijan",
            0.0002989870263263583
          ],
          [
            "Uruguay",
            0.000295487348921597
          ],
          [
            "Barbados",
            0.0002861515386030078
          ],
          [
            "Niger",
            0.00028465184732340276
          ],
          [
            "Jamaica",
            0.00027913713711313903
          ],
          [
            "Solomon Islands",
            0.0002780531067401171
          ],
          [
            "Guatemala",
            0.00027606141520664096
          ],
          [
            "United States of America",
            0.00026275977143086493
          ],
          [
            "Luxembourg",
            0.0002583010063972324
          ],
          [
            "Bosnia & Herzegovina",
            0.0002557551779318601
          ],
          [
            "Sierra Leone",
            0.00025383217143826187
          ],
          [
            "Latvia",
            0.00025092088617384434
          ],
          [
            "Mexico",
            0.00024671570281498134
          ],
          [
            "Iraq",
            0.00023899783263914287
          ],
          [
            "Germany",
            0.0002334351884201169
          ],
          [
            "Eritrea",
            0.0002323641674593091
          ],
          [
            "Tanzania",
            0.00022811380040366203
          ],
          [
            "Côte d'Ivoire",
            0.00020715320715680718
          ],
          [
            "Estonia",
            0.00019056604651268572
          ],
          [
            "Costa Rica",
            0.00018225607345812023
          ],
          [
            "Comoros",
            0.00018084324256051332
          ],
          [
            "Belarus",
            0.0001735100377118215
          ],
          [
            "Laos",
            0.0001700210414128378
          ],
          [
            "Ghana",
            0.00016978349594864994
          ],
          [
            "Cuba",
            0.00016305450117215514
          ],
          [
            "Uganda",
            0.00015836191596463323
          ],
          [
            "Eswatini",
            0.00015787154552526772
          ],
          [
            "Netherlands Antilles",
            0.00013716431567445397
          ],
          [
            "Turks and Caicos Islands",
            0.0001211452399729751
          ],
          [
            "Algeria",
            0.00011634612747002393
          ],
          [
            "Austria",
            0.0001142281835200265
          ],
          [
            "Denmark",
            0.00011182006710441783
          ],
          [
            "Nepal",
            0.0001076561602531001
          ],
          [
            "Nicaragua",
            9.227641567122191e-05
          ],
          [
            "Madeira Islands",
            8.361943764612079e-05
          ],
          [
            "Samoa",
            7.930984429549426e-05
          ],
          [
            "DR Congo",
            6.0727139498339966e-05
          ],
          [
            "Zimbabwe",
            6.063211912987754e-05
          ],
          [
            "Gambia",
            5.087363751954399e-05
          ],
          [
            "Kiribati",
            1.6275054804282263e-05
          ]
        ]
      },
      "geometry": {
        "type": "MultiLineString",
        "coordinates": [
          [
            [
              22.0,
              60.0
            ],
            [
              24.666666666666686,
              60.0
            ],
            [
              27.333333333333314,
              59.33333333333334
            ],
            [
              30.0,
              59.33333333333334
            ],
            [
              32.666666666666686,
              59.33333333333334
            ],
            [
              36.0,
              59.33333333333334
            ],
            [
              38.666666666666686,
              59.33333333333334
            ],
            [
              42.0,
              59.33333333333334
            ],
            [
              46.0,
              59.33333333333334
            ],
            [
              48.666666666666686,
              59.33333333333334
            ],
            [
              51.333333333333314,
              59.33333333333334
            ],
            [
              54.0,
              60.0
            ],
            [
              56.666666666666686,
              60.0
            ],
            [
              58.666666666666686,
              60.66666666666667
            ],
            [
              57.333333333333314,
              58.66666666666667
            ],
            [
              56.666666666666686,
              56.66666666666667
            ],
            [
              56.666666666666686,
              54.0
            ],
            [
              56.0,
              50.66666666666667
            ],
            [
              55.333333333333314,
              48.66666666666667
            ],
            [
              54.0,
              46.0
            ],
            [
              53.333333333333314,
              43.33333333333334
            ],
            [
              52.666666666666686,
              41.33333333333334
            ],
            [
              52.0,
              39.33333333333334
            ],
            [
              50.0,
              37.33333333333334
            ],
            [
              48.666666666666686,
              34.0
            ],
            [
              46.0,
              31.333333333333343
            ],
            [
              44.666666666666686,
              28.666666666666686
            ],
            [
              43.333333333333314,
              26.666666666666686
            ],
            [
              40.666666666666686,
              22.0
            ],
            [
              38.0,
              18.0
            ],
            [
              35.333333333333314,
              15.333333333333343
            ],
            [
              33.333333333333314,
              14.0
            ],
            [
              31.333333333333314,
              11.333333333333343
            ],
            [
              28.666666666666686,
              8.666666666666686
            ],
            [
              26.0,
              8.666666666666686
            ],
            [
              23.333333333333314,
              6.0
            ],
            [
              19.333333333333314,
              4.666666666666686
            ],
            [
              16.0,
              2.6666666666666856
            ],
            [
              14.0,
              2.0
            ],
            [
              11.333333333333329,
              2.0
            ],
            [
              8.0,
              2.0
            ],
            [
              5.333333333333329,
              2.6666666666666856
            ],
            [
              6.0,
              4.666666666666686
            ],
            [
              8.0,
              6.0
            ],
            [
              10.0,
              7.333333333333343
            ],
            [
              13.333333333333329,
              10.0
            ],
            [
              15.333333333333329,
              10.666666666666686
            ],
            [
              18.666666666666686,
              12.666666666666686
            ],
            [
              20.0,
              14.666666666666686
            ],
            [
              22.0,
              15.333333333333343
            ],
            [
              24.0,
              18.0
            ],
            [
              26.0,
              19.333333333333343
            ],
            [
              28.666666666666686,
              22.0
            ],
            [
              31.333333333333314,
              23.333333333333343
            ],
            [
              34.0,
              24.666666666666686
            ],
            [
              36.666666666666686,
              26.666666666666686
            ],
            [
              38.0,
              28.666666666666686
            ],
            [
              40.0,
              30.666666666666686
            ],
            [
              41.333333333333314,
              33.33333333333334
            ],
            [
              42.0,
              35.33333333333334
            ],
            [
              42.0,
              38.0
            ],
            [
              41.333333333333314,
              41.33333333333334
            ],
            [
              41.333333333333314,
              44.66666666666667
            ],
            [
              39.333333333333314,
              46.0
            ],
            [
              36.666666666666686,
              46.0
            ],
            [
              32.0,
              46.0
            ],
            [
              27.333333333333314,
              47.33333333333334
            ],
            [
              23.333333333333314,
              48.66666666666667
            ],
            [
              19.333333333333314,
              50.0
            ],
            [
              16.0,
              51.33333333333334
            ],
            [
              12.666666666666671,
              52.66666666666667
            ],
            [
              10.0,
              54.0
            ],
            [
              10.0,
              56.66666666666667
            ],
            [
              12.666666666666671,
              59.33333333333334
            ],
            [
              16.0,
              60.66666666666667
            ],
            [
              20.0,
              62.0
            ],
            [
              22.666666666666686,
              62.0
            ],
            [
              27.333333333333314,
              62.0
            ],
            [
              30.0,
              62.0
            ],
            [
              34.0,
              62.0
            ],
            [
              36.666666666666686,
              62.0
            ],
            [
              38.666666666666686,
              60.66666666666667
            ]
          ]
        ]
      }
    }
  ]
}