{
  "type": "FeatureCollection",
  "crs": {
    "type": "name",
    "properties": {
      "name": "urn:ogc:def:crs:OGC:1.3:CRS84"
    }
  },
  "features": [
    {
      "type": "Feature",
      "properties": {
        "timestamp": "2026-04-01T16:14:05.664913",
        "country_name": "South Africa",
        "author": "",
        "author_id": "c7345413-f696-4a12-a76e-d0e87749dc74",
        "validated": false,
        "ranking": [
          [
            "Slovakia",
            0.06506714969873428
          ],
          [
            "Turkey",
            0.03942395746707916
          ],
          [
            "Czech Republic",
            0.03688325360417366
          ],
          [
            "Bhutan",
            0.035993579775094986
          ],
          [
            "Ethiopia",
            0.03435153886675835
          ],
          [
            "Mongolia",
            0.02602570503950119
          ],
          [
            "Guatemala",
            0.024921564385294914
          ],
          [
            "Uzbekistan",
            0.019798897206783295
          ],
          [
            "El Salvador",
            0.018316401168704033
          ],
          [
            "Russia",
            0.01708000898361206
          ],
          [
            "Switzerland",
            0.017047610133886337
          ],
          [
            "Ecuador",
            0.016711389645934105
          ],
          [
            "Cyprus",
            0.01637628860771656
          ],
          [
            "Tajikistan",
            0.016226425766944885
          ],
          [
            "Romania",
            0.01588721014559269
          ],
          [
            "Bangladesh",
            0.015718974173069
          ],
          [
            "Puerto Rico",
            0.014867828227579594
          ],
          [
            "Rwanda",
            0.014168309047818184
          ],
          [
            "United States of America",
            0.014156301505863667
          ],
          [
            "Honduras",
            0.013767315074801445
          ],
          [
            "South Africa",
            0.013345813378691673
          ],
          [
            "Heard and McDonald Islands",
            0.011720819398760796
          ],
          [
            "Zambia",
            0.011390463449060917
          ],
          [
            "Barbados",
            0.010890977457165718
          ],
          [
            "Saudi Arabia",
            0.010750695131719112
          ],
          [
            "Cuba",
            0.010667999275028706
          ],
          [
            "United Arab Emirates",
            0.010532356798648834
          ],
          [
            "Kyrgyzstan",
            0.010470764711499214
          ],
          [
            "Jamaica",
            0.009939041920006275
          ],
          [
            "Slovenia",
            0.009846960194408894
          ],
          [
            "China",
            0.00938904844224453
          ],
          [
            "Burundi",
            0.00925745815038681
          ],
          [
            "Sierra Leone",
            0.008483593352138996
          ],
          [
            "Luxembourg",
            0.008418696001172066
          ],
          [
            "Kazakhstan",
            0.008414153940975666
          ],
          [
            "Gabon",
            0.008362299762666225
          ],
          [
            "Guadeloupe",
            0.007986609824001789
          ],
          [
            "Georgia",
            0.007797301281243563
          ],
          [
            "Turkmenistan",
            0.007443146780133247
          ],
          [
            "Hungary",
            0.0073182955384254456
          ],
          [
            "Serbia",
            0.006760756019502878
          ],
          [
            "Bahamas",
            0.006679977290332317
          ],
          [
            "Cape Verde",
            0.006619452964514494
          ],
          [
            "Dominican Republic",
            0.006469296291470528
          ],
          [
            "Bolivia",
            0.006436704192310572
          ],
          [
            "Hong Kong",
            0.006358888000249863
          ],
          [
            "Indonesia",
            0.006296923384070396
          ],
          [
            "Timor-Leste",
            0.006252164486795664
          ],
          [
            "Lesotho",
            0.006151747889816761
          ],
          [
            "Uganda",
            0.0059837717562913895
          ],
          [
            "Bulgaria",
            0.005530126858502626
          ],
          [
            "Belarus",
            0.0053502595983445644
          ],
          [
            "Falkland Islands",
            0.005327276885509491
          ],
          [
            "Malaysia",
            0.0053209904581308365
          ],
          [
            "Angola",
            0.004974051378667355
          ],
          [
            "Burkina Faso",
            0.004867955576628447
          ],
          [
            "Guyana",
            0.004804291296750307
          ],
          [
            "Sri Lanka",
            0.004624543711543083
          ],
          [
            "North Macedonia",
            0.004622365813702345
          ],
          [
            "Djibouti",
            0.004544708877801895
          ],
          [
            "Madeira Islands",
            0.004495721310377121
          ],
          [
            "Sudan",
            0.004378522280603647
          ],
          [
            "Montenegro",
            0.00437843007966876
          ],
          [
            "Algeria",
            0.004195271525532007
          ],
          [
            "Yemen",
            0.003990570083260536
          ],
          [
            "Iraq",
            0.003897935152053833
          ],
          [
            "Belize",
            0.0038235702086240053
          ],
          [
            "Nigeria",
            0.0037934170104563236
          ],
          [
            "Mexico",
            0.003736372571438551
          ],
          [
            "Panama",
            0.0036304695531725883
          ],
          [
            "Papua New Guinea",
            0.003570348024368286
          ],
          [
            "South Sudan",
            0.0035014916211366653
          ],
          [
            "Lithuania",
            0.0034218153450638056
          ],
          [
            "India",
            0.003418559907004237
          ],
          [
            "Albania",
            0.003381504910066724
          ],
          [
            "Botswana",
            0.0033174671698361635
          ],
          [
            "France",
            0.0032619195990264416
          ],
          [
            "Cambodia",
            0.003252315102145076
          ],
          [
            "Iceland",
            0.0032053142786026
          ],
          [
            "Latvia",
            0.0031966750975698233
          ],
          [
            "Turks and Caicos Islands",
            0.003154766047373414
          ],
          [
            "Uruguay",
            0.0031200225930660963
          ],
          [
            "New Caledonia",
            0.003021758049726486
          ],
          [
            "Syria",
            0.003004115540534258
          ],
          [
            "Ukraine",
            0.002930297050625086
          ],
          [
            "Eswatini",
            0.002842894522473216
          ],
          [
            "Italy",
            0.002743261866271496
          ],
          [
            "Jordan",
            0.0026888789143413305
          ],
          [
            "Central African Republic",
            0.0026493938639760017
          ],
          [
            "Nicaragua",
            0.0025845281779766083
          ],
          [
            "Suriname",
            0.002580828731879592
          ],
          [
            "Benin",
            0.0025284455623477697
          ],
          [
            "Afghanistan",
            0.0024655344896018505
          ],
          [
            "Germany",
            0.0022902151104062796
          ],
          [
            "Moldova",
            0.002289446536451578
          ],
          [
            "Samoa",
            0.0022755370009690523
          ],
          [
            "Côte d'Ivoire",
            0.0022738752886652946
          ],
          [
            "Nepal",
            0.002258642576634884
          ],
          [
            "Trinidad and Tobago",
            0.002231600461527705
          ],
          [
            "Azerbaijan",
            0.002222307026386261
          ],
          [
            "North Korea",
            0.002146715298295021
          ],
          [
            "Spain",
            0.002103905426338315
          ],
          [
            "Somalia",
            0.0020647081546485424
          ],
          [
            "Colombia",
            0.0020370720885694027
          ],
          [
            "Peru",
            0.002032546792179346
          ],
          [
            "Qatar",
            0.0020234142430126667
          ],
          [
            "Vanuatu",
            0.001984697999432683
          ],
          [
            "Brunei",
            0.0019679125398397446
          ],
          [
            "Comoros",
            0.0019392587710171938
          ],
          [
            "Ghana",
            0.0019358255667611957
          ],
          [
            "Guinea-Bissau",
            0.0019312746590003371
          ],
          [
            "French Guiana",
            0.0019287457689642906
          ],
          [
            "South Korea",
            0.0019228465389460325
          ],
          [
            "Vietnam",
            0.0019205190474167466
          ],
          [
            "South Georgia Islands",
            0.0017768708057701588
          ],
          [
            "Senegal",
            0.0016371237579733133
          ],
          [
            "Reunion",
            0.001530908513814211
          ],
          [
            "Mauritania",
            0.0015085027553141117
          ],
          [
            "Netherlands Antilles",
            0.0013937671901658177
          ],
          [
            "Estonia",
            0.0013896713498979807
          ],
          [
            "Solomon Islands",
            0.0013891863636672497
          ],
          [
            "Mali",
            0.0013837782898917794
          ],
          [
            "Togo",
            0.0013260184787213802
          ],
          [
            "Philippines",
            0.0013238628162071109
          ],
          [
            "Malawi",
            0.001319285249337554
          ],
          [
            "Canada",
            0.0012918371940031648
          ],
          [
            "Congo",
            0.0012864154996350408
          ],
          [
            "Kuwait",
            0.0012665512040257454
          ],
          [
            "Martinique",
            0.001218139543198049
          ],
          [
            "Eritrea",
            0.0012067019706591964
          ],
          [
            "Thailand",
            0.0012053631944581866
          ],
          [
            "Egypt",
            0.0011852281168103218
          ],
          [
            "Namibia",
            0.0011773421429097652
          ],
          [
            "Niger",
            0.00115574907977134
          ],
          [
            "Greenland",
            0.001141341170296073
          ],
          [
            "Equatorial Guinea",
            0.0010880144545808434
          ],
          [
            "Oman",
            0.0010379371233284473
          ],
          [
            "Cameroon",
            0.0010128902504220605
          ],
          [
            "Tunisia",
            0.0009980830363929272
          ],
          [
            "Iran",
            0.0009902158053591847
          ],
          [
            "Austria",
            0.0009879237040877342
          ],
          [
            "Finland",
            0.00097968231420964
          ],
          [
            "Laos",
            0.0009518145234324038
          ],
          [
            "Kenya",
            0.0009208882693201303
          ],
          [
            "Gambia",
            0.0009003833401948214
          ],
          [
            "Paraguay",
            0.0008883994305506349
          ],
          [
            "Fiji",
            0.0008742141653783619
          ],
          [
            "Netherlands",
            0.0008710384136065841
          ],
          [
            "Myanmar",
            0.0008610449149273336
          ],
          [
            "Croatia",
            0.000838145730085671
          ],
          [
            "Costa Rica",
            0.0008257135632447898
          ],
          [
            "Portugal",
            0.0008114605443552136
          ],
          [
            "Mozambique",
            0.0007953618187457323
          ],
          [
            "Mayotte",
            0.0007707426557317376
          ],
          [
            "Pakistan",
            0.0007706074393354356
          ],
          [
            "United States Virgin Islands",
            0.0007562389364466071
          ],
          [
            "Faroe Islands",
            0.0007479133200831711
          ],
          [
            "Denmark",
            0.0007435991428792477
          ],
          [
            "Bahrain",
            0.000742829404771328
          ],
          [
            "Venezuela",
            0.0007347299251705408
          ],
          [
            "Dominica",
            0.0007086883415468037
          ],
          [
            "DR Congo",
            0.0007069980492815375
          ],
          [
            "Australia",
            0.0006662630476057529
          ],
          [
            "Ireland",
            0.000665628002025187
          ],
          [
            "Western Sahara",
            0.000661553698591888
          ],
          [
            "Armenia",
            0.0006548598175868392
          ],
          [
            "Antigua & Barbuda",
            0.0006435902905650437
          ],
          [
            "Poland",
            0.0006251469603739679
          ],
          [
            "Guinea",
            0.000617130019236356
          ],
          [
            "Saint Lucia",
            0.0005947992904111743
          ],
          [
            "West Bank",
            0.0005944987060502172
          ],
          [
            "Liberia",
            0.0005806806730106473
          ],
          [
            "Bosnia & Herzegovina",
            0.00057054846547544
          ],
          [
            "Zimbabwe",
            0.0005612113745883107
          ],
          [
            "Guam",
            0.0005511475028470159
          ],
          [
            "Chad",
            0.0005208713700994849
          ],
          [
            "Sao Tome and Principe",
            0.000510853249579668
          ],
          [
            "Tanzania",
            0.000504170311614871
          ],
          [
            "Brazil",
            0.0004909043782390654
          ],
          [
            "United Kingdom",
            0.0004807506047654897
          ],
          [
            "Belgium",
            0.00044862282811664045
          ],
          [
            "Sweden",
            0.00042656614095903933
          ],
          [
            "Argentina",
            0.00042508228216320276
          ],
          [
            "Isle of Man",
            0.00040798282134346664
          ],
          [
            "Taiwan",
            0.00038031081203371286
          ],
          [
            "Svalbard",
            0.0003548661479726434
          ],
          [
            "Japan",
            0.0003343184944242239
          ],
          [
            "Chile",
            0.00029458856442943215
          ],
          [
            "Libya",
            0.00029197678668424487
          ],
          [
            "New Zealand",
            0.00028829180519096553
          ],
          [
            "Israel",
            0.000218969740672037
          ],
          [
            "Lebanon",
            0.00019695863011293113
          ],
          [
            "Greece",
            0.00018419732805341482
          ],
          [
            "Morocco",
            0.00017567048780620098
          ],
          [
            "Palau",
            0.00015980891475919634
          ],
          [
            "Madagascar",
            0.0001134880367317237
          ],
          [
            "Kiribati",
            8.451766916550696e-05
          ],
          [
            "Norway",
            7.717822882113978e-05
          ],
          [
            "Haiti",
            7.681240822421387e-05
          ]
        ]
      },
      "geometry": {
        "type": "MultiLineString",
        "coordinates": [
          [
            [
              18.429806713333164,
              39.33445856539021
            ],
            [
              18.429806713333164,
              40.166732094404665
            ],
            [
              18.325820613156736,
              44.84830532059516
            ],
            [
              18.22183451298031,
              46.61689426430297
            ],
            [
              18.01386423626542,
              48.38548705528672
            ],
            [
              17.805892035912564,
              49.84197727289012
            ],
            [
              17.701905935736136,
              50.57022045805377
            ],
            [
              17.2859596113924,
              51.9226707136163
            ],
            [
              17.077987411039544,
              52.54688163129117
            ],
            [
              16.766031034148284,
              53.795299619364926
            ],
            [
              16.558058833795428,
              54.31547249863695
            ],
            [
              16.35008470980455,
              55.25178598969228
            ],
            [
              16.24609860962812,
              55.667924677837505
            ],
            [
              16.974001310863116,
              55.77196079260233
            ],
            [
              17.389945711568828,
              55.667924677837505
            ],
            [
              17.493931811745256,
              55.25178598969228
            ],
            [
              17.805892035912564,
              54.835647301547056
            ],
            [
              18.117850336441848,
              54.41950668976381
            ],
            [
              18.741765013862448,
              53.69126158096208
            ],
            [
              19.053725238029756,
              53.27512481645488
            ],
            [
              20.509530640499804,
              51.5065339491091
            ],
            [
              21.02945921774392,
              50.778288840307425
            ],
            [
              21.757361918978972,
              49.84197727289012
            ],
            [
              22.06932214314628,
              49.42583666110687
            ],
            [
              22.589254567666444,
              48.697593475943165
            ],
            [
              22.901210944557704,
              48.17741867303312
            ],
            [
              23.10918314491056,
              47.55320583172022
            ],
            [
              23.317155345263416,
              47.13706521993697
            ],
            [
              23.52512754561633,
              46.408825882049314
            ],
            [
              23.733099745969184,
              45.47251046735602
            ],
            [
              24.045056122860444,
              44.01602409702866
            ],
            [
              24.149044146674896,
              43.183742873462165
            ],
            [
              24.357016347027752,
              41.62321846473196
            ],
            [
              24.357016347027752,
              40.89497912684436
            ],
            [
              24.357016347027752,
              39.854633368300256
            ],
            [
              24.66897657119506,
              39.23042437426341
            ]
          ],
          [
            [
              19.053725238029756,
              39.02235214473376
            ],
            [
              19.469667715097444,
              38.60620768567446
            ],
            [
              20.19757233997052,
              37.66989611825716
            ],
            [
              20.717500917214636,
              36.52551616858625
            ],
            [
              20.301558440146948,
              36.73358455083991
            ],
            [
              19.885612115803212,
              37.045690971496356
            ],
            [
              18.429806713333164,
              37.66989611825716
            ],
            [
              17.90987813608899,
              37.877968347786805
            ],
            [
              17.493931811745256,
              37.98200638618965
            ],
            [
              14.998267331148952,
              36.837622589242756
            ],
            [
              13.646446105217308,
              36.0053413656762
            ],
            [
              11.878682402217976,
              34.44482080422205
            ],
            [
              11.462738001512264,
              34.1327143835656
            ],
            [
              10.838821400453696,
              34.0286801924388
            ],
            [
              10.526861176286388,
              34.54885499534885
            ],
            [
              10.422875076109904,
              34.964991759856105
            ],
            [
              10.11091677558062,
              35.79727683069865
            ],
            [
              9.694972374874908,
              36.42148197745945
            ],
            [
              9.383014074345624,
              36.73358455083991
            ],
            [
              8.343154996219312,
              37.045690971496356
            ],
            [
              7.823224495337172,
              37.045690971496356
            ],
            [
              6.3674171692291,
              37.045690971496356
            ],
            [
              5.431542267641248,
              36.73358455083991
            ],
            [
              5.0155978669354795,
              36.62955035971311
            ],
            [
              4.49566736605334,
              36.3174516336087
            ],
            [
              4.079722965347628,
              35.90131102182545
            ],
            [
              3.767763702999332,
              35.2771020277886
            ],
            [
              3.45580636428906,
              34.756923377602504
            ],
            [
              3.0398610017642795,
              33.924646001312
            ],
            [
              2.7279036630540077,
              33.5085092368048
            ],
            [
              2.415944400705712,
              32.88430024276789
            ],
            [
              2.207973162171868,
              32.468159630984644
            ],
            [
              2.0,
              31.739912598544947
            ],
            [
              2.10398706199544,
              30.59553264887404
            ],
            [
              2.207973162171868,
              29.555183043053944
            ],
            [
              2.415944400705712,
              27.68255606094334
            ],
            [
              2.6239156392395557,
              26.018001308362386
            ],
            [
              2.7279036630540077,
              25.28975427592269
            ],
            [
              3.0398610017642795,
              23.833264058319287
            ],
            [
              3.2478341639361474,
              23.209058911558486
            ],
            [
              3.663777602822904,
              21.856602885081884
            ],
            [
              4.287694203881472,
              20.504154553157377
            ],
            [
              4.703638604587184,
              19.77590752071768
            ],
            [
              5.431542267641248,
              18.527497227196022
            ],
            [
              6.3674171692291,
              17.27907154457023
            ],
            [
              6.7833634935728355,
              16.75889674166018
            ],
            [
              7.511266194807888,
              16.03066125104857
            ],
            [
              8.447139172757716,
              15.302410371332826
            ],
            [
              9.590988198336504,
              14.782235568422777
            ],
            [
              10.630849200100783,
              14.57416718616912
            ],
            [
              11.254767724797432,
              14.470136842318368
            ],
            [
              13.646446105217308,
              14.36609880391552
            ],
            [
              14.582321006805216,
              14.262060765512729
            ],
            [
              15.518197832031092,
              14.15803042166192
            ],
            [
              16.35008470980455,
              14.054000077811168
            ],
            [
              18.117850336441848,
              13.429779541946175
            ],
            [
              19.781626015626784,
              12.493475669080965
            ],
            [
              20.613514817038208,
              12.077331210021669
            ],
            [
              22.06932214314628,
              11.24505768100721
            ],
            [
              22.797222920743252,
              11.036981604201571
            ],
            [
              24.045056122860444,
              10.516814495843562
            ],
            [
              24.66897657119506,
              10.308738419037923
            ],
            [
              25.8128217494978,
              9.892601654530665
            ],
            [
              26.95667077507653,
              9.580502928426256
            ],
            [
              27.580587376135156,
              9.372426851620617
            ],
            [
              28.932404754790696,
              9.060328125516207
            ],
            [
              29.660309379663772,
              8.95628239256132
            ],
            [
              31.11611478213382,
              8.74821401030772
            ],
            [
              31.74002753591634,
              8.644183666456911
            ],
            [
              32.98786458530958,
              8.54014562805412
            ],
            [
              34.13171361088831,
              8.54014562805412
            ],
            [
              34.75563021194694,
              8.43611528420331
            ],
            [
              35.795491213711216,
              8.332077245800463
            ],
            [
              36.31542363823138,
              8.228039207397615
            ],
            [
              37.35528079271967,
              8.228039207397615
            ],
            [
              37.979197393778236,
              8.228039207397615
            ],
            [
              39.123046419357024,
              8.43611528420331
            ],
            [
              40.162907421121304,
              8.74821401030772
            ],
            [
              40.78682402217993,
              8.852252048710511
            ],
            [
              42.03466107157311,
              8.95628239256132
            ],
            [
              42.45060547227888,
              9.060328125516207
            ],
            [
              43.38647845022871,
              9.372426851620617
            ],
            [
              43.90640702747288,
              9.47644950091933
            ],
            [
              45.25822440612848,
              9.996639692933513
            ],
            [
              46.09011705481595,
              10.516814495843562
            ],
            [
              48.169839058344564,
              11.869262827768068
            ],
            [
              50.24956490914923,
              13.117680815841823
            ],
            [
              51.185437887099056,
              13.637855618751871
            ],
            [
              52.329286912677844,
              14.470136842318368
            ],
            [
              52.745231313383556,
              14.782235568422777
            ],
            [
              52.745231313383556,
              15.406448409735674
            ],
            [
              52.5372591130307,
              16.342759977152923
            ],
            [
              52.329286912677844,
              18.007322424285974
            ],
            [
              52.329286912677844,
              18.527497227196022
            ],
            [
              52.329286912677844,
              19.56784298574013
            ],
            [
              52.5372591130307,
              20.504154553157377
            ],
            [
              52.64123944229311,
              20.920295164940626
            ],
            [
              52.95319966646042,
              21.64853835010433
            ],
            [
              53.26515604335168,
              22.68888410864838
            ],
            [
              53.785088467871844,
              23.937305943998183
            ],
            [
              54.512993092744864,
              24.97765170254229
            ],
            [
              55.03292166998904,
              25.497826505452338
            ],
            [
              56.28075487210617,
              26.434141920145635
            ],
            [
              56.800683449350345,
              26.850282531928883
            ],
            [
              57.944532474929076,
              27.68255606094334
            ],
            [
              58.360476875634845,
              28.09869667272659
            ],
            [
              58.67243709980215,
              28.722901819487447
            ],
            [
              58.984389629417365,
              29.34711850807639
            ],
            [
              59.088381500507865,
              29.763251425307544
            ],
            [
              59.192373371598364,
              30.90763906953049
            ],
            [
              59.192373371598364,
              31.635878407418147
            ],
            [
              59.088381500507865,
              33.09236862502155
            ],
            [
              59.088381500507865,
              33.71657377178235
            ],
            [
              59.088381500507865,
              34.964991759856105
            ],
            [
              59.088381500507865,
              36.21340590065381
            ],
            [
              59.192373371598364,
              36.73358455083991
            ],
            [
              59.40034172467517,
              37.773934156660005
            ],
            [
              59.504325901213576,
              38.2941128068461
            ],
            [
              60.02426217300979,
              39.43849275651701
            ],
            [
              60.44019887916346,
              39.958667559427056
            ],
            [
              61.48006372820379,
              40.79094493571756
            ],
            [
              62.0,
              41.3111235859036
            ],
            [
              61.272079986022845,
              42.14339326764207
            ],
            [
              60.96013515095967,
              42.55953387942532
            ],
            [
              60.232230526086596,
              43.183742873462165
            ],
            [
              59.60831007775198,
              43.70392152364826
            ],
            [
              59.192373371598364,
              43.70392152364826
            ],
            [
              58.67243709980215,
              43.599883485245414
            ],
            [
              55.344881894156345,
              42.871644147357756
            ],
            [
              52.12130701777289,
              42.03936677106731
            ],
            [
              50.87347766293175,
              41.83129454153766
            ],
            [
              48.68976763558868,
              41.62321846473196
            ],
            [
              47.753898504914844,
              41.51918427360516
            ],
            [
              46.40207343170721,
              41.62321846473196
            ],
            [
              45.67417265411018,
              41.93532873266446
            ],
            [
              45.154240229590016,
              42.03936677106731
            ],
            [
              44.73829967616035,
              42.03936677106731
            ],
            [
              44.32235527545464,
              42.03936677106731
            ],
            [
              43.80242285093448,
              42.24743515332091
            ],
            [
              43.282490426414256,
              42.66356807055212
            ],
            [
              42.866546025708544,
              42.871644147357756
            ],
            [
              42.45060547227888,
              42.871644147357756
            ],
            [
              42.03466107157311,
              42.767609956230956
            ],
            [
              41.51472864705295,
              42.767609956230956
            ],
            [
              41.09878039907119,
              42.871644147357756
            ],
            [
              40.682839845641524,
              42.975674491208565
            ],
            [
              40.266891597659765,
              42.975674491208565
            ],
            [
              39.64297499660114,
              42.975674491208565
            ],
            [
              38.29116146522159,
              42.871644147357756
            ],
            [
              37.667241016886976,
              42.767609956230956
            ],
            [
              37.14731243964286,
              42.66356807055212
            ],
            [
              36.7313641916611,
              42.55953387942532
            ],
            [
              35.89947923752567,
              42.24743515332091
            ],
            [
              35.379546813005504,
              41.93532873266446
            ],
            [
              34.96360241229979,
              41.93532873266446
            ],
            [
              33.40380898601529,
              41.83129454153766
            ],
            [
              32.675908208418264,
              41.62321846473196
            ],
            [
              32.259959960436504,
              41.51918427360516
            ],
            [
              31.74002753591634,
              41.3111235859036
            ],
            [
              30.492198181075196,
              40.47883851506111
            ],
            [
              29.348349155496464,
              39.54252694764381
            ],
            [
              28.932404754790696,
              39.23042437426341
            ],
            [
              28.516460354084984,
              39.12638248858451
            ],
            [
              27.996531776840868,
              39.33445856539021
            ],
            [
              27.580587376135156,
              39.43849275651701
            ],
            [
              27.164642975429388,
              39.54252694764381
            ],
            [
              26.748698574723676,
              39.43849275651701
            ]
          ],
          [
            [
              40.89081204599438,
              29.34711850807639
            ],
            [
              39.01905839554257,
              27.68255606094334
            ],
            [
              37.77122904070143,
              27.058347066906492
            ],
            [
              37.04332441582841,
              26.122035499489186
            ],
            [
              37.04332441582841,
              25.705894887705938
            ],
            [
              37.251296616181264,
              24.56151109075904
            ],
            [
              37.979197393778236,
              23.313093102685286
            ],
            [
              38.395145641759996,
              22.792918299775238
            ],
            [
              39.227034443171476,
              21.96064477076078
            ],
            [
              40.266891597659765,
              21.336428082171835
            ],
            [
              40.682839845641524,
              21.232397738321083
            ],
            [
              41.51472864705295,
              21.232397738321083
            ],
            [
              42.76255800189409,
              21.856602885081884
            ],
            [
              43.49046262676711,
              22.272743496865132
            ],
            [
              45.050252205775564,
              23.521165332214935
            ],
            [
              45.570184630295785,
              24.145374326251783
            ],
            [
              46.50606145552166,
              25.18572008479589
            ],
            [
              46.92200585622737,
              25.601860696579138
            ],
            [
              47.23396608039468,
              26.122035499489186
            ],
            [
              47.025993880041824,
              26.746240646250044
            ],
            [
              46.61004947933611,
              27.37045348756294
            ],
            [
              45.88214485446309,
              28.09869667272659
            ],
            [
              45.25822440612848,
              28.618871475636638
            ],
            [
              44.94627187651321,
              29.035008240143895
            ],
            [
              44.32235527545464,
              29.555183043053944
            ],
            [
              43.594450650581564,
              30.179392037090793
            ],
            [
              43.17850624987585,
              30.38746426662044
            ],
            [
              42.554585801541236,
              30.283426228217593
            ],
            [
              41.61871282359135,
              29.971323654837192
            ],
            [
              41.20277227016169,
              29.763251425307544
            ],
            [
              39.33101861970988,
              29.34711850807639
            ],
            [
              38.395145641759996,
              29.035008240143895
            ],
            [
              37.251296616181264,
              28.514837284509838
            ],
            [
              36.62738001512264,
              27.99466248159979
            ]
          ]
        ]
      }
    }
  ]
}