{
  "type": "FeatureCollection",
  "crs": {
    "type": "name",
    "properties": {
      "name": "urn:ogc:def:crs:OGC:1.3:CRS84"
    }
  },
  "features": [
    {
      "type": "Feature",
      "properties": {
        "timestamp": "2026-07-15T06:23:44.623931",
        "country_name": "South Africa",
        "author": "Isaac",
        "author_id": "5a5bdb66-20b1-4757-a463-033ebd6dc2f8",
        "validated": false,
        "ranking": [
          [
            "Romania",
            0.04480292648077011
          ],
          [
            "Ethiopia",
            0.038372259587049484
          ],
          [
            "North Macedonia",
            0.033359769731760025
          ],
          [
            "Bolivia",
            0.02978598326444626
          ],
          [
            "Guatemala",
            0.028155548498034477
          ],
          [
            "Gabon",
            0.026902208104729652
          ],
          [
            "Rwanda",
            0.026317616924643517
          ],
          [
            "Burundi",
            0.026182634755969048
          ],
          [
            "Switzerland",
            0.025235749781131744
          ],
          [
            "Lesotho",
            0.02296549454331398
          ],
          [
            "Bulgaria",
            0.021555596962571144
          ],
          [
            "Uruguay",
            0.01980861835181713
          ],
          [
            "Czech Republic",
            0.01888875663280487
          ],
          [
            "Angola",
            0.01823672279715538
          ],
          [
            "Cambodia",
            0.017899315804243088
          ],
          [
            "Ecuador",
            0.017369817942380905
          ],
          [
            "United States of America",
            0.01668485626578331
          ],
          [
            "Sudan",
            0.016527989879250526
          ],
          [
            "Sierra Leone",
            0.016139855608344078
          ],
          [
            "Bhutan",
            0.01526599284261465
          ],
          [
            "Côte d'Ivoire",
            0.013829580508172512
          ],
          [
            "Saudi Arabia",
            0.013689907267689705
          ],
          [
            "Botswana",
            0.01349690742790699
          ],
          [
            "Guadeloupe",
            0.013187597505748272
          ],
          [
            "Zambia",
            0.012660008855164051
          ],
          [
            "Suriname",
            0.012322286143898964
          ],
          [
            "South Africa",
            0.0119717912748456
          ],
          [
            "Hungary",
            0.010593116283416748
          ],
          [
            "Cape Verde",
            0.010471580550074577
          ],
          [
            "South Sudan",
            0.009731716476380825
          ],
          [
            "Uzbekistan",
            0.009095888584852219
          ],
          [
            "China",
            0.008813397958874702
          ],
          [
            "Heard and McDonald Islands",
            0.0088021419942379
          ],
          [
            "Iceland",
            0.008445730432868004
          ],
          [
            "Turkey",
            0.008281522430479527
          ],
          [
            "Nigeria",
            0.008122334256768227
          ],
          [
            "Slovakia",
            0.007806987036019564
          ],
          [
            "Tajikistan",
            0.007720478810369968
          ],
          [
            "Mongolia",
            0.007384235505014658
          ],
          [
            "Puerto Rico",
            0.0073705860413610935
          ],
          [
            "Belarus",
            0.007300406228750944
          ],
          [
            "El Salvador",
            0.007279133424162865
          ],
          [
            "Lithuania",
            0.00724805798381567
          ],
          [
            "France",
            0.0071410383097827435
          ],
          [
            "Bangladesh",
            0.007127784192562103
          ],
          [
            "Ukraine",
            0.0071206907741725445
          ],
          [
            "Honduras",
            0.006842809729278088
          ],
          [
            "Iraq",
            0.006650228053331375
          ],
          [
            "Bahamas",
            0.005931023973971605
          ],
          [
            "Slovenia",
            0.005851960740983486
          ],
          [
            "Barbados",
            0.005552045069634914
          ],
          [
            "Burkina Faso",
            0.005336926318705082
          ],
          [
            "Syria",
            0.005322826094925404
          ],
          [
            "Uganda",
            0.00529525289312005
          ],
          [
            "Cuba",
            0.0051317475736141205
          ],
          [
            "Yemen",
            0.005030014552175999
          ],
          [
            "Turkmenistan",
            0.004942547995597124
          ],
          [
            "Reunion",
            0.004924481268972158
          ],
          [
            "Montenegro",
            0.004921091720461845
          ],
          [
            "Eswatini",
            0.004885189235210419
          ],
          [
            "Dominican Republic",
            0.0046104248613119125
          ],
          [
            "Algeria",
            0.0044628106988966465
          ],
          [
            "Latvia",
            0.004384847357869148
          ],
          [
            "Kazakhstan",
            0.00428068358451128
          ],
          [
            "Azerbaijan",
            0.004209963604807854
          ],
          [
            "Russia",
            0.00407318165525794
          ],
          [
            "Comoros",
            0.003985289949923754
          ],
          [
            "Madeira Islands",
            0.003942384850233793
          ],
          [
            "Iran",
            0.003931406885385513
          ],
          [
            "French Guiana",
            0.0039172000251710415
          ],
          [
            "Jamaica",
            0.0038716518320143223
          ],
          [
            "Nicaragua",
            0.0038491797167807817
          ],
          [
            "Malaysia",
            0.0034261574037373066
          ],
          [
            "Georgia",
            0.003261819016188383
          ],
          [
            "Egypt",
            0.0032066218554973602
          ],
          [
            "Guinea",
            0.00306344754062593
          ],
          [
            "Mexico",
            0.0030427456367760897
          ],
          [
            "Jordan",
            0.0029740524478256702
          ],
          [
            "United Arab Emirates",
            0.002894654870033264
          ],
          [
            "Germany",
            0.002841110108420253
          ],
          [
            "Turks and Caicos Islands",
            0.0028012541588395834
          ],
          [
            "Peru",
            0.002774316817522049
          ],
          [
            "Luxembourg",
            0.002756877802312374
          ],
          [
            "Djibouti",
            0.0024767466820776463
          ],
          [
            "Serbia",
            0.0024712493177503347
          ],
          [
            "South Georgia Islands",
            0.002390078268945217
          ],
          [
            "Hong Kong",
            0.002362507861107588
          ],
          [
            "Kyrgyzstan",
            0.002296894323080778
          ],
          [
            "Panama",
            0.0022523438092321157
          ],
          [
            "Costa Rica",
            0.002218384761363268
          ],
          [
            "Venezuela",
            0.002172628650441766
          ],
          [
            "Belize",
            0.0021665289532393217
          ],
          [
            "India",
            0.002148668747395277
          ],
          [
            "Senegal",
            0.002140961354598403
          ],
          [
            "Australia",
            0.00213455967605114
          ],
          [
            "New Caledonia",
            0.002069991547614336
          ],
          [
            "Falkland Islands",
            0.0020030506420880556
          ],
          [
            "Indonesia",
            0.0019713682122528553
          ],
          [
            "Tanzania",
            0.001929734949953854
          ],
          [
            "Italy",
            0.0019137063063681126
          ],
          [
            "Poland",
            0.0019073511939495802
          ],
          [
            "Nepal",
            0.0018549198284745216
          ],
          [
            "Samoa",
            0.0018452968215569854
          ],
          [
            "Mauritania",
            0.0018433865625411272
          ],
          [
            "Papua New Guinea",
            0.0018198267789557576
          ],
          [
            "Spain",
            0.0017969963373616338
          ],
          [
            "Mali",
            0.0017932949122041464
          ],
          [
            "Guyana",
            0.001769730355590582
          ],
          [
            "Namibia",
            0.001752832904458046
          ],
          [
            "Ghana",
            0.0016842270269989967
          ],
          [
            "Equatorial Guinea",
            0.001627981080673635
          ],
          [
            "Moldova",
            0.0016119233332574368
          ],
          [
            "Liberia",
            0.0015336466021835804
          ],
          [
            "Central African Republic",
            0.0014834135072305799
          ],
          [
            "Kenya",
            0.0014504550490528345
          ],
          [
            "Estonia",
            0.0014291940024122596
          ],
          [
            "Armenia",
            0.0013717946130782366
          ],
          [
            "Afghanistan",
            0.0013532007578760386
          ],
          [
            "Vanuatu",
            0.0013525892281904817
          ],
          [
            "Brazil",
            0.001323031960055232
          ],
          [
            "Solomon Islands",
            0.0012612183345481753
          ],
          [
            "Paraguay",
            0.0012532451655715704
          ],
          [
            "Cyprus",
            0.001234766561537981
          ],
          [
            "Sri Lanka",
            0.0011993933003395796
          ],
          [
            "Zimbabwe",
            0.0011611112859100103
          ],
          [
            "Kuwait",
            0.0011367395054548979
          ],
          [
            "Eritrea",
            0.0011321090860292315
          ],
          [
            "Martinique",
            0.0011126393219456077
          ],
          [
            "Guinea-Bissau",
            0.0011107203317806125
          ],
          [
            "Vietnam",
            0.001110472483560443
          ],
          [
            "Brunei",
            0.0010991356102749705
          ],
          [
            "Belgium",
            0.0010474991286173463
          ],
          [
            "Bosnia & Herzegovina",
            0.001016007037833333
          ],
          [
            "Laos",
            0.0010006980737671256
          ],
          [
            "Niger",
            0.0009671683656051755
          ],
          [
            "Timor-Leste",
            0.0009607186657376587
          ],
          [
            "Benin",
            0.0009562050108797848
          ],
          [
            "Croatia",
            0.0009419893031008542
          ],
          [
            "Canada",
            0.0009062375756911933
          ],
          [
            "United States Virgin Islands",
            0.0008930917247198522
          ],
          [
            "Netherlands Antilles",
            0.000885994522832334
          ],
          [
            "Greenland",
            0.0008527322788722813
          ],
          [
            "Pakistan",
            0.0008241304312832654
          ],
          [
            "Denmark",
            0.0007523570093326271
          ],
          [
            "North Korea",
            0.000722709926776588
          ],
          [
            "Oman",
            0.0007117360946722329
          ],
          [
            "Qatar",
            0.0007109342259354889
          ],
          [
            "Congo",
            0.0006964485510252416
          ],
          [
            "Colombia",
            0.000672896159812808
          ],
          [
            "Faroe Islands",
            0.0006444475147873163
          ],
          [
            "Cameroon",
            0.0006183917867019773
          ],
          [
            "Somalia",
            0.000615457131061703
          ],
          [
            "Trinidad and Tobago",
            0.0005813653697259724
          ],
          [
            "Togo",
            0.000574786274228245
          ],
          [
            "Libya",
            0.0005499680992215872
          ],
          [
            "Austria",
            0.0005324153462424874
          ],
          [
            "Albania",
            0.0005196258425712585
          ],
          [
            "Finland",
            0.000510568730533123
          ],
          [
            "Dominica",
            0.0005037923692725599
          ],
          [
            "Sao Tome and Principe",
            0.0004946506815031171
          ],
          [
            "South Korea",
            0.0004748551291413605
          ],
          [
            "Fiji",
            0.00045703406794928014
          ],
          [
            "DR Congo",
            0.0004448361287359148
          ],
          [
            "Antigua & Barbuda",
            0.0004337183781899512
          ],
          [
            "Malawi",
            0.0004142708203289658
          ],
          [
            "Philippines",
            0.00040832447120919824
          ],
          [
            "Mozambique",
            0.0003918259171769023
          ],
          [
            "Guam",
            0.00035084414412267506
          ],
          [
            "Bahrain",
            0.0003479313163552433
          ],
          [
            "Chad",
            0.00033293181331828237
          ],
          [
            "Gambia",
            0.00029961878317408264
          ],
          [
            "Thailand",
            0.00029348029056563973
          ],
          [
            "Isle of Man",
            0.00028361871954984963
          ],
          [
            "Svalbard",
            0.0002692017296794802
          ],
          [
            "Saint Lucia",
            0.0002463774289935827
          ],
          [
            "Greece",
            0.0002408317377557978
          ],
          [
            "Ireland",
            0.00023728709493298084
          ],
          [
            "Tunisia",
            0.00023039925144985318
          ],
          [
            "Myanmar",
            0.0002260399196529761
          ],
          [
            "Japan",
            0.0002183928299928084
          ],
          [
            "Chile",
            0.0002181954769184813
          ],
          [
            "New Zealand",
            0.0002175247936975211
          ],
          [
            "Mayotte",
            0.00021457760885823518
          ],
          [
            "Western Sahara",
            0.00018177546735387295
          ],
          [
            "Portugal",
            0.00018137787992600352
          ],
          [
            "West Bank",
            0.0001672021608101204
          ],
          [
            "United Kingdom",
            0.00015760246606078
          ],
          [
            "Sweden",
            0.00015384095604531467
          ],
          [
            "Netherlands",
            0.00015316344797611237
          ],
          [
            "Kiribati",
            0.00014934827049728483
          ],
          [
            "Argentina",
            0.00012651643191929907
          ],
          [
            "Israel",
            0.00010429929534438998
          ],
          [
            "Taiwan",
            0.00010086248948937282
          ],
          [
            "Morocco",
            9.313748887507245e-05
          ],
          [
            "Palau",
            9.170034172711894e-05
          ],
          [
            "Haiti",
            8.731935668038204e-05
          ],
          [
            "Lebanon",
            5.4441552492789924e-05
          ],
          [
            "Norway",
            4.847787204198539e-05
          ],
          [
            "Madagascar",
            4.288999116397463e-05
          ]
        ]
      },
      "geometry": {
        "type": "MultiLineString",
        "coordinates": [
          [
            [
              2.0,
              36.911443826608064
            ],
            [
              3.248011583593936,
              36.77545726035936
            ],
            [
              4.520638304290557,
              36.77545726035936
            ],
            [
              5.793265024987193,
              36.83723642798964
            ],
            [
              6.942333410423231,
              37.01026636232916
            ],
            [
              7.992579260138143,
              37.356205568571454
            ],
            [
              9.018089310313627,
              37.78865974198348
            ],
            [
              9.833646720495523,
              38.24584971493499
            ],
            [
              10.463745965349773,
              38.814169792158935
            ],
            [
              11.1310092407316,
              39.54321223517107
            ],
            [
              11.588199213683112,
              40.198047279564804
            ],
            [
              12.16882685945842,
              41.285336497370565
            ],
            [
              12.576665895767775,
              42.446833113794725
            ],
            [
              12.95964847010086,
              43.62063729877025
            ],
            [
              13.194457572070661,
              44.39903067842454
            ],
            [
              13.466189379694526,
              45.436968959588114
            ],
            [
              13.614483514494566,
              46.4624790097636
            ],
            [
              13.849292616464396,
              48.204603271963066
            ],
            [
              14.083981055997413,
              49.41545082502941
            ],
            [
              14.331097726518578,
              50.61399080954439
            ],
            [
              14.479391861318646,
              51.77548742596855
            ],
            [
              14.541171028948924,
              53.035806578113835
            ],
            [
              14.541171028948924,
              54.110667564931475
            ],
            [
              14.541171028948924,
              54.96326834320419
            ],
            [
              14.541171028948924,
              55.7540899538466
            ],
            [
              14.578214397039744,
              56.70539260540366
            ],
            [
              14.664729364209506,
              57.63208011985802
            ],
            [
              15.542065942021708,
              57.7310233180159
            ],
            [
              16.184472755427294,
              56.927894138822126
            ],
            [
              16.876471830348606,
              56.07529336054941
            ],
            [
              17.4818352756634,
              55.17334164563454
            ],
            [
              18.075011814863615,
              54.18487496354987
            ],
            [
              18.54450935636646,
              53.208715850016574
            ],
            [
              18.890448562608725,
              52.1461624317503
            ],
            [
              19.199344400760168,
              51.0711807824959
            ],
            [
              19.607062774632738,
              49.78612583081116
            ],
            [
              19.854179445153903,
              48.760615780635675
            ],
            [
              20.088988547123705,
              47.89570743381162
            ],
            [
              20.37314858573569,
              46.91966898271511
            ],
            [
              20.645001055796314,
              46.19062653970295
            ],
            [
              20.990940262038578,
              45.288674824788075
            ],
            [
              21.70755447406259,
              44.275472343163955
            ],
            [
              22.597198620426127,
              43.37352062824908
            ],
            [
              23.12847532955928,
              42.64447818523695
            ],
            [
              23.73395943731083,
              41.79199806940102
            ],
            [
              24.41353028124402,
              41.1124272254678
            ],
            [
              25.167187861358855,
              40.729323988697956
            ],
            [
              25.995052840092114,
              40.70458818915847
            ],
            [
              26.971211953625414,
              40.70458818915847
            ],
            [
              28.120280339061452,
              40.75405978823741
            ],
            [
              29.21987712541855,
              40.98886889020724
            ],
            [
              30.591447044273053,
              41.285336497370565
            ],
            [
              31.9628963006908,
              41.81661320650369
            ],
            [
              33.01314215040571,
              42.28623141044332
            ],
            [
              33.890478728217914,
              42.669213984776405
            ],
            [
              34.742958844053845,
              43.06462479009764
            ],
            [
              35.719117957587144,
              43.571165699691306
            ],
            [
              36.843450543483726,
              44.15191400790337
            ],
            [
              38.31384299805933,
              44.584368181315426
            ],
            [
              39.1169721772531,
              44.60910398085488
            ],
            [
              40.34012729887081,
              44.70792651657598
            ],
            [
              41.476888115755514,
              44.78201325275762
            ],
            [
              42.304753094488746,
              44.80674905229711
            ],
            [
              43.2314406089431,
              44.95504318709715
            ],
            [
              44.26937889010668,
              45.18985228906698
            ],
            [
              45.4677982121849,
              45.288674824788075
            ],
            [
              46.99996983439081,
              45.3874973605092
            ],
            [
              47.79079144503322,
              45.41223316004866
            ],
            [
              48.82860906376004,
              45.41223316004866
            ],
            [
              49.68120984203276,
              45.41223316004866
            ],
            [
              50.66967652411739,
              45.41223316004866
            ],
            [
              51.57162823903229,
              45.41223316004866
            ],
            [
              52.42422901730501,
              45.41223316004866
            ],
            [
              53.19019416597118,
              45.288674824788075
            ],
            [
              53.9439724085228,
              44.85622065137605
            ],
            [
              54.79645252435873,
              44.15191400790337
            ],
            [
              55.45140823118922,
              43.3487848287096
            ],
            [
              56.093815044594834,
              42.38505394616442
            ],
            [
              56.5757408170858,
              41.74252647032205
            ],
            [
              57.02050255904919,
              41.1370423625705
            ],
            [
              57.823631738242966,
              39.85210807332254
            ],
            [
              58.40438004645503,
              38.665875657358896
            ],
            [
              58.8120984203276,
              37.45502810429255
            ],
            [
              59.05921509084877,
              36.577812188917136
            ],
            [
              59.23224502518826,
              35.824033946365546
            ],
            [
              58.948084986576305,
              35.04564056671123
            ],
            [
              58.342600878824754,
              34.53909965711756
            ],
            [
              57.613679098249406,
              34.11895305225687
            ],
            [
              56.72403495188587,
              33.63714794220269
            ],
            [
              55.93321334124343,
              33.10575057063278
            ],
            [
              55.30311409638918,
              32.450915526239044
            ],
            [
              54.77183738725603,
              31.84555208092428
            ],
            [
              53.98101577661362,
              30.81992136831201
            ],
            [
              53.486782435571286,
              30.04152798865772
            ],
            [
              53.27670913314094,
              29.238398809463945
            ],
            [
              53.27670913314094,
              28.43526963027017
            ],
            [
              53.32618073221988,
              27.595097082985575
            ],
            [
              53.98101577661362,
              26.86605463997344
            ],
            [
              55.34015746448,
              26.74249630471286
            ],
            [
              56.4151391137344,
              26.74249630471286
            ],
            [
              57.60125086726126,
              26.74249630471286
            ],
            [
              58.61445334888538,
              26.74249630471286
            ],
            [
              59.40527495952779,
              26.74249630471286
            ],
            [
              60.15893253964265,
              26.74249630471286
            ],
            [
              60.83850338357581,
              26.446028697549536
            ],
            [
              61.43155926033927,
              25.865280389337443
            ],
            [
              61.9257926013816,
              25.012679611064726
            ],
            [
              62.0,
              24.147771264240674
            ],
            [
              61.975264200460515,
              22.689807040653193
            ],
            [
              61.864013433751296,
              21.639561190938252
            ],
            [
              61.555117595599825,
              20.354626901690267
            ],
            [
              61.35747252415763,
              19.193130285266108
            ],
            [
              61.048576686006186,
              18.142884435551167
            ],
            [
              60.39374164161245,
              16.58609767624256
            ],
            [
              59.541140863339734,
              14.79450181496415
            ],
            [
              57.84836753778242,
              12.558023549285565
            ],
            [
              57.02050255904919,
              11.656071834370692
            ],
            [
              56.106243275582955,
              10.71707675136497
            ],
            [
              55.352465033031336,
              10.11159264361342
            ],
            [
              54.5988074529165,
              9.617359302571117
            ],
            [
              53.4620466360318,
              9.283727664880189
            ],
            [
              51.91756744527456,
              9.110818392977421
            ],
            [
              50.410131622608105,
              8.789494323837857
            ],
            [
              48.989210767111445,
              8.604156820946969
            ],
            [
              48.09968728318469,
              8.480598485686414
            ],
            [
              47.03701320248163,
              8.233481815165248
            ],
            [
              46.24631225427598,
              8.023408512734903
            ],
            [
              45.368975676463776,
              7.603382570310998
            ],
            [
              43.73798151853677,
              7.245015133080585
            ],
            [
              42.92254477079166,
              7.072105861177874
            ],
            [
              42.05763642396758,
              6.9238117263778065
            ],
            [
              41.143256478064586,
              6.775517591577739
            ],
            [
              39.388824647313754,
              6.63965168776582
            ],
            [
              38.153241294707954,
              6.516093352505237
            ],
            [
              37.18938974972599,
              6.392535017244654
            ],
            [
              36.32448140290194,
              6.343063418165713
            ],
            [
              34.31050467064182,
              6.293591819086771
            ],
            [
              33.30973042000585,
              6.2689766819841
            ],
            [
              31.975324531678922,
              6.2689766819841
            ],
            [
              31.036208786236443,
              6.2689766819841
            ],
            [
              29.294084524036975,
              6.2689766819841
            ],
            [
              28.231410443333914,
              6.2689766819841
            ],
            [
              26.74871042020692,
              6.2689766819841
            ],
            [
              25.04362952609827,
              6.63965168776582
            ],
            [
              23.906868709213597,
              6.614915888226335
            ],
            [
              22.819579491407836,
              6.948547525917263
            ],
            [
              21.275100300650564,
              7.3810016993293175
            ],
            [
              19.9283868437723,
              7.751676705111038
            ],
            [
              18.86571276306924,
              8.109923479904666
            ],
            [
              17.4572201385607,
              8.702979356668095
            ],
            [
              16.456325225487916,
              9.234376728238033
            ],
            [
              14.874802666639852,
              10.34640174558325
            ],
            [
              13.923379352646037,
              11.12479512523754
            ],
            [
              12.811354335300791,
              12.434465214024982
            ],
            [
              11.934138419925375,
              13.36115272847934
            ],
            [
              10.970407537380225,
              14.695558616806238
            ],
            [
              9.759439321877096,
              16.153643502830533
            ],
            [
              8.795708439331918,
              17.29028365727845
            ],
            [
              8.153180963489547,
              18.41473690561179
            ],
            [
              7.770198389156462,
              19.119043549084466
            ],
            [
              7.374787583835257,
              19.897436928738756
            ],
            [
              6.991805009502173,
              20.910639410362876
            ],
            [
              6.68290917135073,
              21.71376858955665
            ],
            [
              6.361585102211137,
              22.80105780736241
            ],
            [
              6.102160863138636,
              23.826567857537867
            ],
            [
              5.929130928799111,
              24.55561030055
            ],
            [
              5.682014258277945,
              25.618163718816277
            ],
            [
              5.4720616182843855,
              26.396557098470595
            ],
            [
              5.1384299805934575,
              27.928728720676503
            ],
            [
              4.520638304290557,
              29.510251279524596
            ],
            [
              4.100491699429867,
              30.745834632130368
            ],
            [
              3.82863922936923,
              31.49949221224523
            ],
            [
              3.420920855496675,
              32.83401876300891
            ],
            [
              3.0502458497149405,
              33.884264612723854
            ],
            [
              2.7413500115634832,
              35.07037636625071
            ],
            [
              2.6302199072910213,
              35.824033946365546
            ],
            [
              2.56844073966073,
              36.65189892509878
            ],
            [
              2.976159113533299,
              37.49207147238337
            ]
          ],
          [
            [
              43.8121889171552,
              26.964997838131325
            ],
            [
              42.638384732179674,
              26.964997838131325
            ],
            [
              41.57571065147661,
              26.86605463997344
            ],
            [
              40.1177464278891,
              26.693145368070702
            ],
            [
              39.15401554534395,
              26.47076449708902
            ],
            [
              38.264371398980416,
              26.087661260319152
            ],
            [
              37.57249298649586,
              25.667635317895247
            ],
            [
              36.88049391157455,
              24.889121275804143
            ],
            [
              36.361645433429544,
              23.974861992337935
            ],
            [
              36.06505716382941,
              23.072910277423034
            ],
            [
              35.91676302902937,
              21.960885260077816
            ],
            [
              35.91676302902937,
              20.73760947602335
            ],
            [
              35.91676302902937,
              19.45255452433861
            ],
            [
              36.10210053192026,
              18.390001106072333
            ],
            [
              36.361645433429544,
              17.6609586630602
            ],
            [
              37.214125549265475,
              16.709656011503142
            ],
            [
              37.91843219273812,
              16.351288574272758
            ],
            [
              38.65978220430162,
              16.326552774733273
            ],
            [
              39.80885058973766,
              17.006123618666464
            ],
            [
              40.87152467044072,
              18.11814863601171
            ],
            [
              41.711697217725316,
              18.8719268785633
            ],
            [
              42.267709726397925,
              19.477290323878094
            ],
            [
              42.897808971252175,
              20.255683703532384
            ],
            [
              43.873968084785474,
              20.910639410362876
            ],
            [
              45.047772269761,
              21.083548682265643
            ],
            [
              45.98676735276669,
              21.15775608088404
            ],
            [
              46.826939900051286,
              21.15775608088404
            ],
            [
              47.803099013584585,
              21.33066535278678
            ],
            [
              48.618535761329696,
              21.56547445475661
            ],
            [
              49.23632743763261,
              22.096751163889735
            ],
            [
              49.06341816572984,
              23.752481121356226
            ],
            [
              47.840142381675406,
              25.18570954540425
            ],
            [
              46.481000693808994,
              25.988838724598025
            ],
            [
              44.71414063207007,
              26.42129289801005
            ],
            [
              43.77514554906435,
              26.42129289801005
            ],
            [
              42.675428100270494,
              26.42129289801005
            ]
          ]
        ]
      }
    }
  ]
}