{
  "type": "FeatureCollection",
  "crs": {
    "type": "name",
    "properties": {
      "name": "urn:ogc:def:crs:OGC:1.3:CRS84"
    }
  },
  "features": [
    {
      "type": "Feature",
      "properties": {
        "timestamp": "2026-06-15T09:28:14.482815",
        "country_name": "South Korea",
        "author": "me",
        "author_id": "26141b33-6209-4db6-9cc2-0e6168568835",
        "validated": false,
        "ranking": [
          [
            "Moldova",
            0.2283962517976761
          ],
          [
            "Dominica",
            0.10416998714208603
          ],
          [
            "Vietnam",
            0.06118612736463547
          ],
          [
            "Togo",
            0.05458707734942436
          ],
          [
            "Benin",
            0.054222382605075836
          ],
          [
            "Guyana",
            0.03221894055604935
          ],
          [
            "Faroe Islands",
            0.02882605791091919
          ],
          [
            "South Korea",
            0.026928123086690903
          ],
          [
            "Vanuatu",
            0.025143422186374664
          ],
          [
            "Belize",
            0.022925397381186485
          ],
          [
            "Albania",
            0.020314671099185944
          ],
          [
            "Bahrain",
            0.019001616165041924
          ],
          [
            "Tunisia",
            0.018852684646844864
          ],
          [
            "Greenland",
            0.018751895055174828
          ],
          [
            "Myanmar",
            0.018113944679498672
          ],
          [
            "Malawi",
            0.017712704837322235
          ],
          [
            "Finland",
            0.014953222125768661
          ],
          [
            "West Bank",
            0.014823928475379944
          ],
          [
            "Peru",
            0.013773372396826744
          ],
          [
            "Qatar",
            0.013189113698899746
          ],
          [
            "Thailand",
            0.012011310085654259
          ],
          [
            "Antigua & Barbuda",
            0.010820044204592705
          ],
          [
            "Martinique",
            0.008936243131756783
          ],
          [
            "Serbia",
            0.007480016443878412
          ],
          [
            "Sri Lanka",
            0.006628734990954399
          ],
          [
            "Mozambique",
            0.00473589776083827
          ],
          [
            "Portugal",
            0.004610713571310043
          ],
          [
            "Chile",
            0.004456242546439171
          ],
          [
            "Turkmenistan",
            0.003535291412845254
          ],
          [
            "Bangladesh",
            0.0034278947860002518
          ],
          [
            "Argentina",
            0.0032550031319260597
          ],
          [
            "Israel",
            0.0032015605829656124
          ],
          [
            "Saint Lucia",
            0.0032003670930862427
          ],
          [
            "United Kingdom",
            0.0030652491841465235
          ],
          [
            "United States Virgin Islands",
            0.0027022291906177998
          ],
          [
            "United States of America",
            0.0026203994639217854
          ],
          [
            "Burundi",
            0.002607648028060794
          ],
          [
            "Guatemala",
            0.0025983937084674835
          ],
          [
            "Saudi Arabia",
            0.0025928241666406393
          ],
          [
            "Philippines",
            0.002512275008484721
          ],
          [
            "Spain",
            0.002511149039492011
          ],
          [
            "Heard and McDonald Islands",
            0.002480416791513562
          ],
          [
            "Brazil",
            0.0024302522651851177
          ],
          [
            "Oman",
            0.002408113330602646
          ],
          [
            "Bahamas",
            0.002341988030821085
          ],
          [
            "Cape Verde",
            0.0022203586995601654
          ],
          [
            "Romania",
            0.002060220343992114
          ],
          [
            "South Georgia Islands",
            0.00204326375387609
          ],
          [
            "Colombia",
            0.0018922599265351892
          ],
          [
            "Italy",
            0.0017868599388748407
          ],
          [
            "Sweden",
            0.0016786347841843963
          ],
          [
            "Mali",
            0.0016711753560230136
          ],
          [
            "Solomon Islands",
            0.0015479566063731909
          ],
          [
            "Congo",
            0.001517631346359849
          ],
          [
            "Ecuador",
            0.001446320442482829
          ],
          [
            "Uzbekistan",
            0.0014404618414118886
          ],
          [
            "Mayotte",
            0.0013784890761598945
          ],
          [
            "Ghana",
            0.0013719132402911782
          ],
          [
            "Croatia",
            0.0013627565931528807
          ],
          [
            "Gabon",
            0.001335055916570127
          ],
          [
            "Lithuania",
            0.0013027769746258855
          ],
          [
            "France",
            0.001269511878490448
          ],
          [
            "Ukraine",
            0.0012676971964538097
          ],
          [
            "Switzerland",
            0.0012615801533684134
          ],
          [
            "Somalia",
            0.0012232739245519042
          ],
          [
            "Namibia",
            0.0012153966818004847
          ],
          [
            "Svalbard",
            0.0012056578416377306
          ],
          [
            "New Caledonia",
            0.0012010422069579363
          ],
          [
            "Mexico",
            0.001145258080214262
          ],
          [
            "Papua New Guinea",
            0.00114178576041013
          ],
          [
            "Paraguay",
            0.0011287331581115723
          ],
          [
            "North Macedonia",
            0.0011019679950550199
          ],
          [
            "Costa Rica",
            0.0010627784067764878
          ],
          [
            "Equatorial Guinea",
            0.0010388881200924516
          ],
          [
            "Guadeloupe",
            0.0010108929127454758
          ],
          [
            "French Guiana",
            0.0010017775930464268
          ],
          [
            "Laos",
            0.0009874040260910988
          ],
          [
            "Lesotho",
            0.0009687861893326044
          ],
          [
            "Ethiopia",
            0.0009677981724962592
          ],
          [
            "Czech Republic",
            0.0009288815781474113
          ],
          [
            "Syria",
            0.0009260352235287428
          ],
          [
            "Taiwan",
            0.0009047269122675061
          ],
          [
            "Armenia",
            0.0008915604557842016
          ],
          [
            "Rwanda",
            0.000873937678989023
          ],
          [
            "Luxembourg",
            0.0008690390386618674
          ],
          [
            "Egypt",
            0.000862539338413626
          ],
          [
            "Tajikistan",
            0.0008339711930602789
          ],
          [
            "Chad",
            0.0007915634196251631
          ],
          [
            "Eswatini",
            0.0007805677014403045
          ],
          [
            "Iraq",
            0.0007715032552368939
          ],
          [
            "Venezuela",
            0.00066332274582237
          ],
          [
            "Bolivia",
            0.0006280489615164697
          ],
          [
            "Burkina Faso",
            0.0006241332739591599
          ],
          [
            "Botswana",
            0.0006034705438651145
          ],
          [
            "Georgia",
            0.0006033658282831311
          ],
          [
            "Liberia",
            0.0005816330085508525
          ],
          [
            "Turks and Caicos Islands",
            0.0005797180347144604
          ],
          [
            "Samoa",
            0.0005769009003415704
          ],
          [
            "Bosnia & Herzegovina",
            0.0005710613913834095
          ],
          [
            "Eritrea",
            0.0005709633696824312
          ],
          [
            "Latvia",
            0.0005651505198329687
          ],
          [
            "Cuba",
            0.0005595803959295154
          ],
          [
            "Montenegro",
            0.0005384368705563247
          ],
          [
            "Belgium",
            0.0005249818204902112
          ],
          [
            "Sudan",
            0.0004839348839595914
          ],
          [
            "Hong Kong",
            0.00048370048170909286
          ],
          [
            "New Zealand",
            0.0004707764310296625
          ],
          [
            "El Salvador",
            0.0004682600265368819
          ],
          [
            "Reunion",
            0.0004446845268830657
          ],
          [
            "Iran",
            0.00044455306488089263
          ],
          [
            "Australia",
            0.0004354485427029431
          ],
          [
            "Turkey",
            0.0004179959069006145
          ],
          [
            "Germany",
            0.0004150548193138093
          ],
          [
            "Senegal",
            0.00040853818063624203
          ],
          [
            "Uganda",
            0.000407141080358997
          ],
          [
            "Canada",
            0.00040466751670464873
          ],
          [
            "Angola",
            0.0004039487976115197
          ],
          [
            "Ireland",
            0.00039557096897624433
          ],
          [
            "Algeria",
            0.0003925000783056021
          ],
          [
            "Indonesia",
            0.0003800462873186916
          ],
          [
            "Suriname",
            0.0003759856044780463
          ],
          [
            "Mongolia",
            0.00037307533784769475
          ],
          [
            "Djibouti",
            0.00036491782520897686
          ],
          [
            "Belarus",
            0.0003607228281907737
          ],
          [
            "Sao Tome and Principe",
            0.00035105185816064477
          ],
          [
            "Kenya",
            0.00034066414809785783
          ],
          [
            "Nigeria",
            0.000339434394845739
          ],
          [
            "Kazakhstan",
            0.000338770158123225
          ],
          [
            "Russia",
            0.0003339030663482845
          ],
          [
            "Jordan",
            0.0003216263430658728
          ],
          [
            "Barbados",
            0.00032139578252099454
          ],
          [
            "Comoros",
            0.000314308941597119
          ],
          [
            "Bhutan",
            0.00030965625774115324
          ],
          [
            "Puerto Rico",
            0.00030931035871617496
          ],
          [
            "Guinea",
            0.00030841020634397864
          ],
          [
            "Cambodia",
            0.00029584657750092447
          ],
          [
            "Nepal",
            0.00029252705280669034
          ],
          [
            "Mauritania",
            0.00028206678689457476
          ],
          [
            "Palau",
            0.0002790508733596653
          ],
          [
            "Estonia",
            0.00026906223502010107
          ],
          [
            "Central African Republic",
            0.0002633447584230453
          ],
          [
            "Slovakia",
            0.0002563842572271824
          ],
          [
            "Isle of Man",
            0.0002550079661887139
          ],
          [
            "Yemen",
            0.00024966959608718753
          ],
          [
            "Jamaica",
            0.00023373101430479437
          ],
          [
            "Kuwait",
            0.00022784680186305195
          ],
          [
            "Cameroon",
            0.0002231221296824515
          ],
          [
            "Dominican Republic",
            0.00021902035223320127
          ],
          [
            "Uruguay",
            0.00020805363601539284
          ],
          [
            "South Sudan",
            0.00020701574976556003
          ],
          [
            "Libya",
            0.0001929411373566836
          ],
          [
            "India",
            0.00019176892237737775
          ],
          [
            "Guam",
            0.00018626026576384902
          ],
          [
            "Malaysia",
            0.00018163659842684865
          ],
          [
            "Madagascar",
            0.00017671164823696017
          ],
          [
            "Fiji",
            0.000172581581864506
          ],
          [
            "Timor-Leste",
            0.0001695844403002411
          ],
          [
            "Western Sahara",
            0.00016159900405909866
          ],
          [
            "Falkland Islands",
            0.0001580541138537228
          ],
          [
            "Japan",
            0.00015182935749180615
          ],
          [
            "Zambia",
            0.00014486305008176714
          ],
          [
            "DR Congo",
            0.0001442492939531803
          ],
          [
            "Sierra Leone",
            0.00014164041203912348
          ],
          [
            "Brunei",
            0.00014101773558650166
          ],
          [
            "Greece",
            0.00013566897541750222
          ],
          [
            "Kyrgyzstan",
            0.00012895303370896727
          ],
          [
            "Afghanistan",
            0.00012885639443993568
          ],
          [
            "Azerbaijan",
            0.00012778367090504616
          ],
          [
            "Nicaragua",
            0.00012167020031483844
          ],
          [
            "Lebanon",
            0.00012034287647111341
          ],
          [
            "Hungary",
            0.00011882360558956861
          ],
          [
            "Netherlands Antilles",
            0.00011806858674390242
          ],
          [
            "Denmark",
            0.00011355865717632696
          ],
          [
            "Honduras",
            0.00011340627679601312
          ],
          [
            "Norway",
            0.00011087477469118312
          ],
          [
            "North Korea",
            0.00010750717774499208
          ],
          [
            "Zimbabwe",
            0.00010435765580041334
          ],
          [
            "South Africa",
            0.00010287425538990647
          ],
          [
            "Netherlands",
            0.00010175838542636484
          ],
          [
            "Iceland",
            9.697230416350067e-05
          ],
          [
            "Madeira Islands",
            9.280558879254386e-05
          ],
          [
            "Slovenia",
            8.779703784966841e-05
          ],
          [
            "Trinidad and Tobago",
            8.428008732153103e-05
          ],
          [
            "China",
            8.196346607292071e-05
          ],
          [
            "Guinea-Bissau",
            7.932557491585612e-05
          ],
          [
            "Bulgaria",
            7.162232941482216e-05
          ],
          [
            "Cyprus",
            6.504392513306811e-05
          ],
          [
            "Côte d'Ivoire",
            6.372275674948469e-05
          ],
          [
            "Panama",
            5.925537334405817e-05
          ],
          [
            "Poland",
            5.801956285722554e-05
          ],
          [
            "United Arab Emirates",
            5.478198727359995e-05
          ],
          [
            "Tanzania",
            5.215482451603748e-05
          ],
          [
            "Niger",
            4.29580504714977e-05
          ],
          [
            "Gambia",
            3.234619362046942e-05
          ],
          [
            "Austria",
            2.5632349206716754e-05
          ],
          [
            "Pakistan",
            2.1786945580970496e-05
          ],
          [
            "Kiribati",
            1.3301032595336437e-05
          ],
          [
            "Haiti",
            1.1721474947989918e-05
          ],
          [
            "Morocco",
            1.0777403076644987e-05
          ]
        ]
      },
      "geometry": {
        "type": "MultiLineString",
        "coordinates": [
          [
            [
              30.037383177570092,
              62.0
            ],
            [
              28.915887850467286,
              59.19626168224299
            ],
            [
              28.35514018691589,
              57.51401869158879
            ],
            [
              27.79439252336448,
              54.71028037383178
            ],
            [
              26.672897196261687,
              53.028037383177576
            ],
            [
              25.55140186915888,
              51.34579439252337
            ],
            [
              23.308411214953267,
              50.22429906542057
            ],
            [
              21.626168224299064,
              49.66355140186917
            ],
            [
              19.943925233644862,
              50.78504672897196
            ],
            [
              18.261682242990645,
              51.34579439252337
            ],
            [
              16.579439252336442,
              50.22429906542057
            ],
            [
              15.45794392523365,
              48.54205607476635
            ],
            [
              13.775700934579447,
              47.42056074766356
            ]
          ],
          [
            [
              32.84112149532709,
              59.75700934579439
            ],
            [
              34.52336448598132,
              59.19626168224299
            ],
            [
              35.64485981308411,
              57.51401869158879
            ],
            [
              37.32710280373831,
              55.27102803738319
            ],
            [
              37.887850467289724,
              53.58878504672897
            ],
            [
              39.009345794392516,
              51.90654205607477
            ],
            [
              40.69158878504672,
              50.78504672897196
            ],
            [
              41.81308411214954,
              48.54205607476635
            ],
            [
              43.49532710280374,
              46.85981308411215
            ],
            [
              44.616822429906534,
              44.61682242990656
            ],
            [
              45.177570093457945,
              42.37383177570092
            ],
            [
              45.738317757009355,
              40.13084112149534
            ],
            [
              46.29906542056074,
              38.448598130841106
            ],
            [
              46.85981308411215,
              36.20560747663552
            ],
            [
              47.98130841121494,
              33.96261682242991
            ],
            [
              48.54205607476635,
              31.719626168224295
            ],
            [
              49.66355140186914,
              29.47663551401871
            ],
            [
              50.22429906542055,
              27.79439252336448
            ],
            [
              50.22429906542055,
              24.990654205607484
            ],
            [
              49.10280373831776,
              22.74766355140187
            ],
            [
              46.85981308411215,
              21.06542056074767
            ],
            [
              45.177570093457945,
              20.504672897196258
            ],
            [
              42.37383177570092,
              19.943925233644848
            ],
            [
              39.009345794392516,
              19.943925233644848
            ],
            [
              36.7663551401869,
              19.943925233644848
            ],
            [
              33.96261682242991,
              21.06542056074767
            ],
            [
              32.280373831775705,
              22.18691588785049
            ],
            [
              30.598130841121502,
              23.869158878504663
            ],
            [
              28.915887850467286,
              26.112149532710305
            ],
            [
              28.35514018691589,
              28.35514018691589
            ],
            [
              27.79439252336448,
              30.037383177570092
            ],
            [
              27.233644859813083,
              31.719626168224295
            ],
            [
              26.672897196261687,
              33.96261682242991
            ],
            [
              25.55140186915888,
              36.20560747663552
            ],
            [
              23.869158878504663,
              37.32710280373834
            ],
            [
              22.18691588785046,
              38.448598130841106
            ],
            [
              21.06542056074767,
              40.13084112149534
            ],
            [
              19.943925233644862,
              42.37383177570092
            ],
            [
              18.822429906542055,
              44.61682242990656
            ],
            [
              18.261682242990645,
              46.29906542056074
            ],
            [
              17.70093457943925,
              48.54205607476635
            ]
          ],
          [
            [
              33.4018691588785,
              2.0
            ],
            [
              31.719626168224295,
              2.5607476635514104
            ],
            [
              30.037383177570092,
              3.682242990654231
            ],
            [
              28.915887850467286,
              5.925233644859816
            ],
            [
              27.79439252336448,
              7.607476635514018
            ],
            [
              27.79439252336448,
              10.411214953271042
            ],
            [
              28.915887850467286,
              12.093457943925245
            ],
            [
              31.1588785046729,
              13.214953271028037
            ],
            [
              33.4018691588785,
              13.214953271028037
            ],
            [
              35.64485981308411,
              13.214953271028037
            ],
            [
              37.32710280373831,
              11.532710280373834
            ],
            [
              39.009345794392516,
              10.411214953271042
            ],
            [
              40.13084112149534,
              8.72897196261681
            ],
            [
              39.570093457943926,
              7.0467289719626365
            ],
            [
              37.887850467289724,
              6.485981308411226
            ],
            [
              35.64485981308411,
              5.364485981308405
            ],
            [
              33.4018691588785,
              4.803738317757023
            ]
          ]
        ]
      }
    }
  ]
}