{
  "type": "FeatureCollection",
  "crs": {
    "type": "name",
    "properties": {
      "name": "urn:ogc:def:crs:OGC:1.3:CRS84"
    }
  },
  "features": [
    {
      "type": "Feature",
      "properties": {
        "timestamp": "2026-07-04T16:28:56.523158",
        "country_name": "Sudan",
        "author": "",
        "author_id": "1da0f222-4a94-47fe-8d60-41319baa6671",
        "validated": false,
        "ranking": [
          [
            "Egypt",
            0.14199931919574738
          ],
          [
            "Suriname",
            0.10516186058521271
          ],
          [
            "Poland",
            0.0901300311088562
          ],
          [
            "Reunion",
            0.06287483125925064
          ],
          [
            "Côte d'Ivoire",
            0.06087039038538933
          ],
          [
            "Cape Verde",
            0.05672169476747513
          ],
          [
            "Tanzania",
            0.03976679593324661
          ],
          [
            "Botswana",
            0.03536250814795494
          ],
          [
            "Sao Tome and Principe",
            0.03007778711616993
          ],
          [
            "Sierra Leone",
            0.02888643369078636
          ],
          [
            "United States Virgin Islands",
            0.024453558027744293
          ],
          [
            "Libya",
            0.020348116755485535
          ],
          [
            "North Macedonia",
            0.01745188608765602
          ],
          [
            "Ecuador",
            0.012967854738235474
          ],
          [
            "Comoros",
            0.012857383117079735
          ],
          [
            "Bosnia & Herzegovina",
            0.012807684019207954
          ],
          [
            "Namibia",
            0.012404236942529678
          ],
          [
            "Uruguay",
            0.012077010236680508
          ],
          [
            "Sudan",
            0.011071912944316864
          ],
          [
            "Antigua & Barbuda",
            0.010785809718072414
          ],
          [
            "Iran",
            0.010442615486681461
          ],
          [
            "Spain",
            0.00946651678532362
          ],
          [
            "Kenya",
            0.009396970272064209
          ],
          [
            "Martinique",
            0.007531777024269104
          ],
          [
            "Lithuania",
            0.007260113023221493
          ],
          [
            "Guadeloupe",
            0.007103710900992155
          ],
          [
            "Equatorial Guinea",
            0.00638437457382679
          ],
          [
            "Romania",
            0.004920184146612883
          ],
          [
            "Nigeria",
            0.004630609415471554
          ],
          [
            "Syria",
            0.0046243248507380486
          ],
          [
            "Angola",
            0.004344159737229347
          ],
          [
            "Cambodia",
            0.004228176549077034
          ],
          [
            "Mauritania",
            0.00390254077501595
          ],
          [
            "Eswatini",
            0.0036696658935397863
          ],
          [
            "Saudi Arabia",
            0.003499462967738509
          ],
          [
            "Burundi",
            0.003347341436892748
          ],
          [
            "Rwanda",
            0.003297709161415696
          ],
          [
            "Uganda",
            0.0031476086005568504
          ],
          [
            "Lesotho",
            0.003073240164667368
          ],
          [
            "Azerbaijan",
            0.003002392128109932
          ],
          [
            "Belize",
            0.0029362787026911974
          ],
          [
            "Algeria",
            0.0028012609109282494
          ],
          [
            "Dominica",
            0.0027713989838957787
          ],
          [
            "South Sudan",
            0.0027669675182551146
          ],
          [
            "French Guiana",
            0.0027235138695687056
          ],
          [
            "Gabon",
            0.0024808235466480255
          ],
          [
            "Zimbabwe",
            0.002437652088701725
          ],
          [
            "Bolivia",
            0.002188960090279579
          ],
          [
            "Barbados",
            0.0021514338441193104
          ],
          [
            "Paraguay",
            0.0021160519681870937
          ],
          [
            "India",
            0.00193113146815449
          ],
          [
            "Belarus",
            0.001791801885701716
          ],
          [
            "Iraq",
            0.001656870823353529
          ],
          [
            "Chile",
            0.001599383307620883
          ],
          [
            "Jordan",
            0.0015008518239483237
          ],
          [
            "Brazil",
            0.001463447348214686
          ],
          [
            "United Arab Emirates",
            0.001376221887767315
          ],
          [
            "Solomon Islands",
            0.0012782394187524915
          ],
          [
            "Mali",
            0.0012723844265565276
          ],
          [
            "Heard and McDonald Islands",
            0.001254676142707467
          ],
          [
            "Vanuatu",
            0.001224966486915946
          ],
          [
            "Moldova",
            0.001213856041431427
          ],
          [
            "Bulgaria",
            0.001182924723252654
          ],
          [
            "Nicaragua",
            0.0010920106433331966
          ],
          [
            "Somalia",
            0.0010827791411429644
          ],
          [
            "Togo",
            0.0010664233705028892
          ],
          [
            "Benin",
            0.0009963695192709565
          ],
          [
            "France",
            0.0009648289415054023
          ],
          [
            "Liberia",
            0.0009359847172163427
          ],
          [
            "Guatemala",
            0.0009266677661798894
          ],
          [
            "Yemen",
            0.0009109205566346645
          ],
          [
            "Ghana",
            0.0009103786433115602
          ],
          [
            "Australia",
            0.0008959448896348476
          ],
          [
            "Peru",
            0.0008839104557409883
          ],
          [
            "Czech Republic",
            0.00088019750546664
          ],
          [
            "Japan",
            0.0008790231077000499
          ],
          [
            "Niger",
            0.0008740993216633797
          ],
          [
            "Vietnam",
            0.0008626742055639625
          ],
          [
            "Netherlands Antilles",
            0.0008599241846241057
          ],
          [
            "Bahrain",
            0.0008159321150742471
          ],
          [
            "Belgium",
            0.0007928734994493425
          ],
          [
            "New Zealand",
            0.0007694928208366036
          ],
          [
            "Armenia",
            0.0007527880370616913
          ],
          [
            "Zambia",
            0.0007485600071959198
          ],
          [
            "Kuwait",
            0.0007419671746902168
          ],
          [
            "Guam",
            0.0007291736546903849
          ],
          [
            "Ethiopia",
            0.0007128056604415178
          ],
          [
            "Malaysia",
            0.0006923537002876401
          ],
          [
            "West Bank",
            0.0006614605081267655
          ],
          [
            "Turkey",
            0.0006374879740178585
          ],
          [
            "Faroe Islands",
            0.000634373165667057
          ],
          [
            "Mayotte",
            0.0006306333234533668
          ],
          [
            "Burkina Faso",
            0.0006078812875784934
          ],
          [
            "Cameroon",
            0.0006014768150635064
          ],
          [
            "Serbia",
            0.0005751726566813886
          ],
          [
            "Montenegro",
            0.0005461175460368395
          ],
          [
            "Hungary",
            0.0005431973258964717
          ],
          [
            "DR Congo",
            0.0005162594607099891
          ],
          [
            "Switzerland",
            0.0005000265664421022
          ],
          [
            "Venezuela",
            0.000478800677228719
          ],
          [
            "Finland",
            0.0004747711354866624
          ],
          [
            "Costa Rica",
            0.00047418472240678966
          ],
          [
            "Qatar",
            0.0004709336208179593
          ],
          [
            "South Africa",
            0.0004660715931095183
          ],
          [
            "Mozambique",
            0.0004632771306205541
          ],
          [
            "Trinidad and Tobago",
            0.0004541874513961375
          ],
          [
            "Israel",
            0.0004192678607068956
          ],
          [
            "Greenland",
            0.00041771773248910904
          ],
          [
            "Argentina",
            0.00041483159293420613
          ],
          [
            "Germany",
            0.00040639701182954013
          ],
          [
            "Puerto Rico",
            0.00040025520138442516
          ],
          [
            "Ukraine",
            0.0003991459379903972
          ],
          [
            "Thailand",
            0.0003896871057804674
          ],
          [
            "Bhutan",
            0.0003874865942634642
          ],
          [
            "Guinea",
            0.00038408339605666697
          ],
          [
            "Turkmenistan",
            0.0003754946810659021
          ],
          [
            "Guyana",
            0.000373940885765478
          ],
          [
            "Palau",
            0.00036545205512084067
          ],
          [
            "Bahamas",
            0.0003592451976146549
          ],
          [
            "Sweden",
            0.00034821961889974773
          ],
          [
            "Slovenia",
            0.0003477417631074786
          ],
          [
            "Oman",
            0.0003451850498095155
          ],
          [
            "Timor-Leste",
            0.0003435665857978165
          ],
          [
            "Malawi",
            0.0003423002490308136
          ],
          [
            "Latvia",
            0.000341643433785066
          ],
          [
            "Afghanistan",
            0.0003304041165392846
          ],
          [
            "Senegal",
            0.000313306984025985
          ],
          [
            "Fiji",
            0.0002986239269375801
          ],
          [
            "Croatia",
            0.0002944942389149219
          ],
          [
            "Iceland",
            0.0002882061235141009
          ],
          [
            "Cyprus",
            0.00027657157625071704
          ],
          [
            "Colombia",
            0.00027252998552285135
          ],
          [
            "Portugal",
            0.00026441278168931603
          ],
          [
            "Dominican Republic",
            0.00024519479484297335
          ],
          [
            "Saint Lucia",
            0.00024270269204862416
          ],
          [
            "Sri Lanka",
            0.00023371940187644213
          ],
          [
            "Uzbekistan",
            0.0002221759787062183
          ],
          [
            "New Caledonia",
            0.00021945983462501317
          ],
          [
            "Slovakia",
            0.00021600180480163544
          ],
          [
            "Congo",
            0.00021436664974316955
          ],
          [
            "Isle of Man",
            0.0002088189503410831
          ],
          [
            "Indonesia",
            0.00020274895359762013
          ],
          [
            "Bangladesh",
            0.00020011070591863245
          ],
          [
            "Chad",
            0.00019827829964924604
          ],
          [
            "South Korea",
            0.00019608045113272965
          ],
          [
            "South Georgia Islands",
            0.0001931001606862992
          ],
          [
            "Mongolia",
            0.00018739377264864743
          ],
          [
            "Honduras",
            0.00018605642253533006
          ],
          [
            "China",
            0.00018517665739636868
          ],
          [
            "Madeira Islands",
            0.00018201113562099636
          ],
          [
            "Kazakhstan",
            0.0001808494416764006
          ],
          [
            "Norway",
            0.00018050277139991522
          ],
          [
            "Eritrea",
            0.00017592166841495782
          ],
          [
            "Georgia",
            0.00017567822942510247
          ],
          [
            "North Korea",
            0.00016643607523292303
          ],
          [
            "United States of America",
            0.00016340662841685116
          ],
          [
            "Western Sahara",
            0.0001626258745091036
          ],
          [
            "Myanmar",
            0.0001623423013370484
          ],
          [
            "Brunei",
            0.00015670062566641718
          ],
          [
            "Estonia",
            0.00015570672985631973
          ],
          [
            "Albania",
            0.00014489676686935127
          ],
          [
            "Papua New Guinea",
            0.00014312400890048593
          ],
          [
            "Svalbard",
            0.00014145845489110798
          ],
          [
            "Pakistan",
            0.00013950860011391342
          ],
          [
            "El Salvador",
            0.00013551069423556328
          ],
          [
            "Canada",
            0.00013143921387381852
          ],
          [
            "Tunisia",
            0.0001281761797145009
          ],
          [
            "Djibouti",
            0.000128117753774859
          ],
          [
            "Panama",
            0.00012671090371441096
          ],
          [
            "Italy",
            0.00012662103108596057
          ],
          [
            "Turks and Caicos Islands",
            0.00012477237032726407
          ],
          [
            "Cuba",
            0.00011474679922685027
          ],
          [
            "Central African Republic",
            0.00011330552661092952
          ],
          [
            "Laos",
            0.0001068587152985856
          ],
          [
            "Taiwan",
            9.883475286187604e-05
          ],
          [
            "Russia",
            9.551933908369392e-05
          ],
          [
            "Luxembourg",
            9.439858695259318e-05
          ],
          [
            "Tajikistan",
            9.078950097318739e-05
          ],
          [
            "United Kingdom",
            9.061269520316273e-05
          ],
          [
            "Mexico",
            8.167600026354194e-05
          ],
          [
            "Lebanon",
            7.986147102201357e-05
          ],
          [
            "Hong Kong",
            7.755764090688899e-05
          ],
          [
            "Philippines",
            7.41214316803962e-05
          ],
          [
            "Jamaica",
            6.86556741129607e-05
          ],
          [
            "Kyrgyzstan",
            6.770145409973338e-05
          ],
          [
            "Austria",
            6.551606929861009e-05
          ],
          [
            "Nepal",
            6.499084702227265e-05
          ],
          [
            "Ireland",
            5.943115320405923e-05
          ],
          [
            "Netherlands",
            5.35410363227129e-05
          ],
          [
            "Morocco",
            4.914954479318112e-05
          ],
          [
            "Samoa",
            4.695888492278755e-05
          ],
          [
            "Greece",
            4.596952931024134e-05
          ],
          [
            "Madagascar",
            4.154410999035463e-05
          ],
          [
            "Guinea-Bissau",
            3.996927262051031e-05
          ],
          [
            "Falkland Islands",
            3.813472721958533e-05
          ],
          [
            "Gambia",
            2.8196765924803913e-05
          ],
          [
            "Haiti",
            2.6288244043826126e-05
          ],
          [
            "Denmark",
            1.1798298146459274e-05
          ],
          [
            "Kiribati",
            3.660893526102882e-06
          ]
        ]
      },
      "geometry": {
        "type": "MultiLineString",
        "coordinates": [
          [
            [
              8.240000000000009,
              54.08000000000001
            ],
            [
              8.720000000000027,
              52.400000000000006
            ],
            [
              8.720000000000027,
              50.24000000000001
            ],
            [
              8.720000000000027,
              49.28
            ],
            [
              8.0,
              48.80000000000001
            ],
            [
              6.560000000000002,
              48.08000000000001
            ],
            [
              5.600000000000023,
              48.32000000000002
            ],
            [
              4.8799999999999955,
              47.84
            ],
            [
              4.160000000000025,
              47.360000000000014
            ],
            [
              3.4399999999999977,
              46.640000000000015
            ],
            [
              2.7200000000000273,
              46.880000000000024
            ],
            [
              2.0,
              46.400000000000006
            ],
            [
              2.0,
              44.96000000000001
            ],
            [
              2.0,
              43.52000000000001
            ],
            [
              2.0,
              42.32000000000002
            ],
            [
              2.0,
              40.880000000000024
            ],
            [
              2.480000000000018,
              39.20000000000002
            ],
            [
              3.920000000000016,
              37.76000000000002
            ],
            [
              4.399999999999977,
              36.56000000000003
            ],
            [
              5.1200000000000045,
              35.12000000000003
            ],
            [
              5.840000000000032,
              34.400000000000006
            ],
            [
              5.840000000000032,
              33.440000000000026
            ],
            [
              5.840000000000032,
              32.24000000000001
            ],
            [
              5.840000000000032,
              30.80000000000001
            ],
            [
              5.1200000000000045,
              30.080000000000013
            ],
            [
              4.8799999999999955,
              29.360000000000014
            ],
            [
              4.8799999999999955,
              28.400000000000006
            ],
            [
              3.680000000000007,
              27.680000000000007
            ],
            [
              3.4399999999999977,
              26.960000000000008
            ],
            [
              3.4399999999999977,
              25.04000000000002
            ],
            [
              2.7200000000000273,
              24.32000000000002
            ],
            [
              2.0,
              23.600000000000023
            ],
            [
              2.480000000000018,
              21.440000000000026
            ],
            [
              2.9599999999999795,
              20.720000000000027
            ],
            [
              3.680000000000007,
              19.28
            ],
            [
              4.399999999999977,
              18.56000000000003
            ],
            [
              5.1200000000000045,
              17.120000000000033
            ],
            [
              5.840000000000032,
              16.400000000000006
            ],
            [
              6.560000000000002,
              14.960000000000008
            ],
            [
              7.279999999999973,
              14.240000000000009
            ],
            [
              8.240000000000009,
              12.800000000000011
            ],
            [
              8.720000000000027,
              12.080000000000013
            ],
            [
              9.439999999999998,
              10.640000000000015
            ],
            [
              10.160000000000025,
              9.920000000000016
            ],
            [
              10.879999999999995,
              7.760000000000019
            ],
            [
              11.600000000000023,
              7.0400000000000205
            ],
            [
              12.560000000000002,
              6.0800000000000125
            ],
            [
              13.279999999999973,
              5.600000000000023
            ],
            [
              15.439999999999998,
              4.640000000000015
            ],
            [
              16.639999999999986,
              4.159999999999997
            ],
            [
              18.319999999999993,
              4.880000000000024
            ],
            [
              18.80000000000001,
              5.600000000000023
            ],
            [
              19.75999999999999,
              7.760000000000019
            ],
            [
              20.960000000000036,
              9.200000000000017
            ],
            [
              21.680000000000007,
              10.159999999999997
            ],
            [
              21.680000000000007,
              11.600000000000023
            ],
            [
              22.399999999999977,
              12.320000000000022
            ],
            [
              23.120000000000005,
              13.04000000000002
            ],
            [
              23.840000000000032,
              13.76000000000002
            ],
            [
              24.80000000000001,
              13.76000000000002
            ],
            [
              26.720000000000027,
              13.280000000000001
            ],
            [
              28.159999999999968,
              12.800000000000011
            ],
            [
              29.840000000000032,
              12.800000000000011
            ],
            [
              31.279999999999973,
              12.800000000000011
            ],
            [
              32.48000000000002,
              12.800000000000011
            ],
            [
              34.879999999999995,
              12.080000000000013
            ],
            [
              36.079999999999984,
              11.360000000000014
            ],
            [
              37.04000000000002,
              10.400000000000006
            ],
            [
              37.51999999999998,
              9.680000000000035
            ],
            [
              37.51999999999998,
              7.760000000000019
            ],
            [
              38.24000000000001,
              5.600000000000023
            ],
            [
              38.960000000000036,
              4.640000000000015
            ],
            [
              38.24000000000001,
              4.159999999999997
            ],
            [
              38.48000000000002,
              3.200000000000017
            ],
            [
              39.68000000000001,
              2.719999999999999
            ],
            [
              41.360000000000014,
              2.719999999999999
            ],
            [
              42.80000000000001,
              3.440000000000026
            ],
            [
              43.51999999999998,
              3.6800000000000352
            ],
            [
              44.72000000000003,
              4.400000000000006
            ],
            [
              44.72000000000003,
              5.600000000000023
            ],
            [
              44.72000000000003,
              7.0400000000000205
            ],
            [
              45.44,
              8.000000000000028
            ],
            [
              46.15999999999997,
              8.719999999999999
            ],
            [
              46.879999999999995,
              9.440000000000026
            ],
            [
              47.60000000000002,
              10.159999999999997
            ],
            [
              48.31999999999999,
              10.880000000000024
            ],
            [
              49.75999999999999,
              10.880000000000024
            ],
            [
              50.72000000000003,
              10.880000000000024
            ],
            [
              52.879999999999995,
              9.920000000000016
            ],
            [
              54.31999999999999,
              9.200000000000017
            ],
            [
              55.75999999999999,
              8.480000000000018
            ],
            [
              56.95999999999998,
              8.480000000000018
            ],
            [
              57.920000000000016,
              8.480000000000018
            ],
            [
              59.84000000000003,
              8.480000000000018
            ],
            [
              60.56,
              9.200000000000017
            ],
            [
              61.04000000000002,
              10.159999999999997
            ],
            [
              61.04000000000002,
              11.600000000000023
            ],
            [
              62.0,
              13.04000000000002
            ],
            [
              62.0,
              14.240000000000009
            ],
            [
              62.0,
              15.920000000000016
            ],
            [
              62.0,
              17.360000000000014
            ],
            [
              62.0,
              18.80000000000001
            ],
            [
              62.0,
              20.00000000000003
            ],
            [
              61.27999999999997,
              22.160000000000025
            ],
            [
              60.31999999999999,
              23.120000000000033
            ],
            [
              59.60000000000002,
              23.840000000000003
            ],
            [
              58.39999999999998,
              25.04000000000002
            ],
            [
              58.15999999999997,
              25.76000000000002
            ],
            [
              58.15999999999997,
              27.440000000000026
            ],
            [
              57.44,
              28.880000000000024
            ],
            [
              56.72000000000003,
              30.32000000000002
            ],
            [
              56.72000000000003,
              31.76000000000002
            ],
            [
              56.72000000000003,
              32.96000000000001
            ],
            [
              56.72000000000003,
              34.640000000000015
            ],
            [
              56.72000000000003,
              35.84
            ],
            [
              56.72000000000003,
              37.28
            ],
            [
              56.72000000000003,
              38.72
            ],
            [
              55.51999999999998,
              39.68000000000001
            ],
            [
              55.27999999999997,
              40.400000000000006
            ],
            [
              55.27999999999997,
              41.60000000000002
            ],
            [
              55.27999999999997,
              43.28
            ],
            [
              55.75999999999999,
              44.00000000000003
            ],
            [
              56.24000000000001,
              44.72000000000003
            ],
            [
              56.24000000000001,
              45.920000000000016
            ],
            [
              55.27999999999997,
              48.08000000000001
            ],
            [
              55.27999999999997,
              49.52000000000001
            ],
            [
              55.27999999999997,
              50.96000000000001
            ],
            [
              54.079999999999984,
              52.400000000000006
            ],
            [
              53.120000000000005,
              52.640000000000015
            ],
            [
              51.68000000000001,
              52.640000000000015
            ],
            [
              50.960000000000036,
              53.360000000000014
            ],
            [
              49.75999999999999,
              54.08000000000001
            ],
            [
              48.80000000000001,
              54.08000000000001
            ],
            [
              48.079999999999984,
              54.80000000000001
            ],
            [
              46.639999999999986,
              56.24000000000001
            ],
            [
              45.44,
              57.68000000000001
            ],
            [
              44.48000000000002,
              59.60000000000002
            ],
            [
              43.75999999999999,
              60.56000000000003
            ],
            [
              42.56,
              61.28
            ],
            [
              41.60000000000002,
              61.28
            ],
            [
              40.15999999999997,
              61.28
            ],
            [
              38.960000000000036,
              61.28
            ],
            [
              37.51999999999998,
              61.28
            ],
            [
              34.639999999999986,
              61.28
            ],
            [
              33.19999999999999,
              61.28
            ],
            [
              31.04000000000002,
              61.28
            ],
            [
              29.360000000000014,
              61.28
            ],
            [
              27.439999999999998,
              61.28
            ],
            [
              25.75999999999999,
              61.28
            ],
            [
              23.600000000000023,
              61.28
            ],
            [
              21.439999999999998,
              61.28
            ],
            [
              20.0,
              61.28
            ],
            [
              18.560000000000002,
              61.28
            ],
            [
              16.399999999999977,
              61.28
            ],
            [
              15.199999999999989,
              61.28
            ],
            [
              14.240000000000009,
              61.28
            ],
            [
              13.04000000000002,
              61.28
            ],
            [
              11.600000000000023,
              61.28
            ],
            [
              9.920000000000016,
              61.28
            ],
            [
              8.720000000000027,
              61.28
            ],
            [
              7.759999999999991,
              60.80000000000001
            ],
            [
              7.0400000000000205,
              60.32000000000002
            ],
            [
              6.319999999999993,
              59.60000000000002
            ],
            [
              7.279999999999973,
              58.160000000000025
            ],
            [
              8.0,
              57.440000000000026
            ],
            [
              8.720000000000027,
              56.48000000000002
            ],
            [
              9.680000000000007,
              55.04000000000002
            ],
            [
              10.160000000000025,
              53.84
            ],
            [
              10.160000000000025,
              52.880000000000024
            ],
            [
              10.160000000000025,
              50.96000000000001
            ]
          ]
        ]
      }
    }
  ]
}