{
  "type": "FeatureCollection",
  "crs": {
    "type": "name",
    "properties": {
      "name": "urn:ogc:def:crs:OGC:1.3:CRS84"
    }
  },
  "features": [
    {
      "type": "Feature",
      "properties": {
        "timestamp": "2026-05-06T13:20:44.071718",
        "country_name": "Sweden",
        "author": "",
        "author_id": "6b12cbf7-c8ef-4524-9463-bf8f24fc815f",
        "validated": false,
        "ranking": [
          [
            "Portugal",
            0.1702195703983307
          ],
          [
            "Belize",
            0.14371415972709656
          ],
          [
            "Benin",
            0.13689245283603668
          ],
          [
            "Argentina",
            0.07454995810985565
          ],
          [
            "Qatar",
            0.040085308253765106
          ],
          [
            "Albania",
            0.03743031248450279
          ],
          [
            "Tunisia",
            0.029656413942575455
          ],
          [
            "Myanmar",
            0.02965041808784008
          ],
          [
            "Sweden",
            0.022883549332618713
          ],
          [
            "Thailand",
            0.021859074011445045
          ],
          [
            "Togo",
            0.02074994519352913
          ],
          [
            "Faroe Islands",
            0.019689543172717094
          ],
          [
            "Antigua & Barbuda",
            0.016624892130494118
          ],
          [
            "West Bank",
            0.016356412321329117
          ],
          [
            "Israel",
            0.015049247071146965
          ],
          [
            "Namibia",
            0.014402361586689949
          ],
          [
            "Malawi",
            0.013859324157238007
          ],
          [
            "Vietnam",
            0.012766990810632706
          ],
          [
            "Chile",
            0.012470196932554245
          ],
          [
            "Vanuatu",
            0.012395250611007214
          ],
          [
            "Dominica",
            0.010978410951793194
          ],
          [
            "Mayotte",
            0.00904787890613079
          ],
          [
            "New Zealand",
            0.00828810129314661
          ],
          [
            "Bahrain",
            0.008199076168239117
          ],
          [
            "Moldova",
            0.008128872141242027
          ],
          [
            "Taiwan",
            0.007916643284261227
          ],
          [
            "Mozambique",
            0.007308443076908588
          ],
          [
            "South Korea",
            0.006420380901545286
          ],
          [
            "Finland",
            0.005409205332398415
          ],
          [
            "Guyana",
            0.0043673268519341946
          ],
          [
            "Peru",
            0.0033771491143852472
          ],
          [
            "United States Virgin Islands",
            0.00323550240136683
          ],
          [
            "Madagascar",
            0.0032329116947948933
          ],
          [
            "Somalia",
            0.002933457726612687
          ],
          [
            "Spain",
            0.0028481464833021164
          ],
          [
            "Greenland",
            0.0026177496183663607
          ],
          [
            "Sao Tome and Principe",
            0.0024322490207850933
          ],
          [
            "Martinique",
            0.0018396209925413132
          ],
          [
            "Saint Lucia",
            0.0016194053459912539
          ],
          [
            "Palau",
            0.0015467009507119656
          ],
          [
            "Sri Lanka",
            0.0014904268318787217
          ],
          [
            "United Kingdom",
            0.0013384789926931262
          ],
          [
            "Japan",
            0.001318375114351511
          ],
          [
            "Ecuador",
            0.0010537420166656375
          ],
          [
            "Mali",
            0.001019089831970632
          ],
          [
            "Oman",
            0.0010127110872417688
          ],
          [
            "Svalbard",
            0.0010025117080658674
          ],
          [
            "Cameroon",
            0.0009240275248885155
          ],
          [
            "Solomon Islands",
            0.0008813382592052221
          ],
          [
            "Serbia",
            0.0008708328241482377
          ],
          [
            "Guam",
            0.0008067770977504551
          ],
          [
            "Paraguay",
            0.0007214915240183473
          ],
          [
            "Equatorial Guinea",
            0.0007104833493940532
          ],
          [
            "Philippines",
            0.0007099062786437571
          ],
          [
            "Cape Verde",
            0.0006711188470944762
          ],
          [
            "Turkmenistan",
            0.0006563919596374035
          ],
          [
            "Fiji",
            0.0006164949736557901
          ],
          [
            "Saudi Arabia",
            0.0006073053809814155
          ],
          [
            "Western Sahara",
            0.0005445386632345617
          ],
          [
            "Trinidad and Tobago",
            0.0005333752487786114
          ],
          [
            "Congo",
            0.0005122839356772602
          ],
          [
            "Rwanda",
            0.00041506518027745187
          ],
          [
            "Heard and McDonald Islands",
            0.0004147533909417689
          ],
          [
            "Lithuania",
            0.000410134089179337
          ],
          [
            "Colombia",
            0.00039697837200947106
          ],
          [
            "Iraq",
            0.0003851640794891864
          ],
          [
            "Guadeloupe",
            0.00037425418850034475
          ],
          [
            "Jordan",
            0.0003553566930349916
          ],
          [
            "Timor-Leste",
            0.0003548467066138983
          ],
          [
            "Reunion",
            0.000344752159435302
          ],
          [
            "Bahamas",
            0.0003426321200095117
          ],
          [
            "Croatia",
            0.00033237561001442373
          ],
          [
            "Ghana",
            0.000331114511936903
          ],
          [
            "Egypt",
            0.0003267324063926935
          ],
          [
            "Burundi",
            0.00031888982630334795
          ],
          [
            "Bangladesh",
            0.0003050870436709374
          ],
          [
            "Suriname",
            0.00030153209809213877
          ],
          [
            "Romania",
            0.0002909245959017426
          ],
          [
            "Comoros",
            0.0002753105654846877
          ],
          [
            "Norway",
            0.00027486614999361336
          ],
          [
            "Montenegro",
            0.00026109867030754685
          ],
          [
            "India",
            0.00026029712171293795
          ],
          [
            "Armenia",
            0.0002482143172528595
          ],
          [
            "Indonesia",
            0.00023186257749330252
          ],
          [
            "Libya",
            0.0002304947847733274
          ],
          [
            "French Guiana",
            0.00022126382100395858
          ],
          [
            "Australia",
            0.00021908471535425633
          ],
          [
            "New Caledonia",
            0.0002167095517506823
          ],
          [
            "Yemen",
            0.0002156782429665327
          ],
          [
            "Latvia",
            0.00020998001855332404
          ],
          [
            "Brunei",
            0.00020862268866039813
          ],
          [
            "Chad",
            0.00020232713723089546
          ],
          [
            "North Macedonia",
            0.00019342494488228112
          ],
          [
            "Czech Republic",
            0.00019059042097069323
          ],
          [
            "Eswatini",
            0.00017405198013875633
          ],
          [
            "Lebanon",
            0.00017120395204983652
          ],
          [
            "Slovakia",
            0.00017091324843931943
          ],
          [
            "Papua New Guinea",
            0.00016846097423695028
          ],
          [
            "Uzbekistan",
            0.000162786032888107
          ],
          [
            "Ethiopia",
            0.0001587347942404449
          ],
          [
            "Laos",
            0.0001579709496581927
          ],
          [
            "Bosnia & Herzegovina",
            0.00015774753410369158
          ],
          [
            "South Georgia Islands",
            0.00015746947610750794
          ],
          [
            "Turkey",
            0.00015536381397396326
          ],
          [
            "Italy",
            0.00015502222231589258
          ],
          [
            "Puerto Rico",
            0.00015291952877305448
          ],
          [
            "North Korea",
            0.00014998669212218374
          ],
          [
            "Switzerland",
            0.00014836940681561828
          ],
          [
            "Botswana",
            0.00014719064347445965
          ],
          [
            "Syria",
            0.0001456176833016798
          ],
          [
            "Liberia",
            0.0001453759614378214
          ],
          [
            "Guatemala",
            0.00014193089737091213
          ],
          [
            "Canada",
            0.00013843775377608836
          ],
          [
            "Gabon",
            0.00013707304606214166
          ],
          [
            "Burkina Faso",
            0.00013603694969788194
          ],
          [
            "Iran",
            0.00013493608275894076
          ],
          [
            "Algeria",
            0.00013485272938851267
          ],
          [
            "Eritrea",
            0.00013406666403170675
          ],
          [
            "Ukraine",
            0.00013074238086119294
          ],
          [
            "Brazil",
            0.00013038801262155175
          ],
          [
            "Mauritania",
            0.00012861184950452298
          ],
          [
            "Netherlands Antilles",
            0.00012758615775965154
          ],
          [
            "Kenya",
            0.00012405290908645838
          ],
          [
            "Isle of Man",
            0.000122888115583919
          ],
          [
            "Kazakhstan",
            0.0001200247133965604
          ],
          [
            "Angola",
            0.00011998831178061664
          ],
          [
            "Georgia",
            0.00011967222235398367
          ],
          [
            "Luxembourg",
            0.00011726536467904225
          ],
          [
            "Lesotho",
            0.00011571562936296687
          ],
          [
            "Barbados",
            0.00011427177378209308
          ],
          [
            "Belgium",
            0.00011354265006957576
          ],
          [
            "South Sudan",
            0.00011354091111570597
          ],
          [
            "Dominican Republic",
            0.00011309178808005527
          ],
          [
            "Azerbaijan",
            0.00010874188592424616
          ],
          [
            "Zimbabwe",
            0.00010803568875417113
          ],
          [
            "United States of America",
            0.00010749366629170254
          ],
          [
            "Malaysia",
            0.00010688869951991364
          ],
          [
            "Mexico",
            0.00010647036106092855
          ],
          [
            "Afghanistan",
            0.0001042047151713632
          ],
          [
            "El Salvador",
            0.00010173705231864005
          ],
          [
            "Central African Republic",
            9.096978465095162e-05
          ],
          [
            "Guinea",
            9.056882845470682e-05
          ],
          [
            "Honduras",
            8.914105274016038e-05
          ],
          [
            "Cuba",
            8.854085899656639e-05
          ],
          [
            "Hong Kong",
            8.571334910811856e-05
          ],
          [
            "Ireland",
            8.385934052057564e-05
          ],
          [
            "Costa Rica",
            8.3162471128162e-05
          ],
          [
            "Kuwait",
            8.042646368267015e-05
          ],
          [
            "Mongolia",
            7.85172451287508e-05
          ],
          [
            "Senegal",
            7.590206223540008e-05
          ],
          [
            "Bhutan",
            7.436260057147592e-05
          ],
          [
            "Poland",
            7.432218262692913e-05
          ],
          [
            "United Arab Emirates",
            7.396454020636156e-05
          ],
          [
            "Bolivia",
            7.355641719186679e-05
          ],
          [
            "Cyprus",
            7.306283077923581e-05
          ],
          [
            "France",
            6.966612272663042e-05
          ],
          [
            "Kyrgyzstan",
            6.904478505020961e-05
          ],
          [
            "Tanzania",
            6.83758917148225e-05
          ],
          [
            "Panama",
            6.692113674944267e-05
          ],
          [
            "Venezuela",
            6.493027467513457e-05
          ],
          [
            "Uganda",
            6.47857814328745e-05
          ],
          [
            "Jamaica",
            6.406716420315206e-05
          ],
          [
            "Belarus",
            6.32792289252393e-05
          ],
          [
            "Nigeria",
            6.219773058546707e-05
          ],
          [
            "DR Congo",
            6.185664824442938e-05
          ],
          [
            "Zambia",
            6.180357740959153e-05
          ],
          [
            "Uruguay",
            6.153621507110074e-05
          ],
          [
            "Samoa",
            5.898430026718415e-05
          ],
          [
            "Turks and Caicos Islands",
            5.844841507496312e-05
          ],
          [
            "Cambodia",
            5.566782783716917e-05
          ],
          [
            "Estonia",
            5.421206515165977e-05
          ],
          [
            "Russia",
            5.1895342039642856e-05
          ],
          [
            "Sudan",
            4.936234836350195e-05
          ],
          [
            "Tajikistan",
            4.888646071776748e-05
          ],
          [
            "Niger",
            4.456888564163819e-05
          ],
          [
            "Guinea-Bissau",
            4.428535612532869e-05
          ],
          [
            "Slovenia",
            4.3829732021549717e-05
          ],
          [
            "Falkland Islands",
            4.263692244421691e-05
          ],
          [
            "Nepal",
            4.139928569202311e-05
          ],
          [
            "Nicaragua",
            4.031850767205469e-05
          ],
          [
            "Sierra Leone",
            3.963955896324478e-05
          ],
          [
            "Madeira Islands",
            3.925134296878241e-05
          ],
          [
            "Pakistan",
            3.78947370336391e-05
          ],
          [
            "Netherlands",
            3.697209831443615e-05
          ],
          [
            "Côte d'Ivoire",
            3.264164479332976e-05
          ],
          [
            "Hungary",
            3.142530840705149e-05
          ],
          [
            "China",
            3.10427276417613e-05
          ],
          [
            "Germany",
            2.9883292882004753e-05
          ],
          [
            "Djibouti",
            2.73416044365149e-05
          ],
          [
            "Austria",
            2.6795900339493528e-05
          ],
          [
            "Iceland",
            2.558585038059391e-05
          ],
          [
            "South Africa",
            2.5301034838776104e-05
          ],
          [
            "Gambia",
            2.3945860448293388e-05
          ],
          [
            "Bulgaria",
            1.7057900549843907e-05
          ],
          [
            "Greece",
            1.6246800441876985e-05
          ],
          [
            "Morocco",
            1.2401262210914865e-05
          ],
          [
            "Haiti",
            5.14920520799933e-06
          ],
          [
            "Denmark",
            4.502615865931148e-06
          ],
          [
            "Kiribati",
            1.6889222251847968e-06
          ]
        ]
      },
      "geometry": {
        "type": "MultiLineString",
        "coordinates": [
          [
            [
              20.938547486033514,
              20.435754189944134
            ],
            [
              20.938547486033514,
              19.7653631284916
            ],
            [
              20.938547486033514,
              18.75977653631284
            ],
            [
              20.938547486033514,
              18.089385474860308
            ],
            [
              20.938547486033514,
              17.08379888268155
            ],
            [
              21.10614525139664,
              16.07821229050279
            ],
            [
              21.10614525139664,
              15.24022346368713
            ],
            [
              21.273743016759767,
              14.402234636871498
            ],
            [
              21.273743016759767,
              13.564245810055866
            ],
            [
              21.441340782122893,
              12.726256983240205
            ],
            [
              21.441340782122893,
              11.888268156424573
            ],
            [
              21.60893854748602,
              11.217877094972039
            ],
            [
              21.60893854748602,
              10.547486033519533
            ],
            [
              21.776536312849146,
              9.877094972067027
            ],
            [
              21.776536312849146,
              9.206703910614522
            ],
            [
              21.944134078212272,
              8.536312849162016
            ],
            [
              22.1117318435754,
              7.865921787709482
            ],
            [
              22.1117318435754,
              7.195530726256976
            ],
            [
              22.1117318435754,
              6.189944134078189
            ],
            [
              22.1117318435754,
              5.519553072625683
            ],
            [
              22.1117318435754,
              4.513966480446925
            ],
            [
              21.776536312849146,
              4.011173184357517
            ],
            [
              22.279329608938525,
              3.5083798882681094
            ],
            [
              22.94972067039106,
              3.1731843575419134
            ],
            [
              23.45251396648044,
              2.6703910614525057
            ],
            [
              23.955307262569818,
              2.5027932960894077
            ],
            [
              24.458100558659197,
              2.167597765363098
            ],
            [
              24.960893854748576,
              2.0
            ],
            [
              25.798882681564237,
              2.0
            ],
            [
              26.469273743016743,
              2.0
            ],
            [
              27.13966480446925,
              2.0
            ],
            [
              27.810055865921782,
              2.0
            ],
            [
              28.480446927374288,
              2.335195530726253
            ],
            [
              29.150837988826794,
              2.5027932960894077
            ],
            [
              29.821229050279328,
              2.5027932960894077
            ],
            [
              29.988826815642454,
              3.0055865921787586
            ],
            [
              29.988826815642454,
              3.843575418994419
            ],
            [
              29.988826815642454,
              4.513966480446925
            ],
            [
              29.821229050279328,
              5.016759776536304
            ],
            [
              29.988826815642454,
              5.519553072625683
            ],
            [
              30.491620111731834,
              6.022346368715091
            ],
            [
              30.826815642458087,
              6.525139664804442
            ],
            [
              31.497206703910592,
              6.525139664804442
            ],
            [
              32.1675977653631,
              6.525139664804442
            ],
            [
              32.83798882681563,
              6.525139664804442
            ],
            [
              33.34078212290501,
              6.692737430167597
            ],
            [
              34.01117318435752,
              6.692737430167597
            ],
            [
              34.513966480446925,
              7.02793296089385
            ],
            [
              35.18435754189943,
              7.3631284916201025
            ],
            [
              35.35195530726256,
              7.865921787709482
            ],
            [
              35.854748603351936,
              8.201117318435735
            ],
            [
              36.02234636871506,
              8.871508379888269
            ],
            [
              36.02234636871506,
              9.541899441340775
            ],
            [
              36.357541899441344,
              10.379888268156407
            ],
            [
              36.52513966480444,
              11.05027932960894
            ],
            [
              36.52513966480444,
              11.888268156424573
            ],
            [
              36.52513966480444,
              12.726256983240205
            ],
            [
              36.52513966480444,
              13.39664804469271
            ],
            [
              36.52513966480444,
              14.067039106145245
            ],
            [
              36.357541899441344,
              15.072625698324003
            ],
            [
              36.357541899441344,
              15.910614525139636
            ],
            [
              36.357541899441344,
              16.58100558659217
            ],
            [
              36.357541899441344,
              17.418994413407802
            ],
            [
              36.357541899441344,
              18.256983240223462
            ],
            [
              36.357541899441344,
              18.927374301675968
            ],
            [
              36.357541899441344,
              19.597765363128474
            ],
            [
              36.52513966480444,
              20.26815642458098
            ],
            [
              36.52513966480444,
              20.938547486033514
            ],
            [
              36.52513966480444,
              21.60893854748602
            ],
            [
              37.195530726256976,
              21.944134078212272
            ],
            [
              37.53072625698323,
              22.614525139664806
            ],
            [
              38.03351955307261,
              23.284916201117312
            ],
            [
              38.53631284916199,
              23.45251396648044
            ],
            [
              38.703910614525114,
              23.955307262569818
            ],
            [
              38.87150837988827,
              24.625698324022324
            ],
            [
              39.20670391061452,
              25.12849162011173
            ],
            [
              39.20670391061452,
              25.966480446927363
            ],
            [
              39.20670391061452,
              26.804469273742995
            ],
            [
              39.20670391061452,
              27.4748603351955
            ],
            [
              38.87150837988827,
              27.97765363128491
            ],
            [
              38.53631284916199,
              28.480446927374288
            ],
            [
              37.86592178770948,
              29.150837988826794
            ],
            [
              37.53072625698323,
              29.653631284916173
            ],
            [
              37.02793296089385,
              29.988826815642454
            ],
            [
              36.52513966480444,
              30.324022346368707
            ],
            [
              36.52513966480444,
              31.16201117318434
            ],
            [
              36.357541899441344,
              31.832402234636845
            ],
            [
              36.02234636871506,
              32.33519553072625
            ],
            [
              36.02234636871506,
              33.173184357541885
            ],
            [
              36.02234636871506,
              33.84357541899439
            ],
            [
              36.02234636871506,
              34.513966480446925
            ],
            [
              36.02234636871506,
              35.35195530726256
            ],
            [
              36.18994413407819,
              35.854748603351936
            ],
            [
              36.18994413407819,
              36.52513966480444
            ],
            [
              36.52513966480444,
              37.02793296089385
            ],
            [
              36.86033519553072,
              37.698324022346355
            ],
            [
              37.195530726256976,
              38.201117318435735
            ],
            [
              37.3631284916201,
              38.703910614525114
            ],
            [
              37.53072625698323,
              39.37430167597765
            ],
            [
              38.36871508379886,
              39.7094972067039
            ],
            [
              38.87150837988827,
              40.37988826815641
            ],
            [
              39.20670391061452,
              41.21787709497204
            ],
            [
              39.37430167597765,
              41.72067039106145
            ],
            [
              39.87709497206703,
              42.55865921787708
            ],
            [
              40.21229050279328,
              43.229050279329584
            ],
            [
              40.54748603351953,
              44.067039106145245
            ],
            [
              41.05027932960894,
              44.73743016759775
            ],
            [
              41.385474860335194,
              45.407821229050256
            ],
            [
              41.72067039106145,
              46.07821229050279
            ],
            [
              42.0558659217877,
              46.748603351955296
            ],
            [
              42.39106145251395,
              47.251396648044675
            ],
            [
              42.726256983240205,
              47.754189944134055
            ],
            [
              42.89385474860333,
              48.25698324022346
            ],
            [
              43.06145251396646,
              48.75977653631284
            ],
            [
              43.06145251396646,
              49.43016759776535
            ],
            [
              43.22905027932961,
              50.10055865921785
            ],
            [
              43.22905027932961,
              50.938547486033514
            ],
            [
              43.22905027932961,
              52.1117318435754
            ],
            [
              42.89385474860333,
              52.782122905027904
            ],
            [
              42.55865921787708,
              53.28491620111731
            ],
            [
              42.0558659217877,
              53.45251396648044
            ],
            [
              41.55307262569832,
              53.95530726256982
            ],
            [
              40.71508379888266,
              54.4581005586592
            ],
            [
              40.21229050279328,
              54.79329608938545
            ],
            [
              39.541899441340775,
              55.29608938547486
            ],
            [
              39.03910614525137,
              55.463687150837984
            ],
            [
              38.53631284916199,
              55.96648044692736
            ],
            [
              37.86592178770948,
              56.63687150837987
            ],
            [
              36.86033519553072,
              57.4748603351955
            ],
            [
              35.854748603351936,
              58.648044692737415
            ],
            [
              35.016759776536304,
              59.48603351955305
            ],
            [
              33.84357541899439,
              60.491620111731834
            ],
            [
              33.00558659217876,
              61.16201117318434
            ],
            [
              32.1675977653631,
              61.66480446927372
            ],
            [
              31.664804469273747,
              61.832402234636845
            ],
            [
              31.16201117318434,
              61.99999999999997
            ],
            [
              30.324022346368707,
              61.832402234636845
            ],
            [
              29.821229050279328,
              61.49720670391059
            ],
            [
              29.31843575418992,
              61.329608938547466
            ],
            [
              28.648044692737415,
              60.82681564245809
            ],
            [
              27.810055865921782,
              60.15642458100558
            ],
            [
              27.307262569832403,
              59.988826815642454
            ],
            [
              26.63687150837987,
              59.48603351955305
            ],
            [
              26.13407821229049,
              58.98324022346367
            ],
            [
              25.63128491620111,
              58.31284916201116
            ],
            [
              25.12849162011173,
              57.81005586592178
            ],
            [
              24.625698324022324,
              57.307262569832375
            ],
            [
              24.458100558659197,
              56.804469273742995
            ],
            [
              23.955307262569818,
              56.13407821229049
            ],
            [
              23.78770949720669,
              55.463687150837984
            ],
            [
              23.45251396648044,
              54.960893854748576
            ],
            [
              23.117318435754186,
              54.29050279329607
            ],
            [
              22.614525139664806,
              53.620111731843565
            ],
            [
              22.44692737430165,
              52.782122905027904
            ],
            [
              22.1117318435754,
              52.1117318435754
            ],
            [
              21.944134078212272,
              51.44134078212289
            ],
            [
              21.776536312849146,
              50.77094972067039
            ],
            [
              21.776536312849146,
              50.10055865921785
            ],
            [
              21.441340782122893,
              49.43016759776535
            ],
            [
              21.273743016759767,
              48.75977653631284
            ],
            [
              21.10614525139664,
              48.08938547486031
            ],
            [
              21.10614525139664,
              47.08379888268155
            ],
            [
              20.938547486033514,
              46.58100558659217
            ],
            [
              20.938547486033514,
              45.74301675977654
            ],
            [
              20.938547486033514,
              44.73743016759775
            ],
            [
              20.938547486033514,
              44.067039106145245
            ],
            [
              20.938547486033514,
              43.229050279329584
            ],
            [
              21.10614525139664,
              42.726256983240205
            ],
            [
              21.10614525139664,
              41.88826815642457
            ],
            [
              21.273743016759767,
              40.882681564245786
            ],
            [
              21.441340782122893,
              39.87709497206703
            ],
            [
              21.60893854748602,
              39.37430167597765
            ],
            [
              21.60893854748602,
              38.703910614525114
            ],
            [
              21.60893854748602,
              38.03351955307261
            ],
            [
              21.60893854748602,
              37.195530726256976
            ],
            [
              21.60893854748602,
              36.52513966480444
            ],
            [
              21.60893854748602,
              35.854748603351936
            ],
            [
              21.776536312849146,
              35.016759776536304
            ],
            [
              21.776536312849146,
              34.17877094972067
            ],
            [
              22.1117318435754,
              33.675977653631264
            ],
            [
              22.279329608938525,
              32.83798882681563
            ],
            [
              22.44692737430165,
              32.1675977653631
            ],
            [
              22.782122905027933,
              31.664804469273747
            ],
            [
              22.94972067039106,
              31.16201117318434
            ],
            [
              22.94972067039106,
              30.324022346368707
            ],
            [
              22.94972067039106,
              29.653631284916173
            ],
            [
              22.94972067039106,
              28.983240223463667
            ],
            [
              22.94972067039106,
              28.31284916201116
            ],
            [
              22.94972067039106,
              27.642458100558656
            ],
            [
              22.94972067039106,
              26.972067039106122
            ],
            [
              22.782122905027933,
              26.469273743016743
            ],
            [
              22.44692737430165,
              25.966480446927363
            ],
            [
              22.279329608938525,
              25.463687150837984
            ],
            [
              21.776536312849146,
              25.296089385474858
            ],
            [
              21.273743016759767,
              25.463687150837984
            ],
            [
              20.770949720670387,
              25.296089385474858
            ],
            [
              20.770949720670387,
              24.625698324022324
            ],
            [
              20.938547486033514,
              24.122905027932944
            ],
            [
              21.10614525139664,
              23.620111731843565
            ],
            [
              21.10614525139664,
              22.94972067039106
            ],
            [
              21.273743016759767,
              22.279329608938525
            ],
            [
              21.273743016759767,
              21.441340782122893
            ],
            [
              21.273743016759767,
              20.770949720670387
            ],
            [
              21.10614525139664,
              20.26815642458098
            ],
            [
              20.938547486033514,
              19.430167597765347
            ]
          ]
        ]
      }
    }
  ]
}