{
  "type": "FeatureCollection",
  "crs": {
    "type": "name",
    "properties": {
      "name": "urn:ogc:def:crs:OGC:1.3:CRS84"
    }
  },
  "features": [
    {
      "type": "Feature",
      "properties": {
        "timestamp": "2026-06-15T19:32:08.985557",
        "country_name": "Switzerland",
        "author": "Hi",
        "author_id": "82eb82af-ba18-4f50-b91f-ad9a9585603c",
        "validated": false,
        "ranking": [
          [
            "Timor-Leste",
            0.16319413483142853
          ],
          [
            "Puerto Rico",
            0.15030620992183685
          ],
          [
            "Indonesia",
            0.08404207974672318
          ],
          [
            "Kyrgyzstan",
            0.059656571596860886
          ],
          [
            "Turkey",
            0.05748414993286133
          ],
          [
            "Kazakhstan",
            0.054765406996011734
          ],
          [
            "Central African Republic",
            0.05320477485656738
          ],
          [
            "Slovakia",
            0.04282231628894806
          ],
          [
            "Russia",
            0.03178723528981209
          ],
          [
            "Jamaica",
            0.029110245406627655
          ],
          [
            "Panama",
            0.023996461182832718
          ],
          [
            "Mongolia",
            0.02373225800693035
          ],
          [
            "Honduras",
            0.01804090104997158
          ],
          [
            "Turkmenistan",
            0.016706041991710663
          ],
          [
            "Gambia",
            0.01554992888122797
          ],
          [
            "Falkland Islands",
            0.014635778963565826
          ],
          [
            "Georgia",
            0.014326591044664383
          ],
          [
            "Hong Kong",
            0.013644427061080933
          ],
          [
            "Cyprus",
            0.011900222860276699
          ],
          [
            "Austria",
            0.008088820613920689
          ],
          [
            "Papua New Guinea",
            0.006091216579079628
          ],
          [
            "Switzerland",
            0.0056945569813251495
          ],
          [
            "Yemen",
            0.005099609959870577
          ],
          [
            "Malaysia",
            0.005002276506274939
          ],
          [
            "Latvia",
            0.004905621986836195
          ],
          [
            "Netherlands Antilles",
            0.004741293378174305
          ],
          [
            "Cuba",
            0.0037665332201868296
          ],
          [
            "Dominican Republic",
            0.003416159190237522
          ],
          [
            "Czech Republic",
            0.0032940725795924664
          ],
          [
            "Bhutan",
            0.003246239386498928
          ],
          [
            "Uzbekistan",
            0.0031758251134306192
          ],
          [
            "Madeira Islands",
            0.0030854628421366215
          ],
          [
            "Burkina Faso",
            0.002972310408949852
          ],
          [
            "Ecuador",
            0.0029139535035938025
          ],
          [
            "New Caledonia",
            0.0026153563521802425
          ],
          [
            "Guinea-Bissau",
            0.0025343874003738165
          ],
          [
            "New Zealand",
            0.0020976692903786898
          ],
          [
            "Fiji",
            0.0020342557691037655
          ],
          [
            "El Salvador",
            0.0019589420408010483
          ],
          [
            "South Korea",
            0.0019538970664143562
          ],
          [
            "Guam",
            0.0015698715578764677
          ],
          [
            "Niger",
            0.001548944623209536
          ],
          [
            "Heard and McDonald Islands",
            0.0013516242615878582
          ],
          [
            "Japan",
            0.0013095095055177808
          ],
          [
            "Estonia",
            0.0012594463769346476
          ],
          [
            "Mali",
            0.001068380894139409
          ],
          [
            "Tajikistan",
            0.0010502315126359463
          ],
          [
            "Solomon Islands",
            0.0010494645684957504
          ],
          [
            "Brunei",
            0.0009604069055058062
          ],
          [
            "Somalia",
            0.000953292881604284
          ],
          [
            "Ukraine",
            0.0008789770072326064
          ],
          [
            "Myanmar",
            0.0007542403764091432
          ],
          [
            "Morocco",
            0.0007515708566643298
          ],
          [
            "Malawi",
            0.0007342727039940655
          ],
          [
            "Cameroon",
            0.0006792946369387209
          ],
          [
            "Oman",
            0.0006774340872652829
          ],
          [
            "Nepal",
            0.0006763082346878946
          ],
          [
            "Philippines",
            0.0006758324452675879
          ],
          [
            "Slovenia",
            0.0006650095456279814
          ],
          [
            "North Korea",
            0.0006475411937572062
          ],
          [
            "Norway",
            0.0006368481554090977
          ],
          [
            "Canada",
            0.000603170832619071
          ],
          [
            "South Sudan",
            0.0005846756394021213
          ],
          [
            "Israel",
            0.0005542771541513503
          ],
          [
            "Paraguay",
            0.0005398338544182479
          ],
          [
            "United Arab Emirates",
            0.0005325167439877987
          ],
          [
            "Hungary",
            0.0005224929191172123
          ],
          [
            "Turks and Caicos Islands",
            0.0005021526594646275
          ],
          [
            "Bangladesh",
            0.00048172599053941667
          ],
          [
            "Thailand",
            0.00043386302422732115
          ],
          [
            "Trinidad and Tobago",
            0.0004312361415941268
          ],
          [
            "Colombia",
            0.0004303265595808625
          ],
          [
            "Mexico",
            0.00042770805885083973
          ],
          [
            "Sweden",
            0.0004164230776950717
          ],
          [
            "Netherlands",
            0.0004081141378264874
          ],
          [
            "Guadeloupe",
            0.0004041672800667584
          ],
          [
            "Spain",
            0.000403631100198254
          ],
          [
            "Armenia",
            0.00037952075945213437
          ],
          [
            "Lebanon",
            0.0003759457904379815
          ],
          [
            "Serbia",
            0.0003662458329927176
          ],
          [
            "Argentina",
            0.00036296137841418386
          ],
          [
            "Palau",
            0.00036176564753986895
          ],
          [
            "Isle of Man",
            0.000360087986337021
          ],
          [
            "Mozambique",
            0.0003592784923966974
          ],
          [
            "China",
            0.0003522863844409585
          ],
          [
            "Tunisia",
            0.00035061591188423336
          ],
          [
            "Chile",
            0.0003221282677259296
          ],
          [
            "Portugal",
            0.0003181264619342983
          ],
          [
            "Samoa",
            0.00031344479066319764
          ],
          [
            "Congo",
            0.0003091773542109877
          ],
          [
            "Senegal",
            0.00030763031099922955
          ],
          [
            "Saudi Arabia",
            0.00029443277162499726
          ],
          [
            "Taiwan",
            0.00029254687251523137
          ],
          [
            "Belize",
            0.0002811609301716089
          ],
          [
            "Ireland",
            0.0002779224014375359
          ],
          [
            "Montenegro",
            0.0002752115542534739
          ],
          [
            "Saint Lucia",
            0.0002714154834393412
          ],
          [
            "Eritrea",
            0.0002708032261580229
          ],
          [
            "Benin",
            0.00023992155911400914
          ],
          [
            "Iceland",
            0.00022424313647206873
          ],
          [
            "Azerbaijan",
            0.00021844108414370567
          ],
          [
            "Rwanda",
            0.00021810428006574512
          ],
          [
            "United Kingdom",
            0.00020656197739299387
          ],
          [
            "Svalbard",
            0.0001985419075936079
          ],
          [
            "Moldova",
            0.00019262434216216207
          ],
          [
            "Togo",
            0.00019019257160834968
          ],
          [
            "Madagascar",
            0.00018463478772900999
          ],
          [
            "Equatorial Guinea",
            0.00018329090380575508
          ],
          [
            "Sao Tome and Principe",
            0.00018160455510951579
          ],
          [
            "Bahamas",
            0.00017875834600999951
          ],
          [
            "Qatar",
            0.00017114009824581444
          ],
          [
            "Mayotte",
            0.00016867781232576817
          ],
          [
            "Albania",
            0.0001612946216482669
          ],
          [
            "Comoros",
            0.00014378438936546445
          ],
          [
            "Greenland",
            0.00012963329209014773
          ],
          [
            "Western Sahara",
            0.00012474108370952308
          ],
          [
            "South Africa",
            0.0001213002615259029
          ],
          [
            "Pakistan",
            0.00012075478298356757
          ],
          [
            "Romania",
            0.00012056330888299271
          ],
          [
            "India",
            0.00012021679867757484
          ],
          [
            "Iraq",
            0.00011635023111011833
          ],
          [
            "Zambia",
            0.0001161734908237122
          ],
          [
            "Vanuatu",
            0.0001133497353293933
          ],
          [
            "United States of America",
            0.00011202724272152409
          ],
          [
            "Angola",
            0.00010922297951765358
          ],
          [
            "Kuwait",
            0.00010878720786422491
          ],
          [
            "Bulgaria",
            0.00010710961214499548
          ],
          [
            "South Georgia Islands",
            0.00010560722148511559
          ],
          [
            "Lithuania",
            0.00010290143836755306
          ],
          [
            "Afghanistan",
            9.991198749048635e-05
          ],
          [
            "West Bank",
            9.829923510551453e-05
          ],
          [
            "Italy",
            9.772811608854681e-05
          ],
          [
            "DR Congo",
            9.705936827231199e-05
          ],
          [
            "Martinique",
            9.58353266469203e-05
          ],
          [
            "Syria",
            9.50112080317922e-05
          ],
          [
            "Mauritania",
            9.437184780836105e-05
          ],
          [
            "Belgium",
            9.407963079866022e-05
          ],
          [
            "Guyana",
            9.324517304776236e-05
          ],
          [
            "Bahrain",
            8.862388494890183e-05
          ],
          [
            "Liberia",
            8.655044803163037e-05
          ],
          [
            "Barbados",
            8.109954069368541e-05
          ],
          [
            "Ethiopia",
            7.644433935638517e-05
          ],
          [
            "Dominica",
            7.326341437874362e-05
          ],
          [
            "Ghana",
            7.095003820722923e-05
          ],
          [
            "Costa Rica",
            6.96536953910254e-05
          ],
          [
            "Iran",
            6.952295370865613e-05
          ],
          [
            "Namibia",
            6.741673860233277e-05
          ],
          [
            "Vietnam",
            6.615970778511837e-05
          ],
          [
            "Finland",
            6.189930718392134e-05
          ],
          [
            "Croatia",
            6.14050732110627e-05
          ],
          [
            "Australia",
            5.933584543527104e-05
          ],
          [
            "Burundi",
            5.8437766710994765e-05
          ],
          [
            "Antigua & Barbuda",
            5.6992237659869716e-05
          ],
          [
            "Guatemala",
            5.5981447076192126e-05
          ],
          [
            "Cape Verde",
            5.4724077926948667e-05
          ],
          [
            "Algeria",
            5.433426849776879e-05
          ],
          [
            "Guinea",
            5.384340329328552e-05
          ],
          [
            "Sri Lanka",
            5.19044951943215e-05
          ],
          [
            "Bolivia",
            4.8958350816974416e-05
          ],
          [
            "Belarus",
            4.731279477709904e-05
          ],
          [
            "Luxembourg",
            4.249974881531671e-05
          ],
          [
            "Djibouti",
            4.1260183934355155e-05
          ],
          [
            "Faroe Islands",
            4.018074105260894e-05
          ],
          [
            "Haiti",
            4.0167022234527394e-05
          ],
          [
            "Chad",
            3.9865917642600834e-05
          ],
          [
            "Laos",
            3.956443470087834e-05
          ],
          [
            "Egypt",
            3.919234950444661e-05
          ],
          [
            "Botswana",
            3.883990939357318e-05
          ],
          [
            "Jordan",
            3.878845745930448e-05
          ],
          [
            "Peru",
            3.347481833770871e-05
          ],
          [
            "Nicaragua",
            3.2434450986329466e-05
          ],
          [
            "French Guiana",
            3.194293094566092e-05
          ],
          [
            "Nigeria",
            2.9528915547416545e-05
          ],
          [
            "Libya",
            2.865055648726411e-05
          ],
          [
            "Gabon",
            2.8550944989547133e-05
          ],
          [
            "Tanzania",
            2.779111309791915e-05
          ],
          [
            "Uruguay",
            2.7195945222047158e-05
          ],
          [
            "France",
            2.663576560735237e-05
          ],
          [
            "Reunion",
            2.5176568669849075e-05
          ],
          [
            "Greece",
            2.4782932086964138e-05
          ],
          [
            "Eswatini",
            2.2662812625640072e-05
          ],
          [
            "Uganda",
            2.1562198526225984e-05
          ],
          [
            "Kenya",
            2.1325791749404743e-05
          ],
          [
            "Brazil",
            1.937414526764769e-05
          ],
          [
            "Venezuela",
            1.8836895833374e-05
          ],
          [
            "Bosnia & Herzegovina",
            1.8081160305882804e-05
          ],
          [
            "Germany",
            1.7575875972397625e-05
          ],
          [
            "Sierra Leone",
            1.7397405827068724e-05
          ],
          [
            "North Macedonia",
            1.6709713236195967e-05
          ],
          [
            "United States Virgin Islands",
            1.4922457921784371e-05
          ],
          [
            "Poland",
            1.4762874343432486e-05
          ],
          [
            "Zimbabwe",
            1.3108150596963242e-05
          ],
          [
            "Suriname",
            1.302833879890386e-05
          ],
          [
            "Lesotho",
            1.1177980923093855e-05
          ],
          [
            "Denmark",
            1.0513166671444196e-05
          ],
          [
            "Kiribati",
            9.710561243991833e-06
          ],
          [
            "Cambodia",
            9.02668762137182e-06
          ],
          [
            "Sudan",
            6.774979283363791e-06
          ],
          [
            "Côte d'Ivoire",
            4.2510669118200894e-06
          ]
        ]
      },
      "geometry": {
        "type": "MultiLineString",
        "coordinates": [
          [
            [
              2.0,
              26.358231200563864
            ],
            [
              3.320002287060504,
              25.63800504546083
            ],
            [
              4.1600049919494495,
              25.63800504546083
            ],
            [
              4.880002990771459,
              25.63800504546083
            ],
            [
              5.479999032397416,
              25.758053733461452
            ],
            [
              6.320004486157188,
              25.99812911849574
            ],
            [
              7.159998944433596,
              26.11815581552952
            ],
            [
              8.600005937561036,
              26.238204503530085
            ],
            [
              9.680004310229492,
              26.47827988856443
            ],
            [
              10.760002682897948,
              26.958408667666276
            ],
            [
              11.960005761633283,
              27.438559437734966
            ],
            [
              13.280002550952133,
              28.03875889580422
            ],
            [
              14.480000131945758,
              28.638947358390055
            ],
            [
              14.960002462988257,
              28.9990604359416
            ],
            [
              15.560004002355925,
              29.599248898527435
            ],
            [
              16.5199976689575,
              30.67958813118196
            ],
            [
              17.240003914392048,
              31.639889671319338
            ],
            [
              17.720000747692836,
              32.60019121145672
            ],
            [
              18.199997580993625,
              33.32040087333462
            ],
            [
              18.560000703710898,
              34.16067571643822
            ],
            [
              19.160002243078566,
              34.880896373799544
            ],
            [
              19.639999076379354,
              35.60112252890258
            ],
            [
              20.240006113488732,
              36.44138637652276
            ],
            [
              20.959995865698204,
              37.401682418918426
            ],
            [
              21.680002111132808,
              38.602059344090094
            ],
            [
              22.52000206715087,
              39.56236088422747
            ],
            [
              23.120003606518537,
              40.52266242436485
            ],
            [
              23.83999885646972,
              41.36292077424332
            ],
            [
              24.440000395837387,
              41.84307154431201
            ],
            [
              25.28000035185545,
              42.2031846218635
            ],
            [
              25.99999560180663,
              42.56329220167328
            ],
            [
              27.08000496995851,
              42.56329220167328
            ],
            [
              28.400001759277302,
              42.68333539193219
            ],
            [
              29.599999340270983,
              42.923410776966534
            ],
            [
              30.67999771293944,
              43.28351835677631
            ],
            [
              31.880000791674775,
              43.52359374181066
            ],
            [
              32.839999956018005,
              43.763669126845
            ],
            [
              33.800004618103,
              43.763669126845
            ],
            [
              34.40000615747067,
              43.763669126845
            ],
            [
              35.12000140742185,
              43.64363693206951
            ],
            [
              36.19999978009031,
              43.403561547035224
            ],
            [
              37.760005981542974,
              43.28351835677631
            ],
            [
              38.4800012314941,
              43.28351835677631
            ],
            [
              39.80000351855466,
              43.04344297174197
            ],
            [
              41.480003430590784,
              42.80337308444933
            ],
            [
              42.08000496995851,
              42.56329220167328
            ],
            [
              43.03999863656003,
              42.3232223143807
            ],
            [
              44.3600064213623,
              41.72303385179481
            ],
            [
              45.20000087963865,
              41.122839891467265
            ],
            [
              46.04000083565671,
              40.40261923410594
            ],
            [
              46.880000791674775,
              39.92246846403725
            ],
            [
              47.84000545375977,
              39.202236811192506
            ],
            [
              48.67999991203612,
              38.722102534349006
            ],
            [
              49.40000065972896,
              38.00187637924597
            ],
            [
              50.120012402905274,
              37.04157483910859
            ],
            [
              50.71999744904781,
              36.08127329897121
            ],
            [
              51.20000527783202,
              35.24100395360932
            ],
            [
              51.56000840054929,
              34.64082648650691
            ],
            [
              52.16000993991702,
              34.040632526179365
            ],
            [
              52.880016185351565,
              33.20037417630084
            ],
            [
              53.84000985195314,
              32.12004044138803
            ],
            [
              55.160006641271934,
              31.399814286284993
            ],
            [
              56.480003430590784,
              30.67958813118196
            ],
            [
              57.56000180325924,
              30.079399668596125
            ],
            [
              58.40001275476072,
              29.83931328807836
            ],
            [
              59.00001429412839,
              29.599248898527435
            ],
            [
              59.24000171529542,
              28.9990604359416
            ],
            [
              59.71999854859615,
              28.278834280838566
            ],
            [
              60.080001671313426,
              27.678645818252733
            ],
            [
              60.440004794030756,
              26.958408667666276
            ],
            [
              60.79999692126461,
              26.238204503530085
            ],
            [
              61.1600110394653,
              25.63800504546083
            ],
            [
              61.399998460632276,
              24.917778890357795
            ],
            [
              61.76001257883297,
              24.317601423255383
            ],
            [
              62.0,
              23.71741296066955
            ],
            [
              61.28000475004882,
              23.837450653186693
            ],
            [
              60.560009500097635,
              24.077526038221038
            ],
            [
              59.84000325466309,
              24.077526038221038
            ],
            [
              59.119997009228484,
              24.077526038221038
            ],
            [
              58.52000646534424,
              24.077526038221038
            ],
            [
              57.800011215393056,
              24.67770350532345
            ],
            [
              57.320003386608846,
              25.15785427539214
            ],
            [
              56.72000184724118,
              25.99812911849574
            ],
            [
              56.12000030787351,
              26.958408667666276
            ],
            [
              55.640014470056144,
              27.678645818252733
            ],
            [
              55.520009763989265,
              28.278834280838566
            ],
            [
              55.040012930688476,
              28.638947358390055
            ],
            [
              54.56000510190427,
              28.9990604359416
            ],
            [
              54.07999727312006,
              29.35916251800967
            ],
            [
              53.48001772471923,
              29.599248898527435
            ],
            [
              52.760000483801264,
              29.719286591044636
            ],
            [
              52.16000993991702,
              29.719286591044636
            ],
            [
              51.31999898841548,
              29.599248898527435
            ],
            [
              50.71999744904781,
              29.599248898527435
            ],
            [
              49.75999828470458,
              29.47921120601029
            ],
            [
              48.800004618103,
              29.35916251800967
            ],
            [
              47.95999916434323,
              29.119098128458745
            ],
            [
              47.12000470606688,
              28.638947358390055
            ],
            [
              46.27999925230711,
              28.158796588321422
            ],
            [
              45.440004794030756,
              28.03875889580422
            ],
            [
              44.71999854859615,
              27.798683510769877
            ],
            [
              44.120002506970195,
              27.678645818252733
            ],
            [
              43.52000096760253,
              27.438559437734966
            ],
            [
              43.28000255095213,
              26.838381970632554
            ],
            [
              43.160003342626965,
              26.11815581552952
            ],
            [
              42.91999942823486,
              25.15785427539214
            ],
            [
              42.91999942823486,
              24.317601423255383
            ],
            [
              42.91999942823486,
              23.597375268152348
            ],
            [
              43.03999863656003,
              22.997175810083093
            ],
            [
              43.160003342626965,
              22.156922957946335
            ],
            [
              42.319997888867135,
              21.79680988039479
            ],
            [
              41.359998724523905,
              21.556745490843866
            ],
            [
              39.32000118751216,
              21.076594720775233
            ],
            [
              38.35999652542722,
              20.83650834025741
            ],
            [
              37.400002858825644,
              20.35635757018872
            ],
            [
              36.80000131945798,
              20.35635757018872
            ],
            [
              36.440003694482414,
              20.83650834025741
            ],
            [
              36.08001156724856,
              21.91684757291199
            ],
            [
              35.84000215511469,
              23.597375268152348
            ],
            [
              35.84000215511469,
              24.19756373073824
            ],
            [
              35.72000294678952,
              24.917778890357795
            ],
            [
              35.48001002788084,
              25.51797834842705
            ],
            [
              34.99999670135492,
              26.238204503530085
            ],
            [
              34.2800069491455,
              26.358231200563864
            ],
            [
              31.880000791674775,
              26.358231200563864
            ],
            [
              30.80000241900632,
              26.358231200563864
            ],
            [
              29.36001191910401,
              26.238204503530085
            ],
            [
              27.680006509326176,
              25.51797834842705
            ],
            [
              26.480003430590784,
              25.15785427539214
            ],
            [
              25.99999560180663,
              24.797752193324072
            ],
            [
              25.639997976831012,
              24.19756373073824
            ],
            [
              25.16000114353028,
              22.997175810083093
            ],
            [
              24.31999568977045,
              21.91684757291199
            ],
            [
              23.600005937561036,
              21.196621417808956
            ],
            [
              23.00000439819337,
              20.95654603277461
            ],
            [
              22.159998944433596,
              20.716470647740266
            ],
            [
              20.959995865698204,
              20.35635757018872
            ],
            [
              19.639999076379354,
              20.35635757018872
            ],
            [
              18.320002287060504,
              20.236330873154998
            ],
            [
              17.359997624975563,
              20.236330873154998
            ],
            [
              16.64000237502438,
              20.236330873154998
            ],
            [
              16.16000004398188,
              20.596443950706544
            ],
            [
              15.920007125073255,
              21.196621417808956
            ],
            [
              16.16000004398188,
              21.91684757291199
            ],
            [
              16.760001583349606,
              22.517025040014403
            ],
            [
              17.359997624975563,
              22.877149113049313
            ],
            [
              17.83999995601806,
              23.357299883118003
            ],
            [
              18.560000703710898,
              23.477326580151782
            ],
            [
              19.40000065972896,
              23.597375268152348
            ],
            [
              20.000002199096684,
              23.957477350220415
            ],
            [
              20.479999032397416,
              24.317601423255383
            ],
            [
              20.959995865698204,
              24.67770350532345
            ],
            [
              21.19999978009031,
              25.277902963392762
            ],
            [
              20.959995865698204,
              25.878080430495174
            ],
            [
              20.120001407421853,
              26.11815581552952
            ],
            [
              18.799999120361292,
              25.758053733461452
            ],
            [
              17.720000747692836,
              25.397929660426485
            ],
            [
              17.11999920832517,
              25.397929660426485
            ],
            [
              16.279999252307107,
              25.397929660426485
            ],
            [
              15.560004002355925,
              25.277902963392762
            ],
            [
              14.720004046337863,
              25.037827578358417
            ],
            [
              13.880004090319801,
              24.67770350532345
            ],
            [
              12.91999942823486,
              24.19756373073824
            ],
            [
              11.60000263891601,
              23.71741296066955
            ],
            [
              10.520004266247554,
              23.597375268152348
            ],
            [
              9.920002726879886,
              23.71741296066955
            ],
            [
              8.4800012314941,
              24.077526038221038
            ],
            [
              7.52000756489258,
              24.917778890357795
            ],
            [
              7.159998944433596,
              26.59830658559821
            ],
            [
              7.159998944433596,
              27.318532740701244
            ]
          ]
        ]
      }
    }
  ]
}