{
  "type": "FeatureCollection",
  "crs": {
    "type": "name",
    "properties": {
      "name": "urn:ogc:def:crs:OGC:1.3:CRS84"
    }
  },
  "features": [
    {
      "type": "Feature",
      "properties": {
        "timestamp": "2026-07-22T10:15:15.290811",
        "country_name": "Taiwan",
        "author": "",
        "author_id": "415aab98-6e30-4bb0-b19f-6cb8204edd27",
        "validated": false,
        "ranking": [
          [
            "Taiwan",
            0.4155946671962738
          ],
          [
            "Saint Lucia",
            0.250140517950058
          ],
          [
            "Qatar",
            0.06016228348016739
          ],
          [
            "Madagascar",
            0.04334070160984993
          ],
          [
            "Benin",
            0.021898221224546432
          ],
          [
            "Belize",
            0.02142743580043316
          ],
          [
            "Portugal",
            0.019840795546770096
          ],
          [
            "Greenland",
            0.01575881987810135
          ],
          [
            "Tunisia",
            0.012101641856133938
          ],
          [
            "Myanmar",
            0.009619558230042458
          ],
          [
            "South Korea",
            0.008418926037847996
          ],
          [
            "Sweden",
            0.00829528272151947
          ],
          [
            "Isle of Man",
            0.004956543445587158
          ],
          [
            "Mozambique",
            0.004600358195602894
          ],
          [
            "Chad",
            0.004382652696222067
          ],
          [
            "Brunei",
            0.004178121220320463
          ],
          [
            "Lebanon",
            0.004136559087783098
          ],
          [
            "Albania",
            0.004117038566619158
          ],
          [
            "North Korea",
            0.00379371945746243
          ],
          [
            "Guam",
            0.0036841982509940863
          ],
          [
            "Argentina",
            0.003621719079092145
          ],
          [
            "West Bank",
            0.003561627119779587
          ],
          [
            "Palau",
            0.0030840253457427025
          ],
          [
            "Western Sahara",
            0.0026661264710128307
          ],
          [
            "Israel",
            0.002629291731864214
          ],
          [
            "Malawi",
            0.0024186393711715937
          ],
          [
            "Congo",
            0.0023970450274646282
          ],
          [
            "Spain",
            0.002330985851585865
          ],
          [
            "Oman",
            0.002044558757916093
          ],
          [
            "Somalia",
            0.0020283071789890528
          ],
          [
            "Fiji",
            0.001969885313883424
          ],
          [
            "Vietnam",
            0.0019392489921301603
          ],
          [
            "Togo",
            0.001887650229036808
          ],
          [
            "Burundi",
            0.0017014672048389912
          ],
          [
            "Antigua & Barbuda",
            0.001661650137975812
          ],
          [
            "Faroe Islands",
            0.0015598449390381575
          ],
          [
            "Switzerland",
            0.0013466492528095841
          ],
          [
            "New Zealand",
            0.0013106806436553597
          ],
          [
            "Burkina Faso",
            0.0013022407656535506
          ],
          [
            "Colombia",
            0.001291862572543323
          ],
          [
            "Thailand",
            0.0012669239658862352
          ],
          [
            "Namibia",
            0.0012050098739564419
          ],
          [
            "Norway",
            0.0011658413568511605
          ],
          [
            "Moldova",
            0.0010437865275889635
          ],
          [
            "United Kingdom",
            0.000987760373391211
          ],
          [
            "Afghanistan",
            0.0009732463513500988
          ],
          [
            "Rwanda",
            0.0009517970029264688
          ],
          [
            "Finland",
            0.000804605835583061
          ],
          [
            "Mayotte",
            0.00079091772204265
          ],
          [
            "Chile",
            0.0007810683455318213
          ],
          [
            "Yemen",
            0.0007741213776171207
          ],
          [
            "Central African Republic",
            0.0007135649211704731
          ],
          [
            "Mauritania",
            0.0006679354119114578
          ],
          [
            "Guyana",
            0.0006561066838912666
          ],
          [
            "Jordan",
            0.0006473061512224376
          ],
          [
            "Hong Kong",
            0.000647054344881326
          ],
          [
            "Canada",
            0.0006256089545786381
          ],
          [
            "Slovenia",
            0.0006114606512710452
          ],
          [
            "Slovakia",
            0.0005259722238406539
          ],
          [
            "Ecuador",
            0.0005196857964619994
          ],
          [
            "Netherlands",
            0.000519263674505055
          ],
          [
            "Bahrain",
            0.0004950767615810037
          ],
          [
            "Morocco",
            0.0004798641020897776
          ],
          [
            "Dominica",
            0.000473881111247465
          ],
          [
            "Trinidad and Tobago",
            0.0004591550095938146
          ],
          [
            "Romania",
            0.0004398645251058042
          ],
          [
            "Sri Lanka",
            0.0004381597100291401
          ],
          [
            "Philippines",
            0.0004356397548690438
          ],
          [
            "Kazakhstan",
            0.0004097408673260361
          ],
          [
            "Syria",
            0.00039394700434058905
          ],
          [
            "Svalbard",
            0.00038702948950231075
          ],
          [
            "Serbia",
            0.00037111519486643374
          ],
          [
            "Cameroon",
            0.0003611587162595242
          ],
          [
            "Vanuatu",
            0.0003560841141734272
          ],
          [
            "Gabon",
            0.0003501071478240192
          ],
          [
            "Ireland",
            0.00033379049273207784
          ],
          [
            "Ghana",
            0.00033216524752788246
          ],
          [
            "Mali",
            0.0003245573316235095
          ],
          [
            "Sao Tome and Principe",
            0.0003223468374926597
          ],
          [
            "Heard and McDonald Islands",
            0.0003210331778973341
          ],
          [
            "South Sudan",
            0.00031945909722708166
          ],
          [
            "Turkmenistan",
            0.00031363594462163746
          ],
          [
            "Japan",
            0.0003018722345586866
          ],
          [
            "Honduras",
            0.0002988867345266044
          ],
          [
            "Hungary",
            0.00029257568530738354
          ],
          [
            "Mongolia",
            0.00028995409957133234
          ],
          [
            "South Africa",
            0.0002780998474918306
          ],
          [
            "Niger",
            0.00027719271020032465
          ],
          [
            "Germany",
            0.00027382123516872525
          ],
          [
            "Timor-Leste",
            0.0002699768519960344
          ],
          [
            "Guadeloupe",
            0.00026937967049889266
          ],
          [
            "Peru",
            0.00026458993670530617
          ],
          [
            "Zambia",
            0.00026402989169582725
          ],
          [
            "Saudi Arabia",
            0.00025882580666802824
          ],
          [
            "Bangladesh",
            0.00024576610303483903
          ],
          [
            "Kyrgyzstan",
            0.00022665922006126493
          ],
          [
            "Belarus",
            0.00022261041158344597
          ],
          [
            "Lesotho",
            0.00021618777827825397
          ],
          [
            "Papua New Guinea",
            0.0002109994093189016
          ],
          [
            "Cyprus",
            0.00021081998420413584
          ],
          [
            "Montenegro",
            0.00020812355796806514
          ],
          [
            "France",
            0.00020764180226251483
          ],
          [
            "Turkey",
            0.0002021697728196159
          ],
          [
            "Estonia",
            0.00019022799097001553
          ],
          [
            "Lithuania",
            0.00018869974883273244
          ],
          [
            "French Guiana",
            0.000174155633430928
          ],
          [
            "Algeria",
            0.00016711687203496695
          ],
          [
            "Bhutan",
            0.00016405123460572213
          ],
          [
            "Djibouti",
            0.0001580104581080377
          ],
          [
            "Ukraine",
            0.00014630507212132215
          ],
          [
            "Martinique",
            0.00014241767348721623
          ],
          [
            "Puerto Rico",
            0.00014225613267626613
          ],
          [
            "Croatia",
            0.00014012548490427434
          ],
          [
            "Czech Republic",
            0.00013969956489745528
          ],
          [
            "Cape Verde",
            0.000130194952362217
          ],
          [
            "Nicaragua",
            0.00012892305676359683
          ],
          [
            "India",
            0.00012785219587385654
          ],
          [
            "North Macedonia",
            0.00012727848661597818
          ],
          [
            "Botswana",
            0.000127162245917134
          ],
          [
            "Falkland Islands",
            0.0001269773201784119
          ],
          [
            "Nigeria",
            0.00012256628542672843
          ],
          [
            "Indonesia",
            0.00012209077249281108
          ],
          [
            "Latvia",
            0.00012152295676060021
          ],
          [
            "Iraq",
            0.00011431474558776245
          ],
          [
            "Malaysia",
            0.00011310001718811691
          ],
          [
            "Georgia",
            0.00010778459545690566
          ],
          [
            "United States Virgin Islands",
            0.00010547108831815422
          ],
          [
            "Russia",
            0.00010255866800434887
          ],
          [
            "Eswatini",
            9.988468082156032e-05
          ],
          [
            "Iran",
            9.983115887735039e-05
          ],
          [
            "Guatemala",
            9.444327588425949e-05
          ],
          [
            "Solomon Islands",
            8.880132372723892e-05
          ],
          [
            "Uzbekistan",
            8.785820682533085e-05
          ],
          [
            "Azerbaijan",
            8.659117156639695e-05
          ],
          [
            "Angola",
            8.424089901382104e-05
          ],
          [
            "Luxembourg",
            8.098541002254933e-05
          ],
          [
            "Egypt",
            8.092750795185566e-05
          ],
          [
            "Guinea-Bissau",
            7.926450052764267e-05
          ],
          [
            "Zimbabwe",
            7.175908831413835e-05
          ],
          [
            "Jamaica",
            7.088019629009068e-05
          ],
          [
            "Libya",
            6.953311822144315e-05
          ],
          [
            "Iceland",
            6.758613017154858e-05
          ],
          [
            "Pakistan",
            6.688886060146615e-05
          ],
          [
            "Belgium",
            6.611488061025739e-05
          ],
          [
            "Cuba",
            6.325208960333839e-05
          ],
          [
            "Brazil",
            5.9791942476294935e-05
          ],
          [
            "Cambodia",
            5.8543493651086465e-05
          ],
          [
            "United Arab Emirates",
            5.6694800150580704e-05
          ],
          [
            "Paraguay",
            5.534345473279245e-05
          ],
          [
            "New Caledonia",
            5.478691673488356e-05
          ],
          [
            "Kenya",
            5.460653846967034e-05
          ],
          [
            "China",
            5.2906081691617146e-05
          ],
          [
            "Bolivia",
            5.281664925860241e-05
          ],
          [
            "Reunion",
            5.194793993723579e-05
          ],
          [
            "Uganda",
            5.13461563969031e-05
          ],
          [
            "Armenia",
            5.127891927259043e-05
          ],
          [
            "Bahamas",
            5.053545828559436e-05
          ],
          [
            "Italy",
            4.871352939517237e-05
          ],
          [
            "Tajikistan",
            4.466966129257344e-05
          ],
          [
            "Bulgaria",
            4.444453225005418e-05
          ],
          [
            "Equatorial Guinea",
            4.428924876265228e-05
          ],
          [
            "Australia",
            4.302628803998232e-05
          ],
          [
            "Kuwait",
            4.249453195370734e-05
          ],
          [
            "Suriname",
            4.1978550143539906e-05
          ],
          [
            "El Salvador",
            4.1701074223965406e-05
          ],
          [
            "Bosnia & Herzegovina",
            4.140181772527285e-05
          ],
          [
            "Comoros",
            4.0905815694713965e-05
          ],
          [
            "Ethiopia",
            3.98805714212358e-05
          ],
          [
            "Dominican Republic",
            3.692179234349169e-05
          ],
          [
            "South Georgia Islands",
            3.278878648416139e-05
          ],
          [
            "Netherlands Antilles",
            3.252797614550218e-05
          ],
          [
            "Senegal",
            3.241006197640672e-05
          ],
          [
            "Sudan",
            3.118855238426477e-05
          ],
          [
            "Panama",
            3.019014729943592e-05
          ],
          [
            "DR Congo",
            2.8533888325910084e-05
          ],
          [
            "Venezuela",
            2.7820422474178486e-05
          ],
          [
            "Mexico",
            2.5650257157394662e-05
          ],
          [
            "Costa Rica",
            2.4217226382461376e-05
          ],
          [
            "Austria",
            2.416702227492351e-05
          ],
          [
            "Gambia",
            2.2457930754171684e-05
          ],
          [
            "Barbados",
            2.2104610252426937e-05
          ],
          [
            "Liberia",
            2.1551781173911877e-05
          ],
          [
            "Samoa",
            1.891800457087811e-05
          ],
          [
            "United States of America",
            1.8834152797353454e-05
          ],
          [
            "Guinea",
            1.7283784472965635e-05
          ],
          [
            "Poland",
            1.6928097466006875e-05
          ],
          [
            "Greece",
            1.6382102330680937e-05
          ],
          [
            "Laos",
            1.5318017176468857e-05
          ],
          [
            "Uruguay",
            1.29931167975883e-05
          ],
          [
            "Madeira Islands",
            1.2706713278021198e-05
          ],
          [
            "Tanzania",
            1.2014812455163337e-05
          ],
          [
            "Turks and Caicos Islands",
            1.1219369298487436e-05
          ],
          [
            "Sierra Leone",
            1.0877442036871798e-05
          ],
          [
            "Eritrea",
            9.641623364586849e-06
          ],
          [
            "Haiti",
            9.550656614010222e-06
          ],
          [
            "Côte d'Ivoire",
            8.225050805776846e-06
          ],
          [
            "Nepal",
            7.790307790855877e-06
          ],
          [
            "Denmark",
            5.860043529537506e-06
          ],
          [
            "Kiribati",
            5.994500611450349e-07
          ]
        ]
      },
      "geometry": {
        "type": "MultiLineString",
        "coordinates": [
          [
            [
              33.98795180722891,
              57.66265060240964
            ],
            [
              33.98795180722891,
              56.21686746987952
            ],
            [
              32.903614457831324,
              55.13253012048193
            ],
            [
              32.18072289156626,
              53.68674698795181
            ],
            [
              31.4578313253012,
              52.60240963855422
            ],
            [
              30.373493975903614,
              51.518072289156635
            ],
            [
              29.65060240963855,
              50.433734939759034
            ],
            [
              28.566265060240966,
              49.34939759036145
            ],
            [
              27.481927710843365,
              48.26506024096386
            ],
            [
              26.759036144578317,
              47.18072289156626
            ],
            [
              25.674698795180717,
              46.096385542168676
            ],
            [
              24.59036144578313,
              44.65060240963855
            ],
            [
              23.506024096385545,
              43.20481927710844
            ],
            [
              22.421686746987945,
              41.75903614457832
            ],
            [
              21.33734939759036,
              40.67469879518072
            ],
            [
              20.253012048192772,
              39.22891566265061
            ],
            [
              19.53012048192771,
              38.14457831325302
            ],
            [
              18.807228915662648,
              37.06024096385542
            ],
            [
              18.445783132530124,
              35.975903614457835
            ],
            [
              17.361445783132524,
              34.89156626506025
            ],
            [
              17.0,
              33.80722891566265
            ],
            [
              16.638554216867462,
              32.72289156626506
            ],
            [
              16.638554216867462,
              31.277108433734952
            ],
            [
              16.277108433734938,
              29.831325301204828
            ],
            [
              15.9156626506024,
              28.746987951807228
            ],
            [
              15.9156626506024,
              27.301204819277103
            ],
            [
              15.9156626506024,
              25.855421686746993
            ],
            [
              15.9156626506024,
              24.40963855421687
            ],
            [
              16.277108433734938,
              22.96385542168676
            ],
            [
              16.638554216867462,
              21.87951807228916
            ],
            [
              17.0,
              20.79518072289156
            ],
            [
              17.722891566265062,
              19.34939759036145
            ],
            [
              18.084337349397586,
              18.265060240963862
            ],
            [
              19.168674698795172,
              17.180722891566262
            ],
            [
              19.53012048192771,
              16.09638554216866
            ],
            [
              20.614457831325296,
              15.01204819277109
            ],
            [
              21.33734939759036,
              13.92771084337349
            ],
            [
              22.421686746987945,
              13.204819277108442
            ],
            [
              23.506024096385545,
              12.481927710843365
            ],
            [
              24.228915662650593,
              11.397590361445793
            ],
            [
              25.313253012048193,
              11.03614457831327
            ],
            [
              26.39759036144578,
              10.313253012048193
            ],
            [
              27.12048192771084,
              9.228915662650593
            ],
            [
              27.843373493975903,
              8.144578313253021
            ],
            [
              28.566265060240966,
              7.060240963855421
            ],
            [
              28.92771084337349,
              5.614457831325296
            ],
            [
              29.289156626506013,
              4.5301204819277245
            ],
            [
              29.65060240963855,
              3.4457831325301242
            ],
            [
              29.65060240963855,
              2.0
            ],
            [
              30.734939759036138,
              2.722891566265048
            ],
            [
              31.819277108433738,
              3.084337349397572
            ],
            [
              32.903614457831324,
              2.361445783132524
            ],
            [
              33.98795180722891,
              2.0
            ],
            [
              33.98795180722891,
              3.4457831325301242
            ],
            [
              33.98795180722891,
              4.8915662650602485
            ],
            [
              33.98795180722891,
              6.337349397590344
            ],
            [
              33.98795180722891,
              7.783132530120497
            ],
            [
              33.98795180722891,
              9.228915662650593
            ],
            [
              35.07228915662651,
              9.95180722891567
            ],
            [
              36.1566265060241,
              10.674698795180717
            ],
            [
              36.51807228915662,
              11.759036144578317
            ],
            [
              36.87951807228916,
              12.84337349397589
            ],
            [
              37.24096385542168,
              13.92771084337349
            ],
            [
              37.24096385542168,
              15.373493975903614
            ],
            [
              37.963855421686745,
              16.457831325301214
            ],
            [
              38.32530120481928,
              17.542168674698814
            ],
            [
              39.04819277108433,
              18.626506024096386
            ],
            [
              39.77108433734939,
              19.710843373493987
            ],
            [
              40.13253012048193,
              20.79518072289156
            ],
            [
              40.493975903614455,
              21.87951807228916
            ],
            [
              41.21686746987952,
              22.96385542168676
            ],
            [
              41.578313253012055,
              24.04819277108433
            ],
            [
              42.3012048192771,
              25.13253012048193
            ],
            [
              43.024096385542165,
              26.216867469879517
            ],
            [
              43.74698795180723,
              27.66265060240964
            ],
            [
              44.469879518072275,
              28.746987951807228
            ],
            [
              44.831325301204814,
              29.831325301204828
            ],
            [
              45.19277108433735,
              30.915662650602414
            ],
            [
              45.554216867469876,
              32.0
            ],
            [
              45.9156626506024,
              33.445783132530124
            ],
            [
              45.9156626506024,
              34.89156626506025
            ],
            [
              46.27710843373494,
              35.975903614457835
            ],
            [
              46.638554216867476,
              37.06024096385542
            ],
            [
              46.638554216867476,
              38.506024096385545
            ],
            [
              46.638554216867476,
              39.95180722891567
            ],
            [
              45.9156626506024,
              41.036144578313255
            ],
            [
              45.19277108433735,
              42.12048192771084
            ],
            [
              44.831325301204814,
              43.20481927710844
            ],
            [
              44.469879518072275,
              44.28915662650603
            ],
            [
              44.469879518072275,
              45.73493975903614
            ],
            [
              44.469879518072275,
              47.18072289156626
            ],
            [
              44.831325301204814,
              48.626506024096386
            ],
            [
              45.554216867469876,
              49.71084337349399
            ],
            [
              46.638554216867476,
              50.433734939759034
            ],
            [
              47.361445783132524,
              51.518072289156635
            ],
            [
              48.084337349397586,
              52.60240963855422
            ],
            [
              47.0,
              53.68674698795181
            ],
            [
              46.638554216867476,
              54.77108433734941
            ],
            [
              45.9156626506024,
              55.85542168674699
            ],
            [
              45.19277108433735,
              56.93975903614458
            ],
            [
              44.10843373493975,
              58.024096385542165
            ],
            [
              43.385542168674704,
              59.108433734939766
            ],
            [
              42.66265060240963,
              60.19277108433735
            ],
            [
              42.3012048192771,
              61.27710843373494
            ],
            [
              41.21686746987952,
              62.0
            ],
            [
              40.13253012048193,
              61.638554216867476
            ],
            [
              39.409638554216855,
              60.554216867469876
            ],
            [
              38.68674698795181,
              59.46987951807229
            ],
            [
              38.32530120481928,
              58.385542168674704
            ],
            [
              37.60240963855421,
              57.3012048192771
            ],
            [
              36.51807228915662,
              56.93975903614458
            ],
            [
              35.433734939759034,
              56.578313253012055
            ],
            [
              34.349397590361434,
              56.21686746987952
            ],
            [
              33.26506024096386,
              55.85542168674699
            ]
          ]
        ]
      }
    }
  ]
}