{
  "type": "FeatureCollection",
  "crs": {
    "type": "name",
    "properties": {
      "name": "urn:ogc:def:crs:OGC:1.3:CRS84"
    }
  },
  "features": [
    {
      "type": "Feature",
      "properties": {
        "timestamp": "2026-06-25T12:47:02.820303",
        "country_name": "Taiwan",
        "author": "",
        "author_id": "9f719b72-4a51-4664-94be-d4c8e9b95823",
        "validated": false,
        "ranking": [
          [
            "Taiwan",
            0.3562708795070648
          ],
          [
            "Benin",
            0.1799824982881546
          ],
          [
            "Sweden",
            0.0750308707356453
          ],
          [
            "Belize",
            0.07394896447658539
          ],
          [
            "Argentina",
            0.051257889717817307
          ],
          [
            "Myanmar",
            0.04504220187664032
          ],
          [
            "Mozambique",
            0.023077448830008507
          ],
          [
            "Portugal",
            0.021543044596910477
          ],
          [
            "Qatar",
            0.016162671148777008
          ],
          [
            "Israel",
            0.01116859633475542
          ],
          [
            "Madagascar",
            0.009837488643825054
          ],
          [
            "Tunisia",
            0.008833822794258595
          ],
          [
            "Thailand",
            0.007288026157766581
          ],
          [
            "Saint Lucia",
            0.007240957114845514
          ],
          [
            "Chile",
            0.0060941316187381744
          ],
          [
            "Antigua & Barbuda",
            0.006058776751160622
          ],
          [
            "Faroe Islands",
            0.005548367742449045
          ],
          [
            "Somalia",
            0.005442427936941385
          ],
          [
            "Spain",
            0.005362948402762413
          ],
          [
            "Togo",
            0.005109709687530994
          ],
          [
            "Guam",
            0.004486546851694584
          ],
          [
            "Namibia",
            0.004252284299582243
          ],
          [
            "South Korea",
            0.003900284878909588
          ],
          [
            "Mayotte",
            0.003412982914596796
          ],
          [
            "Palau",
            0.003386387135833502
          ],
          [
            "Malawi",
            0.0033538651186972857
          ],
          [
            "New Zealand",
            0.0031963761430233717
          ],
          [
            "Vietnam",
            0.0030549464281648397
          ],
          [
            "Western Sahara",
            0.003013437846675515
          ],
          [
            "West Bank",
            0.002865022048354149
          ],
          [
            "Albania",
            0.002583626192063093
          ],
          [
            "Lebanon",
            0.0021254660096019506
          ],
          [
            "Vanuatu",
            0.001816610456444323
          ],
          [
            "Sao Tome and Principe",
            0.0016341052250936627
          ],
          [
            "Guyana",
            0.0014666770584881306
          ],
          [
            "Bahrain",
            0.001466422458179295
          ],
          [
            "Finland",
            0.0013899521436542273
          ],
          [
            "Greenland",
            0.0013497392646968365
          ],
          [
            "Fiji",
            0.0012424209853634238
          ],
          [
            "Afghanistan",
            0.0009022468002513051
          ],
          [
            "Japan",
            0.000846340146381408
          ],
          [
            "Dominica",
            0.0008300527697429061
          ],
          [
            "Moldova",
            0.0008048753952607512
          ],
          [
            "United Kingdom",
            0.0008015326457098126
          ],
          [
            "Svalbard",
            0.0007993356557562947
          ],
          [
            "India",
            0.0007974565378390253
          ],
          [
            "Peru",
            0.0007176509825512767
          ],
          [
            "Guadeloupe",
            0.0006832348299212754
          ],
          [
            "Ecuador",
            0.0006752298213541508
          ],
          [
            "Norway",
            0.0006463557365350425
          ],
          [
            "North Korea",
            0.000605879642535001
          ],
          [
            "Yemen",
            0.0005592569359578192
          ],
          [
            "Slovakia",
            0.000536470499355346
          ],
          [
            "Brunei",
            0.0005013825139030814
          ],
          [
            "Solomon Islands",
            0.0004964967956766486
          ],
          [
            "Oman",
            0.0004896484897471964
          ],
          [
            "Colombia",
            0.0004818199959117919
          ],
          [
            "Turkmenistan",
            0.00047349766828119755
          ],
          [
            "Burkina Faso",
            0.00045825791312381625
          ],
          [
            "Martinique",
            0.00042591977398842573
          ],
          [
            "Rwanda",
            0.0004199112008791417
          ],
          [
            "Timor-Leste",
            0.00039477410609833896
          ],
          [
            "United States Virgin Islands",
            0.0003926294739358127
          ],
          [
            "Heard and McDonald Islands",
            0.0003911248641088605
          ],
          [
            "Congo",
            0.0003774174256250262
          ],
          [
            "Philippines",
            0.00037623941898345947
          ],
          [
            "Sri Lanka",
            0.0003701217647176236
          ],
          [
            "Jordan",
            0.0003605651727411896
          ],
          [
            "Turkey",
            0.0003458861610852182
          ],
          [
            "Honduras",
            0.0003136094019282609
          ],
          [
            "Czech Republic",
            0.00031328597106039524
          ],
          [
            "Equatorial Guinea",
            0.0003057387366425246
          ],
          [
            "Serbia",
            0.00030124682234600186
          ],
          [
            "Switzerland",
            0.0002920703263953328
          ],
          [
            "Saudi Arabia",
            0.0002844498376362026
          ],
          [
            "Cape Verde",
            0.0002806975971907377
          ],
          [
            "Montenegro",
            0.0002428887819405645
          ],
          [
            "Trinidad and Tobago",
            0.00023738764866720885
          ],
          [
            "Syria",
            0.00023313429846893996
          ],
          [
            "Burundi",
            0.00022979411005508155
          ],
          [
            "Central African Republic",
            0.0002257900487165898
          ],
          [
            "Mauritania",
            0.0002242180344182998
          ],
          [
            "Isle of Man",
            0.00021967460634186864
          ],
          [
            "Bangladesh",
            0.00020919479720760137
          ],
          [
            "Cyprus",
            0.0002028598973993212
          ],
          [
            "Indonesia",
            0.0001962547394214198
          ],
          [
            "Romania",
            0.00018668698612600565
          ],
          [
            "Cameroon",
            0.0001862822100520134
          ],
          [
            "Kyrgyzstan",
            0.00017827122064772993
          ],
          [
            "Hong Kong",
            0.00017213277169503272
          ],
          [
            "South Georgia Islands",
            0.00016982131637632847
          ],
          [
            "Papua New Guinea",
            0.00016747062909416854
          ],
          [
            "Georgia",
            0.0001620628754608333
          ],
          [
            "Mali",
            0.0001500223734183237
          ],
          [
            "Lithuania",
            0.0001499354257248342
          ],
          [
            "Mongolia",
            0.0001443717337679118
          ],
          [
            "Croatia",
            0.00014067623123992234
          ],
          [
            "Paraguay",
            0.00014041030954103917
          ],
          [
            "Puerto Rico",
            0.00014018072397448123
          ],
          [
            "Canada",
            0.0001366018841508776
          ],
          [
            "Latvia",
            0.0001362965995213017
          ],
          [
            "Iraq",
            0.00013102141383569688
          ],
          [
            "Bahamas",
            0.00012710299051832408
          ],
          [
            "Kazakhstan",
            0.00012637175677809864
          ],
          [
            "Comoros",
            0.0001261032884940505
          ],
          [
            "Algeria",
            0.0001260309072677046
          ],
          [
            "Azerbaijan",
            0.00012441538274288177
          ],
          [
            "Malaysia",
            0.00012436603719834238
          ],
          [
            "Uzbekistan",
            0.00011263322085142136
          ],
          [
            "Egypt",
            0.0001116620987886563
          ],
          [
            "South Sudan",
            0.00011157714470755309
          ],
          [
            "Armenia",
            0.00011048440501326695
          ],
          [
            "Slovenia",
            0.00010805479541886598
          ],
          [
            "Libya",
            0.0001053194428095594
          ],
          [
            "Jamaica",
            0.00010438528988743201
          ],
          [
            "Chad",
            0.00010188905434915796
          ],
          [
            "Zimbabwe",
            0.00010050839046016335
          ],
          [
            "Bhutan",
            9.968097583623603e-05
          ],
          [
            "Ukraine",
            9.610684355720878e-05
          ],
          [
            "Ireland",
            9.565021173330024e-05
          ],
          [
            "Cuba",
            9.506165224593133e-05
          ],
          [
            "Belgium",
            9.313946793554351e-05
          ],
          [
            "North Macedonia",
            9.29777670535259e-05
          ],
          [
            "New Caledonia",
            9.276555647375062e-05
          ],
          [
            "El Salvador",
            9.027111082104966e-05
          ],
          [
            "Gabon",
            8.612711098976433e-05
          ],
          [
            "Djibouti",
            8.557038381695747e-05
          ],
          [
            "Dominican Republic",
            8.368800627067685e-05
          ],
          [
            "Falkland Islands",
            8.289179822895676e-05
          ],
          [
            "Reunion",
            7.992727478267625e-05
          ],
          [
            "Iran",
            7.944971730466932e-05
          ],
          [
            "Belarus",
            7.842859486117959e-05
          ],
          [
            "Guinea-Bissau",
            7.779066072544083e-05
          ],
          [
            "Ethiopia",
            7.754726539133117e-05
          ],
          [
            "Niger",
            7.516195910284296e-05
          ],
          [
            "Zambia",
            7.49839746276848e-05
          ],
          [
            "Australia",
            7.381497562164441e-05
          ],
          [
            "Nicaragua",
            7.361124880844727e-05
          ],
          [
            "Estonia",
            7.318301504710689e-05
          ],
          [
            "Lesotho",
            7.300065772142261e-05
          ],
          [
            "Barbados",
            7.278974226210266e-05
          ],
          [
            "Mexico",
            7.124828698579222e-05
          ],
          [
            "Netherlands Antilles",
            6.620014028158039e-05
          ],
          [
            "Senegal",
            6.550380203407258e-05
          ],
          [
            "Kenya",
            6.490411033155397e-05
          ],
          [
            "Eswatini",
            6.351862248266116e-05
          ],
          [
            "Tajikistan",
            6.240172660909593e-05
          ],
          [
            "Morocco",
            6.157915777293965e-05
          ],
          [
            "Ghana",
            6.094351556384936e-05
          ],
          [
            "Suriname",
            6.02569489274174e-05
          ],
          [
            "Russia",
            5.726784729631618e-05
          ],
          [
            "United Arab Emirates",
            5.6934470194391906e-05
          ],
          [
            "Angola",
            5.562194928643294e-05
          ],
          [
            "Luxembourg",
            5.465734648169018e-05
          ],
          [
            "France",
            5.366953701013699e-05
          ],
          [
            "Panama",
            5.2856721595162526e-05
          ],
          [
            "Italy",
            5.260999751044437e-05
          ],
          [
            "Hungary",
            5.260959733277559e-05
          ],
          [
            "Liberia",
            5.235723438090645e-05
          ],
          [
            "Netherlands",
            5.216216595727019e-05
          ],
          [
            "Botswana",
            5.084025178803131e-05
          ],
          [
            "Bosnia & Herzegovina",
            4.8886900913203135e-05
          ],
          [
            "Kuwait",
            4.8739144403953105e-05
          ],
          [
            "South Africa",
            4.682757207774557e-05
          ],
          [
            "Brazil",
            4.346988134784624e-05
          ],
          [
            "Nigeria",
            4.227219324093312e-05
          ],
          [
            "United States of America",
            4.0056340367300436e-05
          ],
          [
            "DR Congo",
            4.0025257476372644e-05
          ],
          [
            "Costa Rica",
            3.795156953856349e-05
          ],
          [
            "French Guiana",
            3.7114659789949656e-05
          ],
          [
            "Germany",
            3.678469511214644e-05
          ],
          [
            "Laos",
            3.658451169030741e-05
          ],
          [
            "Guatemala",
            3.498070145724341e-05
          ],
          [
            "Uruguay",
            3.391804057173431e-05
          ],
          [
            "Bolivia",
            3.374948209966533e-05
          ],
          [
            "Turks and Caicos Islands",
            3.323721102788113e-05
          ],
          [
            "Eritrea",
            3.2993593777064234e-05
          ],
          [
            "Guinea",
            3.2678628485882655e-05
          ],
          [
            "Samoa",
            3.244201434426941e-05
          ],
          [
            "Poland",
            3.177989856339991e-05
          ],
          [
            "Venezuela",
            2.758416667347774e-05
          ],
          [
            "Tanzania",
            2.7417207093094476e-05
          ],
          [
            "Gambia",
            2.4389324607909657e-05
          ],
          [
            "Uganda",
            2.357945777475834e-05
          ],
          [
            "Cambodia",
            2.3082982806954533e-05
          ],
          [
            "Nepal",
            2.2099577108747326e-05
          ],
          [
            "Sierra Leone",
            2.0077193767065182e-05
          ],
          [
            "China",
            1.988557050935924e-05
          ],
          [
            "Iceland",
            1.867150240286719e-05
          ],
          [
            "Madeira Islands",
            1.6559617506572977e-05
          ],
          [
            "Sudan",
            1.4916659893060569e-05
          ],
          [
            "Austria",
            1.3800946362607647e-05
          ],
          [
            "Greece",
            1.3433120329864323e-05
          ],
          [
            "Bulgaria",
            1.2919886103190947e-05
          ],
          [
            "Côte d'Ivoire",
            1.2498400792537723e-05
          ],
          [
            "Pakistan",
            1.2391633390507195e-05
          ],
          [
            "Haiti",
            6.961863164178794e-06
          ],
          [
            "Denmark",
            6.349315754050622e-06
          ],
          [
            "Kiribati",
            1.1950484122280614e-06
          ]
        ]
      },
      "geometry": {
        "type": "MultiLineString",
        "coordinates": [
          [
            [
              34.10000000000001,
              62.0
            ],
            [
              32.900000000000006,
              57.80000000000001
            ],
            [
              30.5,
              54.80000000000001
            ],
            [
              28.700000000000003,
              51.19999999999999
            ],
            [
              26.30000000000001,
              48.80000000000001
            ],
            [
              23.30000000000001,
              45.80000000000001
            ],
            [
              21.5,
              42.80000000000001
            ],
            [
              20.900000000000006,
              39.80000000000001
            ],
            [
              19.700000000000003,
              35.599999999999994
            ],
            [
              19.700000000000003,
              29.0
            ],
            [
              19.700000000000003,
              26.0
            ],
            [
              19.700000000000003,
              22.400000000000006
            ],
            [
              20.30000000000001,
              19.400000000000006
            ],
            [
              21.5,
              17.0
            ],
            [
              22.099999999999994,
              13.400000000000006
            ],
            [
              22.099999999999994,
              11.0
            ],
            [
              22.099999999999994,
              7.400000000000006
            ],
            [
              23.900000000000006,
              6.199999999999989
            ],
            [
              25.700000000000003,
              4.400000000000006
            ],
            [
              26.900000000000006,
              2.5999999999999943
            ],
            [
              28.700000000000003,
              2.0
            ],
            [
              30.5,
              2.5999999999999943
            ],
            [
              32.3,
              7.400000000000006
            ],
            [
              32.3,
              12.800000000000011
            ],
            [
              31.700000000000003,
              15.800000000000011
            ],
            [
              31.700000000000003,
              18.19999999999999
            ],
            [
              32.3,
              20.0
            ],
            [
              33.5,
              22.400000000000006
            ],
            [
              35.3,
              24.80000000000001
            ],
            [
              37.10000000000001,
              28.400000000000006
            ],
            [
              39.5,
              31.400000000000006
            ],
            [
              40.7,
              33.80000000000001
            ],
            [
              41.900000000000006,
              36.19999999999999
            ],
            [
              43.10000000000001,
              38.0
            ],
            [
              44.3,
              42.80000000000001
            ],
            [
              44.3,
              46.400000000000006
            ],
            [
              44.3,
              48.80000000000001
            ],
            [
              44.3,
              52.39999999999998
            ],
            [
              44.3,
              55.39999999999998
            ],
            [
              44.3,
              57.80000000000001
            ],
            [
              43.7,
              59.599999999999994
            ],
            [
              41.900000000000006,
              61.39999999999998
            ],
            [
              38.900000000000006,
              61.39999999999998
            ],
            [
              37.10000000000001,
              60.19999999999999
            ],
            [
              34.7,
              57.80000000000001
            ],
            [
              33.5,
              55.39999999999998
            ]
          ]
        ]
      }
    }
  ]
}