{
  "type": "FeatureCollection",
  "crs": {
    "type": "name",
    "properties": {
      "name": "urn:ogc:def:crs:OGC:1.3:CRS84"
    }
  },
  "features": [
    {
      "type": "Feature",
      "properties": {
        "timestamp": "2026-06-21T19:59:03.025614",
        "country_name": "Trinidad and Tobago",
        "author": "",
        "author_id": "136ca8e4-f5e8-43dd-b7e4-e33471778868",
        "validated": false,
        "ranking": [
          [
            "Trinidad and Tobago",
            0.15977191925048828
          ],
          [
            "Slovenia",
            0.07905527949333191
          ],
          [
            "North Korea",
            0.04862397909164429
          ],
          [
            "Cyprus",
            0.03843884542584419
          ],
          [
            "Fiji",
            0.030128294602036476
          ],
          [
            "Slovakia",
            0.022672085091471672
          ],
          [
            "Guam",
            0.019125888124108315
          ],
          [
            "Kyrgyzstan",
            0.018435264006257057
          ],
          [
            "Rwanda",
            0.017988471314311028
          ],
          [
            "China",
            0.016503749415278435
          ],
          [
            "Jordan",
            0.016355494037270546
          ],
          [
            "Western Sahara",
            0.01498807780444622
          ],
          [
            "Brunei",
            0.013040308840572834
          ],
          [
            "Somalia",
            0.012747369706630707
          ],
          [
            "Niger",
            0.012499786913394928
          ],
          [
            "Turkey",
            0.012409115210175514
          ],
          [
            "Kazakhstan",
            0.011923150159418583
          ],
          [
            "Yemen",
            0.011899636127054691
          ],
          [
            "Timor-Leste",
            0.011731763370335102
          ],
          [
            "Afghanistan",
            0.011627440340816975
          ],
          [
            "Puerto Rico",
            0.011255351826548576
          ],
          [
            "Belize",
            0.011112220585346222
          ],
          [
            "Norway",
            0.0100742531940341
          ],
          [
            "South Africa",
            0.009816942736506462
          ],
          [
            "Iceland",
            0.00975519698113203
          ],
          [
            "Japan",
            0.009414499625563622
          ],
          [
            "Mozambique",
            0.009356552734971046
          ],
          [
            "Hungary",
            0.009301996789872646
          ],
          [
            "Falkland Islands",
            0.009294689632952213
          ],
          [
            "Indonesia",
            0.00900604110211134
          ],
          [
            "Zambia",
            0.008382761850953102
          ],
          [
            "Guinea-Bissau",
            0.0081274239346385
          ],
          [
            "Morocco",
            0.007925203070044518
          ],
          [
            "Mongolia",
            0.007816514931619167
          ],
          [
            "Pakistan",
            0.007712125778198242
          ],
          [
            "Sweden",
            0.007664569653570652
          ],
          [
            "Taiwan",
            0.0076397135853767395
          ],
          [
            "Honduras",
            0.00734381889924407
          ],
          [
            "Hong Kong",
            0.007301777601242065
          ],
          [
            "Switzerland",
            0.006599148269742727
          ],
          [
            "Russia",
            0.006567856762558222
          ],
          [
            "Congo",
            0.006388846784830093
          ],
          [
            "Spain",
            0.006332518998533487
          ],
          [
            "South Sudan",
            0.006050465628504753
          ],
          [
            "New Zealand",
            0.0059891073033213615
          ],
          [
            "United Arab Emirates",
            0.005899528507143259
          ],
          [
            "Azerbaijan",
            0.005791537929326296
          ],
          [
            "Namibia",
            0.005788545124232769
          ],
          [
            "Panama",
            0.005703706294298172
          ],
          [
            "Lebanon",
            0.005557856522500515
          ],
          [
            "Madagascar",
            0.0054963016882538795
          ],
          [
            "Central African Republic",
            0.005373856518417597
          ],
          [
            "Cameroon",
            0.005240677855908871
          ],
          [
            "Ecuador",
            0.004907541908323765
          ],
          [
            "Portugal",
            0.0045440359972417355
          ],
          [
            "Papua New Guinea",
            0.004025669768452644
          ],
          [
            "Canada",
            0.003962259739637375
          ],
          [
            "Netherlands",
            0.003898323979228735
          ],
          [
            "Palau",
            0.0038402588106691837
          ],
          [
            "Georgia",
            0.003802510676905513
          ],
          [
            "Svalbard",
            0.0037326423916965723
          ],
          [
            "Heard and McDonald Islands",
            0.0034831028897315264
          ],
          [
            "Austria",
            0.003481276100501418
          ],
          [
            "Burkina Faso",
            0.003467380069196224
          ],
          [
            "Israel",
            0.0031017730943858624
          ],
          [
            "Cuba",
            0.0029990451876074076
          ],
          [
            "Benin",
            0.002866237424314022
          ],
          [
            "Solomon Islands",
            0.002843123860657215
          ],
          [
            "Oman",
            0.002804506802931428
          ],
          [
            "India",
            0.0027930564247071743
          ],
          [
            "Guadeloupe",
            0.0027318543288856745
          ],
          [
            "Jamaica",
            0.0027315523475408554
          ],
          [
            "Isle of Man",
            0.0026692890096455812
          ],
          [
            "Thailand",
            0.0026524546556174755
          ],
          [
            "Mayotte",
            0.0025846431963145733
          ],
          [
            "Argentina",
            0.002545916708186269
          ],
          [
            "Bulgaria",
            0.002509517129510641
          ],
          [
            "Mauritania",
            0.002502032555639744
          ],
          [
            "Syria",
            0.0024755445774644613
          ],
          [
            "Greenland",
            0.0024208752438426018
          ],
          [
            "Bhutan",
            0.00234131864272058
          ],
          [
            "Turkmenistan",
            0.0023335255682468414
          ],
          [
            "South Korea",
            0.0022562758531421423
          ],
          [
            "Ireland",
            0.002136182738468051
          ],
          [
            "Myanmar",
            0.002097916090860963
          ],
          [
            "Croatia",
            0.0020649812649935484
          ],
          [
            "Mali",
            0.0020509446039795876
          ],
          [
            "Malawi",
            0.0019558719359338284
          ],
          [
            "Latvia",
            0.0018570312531664968
          ],
          [
            "Albania",
            0.0017498013330623507
          ],
          [
            "Malaysia",
            0.0017127819592133164
          ],
          [
            "Burundi",
            0.0016994045581668615
          ],
          [
            "Czech Republic",
            0.0016978299245238304
          ],
          [
            "Tajikistan",
            0.0016914430307224393
          ],
          [
            "Bangladesh",
            0.001645175740122795
          ],
          [
            "Sao Tome and Principe",
            0.001643714145757258
          ],
          [
            "Gabon",
            0.0016350900987163186
          ],
          [
            "Uzbekistan",
            0.0016236319206655025
          ],
          [
            "Qatar",
            0.0016001437325030565
          ],
          [
            "Estonia",
            0.001467377645894885
          ],
          [
            "New Caledonia",
            0.0013620189856737852
          ],
          [
            "Faroe Islands",
            0.001353813917376101
          ],
          [
            "Gambia",
            0.0013313437812030315
          ],
          [
            "Montenegro",
            0.001301349257119
          ],
          [
            "North Macedonia",
            0.001269190339371562
          ],
          [
            "Saint Lucia",
            0.0012489272048696876
          ],
          [
            "Philippines",
            0.0011143372394144535
          ],
          [
            "Tunisia",
            0.0011014178162440658
          ],
          [
            "Chile",
            0.0010866607772186399
          ],
          [
            "Madeira Islands",
            0.0010144588304683566
          ],
          [
            "Vanuatu",
            0.0009373410139232874
          ],
          [
            "Angola",
            0.0008995908428914845
          ],
          [
            "Saudi Arabia",
            0.0008719598408788443
          ],
          [
            "Nigeria",
            0.000870054354891181
          ],
          [
            "Romania",
            0.0008564101881347597
          ],
          [
            "Ukraine",
            0.0008390963776037097
          ],
          [
            "Togo",
            0.0008222862961702049
          ],
          [
            "Netherlands Antilles",
            0.0007978069479577243
          ],
          [
            "United Kingdom",
            0.0007962214294821024
          ],
          [
            "Dominican Republic",
            0.0007585391867905855
          ],
          [
            "Senegal",
            0.0007373260450549424
          ],
          [
            "Serbia",
            0.0006762549164704978
          ],
          [
            "Ghana",
            0.000659781158901751
          ],
          [
            "Cambodia",
            0.0006413151859305799
          ],
          [
            "Peru",
            0.0006190839339978993
          ],
          [
            "Cape Verde",
            0.0006013645906932652
          ],
          [
            "Vietnam",
            0.0005570429493673146
          ],
          [
            "El Salvador",
            0.0005397830391302705
          ],
          [
            "Belarus",
            0.0005390834412537515
          ],
          [
            "Lesotho",
            0.0005307449027895927
          ],
          [
            "Lithuania",
            0.0005089755286462605
          ],
          [
            "West Bank",
            0.0005028107552789152
          ],
          [
            "Sri Lanka",
            0.0004908700357191265
          ],
          [
            "France",
            0.00048654680722393095
          ],
          [
            "Kuwait",
            0.00048305984819307923
          ],
          [
            "Comoros",
            0.0004691612848546356
          ],
          [
            "Botswana",
            0.0004687140753958374
          ],
          [
            "Guatemala",
            0.00046137519530020654
          ],
          [
            "French Guiana",
            0.000457522866781801
          ],
          [
            "Guyana",
            0.0004287745396140963
          ],
          [
            "Bahamas",
            0.0004179785028100014
          ],
          [
            "Antigua & Barbuda",
            0.0003904796321876347
          ],
          [
            "Iraq",
            0.0003764715220313519
          ],
          [
            "Suriname",
            0.00036398370866663754
          ],
          [
            "Uganda",
            0.00035084178671240807
          ],
          [
            "Chad",
            0.00034540510387159884
          ],
          [
            "Colombia",
            0.0003398270928300917
          ],
          [
            "Sudan",
            0.0003351851482875645
          ],
          [
            "Brazil",
            0.00033028452889993787
          ],
          [
            "Ethiopia",
            0.0003277642244938761
          ],
          [
            "Sierra Leone",
            0.0003247387649025768
          ],
          [
            "Bahrain",
            0.000322082603815943
          ],
          [
            "Turks and Caicos Islands",
            0.00031436423887498677
          ],
          [
            "Paraguay",
            0.0003143342328257859
          ],
          [
            "Nicaragua",
            0.0003122827038168907
          ],
          [
            "Kenya",
            0.0003104482311755419
          ],
          [
            "Algeria",
            0.0003031410160474479
          ],
          [
            "Libya",
            0.0003022484597750008
          ],
          [
            "Mexico",
            0.0002981778234243393
          ],
          [
            "Egypt",
            0.0002897246740758419
          ],
          [
            "Nepal",
            0.00026589672779664397
          ],
          [
            "Moldova",
            0.0002647722139954567
          ],
          [
            "South Georgia Islands",
            0.00026181081193499267
          ],
          [
            "Zimbabwe",
            0.0002610309747979045
          ],
          [
            "Italy",
            0.00025754200760275126
          ],
          [
            "Finland",
            0.0002575306862127036
          ],
          [
            "Iran",
            0.0002501964627299458
          ],
          [
            "Bolivia",
            0.00024152794503606856
          ],
          [
            "Samoa",
            0.0002410488814348355
          ],
          [
            "Luxembourg",
            0.0002371108712395653
          ],
          [
            "Equatorial Guinea",
            0.00023554358631372452
          ],
          [
            "Guinea",
            0.00023530649195890874
          ],
          [
            "Martinique",
            0.0002311904972884804
          ],
          [
            "Venezuela",
            0.00022861782053951174
          ],
          [
            "Eswatini",
            0.00022212434851098806
          ],
          [
            "Bosnia & Herzegovina",
            0.00021727329294662923
          ],
          [
            "Australia",
            0.00021434751397464424
          ],
          [
            "Côte d'Ivoire",
            0.00020882896205876023
          ],
          [
            "Djibouti",
            0.0001938896457431838
          ],
          [
            "United States of America",
            0.00019313485245220363
          ],
          [
            "Belgium",
            0.0001895966415759176
          ],
          [
            "Barbados",
            0.00017939011740963906
          ],
          [
            "Laos",
            0.0001740609877742827
          ],
          [
            "Haiti",
            0.00016648661403451115
          ],
          [
            "Eritrea",
            0.0001652338687563315
          ],
          [
            "Dominica",
            0.0001651853381190449
          ],
          [
            "Germany",
            0.00016044214135035872
          ],
          [
            "Poland",
            0.00015950814122334123
          ],
          [
            "DR Congo",
            0.00012825593876186758
          ],
          [
            "Reunion",
            0.00012807406892534345
          ],
          [
            "United States Virgin Islands",
            0.00012599230103660375
          ],
          [
            "Greece",
            0.00012199160846648738
          ],
          [
            "Armenia",
            0.00011984149750787765
          ],
          [
            "Costa Rica",
            0.00011806772818090394
          ],
          [
            "Tanzania",
            9.473373938817531e-05
          ],
          [
            "Uruguay",
            8.947066817199811e-05
          ],
          [
            "Liberia",
            8.169051579898223e-05
          ],
          [
            "Denmark",
            6.018003114149906e-05
          ],
          [
            "Kiribati",
            6.497658432635944e-06
          ]
        ]
      },
      "geometry": {
        "type": "MultiLineString",
        "coordinates": [
          [
            [
              10.108108108108098,
              42.630630630630634
            ],
            [
              9.207207207207205,
              42.630630630630634
            ],
            [
              8.486486486486456,
              42.630630630630634
            ],
            [
              8.486486486486456,
              41.90990990990991
            ],
            [
              8.486486486486456,
              41.18918918918919
            ],
            [
              9.027027027027003,
              41.00900900900899
            ],
            [
              9.927927927927925,
              41.00900900900899
            ],
            [
              10.648648648648646,
              41.00900900900899
            ]
          ],
          [
            [
              11.369369369369366,
              40.46846846846847
            ],
            [
              11.189189189189165,
              39.207207207207205
            ],
            [
              11.729729729729712,
              39.38738738738738
            ],
            [
              12.27027027027026,
              39.74774774774775
            ],
            [
              12.810810810810807,
              40.1081081081081
            ],
            [
              13.351351351351326,
              40.46846846846847
            ]
          ],
          [
            [
              10.648648648648646,
              41.00900900900899
            ],
            [
              11.189189189189165,
              40.82882882882882
            ],
            [
              11.729729729729712,
              40.28828828828827
            ],
            [
              11.729729729729712,
              39.56756756756755
            ]
          ],
          [
            [
              13.531531531531527,
              39.927927927927925
            ],
            [
              14.972972972972968,
              39.56756756756755
            ],
            [
              15.513513513513487,
              39.207207207207205
            ],
            [
              16.054054054054035,
              38.66666666666666
            ]
          ],
          [
            [
              16.054054054054035,
              38.486486486486484
            ],
            [
              16.234234234234208,
              37.94594594594594
            ],
            [
              16.234234234234208,
              37.225225225225216
            ],
            [
              16.41441441441441,
              36.68468468468467
            ],
            [
              16.594594594594582,
              36.14414414414415
            ]
          ],
          [
            [
              17.13513513513513,
              35.4234234234234
            ],
            [
              17.315315315315303,
              34.88288288288288
            ],
            [
              17.315315315315303,
              34.16216216216216
            ],
            [
              17.315315315315303,
              33.08108108108107
            ],
            [
              17.315315315315303,
              32.360360360360346
            ],
            [
              17.315315315315303,
              31.639639639639626
            ]
          ],
          [
            [
              16.95495495495493,
              36.32432432432432
            ],
            [
              17.13513513513513,
              35.783783783783775
            ],
            [
              17.315315315315303,
              35.24324324324323
            ],
            [
              17.495495495495476,
              34.70270270270271
            ],
            [
              17.67567567567565,
              34.16216216216216
            ]
          ],
          [
            [
              18.216216216216196,
              32.0
            ],
            [
              17.67567567567565,
              31.639639639639626
            ],
            [
              17.315315315315303,
              31.099099099099078
            ],
            [
              17.315315315315303,
              29.83783783783784
            ],
            [
              17.315315315315303,
              29.117117117117118
            ],
            [
              17.13513513513513,
              28.57657657657657
            ]
          ],
          [
            [
              18.036036036036023,
              30.198198198198185
            ],
            [
              17.495495495495476,
              29.657657657657637
            ],
            [
              17.495495495495476,
              28.936936936936945
            ],
            [
              17.315315315315303,
              28.396396396396398
            ],
            [
              17.13513513513513,
              27.85585585585585
            ],
            [
              16.774774774774755,
              27.315315315315303
            ],
            [
              16.594594594594582,
              26.774774774774755
            ],
            [
              16.594594594594582,
              26.054054054054063
            ],
            [
              16.774774774774755,
              25.513513513513516
            ],
            [
              17.13513513513513,
              24.97297297297297
            ],
            [
              17.67567567567565,
              24.792792792792795
            ]
          ],
          [
            [
              18.39639639639637,
              24.43243243243242
            ],
            [
              18.39639639639637,
              23.7117117117117
            ],
            [
              17.85585585585585,
              23.351351351351354
            ],
            [
              17.67567567567565,
              22.810810810810807
            ],
            [
              17.495495495495476,
              22.27027027027026
            ],
            [
              17.315315315315303,
              21.72972972972974
            ],
            [
              16.95495495495493,
              21.189189189189193
            ],
            [
              16.41441441441441,
              21.00900900900899
            ],
            [
              16.054054054054035,
              20.468468468468473
            ]
          ],
          [
            [
              16.774774774774755,
              20.2882882882883
            ],
            [
              16.594594594594582,
              19.747747747747752
            ],
            [
              16.054054054054035,
              19.387387387387378
            ],
            [
              15.333333333333314,
              19.387387387387378
            ],
            [
              14.612612612612594,
              19.387387387387378
            ],
            [
              13.891891891891873,
              19.387387387387378
            ],
            [
              13.351351351351326,
              19.207207207207205
            ],
            [
              12.810810810810807,
              18.84684684684686
            ]
          ],
          [
            [
              12.630630630630606,
              18.84684684684686
            ],
            [
              12.090090090090087,
              19.02702702702703
            ],
            [
              11.549549549549539,
              19.387387387387378
            ],
            [
              10.828828828828819,
              19.387387387387378
            ]
          ],
          [
            [
              11.729729729729712,
              19.02702702702703
            ],
            [
              11.189189189189165,
              19.207207207207205
            ],
            [
              10.648648648648646,
              19.387387387387378
            ],
            [
              10.108108108108098,
              19.747747747747752
            ],
            [
              9.747747747747724,
              19.207207207207205
            ],
            [
              9.747747747747724,
              18.486486486486484
            ],
            [
              9.56756756756755,
              17.945945945945937
            ],
            [
              9.027027027027003,
              17.765765765765764
            ],
            [
              8.486486486486456,
              17.405405405405418
            ]
          ],
          [
            [
              9.027027027027003,
              16.86486486486487
            ],
            [
              8.486486486486456,
              16.504504504504496
            ],
            [
              7.765765765765764,
              16.14414414414415
            ],
            [
              7.225225225225216,
              15.963963963963977
            ],
            [
              6.684684684684669,
              15.603603603603602
            ],
            [
              6.144144144144121,
              15.42342342342343
            ],
            [
              5.423423423423401,
              15.42342342342343
            ],
            [
              4.882882882882882,
              15.063063063063055
            ]
          ],
          [
            [
              9.387387387387378,
              17.045045045045043
            ],
            [
              9.56756756756755,
              16.504504504504496
            ]
          ],
          [
            [
              5.963963963963948,
              14.702702702702709
            ],
            [
              5.963963963963948,
              13.981981981981988
            ],
            [
              5.963963963963948,
              13.261261261261268
            ],
            [
              5.423423423423401,
              13.081081081081066
            ],
            [
              4.882882882882882,
              12.72072072072072
            ],
            [
              4.162162162162133,
              12.72072072072072
            ],
            [
              3.441441441441441,
              12.540540540540519
            ],
            [
              2.9009009009008935,
              12.360360360360346
            ],
            [
              2.540540540540519,
              11.819819819819827
            ]
          ],
          [
            [
              9.747747747747724,
              17.58558558558559
            ],
            [
              9.56756756756755,
              17.045045045045043
            ]
          ],
          [
            [
              5.963963963963948,
              14.702702702702709
            ],
            [
              6.144144144144121,
              14.162162162162161
            ]
          ],
          [
            [
              4.162162162162133,
              11.819819819819827
            ],
            [
              3.441441441441441,
              11.819819819819827
            ],
            [
              2.9009009009008935,
              11.459459459459453
            ],
            [
              2.720720720720692,
              10.918918918918905
            ],
            [
              2.540540540540519,
              10.378378378378386
            ],
            [
              2.360360360360346,
              9.837837837837839
            ],
            [
              3.0810810810810665,
              9.837837837837839
            ],
            [
              3.621621621621614,
              10.198198198198185
            ],
            [
              4.162162162162133,
              10.378378378378386
            ],
            [
              4.70270270270268,
              10.558558558558559
            ],
            [
              5.243243243243228,
              10.738738738738732
            ],
            [
              5.783783783783775,
              10.918918918918905
            ],
            [
              6.324324324324323,
              11.099099099099078
            ],
            [
              6.864864864864842,
              11.27927927927928
            ],
            [
              7.585585585585562,
              11.27927927927928
            ],
            [
              8.12612612612611,
              11.639639639639626
            ],
            [
              8.666666666666657,
              11.819819819819827
            ],
            [
              9.207207207207205,
              12.0
            ],
            [
              9.927927927927925,
              12.0
            ],
            [
              10.468468468468444,
              12.180180180180173
            ]
          ],
          [
            [
              10.648648648648646,
              11.459459459459453
            ],
            [
              11.369369369369366,
              11.459459459459453
            ],
            [
              12.090090090090087,
              11.459459459459453
            ],
            [
              12.450450450450433,
              10.918918918918905
            ],
            [
              12.99099099099098,
              10.558558558558559
            ],
            [
              13.7117117117117,
              10.558558558558559
            ],
            [
              14.072072072072046,
              11.099099099099078
            ],
            [
              14.612612612612594,
              11.27927927927928
            ]
          ],
          [
            [
              14.432432432432421,
              10.558558558558559
            ],
            [
              15.153153153153141,
              10.558558558558559
            ],
            [
              15.693693693693689,
              10.738738738738732
            ],
            [
              16.41441441441441,
              10.738738738738732
            ],
            [
              16.95495495495493,
              10.918918918918905
            ],
            [
              17.13513513513513,
              11.459459459459453
            ],
            [
              17.67567567567565,
              11.819819819819827
            ],
            [
              18.39639639639637,
              11.819819819819827
            ],
            [
              19.29729729729729,
              11.819819819819827
            ],
            [
              20.01801801801801,
              11.819819819819827
            ],
            [
              21.099099099099078,
              11.819819819819827
            ],
            [
              21.8198198198198,
              11.819819819819827
            ],
            [
              22.54054054054052,
              11.819819819819827
            ],
            [
              23.081081081081066,
              11.639639639639626
            ],
            [
              23.621621621621614,
              11.27927927927928
            ],
            [
              24.162162162162133,
              10.918918918918905
            ],
            [
              24.882882882882882,
              10.918918918918905
            ],
            [
              25.4234234234234,
              11.27927927927928
            ],
            [
              25.96396396396395,
              11.099099099099078
            ],
            [
              26.504504504504496,
              10.918918918918905
            ],
            [
              27.40540540540539,
              10.918918918918905
            ],
            [
              28.306306306306283,
              10.918918918918905
            ],
            [
              29.207207207207205,
              10.918918918918905
            ]
          ],
          [
            [
              29.207207207207205,
              10.198198198198185
            ],
            [
              30.108108108108098,
              10.198198198198185
            ],
            [
              30.82882882882882,
              10.198198198198185
            ],
            [
              31.54954954954954,
              10.198198198198185
            ],
            [
              32.09009009009009,
              10.378378378378386
            ],
            [
              32.630630630630606,
              10.918918918918905
            ],
            [
              33.17117117117115,
              11.27927927927928
            ],
            [
              33.53153153153153,
              11.819819819819827
            ],
            [
              34.07207207207205,
              12.180180180180173
            ],
            [
              34.43243243243242,
              12.72072072072072
            ],
            [
              34.97297297297297,
              13.261261261261268
            ],
            [
              35.51351351351349,
              13.621621621621614
            ],
            [
              36.054054054054035,
              13.801801801801787
            ]
          ],
          [
            [
              36.59459459459458,
              13.441441441441441
            ],
            [
              36.95495495495493,
              12.900900900900893
            ],
            [
              37.495495495495476,
              12.540540540540519
            ],
            [
              38.03603603603602,
              12.180180180180173
            ],
            [
              38.57657657657657,
              11.639639639639626
            ],
            [
              39.11711711711712,
              11.27927927927928
            ],
            [
              39.29729729729729,
              11.819819819819827
            ],
            [
              39.11711711711712,
              12.540540540540519
            ],
            [
              38.756756756756744,
              13.081081081081066
            ],
            [
              38.39639639639637,
              13.621621621621614
            ],
            [
              38.03603603603602,
              14.162162162162161
            ],
            [
              37.85585585585585,
              14.702702702702709
            ],
            [
              37.85585585585585,
              15.42342342342343
            ]
          ],
          [
            [
              38.216216216216196,
              14.702702702702709
            ],
            [
              38.216216216216196,
              15.42342342342343
            ],
            [
              38.216216216216196,
              16.14414414414415
            ],
            [
              38.216216216216196,
              16.86486486486487
            ],
            [
              38.216216216216196,
              17.58558558558559
            ],
            [
              38.216216216216196,
              18.30630630630631
            ],
            [
              38.216216216216196,
              19.02702702702703
            ],
            [
              38.216216216216196,
              19.747747747747752
            ],
            [
              38.216216216216196,
              20.468468468468473
            ],
            [
              38.216216216216196,
              21.189189189189193
            ],
            [
              38.216216216216196,
              21.909909909909913
            ],
            [
              38.216216216216196,
              22.630630630630634
            ],
            [
              38.39639639639637,
              23.17117117117118
            ],
            [
              38.756756756756744,
              23.7117117117117
            ]
          ],
          [
            [
              39.29729729729729,
              23.17117117117118
            ],
            [
              38.93693693693692,
              23.7117117117117
            ],
            [
              38.57657657657657,
              24.252252252252248
            ],
            [
              38.39639639639637,
              24.792792792792795
            ],
            [
              38.39639639639637,
              25.513513513513516
            ],
            [
              38.39639639639637,
              26.234234234234236
            ],
            [
              38.03603603603602,
              26.774774774774755
            ],
            [
              37.495495495495476,
              27.13513513513513
            ],
            [
              36.95495495495493,
              27.315315315315303
            ]
          ],
          [
            [
              38.216216216216196,
              26.594594594594582
            ],
            [
              38.03603603603602,
              27.13513513513513
            ],
            [
              37.85585585585585,
              27.675675675675677
            ],
            [
              37.495495495495476,
              28.216216216216196
            ],
            [
              36.95495495495493,
              28.396396396396398
            ],
            [
              36.41441441441441,
              28.936936936936945
            ],
            [
              36.23423423423421,
              29.477477477477464
            ],
            [
              36.054054054054035,
              30.01801801801801
            ],
            [
              35.87387387387386,
              30.55855855855856
            ],
            [
              35.87387387387386,
              31.27927927927928
            ]
          ],
          [
            [
              36.23423423423421,
              30.378378378378386
            ],
            [
              36.59459459459458,
              30.918918918918905
            ],
            [
              36.95495495495493,
              31.459459459459453
            ],
            [
              37.495495495495476,
              31.819819819819827
            ],
            [
              38.03603603603602,
              32.0
            ],
            [
              38.756756756756744,
              31.819819819819827
            ]
          ],
          [
            [
              39.29729729729729,
              31.459459459459453
            ],
            [
              38.756756756756744,
              32.0
            ],
            [
              38.39639639639637,
              32.54054054054052
            ],
            [
              38.03603603603602,
              33.08108108108107
            ],
            [
              37.85585585585585,
              33.621621621621614
            ],
            [
              37.495495495495476,
              34.16216216216216
            ],
            [
              37.3153153153153,
              34.70270270270271
            ],
            [
              37.1351351351351,
              35.24324324324323
            ],
            [
              36.95495495495493,
              35.783783783783775
            ],
            [
              36.95495495495493,
              36.504504504504496
            ]
          ],
          [
            [
              37.85585585585585,
              36.14414414414415
            ],
            [
              38.39639639639637,
              36.86486486486484
            ],
            [
              38.57657657657657,
              37.40540540540542
            ],
            [
              38.756756756756744,
              37.94594594594594
            ],
            [
              38.93693693693692,
              38.486486486486484
            ],
            [
              39.29729729729729,
              39.02702702702703
            ],
            [
              39.83783783783781,
              39.38738738738738
            ],
            [
              40.198198198198185,
              39.927927927927925
            ],
            [
              40.73873873873873,
              40.1081081081081
            ],
            [
              41.09909909909908,
              40.648648648648646
            ]
          ],
          [
            [
              41.8198198198198,
              40.1081081081081
            ],
            [
              41.8198198198198,
              40.82882882882882
            ],
            [
              41.639639639639626,
              41.369369369369366
            ],
            [
              41.639639639639626,
              42.09009009009009
            ],
            [
              41.8198198198198,
              42.630630630630634
            ],
            [
              42.360360360360346,
              42.99099099099098
            ],
            [
              42.90090090090089,
              43.351351351351354
            ],
            [
              43.44144144144144,
              43.7117117117117
            ],
            [
              43.98198198198196,
              43.89189189189187
            ],
            [
              44.52252252252251,
              44.072072072072075
            ],
            [
              45.063063063063055,
              44.43243243243242
            ]
          ],
          [
            [
              45.783783783783775,
              43.89189189189187
            ],
            [
              45.063063063063055,
              43.89189189189187
            ],
            [
              44.342342342342334,
              43.89189189189187
            ],
            [
              43.80180180180179,
              43.7117117117117
            ],
            [
              42.90090090090089,
              43.351351351351354
            ],
            [
              41.639639639639626,
              43.351351351351354
            ]
          ],
          [
            [
              41.639639639639626,
              43.351351351351354
            ],
            [
              40.918918918918905,
              43.53153153153153
            ],
            [
              40.37837837837836,
              43.89189189189187
            ],
            [
              39.65765765765764,
              43.89189189189187
            ],
            [
              39.11711711711712,
              43.7117117117117
            ],
            [
              39.65765765765764,
              44.072072072072075
            ]
          ],
          [
            [
              40.198198198198185,
              43.17117117117118
            ],
            [
              39.477477477477464,
              43.17117117117118
            ],
            [
              38.93693693693692,
              43.351351351351354
            ],
            [
              38.216216216216196,
              43.351351351351354
            ],
            [
              37.67567567567565,
              43.17117117117118
            ],
            [
              36.95495495495493,
              43.17117117117118
            ],
            [
              36.41441441441441,
              42.99099099099098
            ]
          ],
          [
            [
              36.054054054054035,
              42.630630630630634
            ],
            [
              35.51351351351349,
              42.27027027027026
            ],
            [
              34.97297297297297,
              42.09009009009009
            ],
            [
              34.612612612612594,
              41.54954954954954
            ],
            [
              34.07207207207205,
              41.369369369369366
            ]
          ],
          [
            [
              34.79279279279277,
              40.82882882882882
            ],
            [
              34.07207207207205,
              41.00900900900899
            ],
            [
              33.53153153153153,
              41.18918918918919
            ],
            [
              32.81081081081078,
              41.369369369369366
            ],
            [
              32.09009009009009,
              41.369369369369366
            ],
            [
              31.54954954954954,
              41.72972972972971
            ]
          ],
          [
            [
              32.45045045045043,
              41.00900900900899
            ],
            [
              31.909909909909885,
              41.369369369369366
            ],
            [
              31.369369369369338,
              41.90990990990991
            ],
            [
              30.82882882882882,
              42.27027027027026
            ],
            [
              30.648648648648646,
              42.81081081081081
            ],
            [
              30.108108108108098,
              42.99099099099098
            ],
            [
              29.747747747747724,
              42.45045045045043
            ],
            [
              29.387387387387378,
              41.72972972972971
            ],
            [
              29.027027027027003,
              41.18918918918919
            ]
          ],
          [
            [
              29.927927927927897,
              40.648648648648646
            ],
            [
              29.387387387387378,
              40.82882882882882
            ],
            [
              28.84684684684683,
              41.00900900900899
            ],
            [
              28.12612612612611,
              41.00900900900899
            ],
            [
              27.40540540540539,
              41.00900900900899
            ],
            [
              27.40540540540539,
              40.28828828828827
            ],
            [
              27.585585585585562,
              39.74774774774775
            ]
          ],
          [
            [
              28.486486486486456,
              39.74774774774775
            ],
            [
              27.765765765765764,
              39.927927927927925
            ],
            [
              27.225225225225216,
              40.1081081081081
            ],
            [
              26.504504504504496,
              40.28828828828827
            ],
            [
              25.96396396396395,
              40.46846846846847
            ],
            [
              25.243243243243228,
              40.46846846846847
            ],
            [
              24.522522522522507,
              40.46846846846847
            ],
            [
              23.98198198198196,
              40.648648648648646
            ],
            [
              23.26126126126124,
              40.648648648648646
            ],
            [
              22.54054054054052,
              40.648648648648646
            ],
            [
              21.639639639639626,
              40.82882882882882
            ],
            [
              20.55855855855853,
              41.54954954954954
            ]
          ],
          [
            [
              21.459459459459453,
              40.46846846846847
            ],
            [
              20.918918918918905,
              40.82882882882882
            ],
            [
              20.378378378378358,
              41.18918918918919
            ],
            [
              19.83783783783781,
              41.54954954954954
            ],
            [
              19.29729729729729,
              41.72972972972971
            ],
            [
              18.756756756756744,
              41.90990990990991
            ],
            [
              18.036036036036023,
              41.90990990990991
            ],
            [
              17.315315315315303,
              41.90990990990991
            ],
            [
              16.594594594594582,
              41.90990990990991
            ],
            [
              15.873873873873862,
              42.09009009009009
            ],
            [
              15.153153153153141,
              42.09009009009009
            ],
            [
              14.432432432432421,
              42.09009009009009
            ]
          ],
          [
            [
              14.252252252252248,
              41.90990990990991
            ],
            [
              13.7117117117117,
              42.09009009009009
            ],
            [
              12.99099099099098,
              42.09009009009009
            ],
            [
              12.27027027027026,
              42.09009009009009
            ],
            [
              11.549549549549539,
              42.09009009009009
            ],
            [
              11.009009009008992,
              41.90990990990991
            ],
            [
              10.468468468468444,
              42.09009009009009
            ]
          ],
          [
            [
              47.58558558558556,
              48.216216216216196
            ],
            [
              48.12612612612611,
              48.03603603603602
            ],
            [
              48.66666666666666,
              47.67567567567568
            ],
            [
              49.38738738738738,
              47.3153153153153
            ],
            [
              49.747747747747724,
              46.774774774774755
            ],
            [
              50.28828828828827,
              46.59459459459458
            ],
            [
              50.82882882882882,
              46.41441441441441
            ],
            [
              51.36936936936934,
              46.05405405405406
            ]
          ],
          [
            [
              51.72972972972971,
              45.87387387387386
            ],
            [
              51.909909909909885,
              46.41441441441441
            ],
            [
              52.09009009009009,
              46.95495495495496
            ],
            [
              52.09009009009009,
              47.67567567567568
            ],
            [
              51.54954954954954,
              48.03603603603602
            ],
            [
              51.00900900900899,
              48.3963963963964
            ],
            [
              51.54954954954954,
              48.57657657657657
            ],
            [
              52.09009009009009,
              48.756756756756744
            ],
            [
              52.81081081081078,
              48.756756756756744
            ],
            [
              53.351351351351326,
              48.936936936936945
            ],
            [
              54.07207207207205,
              49.11711711711712
            ]
          ],
          [
            [
              54.612612612612594,
              48.756756756756744
            ],
            [
              54.612612612612594,
              48.03603603603602
            ],
            [
              54.79279279279277,
              47.495495495495504
            ],
            [
              55.333333333333314,
              47.3153153153153
            ],
            [
              55.87387387387386,
              47.85585585585585
            ],
            [
              56.054054054054035,
              48.3963963963964
            ],
            [
              56.59459459459458,
              48.756756756756744
            ],
            [
              56.95495495495493,
              49.29729729729729
            ],
            [
              57.495495495495476,
              49.65765765765764
            ],
            [
              58.03603603603602,
              49.83783783783784
            ],
            [
              58.756756756756744,
              49.83783783783784
            ]
          ],
          [
            [
              59.477477477477464,
              49.29729729729729
            ],
            [
              60.198198198198185,
              49.65765765765764
            ],
            [
              61.09909909909908,
              50.198198198198185
            ],
            [
              61.639639639639626,
              50.918918918918905
            ],
            [
              62.0,
              51.639639639639626
            ]
          ],
          [
            [
              61.639639639639626,
              54.16216216216216
            ],
            [
              61.09909909909908,
              53.80180180180179
            ],
            [
              60.73873873873873,
              53.26126126126127
            ],
            [
              60.37837837837836,
              52.72072072072072
            ],
            [
              59.83783783783781,
              52.54054054054052
            ],
            [
              59.29729729729729,
              52.360360360360346
            ],
            [
              58.756756756756744,
              52.0
            ],
            [
              58.216216216216196,
              52.18018018018017
            ]
          ],
          [
            [
              58.93693693693692,
              51.639639639639626
            ],
            [
              58.39639639639637,
              52.0
            ],
            [
              57.67567567567568,
              52.18018018018017
            ],
            [
              56.95495495495493,
              52.18018018018017
            ],
            [
              56.41441441441441,
              52.360360360360346
            ],
            [
              55.87387387387386,
              52.54054054054052
            ],
            [
              55.15315315315314,
              52.54054054054052
            ],
            [
              54.43243243243242,
              52.54054054054052
            ],
            [
              53.7117117117117,
              52.54054054054052
            ],
            [
              53.17117117117115,
              52.360360360360346
            ],
            [
              52.630630630630606,
              51.81981981981983
            ],
            [
              52.09009009009009,
              51.45945945945945
            ]
          ],
          [
            [
              52.81081081081078,
              51.27927927927928
            ],
            [
              52.630630630630606,
              50.73873873873873
            ],
            [
              52.09009009009009,
              50.378378378378386
            ],
            [
              51.54954954954954,
              50.01801801801801
            ],
            [
              51.00900900900899,
              49.65765765765764
            ],
            [
              50.468468468468444,
              49.477477477477464
            ],
            [
              49.747747747747724,
              49.477477477477464
            ],
            [
              49.027027027027,
              49.477477477477464
            ],
            [
              48.486486486486456,
              49.29729729729729
            ],
            [
              47.94594594594594,
              48.756756756756744
            ],
            [
              47.765765765765764,
              48.216216216216196
            ]
          ],
          [
            [
              7.045045045045043,
              41.72972972972971
            ],
            [
              6.684684684684669,
              41.18918918918919
            ],
            [
              6.864864864864842,
              40.648648648648646
            ],
            [
              7.405405405405389,
              40.46846846846847
            ],
            [
              7.945945945945937,
              40.648648648648646
            ],
            [
              7.765765765765764,
              41.18918918918919
            ],
            [
              7.225225225225216,
              41.54954954954954
            ]
          ],
          [
            [
              2.0,
              40.28828828828827
            ],
            [
              2.540540540540519,
              40.82882882882882
            ],
            [
              3.0810810810810665,
              41.18918918918919
            ],
            [
              3.2612612612612395,
              40.648648648648646
            ],
            [
              3.2612612612612395,
              39.927927927927925
            ],
            [
              2.720720720720692,
              39.74774774774775
            ],
            [
              2.0,
              39.74774774774775
            ]
          ]
        ]
      }
    }
  ]
}