{
  "type": "FeatureCollection",
  "crs": {
    "type": "name",
    "properties": {
      "name": "urn:ogc:def:crs:OGC:1.3:CRS84"
    }
  },
  "features": [
    {
      "type": "Feature",
      "properties": {
        "timestamp": "2026-06-05T20:43:02.516513",
        "country_name": "Tunisia",
        "author": "CountryballFAN",
        "author_id": "f8fcaa86-2222-4c56-8adc-82f6cb25976c",
        "validated": false,
        "ranking": [
          [
            "Tunisia",
            0.2398098260164261
          ],
          [
            "Portugal",
            0.14457465708255768
          ],
          [
            "Qatar",
            0.12267939001321793
          ],
          [
            "Albania",
            0.061521977186203
          ],
          [
            "Belize",
            0.03713859245181084
          ],
          [
            "Benin",
            0.03481827676296234
          ],
          [
            "Greenland",
            0.02498098835349083
          ],
          [
            "Malawi",
            0.02212798222899437
          ],
          [
            "Myanmar",
            0.021466882899403572
          ],
          [
            "West Bank",
            0.02091304212808609
          ],
          [
            "Vietnam",
            0.01992279291152954
          ],
          [
            "Togo",
            0.019148308783769608
          ],
          [
            "Taiwan",
            0.01910415105521679
          ],
          [
            "Saint Lucia",
            0.016070624813437462
          ],
          [
            "South Korea",
            0.014003966934978962
          ],
          [
            "Argentina",
            0.011942286975681782
          ],
          [
            "Moldova",
            0.011002054437994957
          ],
          [
            "Antigua & Barbuda",
            0.009592447429895401
          ],
          [
            "Guyana",
            0.00886373221874237
          ],
          [
            "Faroe Islands",
            0.007836403325200081
          ],
          [
            "Finland",
            0.007727325428277254
          ],
          [
            "Madagascar",
            0.007656676694750786
          ],
          [
            "Israel",
            0.007569978479295969
          ],
          [
            "Thailand",
            0.006767447106540203
          ],
          [
            "Dominica",
            0.006728467997163534
          ],
          [
            "Sweden",
            0.00620001507923007
          ],
          [
            "Bahrain",
            0.004414527211338282
          ],
          [
            "Namibia",
            0.0034647409338504076
          ],
          [
            "Palau",
            0.0034133128356188536
          ],
          [
            "United Kingdom",
            0.0032031547743827105
          ],
          [
            "Chile",
            0.003152986289933324
          ],
          [
            "Sri Lanka",
            0.002903315471485257
          ],
          [
            "Mozambique",
            0.0028858527075499296
          ],
          [
            "Mayotte",
            0.0027682133950293064
          ],
          [
            "Chad",
            0.0027293432503938675
          ],
          [
            "Vanuatu",
            0.0025500371120870113
          ],
          [
            "Congo",
            0.0025436491705477238
          ],
          [
            "Serbia",
            0.002395723247900605
          ],
          [
            "Somalia",
            0.002330009127035737
          ],
          [
            "Spain",
            0.002269785152748227
          ],
          [
            "Oman",
            0.0020333228167146444
          ],
          [
            "Peru",
            0.002030931180343032
          ],
          [
            "Colombia",
            0.0017087743617594242
          ],
          [
            "Martinique",
            0.001591868931427598
          ],
          [
            "New Zealand",
            0.0015667949337512255
          ],
          [
            "Philippines",
            0.0011817340273410082
          ],
          [
            "Guam",
            0.00100307771936059
          ],
          [
            "Mali",
            0.0009852724615484476
          ],
          [
            "Burundi",
            0.0009256767225451767
          ],
          [
            "Heard and McDonald Islands",
            0.0009068103390745819
          ],
          [
            "Fiji",
            0.0009065560880117118
          ],
          [
            "Rwanda",
            0.0008941557607613504
          ],
          [
            "Saudi Arabia",
            0.0008787330589257181
          ],
          [
            "United States Virgin Islands",
            0.0008609498618170619
          ],
          [
            "Isle of Man",
            0.000858729297760874
          ],
          [
            "Svalbard",
            0.0007921977085061371
          ],
          [
            "Western Sahara",
            0.0007348141516558826
          ],
          [
            "Trinidad and Tobago",
            0.0006475269328802824
          ],
          [
            "Canada",
            0.0006369519978761673
          ],
          [
            "Syria",
            0.0006127505330368876
          ],
          [
            "Brunei",
            0.0006083196494728327
          ],
          [
            "Ecuador",
            0.0005730274715460837
          ],
          [
            "Switzerland",
            0.0005674923304468393
          ],
          [
            "North Korea",
            0.0005613495595753193
          ],
          [
            "Ghana",
            0.0005609556683339179
          ],
          [
            "Bangladesh",
            0.0005410981830209494
          ],
          [
            "Solomon Islands",
            0.0005113047664053738
          ],
          [
            "Romania",
            0.0004782365867868066
          ],
          [
            "Norway",
            0.00047694126260466874
          ],
          [
            "Turkmenistan",
            0.0004747376369778067
          ],
          [
            "Cameroon",
            0.00047419825568795204
          ],
          [
            "Jordan",
            0.0004625371948350221
          ],
          [
            "French Guiana",
            0.0004486383404582739
          ],
          [
            "Lithuania",
            0.000441612908616662
          ],
          [
            "Paraguay",
            0.00042349458090029657
          ],
          [
            "Timor-Leste",
            0.00040310752228833735
          ],
          [
            "Lebanon",
            0.00039598537841811776
          ],
          [
            "Cape Verde",
            0.00039154893602244556
          ],
          [
            "Montenegro",
            0.00038252907688729465
          ],
          [
            "Sao Tome and Principe",
            0.00037749530747532845
          ],
          [
            "Uzbekistan",
            0.0003594076551962644
          ],
          [
            "Ireland",
            0.0003509540983941406
          ],
          [
            "Slovakia",
            0.00035089452285319567
          ],
          [
            "Japan",
            0.00034027834772132337
          ],
          [
            "Burkina Faso",
            0.0003241705126129091
          ],
          [
            "Afghanistan",
            0.00032290915260091424
          ],
          [
            "Luxembourg",
            0.0003122462658211589
          ],
          [
            "Brazil",
            0.0003080938768107444
          ],
          [
            "Croatia",
            0.0003057213325519115
          ],
          [
            "Bahamas",
            0.0002986472682096064
          ],
          [
            "Mongolia",
            0.00029773160349577665
          ],
          [
            "Hong Kong",
            0.00028429480153135955
          ],
          [
            "Guatemala",
            0.00027994433185085654
          ],
          [
            "Armenia",
            0.0002786349505186081
          ],
          [
            "Netherlands",
            0.0002767868572846055
          ],
          [
            "Mauritania",
            0.00026780323241837323
          ],
          [
            "Equatorial Guinea",
            0.00026629961212165654
          ],
          [
            "Gabon",
            0.0002646898210514337
          ],
          [
            "Kazakhstan",
            0.00026157760294154286
          ],
          [
            "Central African Republic",
            0.00025709037436172366
          ],
          [
            "Indonesia",
            0.0002535094099584967
          ],
          [
            "Botswana",
            0.0002514258085284382
          ],
          [
            "Papua New Guinea",
            0.00024269340792670846
          ],
          [
            "Ukraine",
            0.0002380256337346509
          ],
          [
            "Iraq",
            0.00023802426585461944
          ],
          [
            "Libya",
            0.00023685763881076127
          ],
          [
            "Guadeloupe",
            0.00023575789236929268
          ],
          [
            "Turkey",
            0.00021703836682718247
          ],
          [
            "Italy",
            0.00020778513862751424
          ],
          [
            "South Sudan",
            0.00019959951168857515
          ],
          [
            "Puerto Rico",
            0.000190489343367517
          ],
          [
            "Slovenia",
            0.00018924538744613528
          ],
          [
            "Czech Republic",
            0.00018849500338546932
          ],
          [
            "Yemen",
            0.00018426307360641658
          ],
          [
            "Liberia",
            0.0001831736444728449
          ],
          [
            "Bolivia",
            0.00018183693464379758
          ],
          [
            "New Caledonia",
            0.00017969173495657742
          ],
          [
            "Cyprus",
            0.00017689677770249546
          ],
          [
            "Cuba",
            0.0001763039326760918
          ],
          [
            "France",
            0.00017492157348897308
          ],
          [
            "Kenya",
            0.00017283322813455015
          ],
          [
            "Germany",
            0.00017046848370227963
          ],
          [
            "Egypt",
            0.00016845001664478332
          ],
          [
            "Zambia",
            0.00016654148930683732
          ],
          [
            "Honduras",
            0.0001655224186833948
          ],
          [
            "Lesotho",
            0.0001555882627144456
          ],
          [
            "Comoros",
            0.0001542267855256796
          ],
          [
            "India",
            0.00015287254063878208
          ],
          [
            "Angola",
            0.00015098752919584513
          ],
          [
            "Ethiopia",
            0.00014553075016010553
          ],
          [
            "Iran",
            0.000145207712193951
          ],
          [
            "North Macedonia",
            0.0001448207622161135
          ],
          [
            "Nigeria",
            0.00014204243780113757
          ],
          [
            "South Georgia Islands",
            0.0001416112354490906
          ],
          [
            "Latvia",
            0.0001408540119882673
          ],
          [
            "Mexico",
            0.00014039804227650166
          ],
          [
            "Georgia",
            0.0001390999386785552
          ],
          [
            "Algeria",
            0.00013781596499029547
          ],
          [
            "Kyrgyzstan",
            0.00013687837054021657
          ],
          [
            "South Africa",
            0.00013287903857417405
          ],
          [
            "Suriname",
            0.00013200423563830554
          ],
          [
            "Eswatini",
            0.00012922188034281135
          ],
          [
            "Reunion",
            0.00012858214904554188
          ],
          [
            "Estonia",
            0.00012758467346429825
          ],
          [
            "Bosnia & Herzegovina",
            0.00012498315481934696
          ],
          [
            "Jamaica",
            0.00012434828386176378
          ],
          [
            "Malaysia",
            0.00012109510134905577
          ],
          [
            "El Salvador",
            0.00012099534797016531
          ],
          [
            "Laos",
            0.00011930731852771714
          ],
          [
            "Venezuela",
            0.00011140046990476549
          ],
          [
            "Belarus",
            0.0001104450348066166
          ],
          [
            "Belgium",
            0.00010893223225139081
          ],
          [
            "Bhutan",
            0.00010529677092563361
          ],
          [
            "Djibouti",
            0.00010328673670301214
          ],
          [
            "Russia",
            0.0001031983265420422
          ],
          [
            "Azerbaijan",
            0.00010281755385221913
          ],
          [
            "Uganda",
            0.0001023044460453093
          ],
          [
            "Niger",
            0.0001010235064313747
          ],
          [
            "Australia",
            9.584710642229766e-05
          ],
          [
            "Falkland Islands",
            9.389828483108431e-05
          ],
          [
            "United States of America",
            8.857833745423704e-05
          ],
          [
            "Costa Rica",
            8.745674131205305e-05
          ],
          [
            "Cambodia",
            8.732206333661452e-05
          ],
          [
            "Tajikistan",
            8.353637531399727e-05
          ],
          [
            "Netherlands Antilles",
            8.353588782483712e-05
          ],
          [
            "Hungary",
            8.34946331451647e-05
          ],
          [
            "Kuwait",
            8.040221291594207e-05
          ],
          [
            "Eritrea",
            7.853565330151469e-05
          ],
          [
            "DR Congo",
            7.75998123572208e-05
          ],
          [
            "Nicaragua",
            7.300179277081043e-05
          ],
          [
            "Barbados",
            7.21700198482722e-05
          ],
          [
            "Zimbabwe",
            7.177507359301671e-05
          ],
          [
            "Senegal",
            7.072729931678623e-05
          ],
          [
            "Dominican Republic",
            6.839088018750772e-05
          ],
          [
            "Morocco",
            6.294685590546578e-05
          ],
          [
            "Sudan",
            6.128437235020101e-05
          ],
          [
            "Guinea",
            6.120446778368205e-05
          ],
          [
            "Samoa",
            5.8845060266321525e-05
          ],
          [
            "Guinea-Bissau",
            5.8002740843221545e-05
          ],
          [
            "Turks and Caicos Islands",
            5.594840331468731e-05
          ],
          [
            "Iceland",
            5.421950118034147e-05
          ],
          [
            "Panama",
            4.787803118233569e-05
          ],
          [
            "China",
            4.665347296395339e-05
          ],
          [
            "Greece",
            4.534972322289832e-05
          ],
          [
            "Pakistan",
            4.387413355289027e-05
          ],
          [
            "United Arab Emirates",
            4.235258893459104e-05
          ],
          [
            "Nepal",
            3.7828362110303715e-05
          ],
          [
            "Uruguay",
            3.654915781226009e-05
          ],
          [
            "Gambia",
            3.6301964428275824e-05
          ],
          [
            "Poland",
            3.2952411856967956e-05
          ],
          [
            "Bulgaria",
            3.147370807710104e-05
          ],
          [
            "Madeira Islands",
            2.711873639782425e-05
          ],
          [
            "Sierra Leone",
            2.6332503693993203e-05
          ],
          [
            "Tanzania",
            2.611288618936669e-05
          ],
          [
            "Côte d'Ivoire",
            2.402472273388412e-05
          ],
          [
            "Austria",
            2.2670830730930902e-05
          ],
          [
            "Denmark",
            1.2389864423312247e-05
          ],
          [
            "Haiti",
            6.411198228306603e-06
          ],
          [
            "Kiribati",
            4.188629645796027e-06
          ]
        ]
      },
      "geometry": {
        "type": "MultiLineString",
        "coordinates": [
          [
            [
              21.0440222881372,
              59.47180727081127
            ],
            [
              21.604935375675637,
              59.85788467396955
            ],
            [
              22.51269984977759,
              60.430777868107384
            ],
            [
              23.28762324909377,
              60.833463617438696
            ],
            [
              24.49799301096212,
              61.35653659079463
            ],
            [
              25.708337078231864,
              61.73431142677879
            ],
            [
              26.47588612774851,
              61.883762453650036
            ],
            [
              27.49436862723769,
              61.99169903873832
            ],
            [
              28.195484292062133,
              62.0
            ],
            [
              29.169682150856318,
              61.80073357008408
            ],
            [
              30.092208171856612,
              61.52259114610169
            ],
            [
              30.719528949488648,
              61.31502054309925
            ],
            [
              31.73062425187902,
              60.92479185635392
            ],
            [
              32.416991217104425,
              60.671557133893856
            ],
            [
              33.44284806639314,
              60.29793358149678
            ],
            [
              34.63106908426431,
              59.91185296651369
            ],
            [
              35.38384373958331,
              59.73334456044546
            ],
            [
              36.46135957936656,
              59.52577395744299
            ],
            [
              37.21414708198489,
              59.45519892463824
            ],
            [
              38.254752630872616,
              59.37632453648416
            ],
            [
              38.88946060560349,
              59.38877678133292
            ],
            [
              39.79722507970544,
              59.48841079924708
            ],
            [
              40.80833322939512,
              59.687677229163
            ],
            [
              41.45778990372503,
              59.87034173655553
            ],
            [
              42.38770312182413,
              60.2564175338014
            ],
            [
              43.34712658642064,
              60.70061933082809
            ],
            [
              43.95968581715434,
              60.97876014889806
            ],
            [
              44.705098969973136,
              61.31502054309925
            ],
            [
              45.48739671908882,
              61.63467901477702
            ],
            [
              46.09258160002298,
              61.83809672827999
            ],
            [
              46.27708166530334,
              61.19048042957516
            ],
            [
              45.789989159555915,
              60.01978794568956
            ],
            [
              45.04458885403642,
              58.84079771236708
            ],
            [
              44.6312912354814,
              58.2305413600333
            ],
            [
              43.90802682665981,
              57.230057926866635
            ],
            [
              43.12571623024479,
              56.30014470876753
            ],
            [
              42.61648782779952,
              55.739710183128096
            ],
            [
              41.8341772313845,
              54.8845232814208
            ],
            [
              41.103538472763375,
              54.087457561757105
            ],
            [
              40.64595621351333,
              53.589290684011104
            ],
            [
              39.981737992285105,
              52.97073497632806
            ],
            [
              39.000165783691415,
              51.97440122083603
            ],
            [
              38.31379881846601,
              51.239606360890605
            ],
            [
              37.83408066251809,
              50.47160123224873
            ],
            [
              37.61267030634224,
              49.823981721719036
            ],
            [
              37.553636966048174,
              49.01446054538178
            ],
            [
              37.67909084373514,
              48.11361113012927
            ],
            [
              37.76766012512519,
              47.0467039477449
            ],
            [
              37.76766012512519,
              46.274549141428366
            ],
            [
              37.70123958773229,
              45.31972500998208
            ],
            [
              37.634819050339416,
              44.68871384562547
            ],
            [
              37.5979216067432,
              43.91656225113377
            ],
            [
              37.83408066251809,
              43.156853266016356
            ],
            [
              38.28427572466933,
              42.55490590450634
            ],
            [
              39.13300685847719,
              41.92804441782437
            ],
            [
              39.90055590799386,
              41.5004477551459
            ],
            [
              40.71238959820553,
              41.02303890124759
            ],
            [
              41.49468734732122,
              40.56638807119697
            ],
            [
              42.28437229353574,
              40.03501092475449
            ],
            [
              42.845272533774875,
              39.52854147983436
            ],
            [
              43.32499068972277,
              38.88922453647882
            ],
            [
              43.7013780173823,
              38.11291684066282
            ],
            [
              44.00397045784939,
              37.19546550288692
            ],
            [
              44.17370897623135,
              36.48557192081418
            ],
            [
              44.291801351418115,
              35.65945203377834
            ],
            [
              44.43940397310226,
              34.206467448235685
            ],
            [
              44.50582451049513,
              33.214283370418315
            ],
            [
              44.57963224498687,
              31.786206486398015
            ],
            [
              44.62390403838259,
              30.657025232470545
            ],
            [
              44.59439379188521,
              29.45312408580091
            ],
            [
              44.446778322901764,
              28.48170124365606
            ],
            [
              44.16633462643185,
              27.506122300186888
            ],
            [
              43.87112938306359,
              26.717362359522156
            ],
            [
              43.56114974549769,
              26.028233224946746
            ],
            [
              42.911693071167775,
              24.71638906953916
            ],
            [
              42.08509783405776,
              23.20113362427827
            ],
            [
              41.47253860332404,
              22.12177419704514
            ],
            [
              40.550012582323745,
              20.519336978718826
            ],
            [
              39.76770198590876,
              19.319591933373488
            ],
            [
              39.32489412085636,
              18.696876912541313
            ],
            [
              38.75661953081769,
              17.74205920474469
            ],
            [
              38.28427572466933,
              16.97820375377745
            ],
            [
              37.59053440964436,
              15.911299783217885
            ],
            [
              36.94846493241329,
              14.885905436704064
            ],
            [
              36.394939041973686,
              13.839762701817023
            ],
            [
              35.915220886025764,
              12.934753973415411
            ],
            [
              35.605254095759165,
              12.366016880601876
            ],
            [
              35.088638496215054,
              11.041723692170365
            ],
            [
              34.83770504624252,
              10.327683644247799
            ],
            [
              34.5572485024733,
              9.381165291800443
            ],
            [
              34.38750998409131,
              8.75846311826757
            ],
            [
              34.247294559505974,
              7.803638986821284
            ],
            [
              34.23252016530833,
              7.0688441268758595
            ],
            [
              34.29894070270123,
              6.3631098579522245
            ],
            [
              34.4908279650804,
              5.586798950311419
            ],
            [
              34.8008076026463,
              4.532350436425418
            ],
            [
              35.03696665842119,
              3.7975491528303564
            ],
            [
              35.206718024102486,
              3.187302435971077
            ],
            [
              35.33957194618759,
              2.5479887044403426
            ],
            [
              34.83770504624252,
              2.0
            ],
            [
              33.966838015736755,
              2.0124618803232295
            ],
            [
              32.77861699786558,
              2.3653258029602284
            ],
            [
              31.915124317159353,
              2.6393137315307342
            ],
            [
              31.273041992628976,
              2.8676359347312257
            ],
            [
              30.343128774529845,
              3.2869268184107625
            ],
            [
              29.745343937993795,
              3.6356474870227657
            ],
            [
              28.8892256070871,
              4.158725278115924
            ],
            [
              28.018358576581335,
              4.735768149928418
            ],
            [
              27.457471183641474,
              5.146753254608996
            ],
            [
              26.75634267151773,
              5.694735535399673
            ],
            [
              25.75263456622619,
              6.745040795260678
            ],
            [
              24.94080087601452,
              7.811944765820243
            ],
            [
              24.549639154157376,
              8.42219790632916
            ],
            [
              24.025649204813732,
              9.746491094760671
            ],
            [
              23.826387592635058,
              10.506196868053252
            ],
            [
              23.619738783357548,
              12.025601990988804
            ],
            [
              23.553305398665344,
              12.793607119630678
            ],
            [
              23.516407955069127,
              13.848055633516651
            ],
            [
              23.50903360526962,
              14.848545490332981
            ],
            [
              23.50903360526962,
              16.110567819046224
            ],
            [
              23.50903360526962,
              16.76233700725055
            ],
            [
              23.486884861272443,
              17.725460494046104
            ],
            [
              23.45736176747576,
              18.875390136346795
            ],
            [
              23.449987417676255,
              19.51470386787753
            ],
            [
              23.501659255470088,
              20.96353877574552
            ],
            [
              23.604977236459206,
              21.9972389012583
            ],
            [
              23.75257985814332,
              22.873180614988428
            ],
            [
              24.01088765791539,
              24.2016234810946
            ],
            [
              24.12896718580282,
              24.861692024648193
            ],
            [
              24.291331354385306,
              25.7044234696819
            ],
            [
              24.402049379772535,
              26.542998813391307
            ],
            [
              24.42418527647041,
              27.211379559593524
            ],
            [
              24.276582654786267,
              27.929562861541058
            ],
            [
              23.922331223824642,
              28.60208686176827
            ],
            [
              23.49427205837128,
              29.121014975186768
            ],
            [
              22.74885890555248,
              29.681452712651037
            ],
            [
              22.099402231222598,
              30.059227548635192
            ],
            [
              21.354001925703102,
              30.35813281420252
            ],
            [
              20.534793885691897,
              30.669480689144137
            ],
            [
              19.656539658087326,
              31.097077351822605
            ],
            [
              19.029231727754592,
              31.458247053458535
            ],
            [
              18.490467384213304,
              31.906592104510224
            ],
            [
              18.09931850965546,
              32.467029841974465
            ],
            [
              17.841010709883392,
              33.04407271378696
            ],
            [
              17.722918334696658,
              34.152499155691544
            ],
            [
              18.03289797226256,
              35.69681198014942
            ],
            [
              18.586411015402888,
              36.942229174514466
            ],
            [
              19.029231727754592,
              37.7268426493294
            ],
            [
              19.767257683474554,
              38.85602069143201
            ],
            [
              20.33551942621392,
              39.67383801129375
            ],
            [
              21.139965919326784,
              40.71168781448114
            ],
            [
              21.848468781250062,
              41.463087808774816
            ],
            [
              22.30605104050008,
              41.923894740149734
            ],
            [
              22.948133365030458,
              42.50924017913633
            ],
            [
              23.678772123651612,
              43.15270680016653
            ],
            [
              24.1511159298,
              43.66332592276129
            ],
            [
              24.416798079371574,
              44.572477905187895
            ],
            [
              24.5275032574595,
              45.39030164869928
            ],
            [
              24.51274171056116,
              46.34096967882127
            ],
            [
              24.438946823368752,
              47.01349046722362
            ],
            [
              24.195387723195722,
              48.11361113012927
            ],
            [
              23.782102951940004,
              49.45450945290901
            ],
            [
              23.479510511472938,
              50.28893511894378
            ],
            [
              22.985043655925978,
              51.57586836100418
            ],
            [
              22.49055110578044,
              53.13678953163512
            ],
            [
              22.247017700206015,
              53.97536808716936
            ],
            [
              22.099402231222598,
              54.60637925152599
            ],
            [
              21.92966371284058,
              55.61516846369159
            ],
            [
              21.833720081650995,
              56.40808129385579
            ],
            [
              21.82634573185149,
              57.225908249192
            ]
          ],
          [
            [
              21.095694125931033,
              58.990243921501076
            ],
            [
              20.925955607549042,
              58.03127332420499
            ],
            [
              21.036647938337666,
              56.831521855209985
            ],
            [
              21.280207038510696,
              55.56120017114745
            ]
          ]
        ]
      }
    }
  ]
}