{
  "type": "FeatureCollection",
  "crs": {
    "type": "name",
    "properties": {
      "name": "urn:ogc:def:crs:OGC:1.3:CRS84"
    }
  },
  "features": [
    {
      "type": "Feature",
      "properties": {
        "timestamp": "2026-04-23T13:20:29.018544",
        "country_name": "Turkey",
        "author": "",
        "author_id": "f30f4019-5501-4b0b-8aab-af4439f6a1a0",
        "validated": false,
        "ranking": [
          [
            "Turkey",
            0.07630394399166107
          ],
          [
            "Ukraine",
            0.0633755773305893
          ],
          [
            "Latvia",
            0.04987230896949768
          ],
          [
            "Yemen",
            0.04940276965498924
          ],
          [
            "Czech Republic",
            0.025618601590394974
          ],
          [
            "Guinea",
            0.02480713650584221
          ],
          [
            "Bulgaria",
            0.023570260033011436
          ],
          [
            "Mexico",
            0.023257210850715637
          ],
          [
            "Turkmenistan",
            0.022308064624667168
          ],
          [
            "Nepal",
            0.02201436087489128
          ],
          [
            "Georgia",
            0.02154557779431343
          ],
          [
            "Australia",
            0.019899358972907066
          ],
          [
            "New Caledonia",
            0.017413880676031113
          ],
          [
            "Iceland",
            0.016970254480838776
          ],
          [
            "El Salvador",
            0.01694205403327942
          ],
          [
            "Slovakia",
            0.016101567074656487
          ],
          [
            "Dominican Republic",
            0.015397108159959316
          ],
          [
            "Honduras",
            0.014484011568129063
          ],
          [
            "Puerto Rico",
            0.013186936266720295
          ],
          [
            "North Macedonia",
            0.012732480652630329
          ],
          [
            "Uzbekistan",
            0.012455170974135399
          ],
          [
            "Ecuador",
            0.011572951450943947
          ],
          [
            "Heard and McDonald Islands",
            0.010171976871788502
          ],
          [
            "Papua New Guinea",
            0.010065864771604538
          ],
          [
            "Bhutan",
            0.009982198476791382
          ],
          [
            "Solomon Islands",
            0.009956357069313526
          ],
          [
            "Turks and Caicos Islands",
            0.009886171668767929
          ],
          [
            "Bahamas",
            0.009755072183907032
          ],
          [
            "Guadeloupe",
            0.009708796627819538
          ],
          [
            "Madeira Islands",
            0.009668917395174503
          ],
          [
            "Switzerland",
            0.009594240225851536
          ],
          [
            "South Georgia Islands",
            0.009304982610046864
          ],
          [
            "United States of America",
            0.009023326449096203
          ],
          [
            "Hungary",
            0.008570386096835136
          ],
          [
            "Saudi Arabia",
            0.008549373596906662
          ],
          [
            "Romania",
            0.00820100586861372
          ],
          [
            "Azerbaijan",
            0.008154788985848427
          ],
          [
            "Mongolia",
            0.008060013875365257
          ],
          [
            "Estonia",
            0.007813851349055767
          ],
          [
            "Cape Verde",
            0.007718178443610668
          ],
          [
            "Lithuania",
            0.007699989713728428
          ],
          [
            "Kazakhstan",
            0.00743922358378768
          ],
          [
            "Rwanda",
            0.007154572755098343
          ],
          [
            "Guinea-Bissau",
            0.007107471581548452
          ],
          [
            "Bangladesh",
            0.006997293792665005
          ],
          [
            "Jamaica",
            0.0067955018021166325
          ],
          [
            "Eritrea",
            0.006642213091254234
          ],
          [
            "South Sudan",
            0.006258745677769184
          ],
          [
            "Burkina Faso",
            0.005690561141818762
          ],
          [
            "China",
            0.005548972170799971
          ],
          [
            "Comoros",
            0.0054213302209973335
          ],
          [
            "Belgium",
            0.005277856718748808
          ],
          [
            "Iran",
            0.005224991124123335
          ],
          [
            "Indonesia",
            0.005200591869652271
          ],
          [
            "India",
            0.005038346629589796
          ],
          [
            "Gabon",
            0.004885970149189234
          ],
          [
            "Samoa",
            0.004359810147434473
          ],
          [
            "Kyrgyzstan",
            0.004244672134518623
          ],
          [
            "Falkland Islands",
            0.003765092696994543
          ],
          [
            "Venezuela",
            0.003662459785118699
          ],
          [
            "Slovenia",
            0.0035937593784183264
          ],
          [
            "Cuba",
            0.003571700770407915
          ],
          [
            "Malaysia",
            0.003431570716202259
          ],
          [
            "Central African Republic",
            0.0033826117869466543
          ],
          [
            "Syria",
            0.0032607850152999163
          ],
          [
            "Tajikistan",
            0.0030910377390682697
          ],
          [
            "Svalbard",
            0.003049739869311452
          ],
          [
            "Panama",
            0.0029826234094798565
          ],
          [
            "Austria",
            0.0028815648984164
          ],
          [
            "Cambodia",
            0.0028681964613497257
          ],
          [
            "Nigeria",
            0.0028280143160372972
          ],
          [
            "Armenia",
            0.0028150982689112425
          ],
          [
            "Burundi",
            0.002789602382108569
          ],
          [
            "Fiji",
            0.0027213299181312323
          ],
          [
            "Timor-Leste",
            0.002705348888412118
          ],
          [
            "Russia",
            0.002670762361958623
          ],
          [
            "Libya",
            0.0026478359941393137
          ],
          [
            "Somalia",
            0.0026259177830070257
          ],
          [
            "Vanuatu",
            0.0024973282124847174
          ],
          [
            "Equatorial Guinea",
            0.0023992578499019146
          ],
          [
            "Peru",
            0.002300242893397808
          ],
          [
            "Montenegro",
            0.002179330214858055
          ],
          [
            "Costa Rica",
            0.0021542650647461414
          ],
          [
            "Spain",
            0.001990823308005929
          ],
          [
            "Senegal",
            0.0019190163584426045
          ],
          [
            "Mali",
            0.0019009545212611556
          ],
          [
            "Suriname",
            0.0018946741474792361
          ],
          [
            "Croatia",
            0.0018433541990816593
          ],
          [
            "Cyprus",
            0.0018069316865876317
          ],
          [
            "Mozambique",
            0.0017740825423970819
          ],
          [
            "Belize",
            0.0017104846192523837
          ],
          [
            "Netherlands Antilles",
            0.0016980089712888002
          ],
          [
            "Faroe Islands",
            0.0016957594780251384
          ],
          [
            "Sudan",
            0.0016231373883783817
          ],
          [
            "Hong Kong",
            0.001595871290192008
          ],
          [
            "Liberia",
            0.0015439830021932721
          ],
          [
            "New Zealand",
            0.0015198690816760063
          ],
          [
            "Moldova",
            0.0015102432807907462
          ],
          [
            "Thailand",
            0.0015062474412843585
          ],
          [
            "Poland",
            0.001504131592810154
          ],
          [
            "Japan",
            0.001467795460484922
          ],
          [
            "Brazil",
            0.0014653282705694437
          ],
          [
            "Niger",
            0.001436520367860794
          ],
          [
            "Ethiopia",
            0.0013972423039376736
          ],
          [
            "Iraq",
            0.0013754225801676512
          ],
          [
            "Namibia",
            0.0013273991644382477
          ],
          [
            "Jordan",
            0.0013235511723905802
          ],
          [
            "Laos",
            0.0012997970916330814
          ],
          [
            "Sierra Leone",
            0.001258547999896109
          ],
          [
            "Italy",
            0.0012133247219026089
          ],
          [
            "France",
            0.00116525508929044
          ],
          [
            "Brunei",
            0.001141884713433683
          ],
          [
            "Tanzania",
            0.0011292747221887112
          ],
          [
            "Uruguay",
            0.0011198371648788452
          ],
          [
            "Sao Tome and Principe",
            0.0011068835156038404
          ],
          [
            "Paraguay",
            0.0011040391400456429
          ],
          [
            "Reunion",
            0.001094340579584241
          ],
          [
            "Zambia",
            0.0010524310637265444
          ],
          [
            "Benin",
            0.0010495263850316405
          ],
          [
            "Côte d'Ivoire",
            0.0009593393770046532
          ],
          [
            "Haiti",
            0.0009517339058220387
          ],
          [
            "Egypt",
            0.0009191188146360219
          ],
          [
            "Martinique",
            0.0009084575576707721
          ],
          [
            "Malawi",
            0.0008732502465136349
          ],
          [
            "Israel",
            0.0008665503701195121
          ],
          [
            "Angola",
            0.0008372312295250595
          ],
          [
            "Vietnam",
            0.0008370252908207476
          ],
          [
            "Guyana",
            0.0008014296763576567
          ],
          [
            "Kuwait",
            0.0007913150475360453
          ],
          [
            "Chile",
            0.0007793470285832882
          ],
          [
            "Botswana",
            0.000766066717915237
          ],
          [
            "Bosnia & Herzegovina",
            0.000756557157728821
          ],
          [
            "Lesotho",
            0.0007497122860513628
          ],
          [
            "South Korea",
            0.0007422452908940613
          ],
          [
            "Afghanistan",
            0.0007312886300496757
          ],
          [
            "Togo",
            0.0006890844088047743
          ],
          [
            "United Arab Emirates",
            0.0006868576165288687
          ],
          [
            "Serbia",
            0.0006667227717116475
          ],
          [
            "Mayotte",
            0.0006572493584826589
          ],
          [
            "Barbados",
            0.0006526460056193173
          ],
          [
            "Nicaragua",
            0.0006296711508184671
          ],
          [
            "South Africa",
            0.0006098071462474763
          ],
          [
            "Argentina",
            0.0005920054973103106
          ],
          [
            "Algeria",
            0.0005767451948486269
          ],
          [
            "Sweden",
            0.0005639407318085432
          ],
          [
            "Bolivia",
            0.0005639267037622631
          ],
          [
            "Bahrain",
            0.0005575279938057065
          ],
          [
            "Zimbabwe",
            0.0005403694813139737
          ],
          [
            "Kenya",
            0.0005401891539804637
          ],
          [
            "Congo",
            0.0005176027771085501
          ],
          [
            "Oman",
            0.0005150117794983089
          ],
          [
            "Dominica",
            0.0005124387098476291
          ],
          [
            "Greenland",
            0.000511844817083329
          ],
          [
            "Myanmar",
            0.0004754058609250933
          ],
          [
            "Greece",
            0.0004525681724771857
          ],
          [
            "Albania",
            0.0004229525220580399
          ],
          [
            "Guam",
            0.0004196658555883914
          ],
          [
            "Eswatini",
            0.0003637618210632354
          ],
          [
            "Philippines",
            0.00035451207077130675
          ],
          [
            "Kiribati",
            0.0003510340757202357
          ],
          [
            "Finland",
            0.00034619876532815397
          ],
          [
            "Antigua & Barbuda",
            0.00033961862209253013
          ],
          [
            "Portugal",
            0.00033398871892131865
          ],
          [
            "Cameroon",
            0.00031742514693178236
          ],
          [
            "DR Congo",
            0.00030647419043816626
          ],
          [
            "Sri Lanka",
            0.0002904197317548096
          ],
          [
            "Palau",
            0.00028853199910372496
          ],
          [
            "Canada",
            0.0002626898349262774
          ],
          [
            "Qatar",
            0.0002499004185665399
          ],
          [
            "Colombia",
            0.0002480985422153026
          ],
          [
            "Guatemala",
            0.0002442689146846533
          ],
          [
            "Uganda",
            0.00023877523199189454
          ],
          [
            "North Korea",
            0.00023831705038901418
          ],
          [
            "Tunisia",
            0.0002369961584918201
          ],
          [
            "United Kingdom",
            0.00023614379460923374
          ],
          [
            "Trinidad and Tobago",
            0.00019718137627933174
          ],
          [
            "Taiwan",
            0.00019696824892889708
          ],
          [
            "Gambia",
            0.00019675309886224568
          ],
          [
            "Norway",
            0.0001932926825247705
          ],
          [
            "United States Virgin Islands",
            0.00019118620548397303
          ],
          [
            "Mauritania",
            0.00018598706810735166
          ],
          [
            "French Guiana",
            0.00018388862372376025
          ],
          [
            "Belarus",
            0.00017549554468132555
          ],
          [
            "Djibouti",
            0.00015143501514103264
          ],
          [
            "Germany",
            0.00014885877317283303
          ],
          [
            "Madagascar",
            0.0001480305945733562
          ],
          [
            "Pakistan",
            0.00014503818238154054
          ],
          [
            "West Bank",
            0.00014082298730500042
          ],
          [
            "Denmark",
            0.00013195376959629357
          ],
          [
            "Morocco",
            0.0001286556216655299
          ],
          [
            "Ghana",
            0.00012022779992548749
          ],
          [
            "Luxembourg",
            0.0001197794044855982
          ],
          [
            "Western Sahara",
            9.813586075324565e-05
          ],
          [
            "Ireland",
            9.639537165639922e-05
          ],
          [
            "Saint Lucia",
            8.659518789499998e-05
          ],
          [
            "Isle of Man",
            8.584005263401195e-05
          ],
          [
            "Lebanon",
            6.563094939338043e-05
          ],
          [
            "Netherlands",
            6.0370221035555005e-05
          ],
          [
            "Chad",
            3.274224582128227e-05
          ]
        ]
      },
      "geometry": {
        "type": "MultiLineString",
        "coordinates": [
          [
            [
              2.8612440191387662,
              49.224880382775126
            ],
            [
              3.7224880382775183,
              48.9377990430622
            ],
            [
              5.732057416267949,
              49.224880382775126
            ],
            [
              7.74162679425838,
              49.79904306220095
            ],
            [
              10.038277511961724,
              50.08612440191388
            ],
            [
              11.186602870813402,
              50.373205741626805
            ],
            [
              12.909090909090935,
              50.373205741626805
            ],
            [
              14.057416267942585,
              50.08612440191388
            ],
            [
              14.918660287081366,
              49.224880382775126
            ],
            [
              16.354066985645943,
              48.07655502392345
            ],
            [
              18.363636363636374,
              47.215311004784695
            ],
            [
              19.224880382775126,
              46.92822966507177
            ],
            [
              21.808612440191382,
              45.77990430622009
            ],
            [
              23.531100478468915,
              44.91866028708134
            ],
            [
              24.679425837320593,
              44.91866028708134
            ],
            [
              26.11483253588517,
              44.34449760765551
            ],
            [
              26.97607655502395,
              44.057416267942585
            ],
            [
              27.837320574162675,
              43.77033492822966
            ],
            [
              29.559808612440207,
              43.48325358851673
            ],
            [
              30.995215311004785,
              43.19617224880383
            ],
            [
              32.71770334928232,
              43.19617224880383
            ],
            [
              35.30143540669857,
              43.19617224880383
            ],
            [
              36.44976076555025,
              43.19617224880383
            ],
            [
              37.59808612440193,
              44.057416267942585
            ],
            [
              38.74641148325361,
              44.34449760765551
            ],
            [
              39.60765550239236,
              45.205741626794264
            ],
            [
              41.04306220095694,
              46.066985645933016
            ],
            [
              41.90430622009569,
              46.35406698564594
            ],
            [
              42.76555023923447,
              46.92822966507177
            ],
            [
              44.20095693779905,
              47.50239234449762
            ],
            [
              45.636363636363654,
              47.78947368421052
            ],
            [
              47.35885167464116,
              47.78947368421052
            ],
            [
              48.794258373205764,
              47.78947368421052
            ],
            [
              50.803827751196195,
              47.78947368421052
            ],
            [
              51.952153110047846,
              47.78947368421052
            ],
            [
              53.10047846889955,
              47.78947368421052
            ],
            [
              53.67464114832535,
              46.92822966507177
            ],
            [
              55.110047846889955,
              45.77990430622009
            ],
            [
              55.97129186602871,
              44.91866028708134
            ],
            [
              56.54545454545456,
              44.057416267942585
            ],
            [
              57.98086124401914,
              42.90909090909091
            ],
            [
              58.84210526315792,
              42.62200956937801
            ],
            [
              60.277511961722496,
              41.76076555023923
            ],
            [
              61.425837320574175,
              40.899521531100476
            ],
            [
              61.71291866028707,
              40.038277511961724
            ],
            [
              62.0,
              38.02870813397129
            ],
            [
              62.0,
              36.593301435406715
            ],
            [
              62.0,
              34.583732057416285
            ],
            [
              62.0,
              33.14832535885168
            ],
            [
              62.0,
              31.425837320574175
            ],
            [
              61.425837320574175,
              30.564593301435423
            ],
            [
              60.85167464114835,
              29.703349282296642
            ],
            [
              60.277511961722496,
              28.555023923444992
            ],
            [
              59.70334928229664,
              26.83253588516746
            ],
            [
              59.70334928229664,
              24.82296650717703
            ],
            [
              59.70334928229664,
              22.5263157894737
            ],
            [
              60.277511961722496,
              20.51674641148327
            ],
            [
              60.85167464114835,
              18.794258373205736
            ],
            [
              61.13875598086125,
              17.645933014354057
            ],
            [
              61.13875598086125,
              15.923444976076553
            ],
            [
              60.56459330143542,
              14.775119617224902
            ],
            [
              59.416267942583744,
              13.913875598086122
            ],
            [
              57.40669856459331,
              13.626794258373195
            ],
            [
              55.110047846889955,
              13.626794258373195
            ],
            [
              53.961722488038276,
              13.626794258373195
            ],
            [
              52.813397129186626,
              13.913875598086122
            ],
            [
              51.952153110047846,
              14.488038277511976
            ],
            [
              51.09090909090909,
              15.349282296650728
            ],
            [
              50.22966507177034,
              15.923444976076553
            ],
            [
              49.655502392344516,
              17.35885167464116
            ],
            [
              49.08133971291866,
              18.507177033492837
            ],
            [
              47.933014354066984,
              19.36842105263159
            ],
            [
              46.78468899521533,
              20.51674641148327
            ],
            [
              45.92344497607655,
              21.37799043062202
            ],
            [
              44.20095693779905,
              22.5263157894737
            ],
            [
              42.76555023923447,
              23.38755980861245
            ],
            [
              41.90430622009569,
              23.67464114832535
            ],
            [
              40.75598086124404,
              24.53588516746413
            ],
            [
              39.60765550239236,
              24.53588516746413
            ],
            [
              37.88516746411483,
              24.82296650717703
            ],
            [
              36.44976076555025,
              24.82296650717703
            ],
            [
              35.30143540669857,
              24.82296650717703
            ],
            [
              33.29186602870814,
              24.82296650717703
            ],
            [
              30.995215311004785,
              23.961722488038276
            ],
            [
              29.846889952153106,
              23.67464114832535
            ],
            [
              27.837320574162675,
              23.100478468899524
            ],
            [
              26.688995215311024,
              22.5263157894737
            ],
            [
              25.827751196172244,
              21.952153110047846
            ],
            [
              24.679425837320593,
              20.803827751196167
            ],
            [
              23.531100478468915,
              20.22966507177034
            ],
            [
              22.382775119617236,
              19.655502392344488
            ],
            [
              21.521531100478484,
              19.36842105263159
            ],
            [
              20.373205741626805,
              18.794258373205736
            ],
            [
              19.511961722488053,
              18.22009569377991
            ],
            [
              18.363636363636374,
              17.933014354066984
            ],
            [
              16.92822966507177,
              17.933014354066984
            ],
            [
              15.779904306220118,
              17.933014354066984
            ],
            [
              14.631578947368439,
              19.081339712918663
            ],
            [
              14.344497607655512,
              19.942583732057415
            ],
            [
              14.057416267942585,
              20.803827751196167
            ],
            [
              13.48325358851676,
              21.66507177033492
            ],
            [
              12.909090909090935,
              22.5263157894737
            ],
            [
              11.760765550239256,
              23.961722488038276
            ],
            [
              10.612440191387577,
              24.53588516746413
            ],
            [
              9.177033492822972,
              25.971291866028707
            ],
            [
              8.31578947368422,
              26.83253588516746
            ],
            [
              7.4545454545454675,
              28.267942583732065
            ],
            [
              7.167464114832541,
              29.129186602870817
            ],
            [
              6.593301435406715,
              29.99043062200957
            ],
            [
              5.444976076555037,
              32.0
            ],
            [
              4.870813397129197,
              33.722488038277504
            ],
            [
              4.296650717703358,
              34.583732057416285
            ],
            [
              4.296650717703358,
              35.732057416267935
            ],
            [
              4.296650717703358,
              37.45454545454547
            ],
            [
              4.296650717703358,
              38.602870813397146
            ],
            [
              4.296650717703358,
              40.61244019138758
            ],
            [
              4.296650717703358,
              42.33492822966508
            ],
            [
              4.296650717703358,
              43.77033492822966
            ],
            [
              3.7224880382775183,
              45.205741626794264
            ],
            [
              3.148325358851679,
              46.066985645933016
            ],
            [
              2.000000000000014,
              46.92822966507177
            ]
          ]
        ]
      }
    }
  ]
}