{
  "type": "FeatureCollection",
  "crs": {
    "type": "name",
    "properties": {
      "name": "urn:ogc:def:crs:OGC:1.3:CRS84"
    }
  },
  "features": [
    {
      "type": "Feature",
      "properties": {
        "timestamp": "2026-04-22T16:28:02.559307",
        "country_name": "Turks and Caicos Islands",
        "author": "Joshua",
        "author_id": "40d57eae-2dc5-4234-a8b6-bca42a4dc045",
        "validated": false,
        "ranking": [
          [
            "Turks and Caicos Islands",
            0.07792750000953674
          ],
          [
            "Comoros",
            0.05949917808175087
          ],
          [
            "Samoa",
            0.05011838674545288
          ],
          [
            "Barbados",
            0.03975280001759529
          ],
          [
            "Equatorial Guinea",
            0.039717864245176315
          ],
          [
            "United States of America",
            0.038333579897880554
          ],
          [
            "Bahamas",
            0.036876365542411804
          ],
          [
            "Martinique",
            0.03299978747963905
          ],
          [
            "Solomon Islands",
            0.025683380663394928
          ],
          [
            "Cuba",
            0.02262362837791443
          ],
          [
            "Saudi Arabia",
            0.019927410408854485
          ],
          [
            "Paraguay",
            0.017509115859866142
          ],
          [
            "Italy",
            0.01732753776013851
          ],
          [
            "Heard and McDonald Islands",
            0.017088012769818306
          ],
          [
            "Mexico",
            0.01685422658920288
          ],
          [
            "Nepal",
            0.016432253643870354
          ],
          [
            "Uzbekistan",
            0.015542766079306602
          ],
          [
            "Indonesia",
            0.01481503713876009
          ],
          [
            "Costa Rica",
            0.014689710922539234
          ],
          [
            "Netherlands Antilles",
            0.014503542333841324
          ],
          [
            "Turkmenistan",
            0.013179834000766277
          ],
          [
            "Georgia",
            0.012839920818805695
          ],
          [
            "Serbia",
            0.012722443789243698
          ],
          [
            "Armenia",
            0.012209340929985046
          ],
          [
            "Eritrea",
            0.011200224980711937
          ],
          [
            "Lithuania",
            0.01048959605395794
          ],
          [
            "Iraq",
            0.010180915705859661
          ],
          [
            "Laos",
            0.008931863121688366
          ],
          [
            "Iran",
            0.008369642309844494
          ],
          [
            "Jamaica",
            0.00812881626188755
          ],
          [
            "Puerto Rico",
            0.0079936683177948
          ],
          [
            "El Salvador",
            0.007445590570569038
          ],
          [
            "Sierra Leone",
            0.007393259089440107
          ],
          [
            "Liberia",
            0.007192013785243034
          ],
          [
            "Malaysia",
            0.007105201482772827
          ],
          [
            "Luxembourg",
            0.006658277940005064
          ],
          [
            "Romania",
            0.006575098726898432
          ],
          [
            "Suriname",
            0.0062417397275567055
          ],
          [
            "Ecuador",
            0.006104213185608387
          ],
          [
            "Guyana",
            0.0058045294135808945
          ],
          [
            "Turkey",
            0.00546306325122714
          ],
          [
            "Ethiopia",
            0.005155108869075775
          ],
          [
            "Tajikistan",
            0.005096449051052332
          ],
          [
            "New Caledonia",
            0.004938894417136908
          ],
          [
            "Uruguay",
            0.004752289038151503
          ],
          [
            "Bangladesh",
            0.004657057113945484
          ],
          [
            "Reunion",
            0.004507734440267086
          ],
          [
            "Guinea",
            0.004474984481930733
          ],
          [
            "Cape Verde",
            0.004247065633535385
          ],
          [
            "Latvia",
            0.004022237379103899
          ],
          [
            "Namibia",
            0.003978183027356863
          ],
          [
            "DR Congo",
            0.003952551167458296
          ],
          [
            "Sri Lanka",
            0.003922031726688147
          ],
          [
            "Algeria",
            0.003753623692318797
          ],
          [
            "Peru",
            0.0037221615202724934
          ],
          [
            "Zimbabwe",
            0.003704794216901064
          ],
          [
            "Dominican Republic",
            0.003691420890390873
          ],
          [
            "Albania",
            0.0032561204861849546
          ],
          [
            "South Korea",
            0.0032103201374411583
          ],
          [
            "Gambia",
            0.003201911458745599
          ],
          [
            "Bahrain",
            0.003171708434820175
          ],
          [
            "South Georgia Islands",
            0.0031622247770428658
          ],
          [
            "Guadeloupe",
            0.0031121601350605488
          ],
          [
            "France",
            0.0030558391008526087
          ],
          [
            "Azerbaijan",
            0.0029951678588986397
          ],
          [
            "Timor-Leste",
            0.0029705448541790247
          ],
          [
            "Mongolia",
            0.0028782719746232033
          ],
          [
            "Kazakhstan",
            0.0028220468666404486
          ],
          [
            "Czech Republic",
            0.002809586701914668
          ],
          [
            "Panama",
            0.0026839347556233406
          ],
          [
            "Guatemala",
            0.0026466872077435255
          ],
          [
            "Vanuatu",
            0.002591236960142851
          ],
          [
            "Bosnia & Herzegovina",
            0.0024810885079205036
          ],
          [
            "Poland",
            0.002441220683977008
          ],
          [
            "Russia",
            0.0024103280156850815
          ],
          [
            "Côte d'Ivoire",
            0.0023900431115180254
          ],
          [
            "Ukraine",
            0.00235964497551322
          ],
          [
            "Papua New Guinea",
            0.002316566649824381
          ],
          [
            "United Arab Emirates",
            0.002309551928192377
          ],
          [
            "South Sudan",
            0.002236168598756194
          ],
          [
            "Ghana",
            0.002233960432931781
          ],
          [
            "Dominica",
            0.0022310223430395126
          ],
          [
            "Hong Kong",
            0.002226401586085558
          ],
          [
            "Senegal",
            0.002196261892095208
          ],
          [
            "Nicaragua",
            0.0021202736534178257
          ],
          [
            "Malawi",
            0.00209488021209836
          ],
          [
            "Moldova",
            0.002076133154332638
          ],
          [
            "Belgium",
            0.0020616864785552025
          ],
          [
            "Uganda",
            0.002027378184720874
          ],
          [
            "Bolivia",
            0.0020092963241040707
          ],
          [
            "Angola",
            0.001963825896382332
          ],
          [
            "Egypt",
            0.0017280860338360071
          ],
          [
            "Philippines",
            0.0016912358114495873
          ],
          [
            "Kenya",
            0.0016812493558973074
          ],
          [
            "Slovakia",
            0.0016690632328391075
          ],
          [
            "Eswatini",
            0.0015977580333128572
          ],
          [
            "Belarus",
            0.0015844687586650252
          ],
          [
            "United States Virgin Islands",
            0.0015737434150651097
          ],
          [
            "Mauritania",
            0.001487290021032095
          ],
          [
            "Kyrgyzstan",
            0.0014265883946791291
          ],
          [
            "Togo",
            0.0013958238996565342
          ],
          [
            "West Bank",
            0.0013531680451706052
          ],
          [
            "French Guiana",
            0.001318553346209228
          ],
          [
            "Madeira Islands",
            0.0012785879662260413
          ],
          [
            "Tanzania",
            0.001269415020942688
          ],
          [
            "Venezuela",
            0.0012630727142095566
          ],
          [
            "Estonia",
            0.0012610290432348847
          ],
          [
            "Colombia",
            0.0012330843601375818
          ],
          [
            "Benin",
            0.0012183350045233965
          ],
          [
            "Qatar",
            0.0011893861228600144
          ],
          [
            "Sao Tome and Principe",
            0.001125982846133411
          ],
          [
            "Burkina Faso",
            0.001116866827942431
          ],
          [
            "Switzerland",
            0.0010936071630567312
          ],
          [
            "Brazil",
            0.0010704766027629375
          ],
          [
            "Thailand",
            0.0010354124242439866
          ],
          [
            "Burundi",
            0.001031279331073165
          ],
          [
            "Yemen",
            0.0010309902718290687
          ],
          [
            "Gabon",
            0.0009956342400982976
          ],
          [
            "Kiribati",
            0.0009911759989336133
          ],
          [
            "Australia",
            0.0009841474238783121
          ],
          [
            "Guinea-Bissau",
            0.0009652098524384201
          ],
          [
            "Kuwait",
            0.0009588445536792278
          ],
          [
            "Argentina",
            0.000953655515331775
          ],
          [
            "United Kingdom",
            0.0009429281344637275
          ],
          [
            "Canada",
            0.0009182996582239866
          ],
          [
            "Djibouti",
            0.0009139225585386157
          ],
          [
            "Mozambique",
            0.0008938693208619952
          ],
          [
            "Belize",
            0.0008539175614714622
          ],
          [
            "Greenland",
            0.0008007107535377145
          ],
          [
            "Greece",
            0.0007978462381288409
          ],
          [
            "Mali",
            0.0007909641717560589
          ],
          [
            "Iceland",
            0.0007876130403019488
          ],
          [
            "Finland",
            0.0007773999241180718
          ],
          [
            "Tunisia",
            0.0007658352260477841
          ],
          [
            "Honduras",
            0.0007633472559973598
          ],
          [
            "Central African Republic",
            0.0007355348789133132
          ],
          [
            "Rwanda",
            0.0007241066196002066
          ],
          [
            "Falkland Islands",
            0.0007026104140095413
          ],
          [
            "Trinidad and Tobago",
            0.000702382589224726
          ],
          [
            "Zambia",
            0.0006698360666632652
          ],
          [
            "Germany",
            0.0006697134231217206
          ],
          [
            "Croatia",
            0.0006684385589323938
          ],
          [
            "India",
            0.000665046856738627
          ],
          [
            "Portugal",
            0.0006624982925131917
          ],
          [
            "Botswana",
            0.0006567737436853349
          ],
          [
            "Sudan",
            0.0006452239467762411
          ],
          [
            "Chile",
            0.0006267051212489605
          ],
          [
            "Vietnam",
            0.0006207875558175147
          ],
          [
            "Svalbard",
            0.0006199912168085575
          ],
          [
            "Cameroon",
            0.0006130872061476111
          ],
          [
            "Niger",
            0.0005740250926464796
          ],
          [
            "South Africa",
            0.0005486116278916597
          ],
          [
            "Bhutan",
            0.0005414739134721458
          ],
          [
            "Antigua & Barbuda",
            0.0005267691449262202
          ],
          [
            "North Macedonia",
            0.000504871946759522
          ],
          [
            "Myanmar",
            0.0004932396113872528
          ],
          [
            "Cyprus",
            0.0004877749888692051
          ],
          [
            "Cambodia",
            0.00048765778774395585
          ],
          [
            "Lesotho",
            0.00048169613000936806
          ],
          [
            "Denmark",
            0.0004533772589638829
          ],
          [
            "Libya",
            0.0004493191372603178
          ],
          [
            "Spain",
            0.000427455612225458
          ],
          [
            "Mayotte",
            0.00042168828076682985
          ],
          [
            "Israel",
            0.0004207996535114944
          ],
          [
            "New Zealand",
            0.0004163400153629482
          ],
          [
            "Saint Lucia",
            0.0003820827987510711
          ],
          [
            "Montenegro",
            0.0003619157359935343
          ],
          [
            "Ireland",
            0.0003554447612259537
          ],
          [
            "Somalia",
            0.0003443597233854234
          ],
          [
            "Bulgaria",
            0.000335866556270048
          ],
          [
            "Japan",
            0.0003269523731432855
          ],
          [
            "Syria",
            0.0003205288958270103
          ],
          [
            "Austria",
            0.0003075572312809527
          ],
          [
            "Oman",
            0.0002769003913272172
          ],
          [
            "China",
            0.0002676398435141891
          ],
          [
            "Chad",
            0.0002661594480741769
          ],
          [
            "Fiji",
            0.00026268206420354545
          ],
          [
            "Sweden",
            0.0002533025690354407
          ],
          [
            "Faroe Islands",
            0.00025139653007499874
          ],
          [
            "Congo",
            0.0002494458749424666
          ],
          [
            "Nigeria",
            0.00024192759883590043
          ],
          [
            "Brunei",
            0.00020779267651960254
          ],
          [
            "Hungary",
            0.00020586558093782514
          ],
          [
            "Isle of Man",
            0.00012952761608175933
          ],
          [
            "Guam",
            0.00012893752136733383
          ],
          [
            "Taiwan",
            0.00011678454757202417
          ],
          [
            "Slovenia",
            0.00011043724225601181
          ],
          [
            "Jordan",
            9.846952161751688e-05
          ],
          [
            "Norway",
            9.274470357922837e-05
          ],
          [
            "Pakistan",
            7.995291525730863e-05
          ],
          [
            "Netherlands",
            7.588075823150575e-05
          ],
          [
            "North Korea",
            7.429750985465944e-05
          ],
          [
            "Palau",
            5.284191865939647e-05
          ],
          [
            "Western Sahara",
            5.042490010964684e-05
          ],
          [
            "Lebanon",
            4.0774310036795214e-05
          ],
          [
            "Afghanistan",
            3.886217382387258e-05
          ],
          [
            "Haiti",
            3.8754842535126954e-05
          ],
          [
            "Madagascar",
            3.8635280361631885e-05
          ],
          [
            "Morocco",
            3.57407916453667e-05
          ]
        ]
      },
      "geometry": {
        "type": "MultiLineString",
        "coordinates": [
          [
            [
              16.117647058823536,
              28.666666666666657
            ],
            [
              17.09803921568627,
              28.666666666666657
            ],
            [
              18.666666666666657,
              28.666666666666657
            ],
            [
              20.235294117647044,
              28.666666666666657
            ],
            [
              21.80392156862746,
              28.666666666666657
            ],
            [
              22.980392156862735,
              28.666666666666657
            ],
            [
              24.54901960784312,
              28.666666666666657
            ],
            [
              25.529411764705884,
              28.666666666666657
            ],
            [
              26.70588235294116,
              28.666666666666657
            ],
            [
              27.49019607843138,
              28.666666666666657
            ],
            [
              28.666666666666657,
              28.666666666666657
            ],
            [
              29.84313725490196,
              28.666666666666657
            ],
            [
              31.215686274509807,
              28.666666666666657
            ],
            [
              32.78431372549019,
              28.666666666666657
            ],
            [
              33.76470588235293,
              28.666666666666657
            ],
            [
              35.13725490196077,
              28.666666666666657
            ],
            [
              35.92156862745097,
              28.666666666666657
            ],
            [
              36.90196078431373,
              28.666666666666657
            ],
            [
              37.68627450980392,
              28.666666666666657
            ],
            [
              38.274509803921546,
              29.05882352941174
            ],
            [
              39.05882352941177,
              29.05882352941174
            ],
            [
              39.84313725490196,
              29.05882352941174
            ],
            [
              41.21568627450981,
              29.05882352941174
            ],
            [
              42.39215686274508,
              29.05882352941174
            ],
            [
              43.56862745098039,
              29.05882352941174
            ],
            [
              44.35294117647058,
              29.05882352941174
            ],
            [
              45.333333333333314,
              29.05882352941174
            ],
            [
              46.117647058823536,
              29.05882352941174
            ],
            [
              46.90196078431373,
              29.05882352941174
            ],
            [
              47.68627450980392,
              28.666666666666657
            ],
            [
              48.470588235294116,
              27.882352941176464
            ],
            [
              49.05882352941177,
              26.9019607843137
            ],
            [
              49.84313725490196,
              25.725490196078425
            ],
            [
              50.0392156862745,
              25.137254901960773
            ],
            [
              50.0392156862745,
              24.15686274509804
            ],
            [
              50.0392156862745,
              23.176470588235276
            ],
            [
              50.0392156862745,
              22.19607843137254
            ],
            [
              50.235294117647044,
              21.60784313725489
            ],
            [
              50.823529411764696,
              20.823529411764696
            ],
            [
              51.41176470588235,
              20.627450980392126
            ],
            [
              52.0,
              20.431372549019585
            ],
            [
              52.980392156862735,
              21.019607843137237
            ],
            [
              53.176470588235304,
              21.80392156862743
            ],
            [
              53.176470588235304,
              22.784313725490193
            ],
            [
              53.76470588235293,
              23.764705882352928
            ],
            [
              53.96078431372547,
              24.35294117647058
            ],
            [
              54.15686274509804,
              25.137254901960773
            ],
            [
              54.35294117647058,
              25.725490196078425
            ],
            [
              55.13725490196077,
              26.31372549019605
            ],
            [
              55.333333333333314,
              27.09803921568627
            ],
            [
              55.725490196078425,
              28.274509803921546
            ],
            [
              56.31372549019608,
              29.05882352941174
            ],
            [
              57.09803921568627,
              29.84313725490196
            ],
            [
              57.68627450980392,
              30.627450980392126
            ],
            [
              58.274509803921546,
              31.21568627450978
            ],
            [
              58.66666666666666,
              31.80392156862743
            ],
            [
              59.25490196078431,
              32.19607843137254
            ],
            [
              60.235294117647044,
              31.99999999999997
            ],
            [
              60.627450980392155,
              31.411764705882348
            ],
            [
              61.21568627450978,
              30.823529411764696
            ],
            [
              61.80392156862746,
              30.627450980392126
            ],
            [
              62.0,
              29.84313725490196
            ],
            [
              62.0,
              29.05882352941174
            ],
            [
              61.80392156862746,
              28.470588235294116
            ],
            [
              61.41176470588235,
              27.490196078431353
            ],
            [
              61.21568627450978,
              26.9019607843137
            ],
            [
              61.01960784313724,
              26.117647058823508
            ],
            [
              61.01960784313724,
              25.333333333333314
            ],
            [
              61.01960784313724,
              24.54901960784312
            ],
            [
              61.01960784313724,
              23.568627450980358
            ],
            [
              61.01960784313724,
              22.784313725490193
            ],
            [
              61.01960784313724,
              21.99999999999997
            ],
            [
              61.01960784313724,
              21.21568627450978
            ],
            [
              61.01960784313724,
              20.431372549019585
            ],
            [
              61.01960784313724,
              19.45098039215685
            ],
            [
              61.01960784313724,
              18.078431372549005
            ],
            [
              61.01960784313724,
              17.09803921568627
            ],
            [
              60.823529411764696,
              16.50980392156862
            ],
            [
              60.627450980392155,
              15.725490196078425
            ],
            [
              60.235294117647044,
              14.941176470588204
            ],
            [
              59.84313725490196,
              14.35294117647058
            ],
            [
              59.25490196078431,
              13.568627450980358
            ],
            [
              58.66666666666666,
              12.980392156862735
            ],
            [
              58.274509803921546,
              11.999999999999972
            ],
            [
              57.882352941176464,
              11.411764705882348
            ],
            [
              57.29411764705881,
              10.627450980392126
            ],
            [
              56.70588235294116,
              10.039215686274503
            ],
            [
              56.31372549019608,
              9.45098039215685
            ],
            [
              56.31372549019608,
              8.666666666666657
            ],
            [
              56.31372549019608,
              7.882352941176464
            ],
            [
              56.31372549019608,
              7.098039215686271
            ],
            [
              56.31372549019608,
              6.313725490196049
            ],
            [
              55.92156862745097,
              5.529411764705856
            ],
            [
              55.529411764705884,
              4.9411764705882035
            ],
            [
              55.529411764705884,
              3.960784313725469
            ],
            [
              54.74509803921569,
              3.960784313725469
            ],
            [
              54.15686274509804,
              4.156862745098039
            ],
            [
              53.96078431372547,
              4.9411764705882035
            ],
            [
              53.76470588235293,
              5.529411764705856
            ],
            [
              53.176470588235304,
              5.725490196078425
            ],
            [
              52.39215686274508,
              5.9215686274509665
            ],
            [
              51.80392156862746,
              6.313725490196049
            ],
            [
              50.823529411764696,
              6.313725490196049
            ],
            [
              50.0392156862745,
              6.70588235294116
            ],
            [
              49.05882352941177,
              6.901960784313701
            ],
            [
              47.882352941176464,
              6.901960784313701
            ],
            [
              46.70588235294116,
              6.901960784313701
            ],
            [
              45.92156862745097,
              6.901960784313701
            ],
            [
              45.13725490196077,
              6.901960784313701
            ],
            [
              43.96078431372547,
              6.901960784313701
            ],
            [
              42.980392156862735,
              7.098039215686271
            ],
            [
              42.19607843137254,
              7.098039215686271
            ],
            [
              41.01960784313724,
              7.098039215686271
            ],
            [
              40.0392156862745,
              7.098039215686271
            ],
            [
              39.64705882352939,
              6.5098039215686185
            ],
            [
              39.05882352941177,
              6.313725490196049
            ],
            [
              38.274509803921546,
              5.9215686274509665
            ],
            [
              37.49019607843138,
              5.725490196078425
            ],
            [
              36.90196078431373,
              5.529411764705856
            ],
            [
              35.92156862745097,
              5.333333333333314
            ],
            [
              34.74509803921569,
              4.9411764705882035
            ],
            [
              33.96078431372547,
              4.9411764705882035
            ],
            [
              32.39215686274508,
              5.529411764705856
            ],
            [
              31.019607843137237,
              5.529411764705856
            ],
            [
              30.039215686274503,
              5.529411764705856
            ],
            [
              29.058823529411768,
              6.313725490196049
            ],
            [
              28.666666666666657,
              6.901960784313701
            ],
            [
              28.078431372549005,
              7.294117647058812
            ],
            [
              27.49019607843138,
              7.686274509803894
            ],
            [
              26.70588235294116,
              8.274509803921546
            ],
            [
              25.921568627450966,
              8.274509803921546
            ],
            [
              24.74509803921569,
              8.666666666666657
            ],
            [
              23.372549019607845,
              8.666666666666657
            ],
            [
              22.392156862745082,
              8.666666666666657
            ],
            [
              21.411764705882348,
              8.666666666666657
            ],
            [
              20.823529411764696,
              8.862745098039198
            ],
            [
              20.235294117647044,
              9.05882352941174
            ],
            [
              19.45098039215685,
              9.843137254901961
            ],
            [
              18.8627450980392,
              10.235294117647044
            ],
            [
              18.470588235294116,
              10.823529411764696
            ],
            [
              17.882352941176464,
              11.215686274509778
            ],
            [
              17.49019607843138,
              12.196078431372541
            ],
            [
              16.313725490196077,
              13.372549019607817
            ],
            [
              16.313725490196077,
              14.549019607843121
            ],
            [
              16.313725490196077,
              15.529411764705856
            ],
            [
              16.313725490196077,
              16.31372549019605
            ],
            [
              16.313725490196077,
              17.294117647058812
            ],
            [
              16.313725490196077,
              18.274509803921546
            ],
            [
              16.70588235294116,
              19.25490196078428
            ],
            [
              17.09803921568627,
              20.235294117647044
            ],
            [
              17.09803921568627,
              21.21568627450978
            ],
            [
              17.09803921568627,
              21.99999999999997
            ],
            [
              16.90196078431373,
              22.588235294117624
            ],
            [
              16.70588235294116,
              23.568627450980358
            ],
            [
              16.313725490196077,
              24.35294117647058
            ],
            [
              16.313725490196077,
              25.333333333333314
            ],
            [
              16.313725490196077,
              26.31372549019605
            ],
            [
              16.313725490196077,
              27.490196078431353
            ]
          ],
          [
            [
              12.980392156862735,
              31.411764705882348
            ],
            [
              12.196078431372541,
              32.19607843137254
            ],
            [
              11.60784313725489,
              32.78431372549019
            ],
            [
              11.019607843137237,
              32.980392156862735
            ],
            [
              10.627450980392155,
              33.76470588235293
            ],
            [
              10.039215686274503,
              34.15686274509804
            ],
            [
              9.843137254901961,
              34.74509803921566
            ],
            [
              9.647058823529392,
              35.333333333333314
            ],
            [
              9.25490196078431,
              36.11764705882351
            ],
            [
              8.666666666666657,
              36.70588235294116
            ],
            [
              7.882352941176464,
              36.9019607843137
            ],
            [
              7.294117647058812,
              37.09803921568627
            ],
            [
              6.313725490196077,
              37.49019607843135
            ],
            [
              5.725490196078425,
              37.686274509803894
            ],
            [
              4.941176470588232,
              38.078431372549005
            ],
            [
              4.35294117647058,
              38.8627450980392
            ],
            [
              3.764705882352928,
              39.05882352941174
            ],
            [
              3.3725490196078454,
              39.64705882352939
            ],
            [
              2.7843137254901933,
              40.431372549019585
            ],
            [
              2.3921568627450824,
              41.01960784313724
            ],
            [
              2.196078431372541,
              41.60784313725489
            ],
            [
              2.0,
              42.39215686274508
            ],
            [
              2.0,
              43.176470588235276
            ],
            [
              2.0,
              43.96078431372547
            ],
            [
              2.196078431372541,
              44.9411764705882
            ],
            [
              2.9803921568627345,
              45.725490196078425
            ],
            [
              3.5686274509803866,
              46.50980392156862
            ],
            [
              3.9607843137254974,
              47.09803921568627
            ],
            [
              4.156862745098039,
              47.882352941176464
            ],
            [
              4.549019607843121,
              48.470588235294116
            ],
            [
              4.35294117647058,
              49.25490196078428
            ],
            [
              4.156862745098039,
              49.84313725490193
            ],
            [
              3.764705882352928,
              50.823529411764696
            ],
            [
              3.764705882352928,
              51.80392156862743
            ],
            [
              3.764705882352928,
              52.588235294117624
            ],
            [
              3.764705882352928,
              53.37254901960782
            ],
            [
              3.764705882352928,
              54.15686274509801
            ],
            [
              3.764705882352928,
              55.13725490196077
            ],
            [
              4.156862745098039,
              55.725490196078425
            ],
            [
              4.549019607843121,
              56.31372549019605
            ],
            [
              4.941176470588232,
              57.29411764705881
            ],
            [
              5.529411764705884,
              57.882352941176464
            ],
            [
              6.313725490196077,
              58.47058823529409
            ],
            [
              7.098039215686271,
              59.05882352941174
            ],
            [
              7.686274509803923,
              59.64705882352939
            ],
            [
              9.25490196078431,
              60.0392156862745
            ],
            [
              10.235294117647044,
              60.0392156862745
            ],
            [
              11.019607843137237,
              60.0392156862745
            ],
            [
              12.196078431372541,
              60.0392156862745
            ],
            [
              12.980392156862735,
              60.0392156862745
            ],
            [
              13.960784313725469,
              60.0392156862745
            ],
            [
              14.74509803921569,
              60.0392156862745
            ],
            [
              15.529411764705884,
              60.0392156862745
            ],
            [
              16.313725490196077,
              60.0392156862745
            ],
            [
              17.09803921568627,
              60.0392156862745
            ],
            [
              17.49019607843138,
              59.25490196078431
            ],
            [
              18.274509803921575,
              58.8627450980392
            ],
            [
              18.470588235294116,
              58.078431372549005
            ],
            [
              18.666666666666657,
              56.9019607843137
            ],
            [
              18.666666666666657,
              55.92156862745097
            ],
            [
              18.8627450980392,
              55.333333333333314
            ],
            [
              18.8627450980392,
              54.35294117647058
            ],
            [
              18.8627450980392,
              53.56862745098039
            ],
            [
              18.8627450980392,
              52.19607843137254
            ],
            [
              18.8627450980392,
              50.431372549019585
            ],
            [
              18.8627450980392,
              49.05882352941174
            ],
            [
              18.666666666666657,
              47.882352941176464
            ],
            [
              18.666666666666657,
              46.9019607843137
            ],
            [
              18.666666666666657,
              46.11764705882351
            ],
            [
              18.666666666666657,
              44.9411764705882
            ],
            [
              18.666666666666657,
              44.15686274509801
            ],
            [
              18.8627450980392,
              43.176470588235276
            ],
            [
              19.058823529411768,
              42.19607843137254
            ],
            [
              19.45098039215685,
              41.60784313725489
            ],
            [
              19.45098039215685,
              40.823529411764696
            ],
            [
              19.84313725490196,
              39.84313725490193
            ],
            [
              19.84313725490196,
              38.8627450980392
            ],
            [
              19.25490196078431,
              38.470588235294116
            ],
            [
              18.666666666666657,
              38.274509803921546
            ],
            [
              17.882352941176464,
              38.078431372549005
            ],
            [
              16.90196078431373,
              37.29411764705881
            ],
            [
              16.313725490196077,
              36.9019607843137
            ],
            [
              15.333333333333314,
              36.9019607843137
            ],
            [
              13.960784313725469,
              36.9019607843137
            ],
            [
              13.176470588235304,
              36.9019607843137
            ],
            [
              12.392156862745082,
              36.9019607843137
            ],
            [
              11.60784313725489,
              36.9019607843137
            ],
            [
              10.627450980392155,
              36.9019607843137
            ],
            [
              9.843137254901961,
              36.9019607843137
            ],
            [
              8.862745098039198,
              36.9019607843137
            ],
            [
              8.470588235294116,
              37.49019607843135
            ],
            [
              7.882352941176464,
              37.686274509803894
            ],
            [
              6.901960784313729,
              37.686274509803894
            ]
          ]
        ]
      }
    }
  ]
}