{
  "type": "FeatureCollection",
  "crs": {
    "type": "name",
    "properties": {
      "name": "urn:ogc:def:crs:OGC:1.3:CRS84"
    }
  },
  "features": [
    {
      "type": "Feature",
      "properties": {
        "timestamp": "2026-05-26T18:20:52.291257",
        "country_name": "Turkmenistan",
        "author": "",
        "author_id": "52cfc873-2c7c-448c-bb7a-8c7b7935f6c9",
        "validated": false,
        "ranking": [
          [
            "Turkmenistan",
            0.11668631434440613
          ],
          [
            "Georgia",
            0.07848867028951645
          ],
          [
            "Mexico",
            0.0727500393986702
          ],
          [
            "El Salvador",
            0.05447115749120712
          ],
          [
            "Uzbekistan",
            0.04872733727097511
          ],
          [
            "Jamaica",
            0.04485095664858818
          ],
          [
            "Nepal",
            0.0446602962911129
          ],
          [
            "Cuba",
            0.036337416619062424
          ],
          [
            "Tajikistan",
            0.03377407789230347
          ],
          [
            "Latvia",
            0.030591819435358047
          ],
          [
            "Indonesia",
            0.022537298500537872
          ],
          [
            "Heard and McDonald Islands",
            0.019393784925341606
          ],
          [
            "Turks and Caicos Islands",
            0.01841859519481659
          ],
          [
            "Russia",
            0.014924583956599236
          ],
          [
            "New Caledonia",
            0.014887509867548943
          ],
          [
            "Papua New Guinea",
            0.014821170829236507
          ],
          [
            "Bahamas",
            0.013720761053264141
          ],
          [
            "Samoa",
            0.013643982820212841
          ],
          [
            "Mongolia",
            0.01353838574141264
          ],
          [
            "Turkey",
            0.01327427662909031
          ],
          [
            "United States of America",
            0.01207753922790289
          ],
          [
            "Czech Republic",
            0.011370907537639141
          ],
          [
            "South Georgia Islands",
            0.011080257594585419
          ],
          [
            "Puerto Rico",
            0.010758472606539726
          ],
          [
            "Ukraine",
            0.010123598389327526
          ],
          [
            "Kazakhstan",
            0.009252181276679039
          ],
          [
            "Madeira Islands",
            0.00889184046536684
          ],
          [
            "Estonia",
            0.008843569085001945
          ],
          [
            "Belgium",
            0.008130731992423534
          ],
          [
            "Solomon Islands",
            0.007927445694804192
          ],
          [
            "Laos",
            0.007010766305029392
          ],
          [
            "Italy",
            0.00688695814460516
          ],
          [
            "Paraguay",
            0.0066055054776370525
          ],
          [
            "Costa Rica",
            0.006256221327930689
          ],
          [
            "Falkland Islands",
            0.006203037686645985
          ],
          [
            "Panama",
            0.0052039106376469135
          ],
          [
            "Guinea-Bissau",
            0.004785516299307346
          ],
          [
            "Saudi Arabia",
            0.004567216150462627
          ],
          [
            "Liberia",
            0.004556235857307911
          ],
          [
            "Armenia",
            0.004540620371699333
          ],
          [
            "Guinea",
            0.0045380056835711
          ],
          [
            "Peru",
            0.003824264043942094
          ],
          [
            "Myanmar",
            0.0035122011322528124
          ],
          [
            "Eritrea",
            0.0034765570890158415
          ],
          [
            "Malawi",
            0.003196998964995146
          ],
          [
            "Bangladesh",
            0.0031490374822169542
          ],
          [
            "Hong Kong",
            0.003127673640847206
          ],
          [
            "Gambia",
            0.0030377020593732595
          ],
          [
            "Kyrgyzstan",
            0.002660225611180067
          ],
          [
            "Bhutan",
            0.002633162774145603
          ],
          [
            "Central African Republic",
            0.002588766859844327
          ],
          [
            "Netherlands Antilles",
            0.002557923784479499
          ],
          [
            "Colombia",
            0.002506841905415058
          ],
          [
            "Dominican Republic",
            0.002419231226667762
          ],
          [
            "Switzerland",
            0.002386890584602952
          ],
          [
            "Croatia",
            0.0023300957400351763
          ],
          [
            "Martinique",
            0.0021631771232932806
          ],
          [
            "Guadeloupe",
            0.0020739128813147545
          ],
          [
            "Azerbaijan",
            0.002070825779810548
          ],
          [
            "Vanuatu",
            0.0020584643352776766
          ],
          [
            "Australia",
            0.0019460880430415273
          ],
          [
            "Svalbard",
            0.0019290440250188112
          ],
          [
            "Serbia",
            0.001902048010379076
          ],
          [
            "Timor-Leste",
            0.0018125183414667845
          ],
          [
            "Guyana",
            0.001747505972161889
          ],
          [
            "Ethiopia",
            0.001739325700327754
          ],
          [
            "Slovakia",
            0.001733123091980815
          ],
          [
            "Kiribati",
            0.0017265145434066653
          ],
          [
            "Lithuania",
            0.0017033562762662768
          ],
          [
            "Senegal",
            0.001672208309173584
          ],
          [
            "Honduras",
            0.0016267681494355202
          ],
          [
            "Comoros",
            0.001613692962564528
          ],
          [
            "Malaysia",
            0.0015164159703999758
          ],
          [
            "Yemen",
            0.0013844200875610113
          ],
          [
            "South Sudan",
            0.001336082466877997
          ],
          [
            "Romania",
            0.0012207773979753256
          ],
          [
            "Bahrain",
            0.0012056485284119844
          ],
          [
            "Iceland",
            0.0012042809976264834
          ],
          [
            "South Korea",
            0.0011729425750672817
          ],
          [
            "United Kingdom",
            0.0011180028086528182
          ],
          [
            "Tunisia",
            0.0010441145859658718
          ],
          [
            "Burkina Faso",
            0.0009832448558881879
          ],
          [
            "Mozambique",
            0.0009115444263443351
          ],
          [
            "Philippines",
            0.0009039609576575458
          ],
          [
            "Ecuador",
            0.0008143213344737887
          ],
          [
            "Iran",
            0.0007775526610203087
          ],
          [
            "Greece",
            0.0007718446431681514
          ],
          [
            "Togo",
            0.0007615541690029204
          ],
          [
            "Benin",
            0.0007188923773355782
          ],
          [
            "DR Congo",
            0.0006713043549098074
          ],
          [
            "Venezuela",
            0.0006686782580800354
          ],
          [
            "Zimbabwe",
            0.0006637517944909632
          ],
          [
            "France",
            0.0006390559719875455
          ],
          [
            "Canada",
            0.000634438474662602
          ],
          [
            "Barbados",
            0.0006318312371149659
          ],
          [
            "Denmark",
            0.0006029792129993439
          ],
          [
            "Iraq",
            0.000601378153078258
          ],
          [
            "Sri Lanka",
            0.0005943650612607598
          ],
          [
            "Israel",
            0.0005863378755748272
          ],
          [
            "Gabon",
            0.000574651756323874
          ],
          [
            "Angola",
            0.0005709415418095887
          ],
          [
            "Nicaragua",
            0.0005628849030472338
          ],
          [
            "Somalia",
            0.0005594288231804967
          ],
          [
            "Luxembourg",
            0.0005478033563122153
          ],
          [
            "Moldova",
            0.0005263553466647863
          ],
          [
            "Faroe Islands",
            0.0005140681751072407
          ],
          [
            "Cape Verde",
            0.0005059303948655725
          ],
          [
            "Niger",
            0.0004954289179295301
          ],
          [
            "Thailand",
            0.0004703572776634246
          ],
          [
            "Rwanda",
            0.00046783857396803796
          ],
          [
            "Guatemala",
            0.00045983315794728696
          ],
          [
            "Algeria",
            0.0004294324025977403
          ],
          [
            "Vietnam",
            0.00041010111453942955
          ],
          [
            "Brazil",
            0.00040843687020242214
          ],
          [
            "Albania",
            0.00040754969813860953
          ],
          [
            "Belize",
            0.00040752560016699135
          ],
          [
            "Spain",
            0.00040037810686044395
          ],
          [
            "Austria",
            0.00039981032023206353
          ],
          [
            "India",
            0.00037933941348455846
          ],
          [
            "Argentina",
            0.00036920877755619586
          ],
          [
            "Equatorial Guinea",
            0.0003646193363238126
          ],
          [
            "Belarus",
            0.0003606649988796562
          ],
          [
            "Chile",
            0.0003536648000590503
          ],
          [
            "New Zealand",
            0.0003499173908494413
          ],
          [
            "Ireland",
            0.0003485299239400774
          ],
          [
            "Sweden",
            0.00034602414234541357
          ],
          [
            "Dominica",
            0.00034175615292042494
          ],
          [
            "Fiji",
            0.0003405686002224684
          ],
          [
            "Djibouti",
            0.0003392680373508483
          ],
          [
            "China",
            0.0003359485708642751
          ],
          [
            "Bosnia & Herzegovina",
            0.0003324674617033452
          ],
          [
            "Zambia",
            0.00033195229480043054
          ],
          [
            "Uruguay",
            0.00032047630520537496
          ],
          [
            "Kuwait",
            0.0003188806294929236
          ],
          [
            "Bolivia",
            0.0003167873655911535
          ],
          [
            "North Macedonia",
            0.00028606419800780714
          ],
          [
            "Greenland",
            0.0002840817323885858
          ],
          [
            "Qatar",
            0.00027601822512224317
          ],
          [
            "Cyprus",
            0.00027190535911358893
          ],
          [
            "Suriname",
            0.00026860996149480343
          ],
          [
            "Brunei",
            0.0002660554018802941
          ],
          [
            "South Africa",
            0.00023825910466257483
          ],
          [
            "Burundi",
            0.00023525478900410235
          ],
          [
            "Namibia",
            0.00023506594880018383
          ],
          [
            "Mauritania",
            0.00022134228493086994
          ],
          [
            "Portugal",
            0.00022125827672425658
          ],
          [
            "Finland",
            0.00021664545056410134
          ],
          [
            "Saint Lucia",
            0.00021430572087410837
          ],
          [
            "Sierra Leone",
            0.00021131345420144498
          ],
          [
            "Kenya",
            0.0001814513379940763
          ],
          [
            "Uganda",
            0.00018104823539033532
          ],
          [
            "Mali",
            0.00016738954582251608
          ],
          [
            "Syria",
            0.00016296523972414434
          ],
          [
            "West Bank",
            0.00015853354125283659
          ],
          [
            "Taiwan",
            0.00015681871445849538
          ],
          [
            "Montenegro",
            0.00015580980107188225
          ],
          [
            "Reunion",
            0.00015424266166519374
          ],
          [
            "Guam",
            0.00015078722208272666
          ],
          [
            "Bulgaria",
            0.0001463334629079327
          ],
          [
            "Antigua & Barbuda",
            0.00013108619896229357
          ],
          [
            "Hungary",
            0.00012867046461906284
          ],
          [
            "Libya",
            0.00011796773469541222
          ],
          [
            "Ghana",
            0.00010455828305566683
          ],
          [
            "Congo",
            0.00010050937999039888
          ],
          [
            "Slovenia",
            9.922498429659754e-05
          ],
          [
            "Mayotte",
            9.795363439479843e-05
          ],
          [
            "Lesotho",
            9.762964327819645e-05
          ],
          [
            "Netherlands",
            9.580232290318236e-05
          ],
          [
            "United Arab Emirates",
            9.283496910938993e-05
          ],
          [
            "Eswatini",
            8.893824997358024e-05
          ],
          [
            "Oman",
            8.36835679365322e-05
          ],
          [
            "Norway",
            8.320323104271665e-05
          ],
          [
            "Côte d'Ivoire",
            8.258628804469481e-05
          ],
          [
            "Sudan",
            8.223858458222821e-05
          ],
          [
            "Jordan",
            7.99000117694959e-05
          ],
          [
            "Poland",
            7.620608812430874e-05
          ],
          [
            "French Guiana",
            7.615682989126071e-05
          ],
          [
            "Egypt",
            7.071111031109467e-05
          ],
          [
            "Germany",
            7.004437065916136e-05
          ],
          [
            "Cameroon",
            6.809332990087569e-05
          ],
          [
            "Trinidad and Tobago",
            6.77625575917773e-05
          ],
          [
            "Japan",
            6.761356780771166e-05
          ],
          [
            "Western Sahara",
            6.486874190159142e-05
          ],
          [
            "Tanzania",
            6.233405292732641e-05
          ],
          [
            "United States Virgin Islands",
            6.090913666412234e-05
          ],
          [
            "Cambodia",
            5.6531946029281244e-05
          ],
          [
            "North Korea",
            5.562111618928611e-05
          ],
          [
            "Haiti",
            5.512588541023433e-05
          ],
          [
            "Isle of Man",
            5.090410923003219e-05
          ],
          [
            "Lebanon",
            4.593122866936028e-05
          ],
          [
            "Botswana",
            4.309558789827861e-05
          ],
          [
            "Afghanistan",
            3.701492096297443e-05
          ],
          [
            "Sao Tome and Principe",
            3.493257099762559e-05
          ],
          [
            "Madagascar",
            3.450716030783951e-05
          ],
          [
            "Nigeria",
            3.4061911719618365e-05
          ],
          [
            "Palau",
            2.637653778947424e-05
          ],
          [
            "Morocco",
            2.5436560463276692e-05
          ],
          [
            "Pakistan",
            2.384435538260732e-05
          ],
          [
            "Chad",
            1.9868211893481202e-05
          ]
        ]
      },
      "geometry": {
        "type": "MultiLineString",
        "coordinates": [
          [
            [
              2.0000000000000284,
              50.28947368421052
            ],
            [
              4.894736842105289,
              48.9736842105263
            ],
            [
              10.15789473684211,
              47.13157894736841
            ],
            [
              23.57894736842107,
              42.13157894736841
            ],
            [
              33.57894736842107,
              38.71052631578948
            ],
            [
              47.5263157894737,
              33.71052631578948
            ],
            [
              54.36842105263159,
              31.34210526315789
            ],
            [
              58.0526315789474,
              29.5
            ],
            [
              61.21052631578948,
              28.18421052631578
            ],
            [
              62.0,
              27.65789473684211
            ],
            [
              61.73684210526318,
              26.60526315789474
            ],
            [
              60.68421052631581,
              25.81578947368422
            ],
            [
              59.63157894736844,
              25.02631578947367
            ],
            [
              56.21052631578948,
              19.76315789473682
            ],
            [
              55.15789473684214,
              18.18421052631578
            ],
            [
              53.84210526315792,
              16.34210526315789
            ],
            [
              52.5263157894737,
              14.763157894736821
            ],
            [
              51.73684210526318,
              14.23684210526315
            ],
            [
              50.94736842105266,
              13.44736842105263
            ],
            [
              49.36842105263159,
              12.657894736842081
            ],
            [
              47.5263157894737,
              12.39473684210526
            ],
            [
              45.42105263157896,
              12.39473684210526
            ],
            [
              42.26315789473685,
              13.18421052631578
            ],
            [
              40.15789473684211,
              14.23684210526315
            ],
            [
              39.10526315789474,
              14.763157894736821
            ],
            [
              37.5263157894737,
              16.07894736842104
            ],
            [
              36.73684210526318,
              16.60526315789474
            ],
            [
              35.42105263157896,
              17.92105263157896
            ],
            [
              34.10526315789474,
              18.71052631578948
            ],
            [
              31.47368421052633,
              20.28947368421052
            ],
            [
              28.57894736842107,
              22.65789473684211
            ],
            [
              26.73684210526318,
              24.23684210526315
            ],
            [
              25.157894736842138,
              25.81578947368422
            ],
            [
              24.63157894736844,
              26.60526315789474
            ],
            [
              23.84210526315792,
              27.13157894736841
            ],
            [
              23.0526315789474,
              27.39473684210526
            ],
            [
              21.47368421052633,
              27.92105263157896
            ],
            [
              19.36842105263159,
              28.44736842105263
            ],
            [
              16.47368421052633,
              29.5
            ],
            [
              12.5263157894737,
              30.02631578947367
            ],
            [
              10.684210526315809,
              30.55263157894737
            ],
            [
              8.842105263157919,
              30.55263157894737
            ],
            [
              7.789473684210549,
              30.55263157894737
            ],
            [
              6.736842105263179,
              30.55263157894737
            ],
            [
              5.9473684210526585,
              30.81578947368422
            ],
            [
              5.421052631578959,
              31.86842105263156
            ],
            [
              5.421052631578959,
              33.71052631578948
            ],
            [
              5.684210526315809,
              34.5
            ],
            [
              5.9473684210526585,
              35.28947368421052
            ],
            [
              5.9473684210526585,
              36.86842105263156
            ],
            [
              6.21052631578948,
              37.65789473684211
            ],
            [
              6.473684210526329,
              38.44736842105263
            ],
            [
              7.26315789473685,
              39.5
            ],
            [
              8.31578947368422,
              40.55263157894737
            ],
            [
              8.842105263157919,
              41.34210526315789
            ],
            [
              10.15789473684211,
              41.60526315789474
            ],
            [
              11.736842105263179,
              41.60526315789474
            ],
            [
              12.789473684210549,
              41.60526315789474
            ],
            [
              13.842105263157919,
              41.34210526315789
            ],
            [
              16.73684210526318,
              41.60526315789474
            ],
            [
              19.63157894736844,
              43.44736842105263
            ],
            [
              22.78947368421055,
              45.55263157894737
            ],
            [
              26.47368421052633,
              48.44736842105263
            ],
            [
              29.89473684210529,
              50.02631578947367
            ],
            [
              32.5263157894737,
              51.07894736842104
            ],
            [
              34.89473684210529,
              51.60526315789474
            ],
            [
              36.21052631578948,
              51.60526315789474
            ]
          ]
        ]
      }
    }
  ]
}