{
  "type": "FeatureCollection",
  "crs": {
    "type": "name",
    "properties": {
      "name": "urn:ogc:def:crs:OGC:1.3:CRS84"
    }
  },
  "features": [
    {
      "type": "Feature",
      "properties": {
        "timestamp": "2026-06-27T16:07:53.129032",
        "country_name": "Turkmenistan",
        "author": "",
        "author_id": "24c2b605-57ce-4fc2-97e9-637449c3ebd3",
        "validated": false,
        "ranking": [
          [
            "Turkmenistan",
            0.07523144036531448
          ],
          [
            "Czech Republic",
            0.06389608979225159
          ],
          [
            "United States of America",
            0.05888393893837929
          ],
          [
            "Bahamas",
            0.0581015944480896
          ],
          [
            "Ethiopia",
            0.05475762113928795
          ],
          [
            "Dominican Republic",
            0.03634018823504448
          ],
          [
            "El Salvador",
            0.03324291482567787
          ],
          [
            "Mexico",
            0.02922041527926922
          ],
          [
            "Tajikistan",
            0.023984240368008614
          ],
          [
            "Eritrea",
            0.02316925674676895
          ],
          [
            "Nepal",
            0.019501056522130966
          ],
          [
            "Romania",
            0.018903091549873352
          ],
          [
            "Samoa",
            0.018262073397636414
          ],
          [
            "Saudi Arabia",
            0.01640116050839424
          ],
          [
            "North Macedonia",
            0.013583377934992313
          ],
          [
            "Switzerland",
            0.012848054058849812
          ],
          [
            "South Georgia Islands",
            0.012531699612736702
          ],
          [
            "Armenia",
            0.012372761033475399
          ],
          [
            "Italy",
            0.012155408971011639
          ],
          [
            "Turkey",
            0.01184300146996975
          ],
          [
            "Turks and Caicos Islands",
            0.01153956912457943
          ],
          [
            "Barbados",
            0.011387869715690613
          ],
          [
            "Georgia",
            0.011024477891623974
          ],
          [
            "Laos",
            0.010986106470227242
          ],
          [
            "Senegal",
            0.010969272814691067
          ],
          [
            "Guadeloupe",
            0.010637848637998104
          ],
          [
            "Comoros",
            0.009808048605918884
          ],
          [
            "Latvia",
            0.009295660071074963
          ],
          [
            "Ukraine",
            0.00925027672201395
          ],
          [
            "Guyana",
            0.008514003828167915
          ],
          [
            "Australia",
            0.008376301266252995
          ],
          [
            "Cuba",
            0.008371525444090366
          ],
          [
            "Bhutan",
            0.006799618247896433
          ],
          [
            "Luxembourg",
            0.006716761272400618
          ],
          [
            "Puerto Rico",
            0.006709116976708174
          ],
          [
            "Yemen",
            0.006507910788059235
          ],
          [
            "Heard and McDonald Islands",
            0.005788332782685757
          ],
          [
            "Gabon",
            0.005776895210146904
          ],
          [
            "Bangladesh",
            0.005774262826889753
          ],
          [
            "Uzbekistan",
            0.005540221463888884
          ],
          [
            "Burkina Faso",
            0.005486548412591219
          ],
          [
            "Jamaica",
            0.005348342005163431
          ],
          [
            "Slovakia",
            0.0052406261675059795
          ],
          [
            "Syria",
            0.00515001779422164
          ],
          [
            "Bolivia",
            0.005069187842309475
          ],
          [
            "Russia",
            0.0050430623814463615
          ],
          [
            "Guinea",
            0.004969367757439613
          ],
          [
            "India",
            0.004733662120997906
          ],
          [
            "Rwanda",
            0.004733427427709103
          ],
          [
            "Ecuador",
            0.004559191409498453
          ],
          [
            "Peru",
            0.004435488022863865
          ],
          [
            "Iraq",
            0.004326208028942347
          ],
          [
            "Martinique",
            0.004313955083489418
          ],
          [
            "Sri Lanka",
            0.004196480847895145
          ],
          [
            "Vietnam",
            0.0037589396815747023
          ],
          [
            "Vanuatu",
            0.0037297941744327545
          ],
          [
            "Uruguay",
            0.0035521923564374447
          ],
          [
            "Solomon Islands",
            0.0034648531582206488
          ],
          [
            "Mongolia",
            0.003428590716794133
          ],
          [
            "Serbia",
            0.0033445139415562153
          ],
          [
            "Honduras",
            0.0033413132186979055
          ],
          [
            "Montenegro",
            0.003323066048324108
          ],
          [
            "Equatorial Guinea",
            0.003305971622467041
          ],
          [
            "Papua New Guinea",
            0.003246663138270378
          ],
          [
            "Philippines",
            0.0032289086375385523
          ],
          [
            "Denmark",
            0.00316024711355567
          ],
          [
            "Malaysia",
            0.00297424104064703
          ],
          [
            "Finland",
            0.0029483104590326548
          ],
          [
            "Kazakhstan",
            0.0028541143983602524
          ],
          [
            "Hong Kong",
            0.002696567913517356
          ],
          [
            "Togo",
            0.0026031755842268467
          ],
          [
            "Liberia",
            0.002374937990680337
          ],
          [
            "Djibouti",
            0.0023641048464924097
          ],
          [
            "Azerbaijan",
            0.0023620720021426678
          ],
          [
            "Indonesia",
            0.0023079048842191696
          ],
          [
            "Central African Republic",
            0.0023076627403497696
          ],
          [
            "Albania",
            0.0022810734808444977
          ],
          [
            "Kiribati",
            0.0022586947306990623
          ],
          [
            "Cambodia",
            0.002206153469160199
          ],
          [
            "Kyrgyzstan",
            0.0022048368118703365
          ],
          [
            "Malawi",
            0.0021503588650375605
          ],
          [
            "Myanmar",
            0.002086032647639513
          ],
          [
            "Belize",
            0.002024584449827671
          ],
          [
            "New Caledonia",
            0.0019548642449080944
          ],
          [
            "Sudan",
            0.001954137347638607
          ],
          [
            "Estonia",
            0.0019217689987272024
          ],
          [
            "Bahrain",
            0.0017201803857460618
          ],
          [
            "France",
            0.0016945325769484043
          ],
          [
            "Lithuania",
            0.0016273237997666001
          ],
          [
            "Sierra Leone",
            0.0015727020800113678
          ],
          [
            "South Korea",
            0.001514753676019609
          ],
          [
            "Moldova",
            0.0013923724181950092
          ],
          [
            "Belgium",
            0.001389483455568552
          ],
          [
            "Costa Rica",
            0.001355425687506795
          ],
          [
            "Cape Verde",
            0.0013033285504207015
          ],
          [
            "Nigeria",
            0.0012787781888619065
          ],
          [
            "Lesotho",
            0.0012706455308943987
          ],
          [
            "Reunion",
            0.001249231630936265
          ],
          [
            "Angola",
            0.0011641765013337135
          ],
          [
            "Burundi",
            0.0011541126295924187
          ],
          [
            "Suriname",
            0.001136499340645969
          ],
          [
            "Germany",
            0.0011221495224162936
          ],
          [
            "Antigua & Barbuda",
            0.0011036316864192486
          ],
          [
            "Guinea-Bissau",
            0.001051836065016687
          ],
          [
            "Faroe Islands",
            0.001048215082846582
          ],
          [
            "Somalia",
            0.001006663660518825
          ],
          [
            "Chile",
            0.0009783604182302952
          ],
          [
            "Dominica",
            0.0009663851233199239
          ],
          [
            "Bulgaria",
            0.0009633669396862388
          ],
          [
            "Spain",
            0.0009565520449541509
          ],
          [
            "Eswatini",
            0.0009501840686425567
          ],
          [
            "Timor-Leste",
            0.0009420958231203258
          ],
          [
            "Guatemala",
            0.0009401140850968659
          ],
          [
            "Benin",
            0.0009362899581901729
          ],
          [
            "Paraguay",
            0.0009034163085743785
          ],
          [
            "Afghanistan",
            0.0008969280170276761
          ],
          [
            "United Kingdom",
            0.000866253802087158
          ],
          [
            "Qatar",
            0.0008593322709202766
          ],
          [
            "Iran",
            0.0008411615272052586
          ],
          [
            "Madeira Islands",
            0.0008393249590881169
          ],
          [
            "Netherlands Antilles",
            0.0008373119053430855
          ],
          [
            "Kenya",
            0.0007948554703034461
          ],
          [
            "South Sudan",
            0.0007699243724346161
          ],
          [
            "Thailand",
            0.0007589700981043279
          ],
          [
            "Botswana",
            0.0007379757589660585
          ],
          [
            "Tunisia",
            0.0007370656239800155
          ],
          [
            "Algeria",
            0.000710441148839891
          ],
          [
            "Namibia",
            0.0007086331024765968
          ],
          [
            "Falkland Islands",
            0.0006819473928771913
          ],
          [
            "Belarus",
            0.0006809673504903913
          ],
          [
            "Slovenia",
            0.0006545864162035286
          ],
          [
            "Zimbabwe",
            0.0006543193012475967
          ],
          [
            "Kuwait",
            0.0006399292615242302
          ],
          [
            "Svalbard",
            0.0006387975881807506
          ],
          [
            "Côte d'Ivoire",
            0.0006266620475798845
          ],
          [
            "Mozambique",
            0.0006252996972762048
          ],
          [
            "Oman",
            0.0006183201330713928
          ],
          [
            "Hungary",
            0.0006174433510750532
          ],
          [
            "Argentina",
            0.0006104152416810393
          ],
          [
            "Colombia",
            0.0006053426768630743
          ],
          [
            "Nicaragua",
            0.0005990713252685964
          ],
          [
            "Libya",
            0.0005858471267856658
          ],
          [
            "Mali",
            0.0005834930343553424
          ],
          [
            "Panama",
            0.000582405598834157
          ],
          [
            "Zambia",
            0.0005579657154157758
          ],
          [
            "Mauritania",
            0.0005030427128076553
          ],
          [
            "Israel",
            0.000499764340929687
          ],
          [
            "Poland",
            0.00048369303112849593
          ],
          [
            "Greenland",
            0.000473780557513237
          ],
          [
            "Cyprus",
            0.0004721279547084123
          ],
          [
            "Sao Tome and Principe",
            0.00046673076576553285
          ],
          [
            "French Guiana",
            0.0004518845526035875
          ],
          [
            "Fiji",
            0.0004480140923988074
          ],
          [
            "Ghana",
            0.0004338691651355475
          ],
          [
            "Uganda",
            0.00040593373705632985
          ],
          [
            "Niger",
            0.00040050563984550536
          ],
          [
            "United States Virgin Islands",
            0.0003939806192647666
          ],
          [
            "West Bank",
            0.0003651364240795374
          ],
          [
            "New Zealand",
            0.0003636656911112368
          ],
          [
            "Greece",
            0.00036062372964806855
          ],
          [
            "Jordan",
            0.00034994943416677415
          ],
          [
            "Croatia",
            0.0003478372818790376
          ],
          [
            "Venezuela",
            0.0003475183038972318
          ],
          [
            "Canada",
            0.0003414792590774596
          ],
          [
            "Haiti",
            0.0003379472764208913
          ],
          [
            "Bosnia & Herzegovina",
            0.0003230311267543584
          ],
          [
            "DR Congo",
            0.0003114248684141785
          ],
          [
            "Portugal",
            0.00031091205892153084
          ],
          [
            "Egypt",
            0.0002999139251187444
          ],
          [
            "Sweden",
            0.00028360047144815326
          ],
          [
            "Congo",
            0.00028101372299715877
          ],
          [
            "China",
            0.00027375479112379253
          ],
          [
            "Iceland",
            0.0002644309133756906
          ],
          [
            "South Africa",
            0.00025544362142682076
          ],
          [
            "Saint Lucia",
            0.00024165504146367311
          ],
          [
            "Japan",
            0.00023285616771318018
          ],
          [
            "Tanzania",
            0.00022759745479561388
          ],
          [
            "Ireland",
            0.00021277957421261817
          ],
          [
            "Gambia",
            0.00020880020747426897
          ],
          [
            "Taiwan",
            0.00020234328985679895
          ],
          [
            "Brazil",
            0.00020061629766132683
          ],
          [
            "Mayotte",
            0.00017111020861193538
          ],
          [
            "Cameroon",
            0.00016254089132416993
          ],
          [
            "United Arab Emirates",
            0.00015331375470850617
          ],
          [
            "Brunei",
            0.00014817876217421144
          ],
          [
            "Guam",
            0.00013009684334974736
          ],
          [
            "Austria",
            0.00012664106907323003
          ],
          [
            "Western Sahara",
            0.00012298845103941858
          ],
          [
            "Trinidad and Tobago",
            0.00011199464643141255
          ],
          [
            "Palau",
            8.622821769677103e-05
          ],
          [
            "Chad",
            8.100715785985813e-05
          ],
          [
            "North Korea",
            8.058675302891061e-05
          ],
          [
            "Norway",
            6.890478834975511e-05
          ],
          [
            "Netherlands",
            5.781728759757243e-05
          ],
          [
            "Isle of Man",
            5.435970888356678e-05
          ],
          [
            "Lebanon",
            4.1493902244837955e-05
          ],
          [
            "Madagascar",
            3.84297854907345e-05
          ],
          [
            "Morocco",
            2.568970921856817e-05
          ],
          [
            "Pakistan",
            1.741960113577079e-05
          ]
        ]
      },
      "geometry": {
        "type": "MultiLineString",
        "coordinates": [
          [
            [
              8.075949367088612,
              46.05063291139243
            ],
            [
              8.45569620253167,
              44.15189873417722
            ],
            [
              9.215189873417728,
              41.11392405063293
            ],
            [
              9.215189873417728,
              39.21518987341773
            ],
            [
              8.835443037974699,
              35.41772151898735
            ],
            [
              8.075949367088612,
              31.62025316455697
            ],
            [
              7.3164556962025245,
              25.16455696202533
            ],
            [
              6.177215189873436,
              16.430379746835456
            ],
            [
              6.177215189873436,
              14.911392405063282
            ],
            [
              5.797468354430379,
              13.772151898734194
            ],
            [
              6.936708860759495,
              13.392405063291164
            ],
            [
              8.45569620253167,
              13.772151898734194
            ],
            [
              9.594936708860757,
              14.531645569620252
            ],
            [
              10.734177215189874,
              14.911392405063282
            ],
            [
              11.87341772151899,
              15.291139240506368
            ],
            [
              13.012658227848107,
              15.670886075949397
            ],
            [
              14.911392405063282,
              16.050632911392427
            ],
            [
              16.430379746835456,
              16.050632911392427
            ],
            [
              19.468354430379748,
              16.050632911392427
            ],
            [
              20.98734177215192,
              16.430379746835456
            ],
            [
              22.12658227848101,
              17.189873417721515
            ],
            [
              22.886075949367097,
              18.32911392405066
            ],
            [
              24.405063291139243,
              19.468354430379748
            ],
            [
              27.063291139240505,
              20.607594936708892
            ],
            [
              28.58227848101268,
              21.36708860759495
            ],
            [
              29.721518987341767,
              21.74683544303798
            ],
            [
              32.0,
              22.12658227848101
            ],
            [
              33.139240506329116,
              22.88607594936707
            ],
            [
              35.41772151898735,
              22.88607594936707
            ],
            [
              37.696202531645554,
              22.50632911392404
            ],
            [
              39.21518987341773,
              21.74683544303798
            ],
            [
              40.734177215189874,
              20.98734177215192
            ],
            [
              41.11392405063293,
              19.848101265822777
            ],
            [
              41.87341772151899,
              18.70886075949369
            ],
            [
              42.63291139240505,
              16.810126582278485
            ],
            [
              43.772151898734194,
              16.050632911392427
            ],
            [
              45.67088607594937,
              14.531645569620252
            ],
            [
              46.810126582278485,
              14.151898734177223
            ],
            [
              49.84810126582278,
              14.151898734177223
            ],
            [
              53.645569620253184,
              14.151898734177223
            ],
            [
              58.58227848101268,
              14.151898734177223
            ],
            [
              60.1012658227848,
              14.531645569620252
            ],
            [
              61.62025316455697,
              14.911392405063282
            ],
            [
              62.0,
              16.050632911392427
            ],
            [
              62.0,
              18.32911392405066
            ],
            [
              61.62025316455697,
              19.468354430379748
            ],
            [
              60.1012658227848,
              20.607594936708892
            ],
            [
              58.58227848101268,
              21.36708860759495
            ],
            [
              56.683544303797476,
              21.74683544303798
            ],
            [
              54.78481012658227,
              22.50632911392404
            ],
            [
              53.645569620253184,
              22.88607594936707
            ],
            [
              51.74683544303798,
              23.645569620253184
            ],
            [
              50.227848101265835,
              24.405063291139243
            ],
            [
              47.9493670886076,
              25.924050632911417
            ],
            [
              46.05063291139243,
              27.443037974683563
            ],
            [
              44.91139240506328,
              28.58227848101268
            ],
            [
              43.772151898734194,
              29.721518987341767
            ],
            [
              43.01265822784811,
              31.24050632911394
            ],
            [
              41.11392405063293,
              34.65822784810126
            ],
            [
              40.354430379746844,
              36.556962025316466
            ],
            [
              39.59493670886076,
              38.45569620253167
            ],
            [
              39.21518987341773,
              39.974683544303815
            ],
            [
              38.45569620253167,
              41.49367088607596
            ],
            [
              38.07594936708861,
              45.6708860759494
            ],
            [
              37.316455696202524,
              48.32911392405066
            ],
            [
              36.556962025316466,
              49.848101265822805
            ],
            [
              35.41772151898735,
              50.227848101265835
            ],
            [
              33.8987341772152,
              50.60759493670889
            ],
            [
              32.0,
              50.60759493670889
            ],
            [
              29.341772151898738,
              50.227848101265835
            ],
            [
              26.683544303797476,
              49.848101265822805
            ],
            [
              23.645569620253184,
              48.70886075949369
            ],
            [
              20.98734177215192,
              47.9493670886076
            ],
            [
              16.050632911392427,
              46.810126582278485
            ],
            [
              9.215189873417728,
              44.91139240506331
            ],
            [
              3.1392405063291164,
              42.63291139240508
            ],
            [
              2.0,
              42.25316455696202
            ]
          ]
        ]
      }
    }
  ]
}