{
  "type": "FeatureCollection",
  "crs": {
    "type": "name",
    "properties": {
      "name": "urn:ogc:def:crs:OGC:1.3:CRS84"
    }
  },
  "features": [
    {
      "type": "Feature",
      "properties": {
        "timestamp": "2026-04-25T21:57:20.952501",
        "country_name": "Turkmenistan",
        "author": "",
        "author_id": "1049879f-f8b2-41fc-a84d-9c1f3a63005f",
        "validated": false,
        "ranking": [
          [
            "Georgia",
            0.24182991683483124
          ],
          [
            "Turkey",
            0.17496854066848755
          ],
          [
            "Puerto Rico",
            0.10840033739805222
          ],
          [
            "Jamaica",
            0.0760987177491188
          ],
          [
            "Mongolia",
            0.032918594777584076
          ],
          [
            "Indonesia",
            0.031679917126894
          ],
          [
            "Kazakhstan",
            0.03135078400373459
          ],
          [
            "Turkmenistan",
            0.02981586568057537
          ],
          [
            "Madeira Islands",
            0.026819273829460144
          ],
          [
            "Latvia",
            0.024827156215906143
          ],
          [
            "New Caledonia",
            0.019366448745131493
          ],
          [
            "Czech Republic",
            0.016994012519717216
          ],
          [
            "Panama",
            0.010596334002912045
          ],
          [
            "Heard and McDonald Islands",
            0.009651485830545425
          ],
          [
            "Slovakia",
            0.00904981791973114
          ],
          [
            "Solomon Islands",
            0.007972456514835358
          ],
          [
            "Bhutan",
            0.007877576164901257
          ],
          [
            "Central African Republic",
            0.007215144112706184
          ],
          [
            "El Salvador",
            0.00703063840046525
          ],
          [
            "Cuba",
            0.0066055296920239925
          ],
          [
            "Russia",
            0.006211117375642061
          ],
          [
            "Uzbekistan",
            0.005761434324085712
          ],
          [
            "Kyrgyzstan",
            0.005706571042537689
          ],
          [
            "Honduras",
            0.005286203231662512
          ],
          [
            "Yemen",
            0.005059378687292337
          ],
          [
            "Nepal",
            0.004503201227635145
          ],
          [
            "Ecuador",
            0.004368550144135952
          ],
          [
            "Papua New Guinea",
            0.004318601917475462
          ],
          [
            "Netherlands Antilles",
            0.004273029509931803
          ],
          [
            "Timor-Leste",
            0.004039955325424671
          ],
          [
            "Ukraine",
            0.003994571976363659
          ],
          [
            "Mexico",
            0.0038373973220586777
          ],
          [
            "Malaysia",
            0.003581404685974121
          ],
          [
            "Falkland Islands",
            0.0033658111933618784
          ],
          [
            "Tajikistan",
            0.00330465380102396
          ],
          [
            "Turks and Caicos Islands",
            0.0028572133742272854
          ],
          [
            "Dominican Republic",
            0.0027638287283480167
          ],
          [
            "Switzerland",
            0.0025435956194996834
          ],
          [
            "Samoa",
            0.0025365124456584454
          ],
          [
            "Burkina Faso",
            0.0024845004081726074
          ],
          [
            "Hong Kong",
            0.001967278541997075
          ],
          [
            "Guinea-Bissau",
            0.0019250467885285616
          ],
          [
            "Austria",
            0.0017847205745056272
          ],
          [
            "Estonia",
            0.0015215860912576318
          ],
          [
            "South Sudan",
            0.0012892280938103795
          ],
          [
            "Cyprus",
            0.001243897364474833
          ],
          [
            "Bahamas",
            0.001098243403248489
          ],
          [
            "Iceland",
            0.000959195604082197
          ],
          [
            "Hungary",
            0.000945514184422791
          ],
          [
            "Guadeloupe",
            0.0009195860475301743
          ],
          [
            "Azerbaijan",
            0.0009025688050314784
          ],
          [
            "Saudi Arabia",
            0.0008590388461016119
          ],
          [
            "United States of America",
            0.0008216571877710521
          ],
          [
            "China",
            0.0008115132804960012
          ],
          [
            "Comoros",
            0.0007817416917532682
          ],
          [
            "Gambia",
            0.0006457052659243345
          ],
          [
            "Belgium",
            0.0006343101849779487
          ],
          [
            "Bangladesh",
            0.0005779548082500696
          ],
          [
            "Paraguay",
            0.000548569776583463
          ],
          [
            "South Korea",
            0.0005315197049640119
          ],
          [
            "Costa Rica",
            0.00045701503404416144
          ],
          [
            "Guinea",
            0.00044926165719516575
          ],
          [
            "Romania",
            0.0004408520762808621
          ],
          [
            "Rwanda",
            0.0004325883637648076
          ],
          [
            "Armenia",
            0.00041424413211643696
          ],
          [
            "Eritrea",
            0.0003839624987449497
          ],
          [
            "Australia",
            0.00037144997622817755
          ],
          [
            "Lithuania",
            0.00036358871147967875
          ],
          [
            "Slovenia",
            0.00035748782102018595
          ],
          [
            "Mozambique",
            0.000347109540598467
          ],
          [
            "Senegal",
            0.00033041922142729163
          ],
          [
            "Svalbard",
            0.0003292076289653778
          ],
          [
            "Bulgaria",
            0.00032411361462436616
          ],
          [
            "Croatia",
            0.00032296270364895463
          ],
          [
            "New Zealand",
            0.0003133511636406183
          ],
          [
            "Mali",
            0.00027614456485025585
          ],
          [
            "Niger",
            0.00026956407236866653
          ],
          [
            "Somalia",
            0.00026297930162400007
          ],
          [
            "Serbia",
            0.0002585671318229288
          ],
          [
            "South Georgia Islands",
            0.0002517208631616086
          ],
          [
            "Myanmar",
            0.00023239293659571558
          ],
          [
            "Gabon",
            0.00022327237820718437
          ],
          [
            "Fiji",
            0.0002215483837062493
          ],
          [
            "Malawi",
            0.00021904830646235496
          ],
          [
            "Ethiopia",
            0.00021408876636996865
          ],
          [
            "Thailand",
            0.00020455084450077266
          ],
          [
            "Italy",
            0.00020365897216834128
          ],
          [
            "Martinique",
            0.00020161362772341818
          ],
          [
            "Colombia",
            0.00020038224465679377
          ],
          [
            "Zambia",
            0.0001944803079823032
          ],
          [
            "India",
            0.0001921232760651037
          ],
          [
            "Iran",
            0.00019002120825462043
          ],
          [
            "United Arab Emirates",
            0.00018671197176445276
          ],
          [
            "Moldova",
            0.00018579044262878597
          ],
          [
            "Vanuatu",
            0.000184006683412008
          ],
          [
            "Spain",
            0.00018200486374553293
          ],
          [
            "Liberia",
            0.00018091980018652976
          ],
          [
            "Japan",
            0.0001781512692105025
          ],
          [
            "Belize",
            0.00017528761236462742
          ],
          [
            "Cape Verde",
            0.00016574861365370452
          ],
          [
            "Brunei",
            0.00016279779083561152
          ],
          [
            "Benin",
            0.00014321328490041196
          ],
          [
            "Equatorial Guinea",
            0.00014179204299580306
          ],
          [
            "North Macedonia",
            0.00013916044554207474
          ],
          [
            "Iraq",
            0.00013854363351128995
          ],
          [
            "Montenegro",
            0.0001367992808809504
          ],
          [
            "Guyana",
            0.00013202865375205874
          ],
          [
            "Laos",
            0.00012591849372256547
          ],
          [
            "DR Congo",
            0.00012005055032204837
          ],
          [
            "Guam",
            0.00011901932884939015
          ],
          [
            "Burundi",
            0.00011788067786255851
          ],
          [
            "Venezuela",
            0.0001136039209086448
          ],
          [
            "Israel",
            0.00011251986870774999
          ],
          [
            "Namibia",
            0.00011238624574616551
          ],
          [
            "France",
            0.00011213037214474753
          ],
          [
            "Chile",
            0.00010815152927534655
          ],
          [
            "Sierra Leone",
            0.00010788081272039562
          ],
          [
            "Peru",
            0.00010572178871370852
          ],
          [
            "Angola",
            0.00010394008859293535
          ],
          [
            "Sao Tome and Principe",
            0.00010344070324208587
          ],
          [
            "Trinidad and Tobago",
            0.00010236573143629357
          ],
          [
            "South Africa",
            9.899963333737105e-05
          ],
          [
            "Bosnia & Herzegovina",
            9.493918332736939e-05
          ],
          [
            "Argentina",
            9.42977931117639e-05
          ],
          [
            "Bahrain",
            9.266760025639087e-05
          ],
          [
            "Syria",
            9.193102596327662e-05
          ],
          [
            "Guatemala",
            8.994749077828601e-05
          ],
          [
            "Oman",
            8.967700705397874e-05
          ],
          [
            "Ireland",
            8.934528159443289e-05
          ],
          [
            "Brazil",
            8.836502820486203e-05
          ],
          [
            "Algeria",
            8.821750816423446e-05
          ],
          [
            "Philippines",
            8.547627658117563e-05
          ],
          [
            "Greenland",
            8.368706767214462e-05
          ],
          [
            "Togo",
            8.256864384748042e-05
          ],
          [
            "Suriname",
            8.054587669903412e-05
          ],
          [
            "Albania",
            7.956362242111936e-05
          ],
          [
            "Kuwait",
            7.915795140434057e-05
          ],
          [
            "Mayotte",
            7.785019988659769e-05
          ],
          [
            "Uruguay",
            7.365578494500369e-05
          ],
          [
            "Sweden",
            7.336499402299523e-05
          ],
          [
            "Nicaragua",
            6.703482358716428e-05
          ],
          [
            "Dominica",
            6.687174027319998e-05
          ],
          [
            "Barbados",
            6.523662159452215e-05
          ],
          [
            "Tunisia",
            6.406653119483963e-05
          ],
          [
            "Cameroon",
            6.369151378748938e-05
          ],
          [
            "Bolivia",
            6.147297244751826e-05
          ],
          [
            "Sri Lanka",
            5.919097748119384e-05
          ],
          [
            "Portugal",
            5.8307661674916744e-05
          ],
          [
            "Qatar",
            5.760637577623129e-05
          ],
          [
            "Egypt",
            5.73464494664222e-05
          ],
          [
            "Zimbabwe",
            5.7274741266155615e-05
          ],
          [
            "Eswatini",
            5.7213161198887974e-05
          ],
          [
            "Congo",
            5.5879612773424014e-05
          ],
          [
            "United Kingdom",
            5.3938012570142746e-05
          ],
          [
            "Canada",
            5.16720101586543e-05
          ],
          [
            "Luxembourg",
            4.9868620408233255e-05
          ],
          [
            "West Bank",
            4.7628007450839505e-05
          ],
          [
            "Reunion",
            4.734144386020489e-05
          ],
          [
            "Jordan",
            4.70050290459767e-05
          ],
          [
            "Lesotho",
            4.516318585956469e-05
          ],
          [
            "Taiwan",
            4.467645339900628e-05
          ],
          [
            "Kenya",
            4.2700146877905354e-05
          ],
          [
            "Botswana",
            4.264870585757308e-05
          ],
          [
            "Belarus",
            4.180067844572477e-05
          ],
          [
            "Faroe Islands",
            3.965338328271173e-05
          ],
          [
            "Ghana",
            3.8158588722581044e-05
          ],
          [
            "Norway",
            3.655257387435995e-05
          ],
          [
            "North Korea",
            3.6089735658606514e-05
          ],
          [
            "Tanzania",
            3.599741103244014e-05
          ],
          [
            "French Guiana",
            3.580929842428304e-05
          ],
          [
            "Libya",
            3.5523375117918476e-05
          ],
          [
            "Afghanistan",
            3.49341680703219e-05
          ],
          [
            "Sudan",
            3.4772761864587665e-05
          ],
          [
            "Saint Lucia",
            3.439341526245698e-05
          ],
          [
            "Vietnam",
            3.4350607165833935e-05
          ],
          [
            "Antigua & Barbuda",
            3.416614708839916e-05
          ],
          [
            "Morocco",
            3.292363544460386e-05
          ],
          [
            "Mauritania",
            3.2324111089110374e-05
          ],
          [
            "Isle of Man",
            3.16770892823115e-05
          ],
          [
            "Western Sahara",
            3.159189145662822e-05
          ],
          [
            "Nigeria",
            2.976831456180662e-05
          ],
          [
            "Cambodia",
            2.9007769626332447e-05
          ],
          [
            "Finland",
            2.8939135518157855e-05
          ],
          [
            "Uganda",
            2.873123958124779e-05
          ],
          [
            "Djibouti",
            2.8156564439996146e-05
          ],
          [
            "Palau",
            2.7600066459854133e-05
          ],
          [
            "Lebanon",
            2.706101986404974e-05
          ],
          [
            "Greece",
            2.6265435735695064e-05
          ],
          [
            "Pakistan",
            2.4931063308031298e-05
          ],
          [
            "Poland",
            2.401395613560453e-05
          ],
          [
            "Netherlands",
            2.2080579583416693e-05
          ],
          [
            "Madagascar",
            1.994125523196999e-05
          ],
          [
            "Germany",
            1.8255443137604743e-05
          ],
          [
            "Côte d'Ivoire",
            1.6244441212620586e-05
          ],
          [
            "Kiribati",
            1.5437384718097746e-05
          ],
          [
            "United States Virgin Islands",
            1.3849520655639935e-05
          ],
          [
            "Haiti",
            1.2810398402507417e-05
          ],
          [
            "Denmark",
            1.2156990123912692e-05
          ],
          [
            "Chad",
            9.139634130406193e-06
          ]
        ]
      },
      "geometry": {
        "type": "MultiLineString",
        "coordinates": [
          [
            [
              40.03773584905659,
              19.264150943396203
            ],
            [
              40.71698113207546,
              19.71698113207546
            ],
            [
              42.86792452830187,
              20.622641509433947
            ],
            [
              44.45283018867923,
              21.075471698113205
            ],
            [
              45.245283018867894,
              21.188679245282998
            ],
            [
              46.2641509433962,
              20.962264150943383
            ],
            [
              46.943396226415075,
              20.622641509433947
            ],
            [
              48.075471698113176,
              20.169811320754718
            ],
            [
              49.094339622641485,
              19.943396226415075
            ],
            [
              50.0,
              20.169811320754718
            ],
            [
              50.90566037735846,
              20.73584905660377
            ],
            [
              51.69811320754715,
              21.075471698113205
            ],
            [
              52.71698113207546,
              21.30188679245282
            ],
            [
              53.62264150943395,
              21.30188679245282
            ],
            [
              55.32075471698113,
              21.30188679245282
            ],
            [
              56.67924528301887,
              21.415094339622613
            ],
            [
              57.47169811320754,
              21.528301886792434
            ],
            [
              58.2641509433962,
              21.75471698113205
            ],
            [
              58.943396226415075,
              21.98113207547169
            ],
            [
              59.73584905660374,
              22.094339622641485
            ],
            [
              60.41509433962261,
              22.207547169811306
            ],
            [
              61.43396226415092,
              22.547169811320742
            ],
            [
              62.0,
              23.113207547169793
            ],
            [
              61.43396226415092,
              24.245283018867894
            ],
            [
              60.75471698113205,
              24.924528301886767
            ],
            [
              59.16981132075472,
              27.188679245282998
            ],
            [
              58.71698113207546,
              28.094339622641485
            ],
            [
              57.69811320754715,
              31.377358490566024
            ],
            [
              57.245283018867894,
              32.62264150943395
            ],
            [
              56.792452830188665,
              33.30188679245282
            ],
            [
              56.11320754716979,
              34.094339622641485
            ],
            [
              55.32075471698113,
              35.45283018867923
            ],
            [
              54.528301886792434,
              37.490566037735846
            ],
            [
              53.84905660377356,
              39.30188679245282
            ],
            [
              53.28301886792451,
              40.207547169811306
            ],
            [
              52.490566037735846,
              41.0
            ],
            [
              51.47169811320754,
              41.339622641509436
            ],
            [
              50.226415094339615,
              41.339622641509436
            ],
            [
              49.43396226415092,
              41.339622641509436
            ],
            [
              47.73584905660374,
              41.56603773584905
            ],
            [
              46.15094339622641,
              41.90566037735849
            ],
            [
              45.47169811320754,
              42.01886792452828
            ],
            [
              44.792452830188665,
              42.1320754716981
            ],
            [
              44.11320754716979,
              42.24528301886792
            ],
            [
              42.075471698113176,
              41.792452830188665
            ],
            [
              40.943396226415075,
              40.88679245283018
            ],
            [
              40.377358490566024,
              40.32075471698113
            ],
            [
              39.358490566037716,
              39.75471698113205
            ],
            [
              38.0,
              39.98113207547169
            ],
            [
              37.43396226415092,
              40.54716981132074
            ],
            [
              36.75471698113205,
              41.226415094339615
            ],
            [
              36.075471698113176,
              41.90566037735849
            ],
            [
              35.39622641509433,
              42.358490566037716
            ],
            [
              34.490566037735846,
              42.811320754716974
            ],
            [
              33.47169811320754,
              43.03773584905659
            ],
            [
              32.45283018867923,
              42.69811320754715
            ],
            [
              31.773584905660357,
              42.1320754716981
            ],
            [
              31.207547169811306,
              41.679245283018844
            ],
            [
              30.528301886792434,
              41.45283018867923
            ],
            [
              29.396226415094333,
              42.01886792452828
            ],
            [
              28.60377358490564,
              42.24528301886792
            ],
            [
              27.471698113207538,
              42.1320754716981
            ],
            [
              26.339622641509408,
              42.1320754716981
            ],
            [
              25.320754716981128,
              42.1320754716981
            ],
            [
              23.962264150943383,
              42.01886792452828
            ],
            [
              22.71698113207546,
              41.56603773584905
            ],
            [
              21.924528301886767,
              41.11320754716979
            ],
            [
              20.90566037735846,
              40.660377358490564
            ],
            [
              19.773584905660357,
              40.660377358490564
            ],
            [
              19.094339622641485,
              40.77358490566036
            ],
            [
              18.30188679245282,
              41.226415094339615
            ],
            [
              17.73584905660374,
              41.792452830188665
            ],
            [
              17.28301886792451,
              42.47169811320754
            ],
            [
              16.71698113207546,
              43.71698113207546
            ],
            [
              16.264150943396203,
              44.39622641509433
            ],
            [
              13.999999999999972,
              44.84905660377356
            ],
            [
              13.094339622641485,
              44.73584905660377
            ],
            [
              11.73584905660374,
              44.509433962264154
            ],
            [
              10.71698113207546,
              44.509433962264154
            ],
            [
              9.924528301886767,
              44.509433962264154
            ],
            [
              9.245283018867894,
              44.62264150943395
            ],
            [
              8.226415094339615,
              44.509433962264154
            ],
            [
              7.320754716981128,
              44.0566037735849
            ],
            [
              6.641509433962256,
              43.490566037735846
            ],
            [
              5.735849056603769,
              42.358490566037716
            ],
            [
              5.0566037735848965,
              41.45283018867923
            ],
            [
              4.603773584905639,
              40.88679245283018
            ],
            [
              4.15094339622641,
              40.32075471698113
            ],
            [
              3.358490566037716,
              39.641509433962256
            ],
            [
              2.7924528301886653,
              39.075471698113205
            ],
            [
              1.9999999999999716,
              38.28301886792451
            ],
            [
              2.7924528301886653,
              38.509433962264154
            ],
            [
              3.698113207547152,
              39.41509433962261
            ],
            [
              4.377358490566024,
              39.98113207547169
            ],
            [
              4.943396226415075,
              40.43396226415092
            ],
            [
              5.622641509433947,
              40.77358490566036
            ],
            [
              6.641509433962256,
              40.88679245283018
            ],
            [
              7.320754716981128,
              40.77358490566036
            ],
            [
              8.339622641509408,
              40.43396226415092
            ],
            [
              9.471698113207538,
              40.207547169811306
            ],
            [
              10.377358490566024,
              40.094339622641485
            ],
            [
              11.396226415094333,
              39.86792452830187
            ],
            [
              12.528301886792434,
              39.528301886792434
            ],
            [
              13.547169811320742,
              38.84905660377356
            ],
            [
              14.226415094339615,
              38.39622641509433
            ],
            [
              14.792452830188665,
              37.943396226415075
            ],
            [
              15.245283018867894,
              37.2641509433962
            ],
            [
              15.471698113207538,
              36.58490566037733
            ],
            [
              14.679245283018844,
              35.67924528301887
            ],
            [
              14.113207547169793,
              34.54716981132074
            ],
            [
              14.113207547169793,
              33.528301886792434
            ],
            [
              14.45283018867923,
              32.509433962264154
            ],
            [
              14.792452830188665,
              31.264150943396203
            ],
            [
              15.132075471698101,
              30.358490566037716
            ],
            [
              15.358490566037716,
              29.56603773584905
            ],
            [
              15.358490566037716,
              28.773584905660357
            ],
            [
              14.905660377358458,
              28.094339622641485
            ],
            [
              13.999999999999972,
              27.528301886792434
            ],
            [
              13.547169811320742,
              26.73584905660377
            ],
            [
              13.660377358490564,
              25.943396226415075
            ],
            [
              14.113207547169793,
              25.037735849056588
            ],
            [
              14.339622641509408,
              24.1320754716981
            ],
            [
              14.226415094339615,
              22.88679245283018
            ],
            [
              14.113207547169793,
              21.98113207547169
            ],
            [
              14.339622641509408,
              20.962264150943383
            ],
            [
              14.905660377358458,
              19.830188679245282
            ],
            [
              15.471698113207538,
              19.15094339622641
            ],
            [
              17.622641509433947,
              19.377358490566024
            ],
            [
              20.113207547169793,
              21.188679245282998
            ],
            [
              22.264150943396203,
              23.0
            ],
            [
              22.830188679245282,
              23.56603773584905
            ],
            [
              23.962264150943383,
              23.56603773584905
            ],
            [
              24.641509433962256,
              24.1320754716981
            ],
            [
              25.773584905660357,
              24.924528301886767
            ],
            [
              27.245283018867894,
              25.71698113207546
            ],
            [
              28.490566037735846,
              26.169811320754718
            ],
            [
              30.188679245282998,
              25.830188679245282
            ],
            [
              31.43396226415092,
              25.264150943396203
            ],
            [
              32.56603773584902,
              24.471698113207538
            ],
            [
              33.1320754716981,
              24.01886792452828
            ],
            [
              33.92452830188677,
              23.45283018867923
            ],
            [
              34.60377358490564,
              23.0
            ],
            [
              35.73584905660374,
              22.43396226415092
            ],
            [
              36.75471698113205,
              21.86792452830187
            ],
            [
              37.43396226415092,
              21.528301886792434
            ],
            [
              38.0,
              21.075471698113205
            ],
            [
              38.90566037735846,
              20.622641509433947
            ],
            [
              40.03773584905659,
              20.056603773584897
            ],
            [
              40.71698113207546,
              19.830188679245282
            ],
            [
              42.75471698113205,
              19.71698113207546
            ],
            [
              43.660377358490564,
              19.71698113207546
            ]
          ]
        ]
      }
    }
  ]
}