{
  "type": "FeatureCollection",
  "crs": {
    "type": "name",
    "properties": {
      "name": "urn:ogc:def:crs:OGC:1.3:CRS84"
    }
  },
  "features": [
    {
      "type": "Feature",
      "properties": {
        "timestamp": "2026-04-22T10:56:48.457086",
        "country_name": "Ukraine",
        "author": "Shinobyl",
        "author_id": "3a747420-3106-4a5e-a4a4-b7c112ef38a4",
        "validated": false,
        "ranking": [
          [
            "Ukraine",
            0.053503748029470444
          ],
          [
            "Tajikistan",
            0.03820314258337021
          ],
          [
            "Bangladesh",
            0.032156866043806076
          ],
          [
            "Russia",
            0.028464555740356445
          ],
          [
            "Turkmenistan",
            0.028411099687218666
          ],
          [
            "Hong Kong",
            0.02521141618490219
          ],
          [
            "Uzbekistan",
            0.02239065431058407
          ],
          [
            "Italy",
            0.019381415098905563
          ],
          [
            "Guinea",
            0.019121136516332626
          ],
          [
            "Papua New Guinea",
            0.018431825563311577
          ],
          [
            "Guinea-Bissau",
            0.01779220439493656
          ],
          [
            "Mexico",
            0.015185685828328133
          ],
          [
            "Guadeloupe",
            0.015178561210632324
          ],
          [
            "Latvia",
            0.013847838155925274
          ],
          [
            "Switzerland",
            0.013318885117769241
          ],
          [
            "Turks and Caicos Islands",
            0.013184144161641598
          ],
          [
            "Senegal",
            0.012791654095053673
          ],
          [
            "Azerbaijan",
            0.012673675082623959
          ],
          [
            "United States of America",
            0.012050937861204147
          ],
          [
            "Dominican Republic",
            0.01200228463858366
          ],
          [
            "El Salvador",
            0.011766660027205944
          ],
          [
            "Rwanda",
            0.011194574646651745
          ],
          [
            "Romania",
            0.011045240797102451
          ],
          [
            "Falkland Islands",
            0.010979748331010342
          ],
          [
            "Greece",
            0.010739567689597607
          ],
          [
            "France",
            0.009421025402843952
          ],
          [
            "Gabon",
            0.009199400432407856
          ],
          [
            "Australia",
            0.009189439006149769
          ],
          [
            "Iceland",
            0.009109982289373875
          ],
          [
            "Saudi Arabia",
            0.008989348076283932
          ],
          [
            "Nepal",
            0.008851230144500732
          ],
          [
            "North Macedonia",
            0.008818219415843487
          ],
          [
            "Bulgaria",
            0.008802036754786968
          ],
          [
            "Denmark",
            0.00879527349025011
          ],
          [
            "Turkey",
            0.008779702708125114
          ],
          [
            "Lithuania",
            0.008771133609116077
          ],
          [
            "Syria",
            0.008600729517638683
          ],
          [
            "Slovakia",
            0.008188564330339432
          ],
          [
            "Costa Rica",
            0.008089197799563408
          ],
          [
            "Canada",
            0.007898391224443913
          ],
          [
            "Kazakhstan",
            0.007881897501647472
          ],
          [
            "South Africa",
            0.007539544720202684
          ],
          [
            "Indonesia",
            0.007410263177007437
          ],
          [
            "Estonia",
            0.007224838249385357
          ],
          [
            "Yemen",
            0.007180396467447281
          ],
          [
            "Burkina Faso",
            0.007047077175229788
          ],
          [
            "Kyrgyzstan",
            0.007033233530819416
          ],
          [
            "Zambia",
            0.00691961171105504
          ],
          [
            "Georgia",
            0.006720713805407286
          ],
          [
            "Belgium",
            0.006670766044408083
          ],
          [
            "Burundi",
            0.00664815679192543
          ],
          [
            "India",
            0.006399155594408512
          ],
          [
            "South Georgia Islands",
            0.006375155411660671
          ],
          [
            "Jamaica",
            0.005900386720895767
          ],
          [
            "Laos",
            0.0055053699761629105
          ],
          [
            "Iran",
            0.005415438674390316
          ],
          [
            "Central African Republic",
            0.005374884698539972
          ],
          [
            "Somalia",
            0.0053727831691503525
          ],
          [
            "New Caledonia",
            0.0052986242808401585
          ],
          [
            "Venezuela",
            0.0052636610344052315
          ],
          [
            "Croatia",
            0.005261242389678955
          ],
          [
            "Eritrea",
            0.005229686386883259
          ],
          [
            "Cambodia",
            0.0049695810303092
          ],
          [
            "Jordan",
            0.004781669937074184
          ],
          [
            "Peru",
            0.004748976789414883
          ],
          [
            "South Sudan",
            0.004657611716538668
          ],
          [
            "Congo",
            0.004640727769583464
          ],
          [
            "Djibouti",
            0.004622723441570997
          ],
          [
            "Heard and McDonald Islands",
            0.0044843959622085094
          ],
          [
            "Samoa",
            0.004088996443897486
          ],
          [
            "Puerto Rico",
            0.004031972493976355
          ],
          [
            "Bahamas",
            0.00398884667083621
          ],
          [
            "Honduras",
            0.003936296328902245
          ],
          [
            "Angola",
            0.0039095100946724415
          ],
          [
            "Cuba",
            0.0039053510408848524
          ],
          [
            "Mali",
            0.003861597739160061
          ],
          [
            "Guatemala",
            0.003847745945677161
          ],
          [
            "Sierra Leone",
            0.0036936707329005003
          ],
          [
            "Armenia",
            0.0036637731827795506
          ],
          [
            "Czech Republic",
            0.003632080275565386
          ],
          [
            "Mozambique",
            0.003610041458159685
          ],
          [
            "Mauritania",
            0.003597208531573415
          ],
          [
            "Timor-Leste",
            0.0035645614843815565
          ],
          [
            "Panama",
            0.0034719612449407578
          ],
          [
            "Sudan",
            0.0033052305225282907
          ],
          [
            "Liberia",
            0.003187193302437663
          ],
          [
            "Guyana",
            0.003182169981300831
          ],
          [
            "Bhutan",
            0.0031735023949295282
          ],
          [
            "Niger",
            0.0031474188435822725
          ],
          [
            "United Arab Emirates",
            0.003114829072728753
          ],
          [
            "Nigeria",
            0.003113368060439825
          ],
          [
            "China",
            0.00299054104834795
          ],
          [
            "Mongolia",
            0.0029460140503942966
          ],
          [
            "Slovenia",
            0.0028950287960469723
          ],
          [
            "Belarus",
            0.002795381471514702
          ],
          [
            "Côte d'Ivoire",
            0.0027813035994768143
          ],
          [
            "Paraguay",
            0.0027587225195020437
          ],
          [
            "Svalbard",
            0.00271061179228127
          ],
          [
            "Uganda",
            0.002695186994969845
          ],
          [
            "Haiti",
            0.0026779237668961287
          ],
          [
            "Suriname",
            0.0025773290544748306
          ],
          [
            "Bolivia",
            0.002528554294258356
          ],
          [
            "Philippines",
            0.0025223453994840384
          ],
          [
            "Montenegro",
            0.0024969137739390135
          ],
          [
            "Ethiopia",
            0.002488925587385893
          ],
          [
            "Cape Verde",
            0.002484817523509264
          ],
          [
            "South Korea",
            0.002439640462398529
          ],
          [
            "North Korea",
            0.0023982098791748285
          ],
          [
            "Brazil",
            0.0022509682457894087
          ],
          [
            "Thailand",
            0.0022301224526017904
          ],
          [
            "Brunei",
            0.0021169576793909073
          ],
          [
            "Martinique",
            0.0020581993740051985
          ],
          [
            "Fiji",
            0.002000117441639304
          ],
          [
            "Moldova",
            0.0018842623103410006
          ],
          [
            "Kuwait",
            0.0018500885926187038
          ],
          [
            "Malawi",
            0.00184665119741112
          ],
          [
            "Serbia",
            0.0017948782769963145
          ],
          [
            "Malaysia",
            0.0017740890616551042
          ],
          [
            "Benin",
            0.0017740112962201238
          ],
          [
            "Spain",
            0.0017359203193336725
          ],
          [
            "Netherlands",
            0.0016481634229421616
          ],
          [
            "Kiribati",
            0.0016312594525516033
          ],
          [
            "Nicaragua",
            0.0015820753760635853
          ],
          [
            "Belize",
            0.0015363480197265744
          ],
          [
            "Iraq",
            0.0015310941962525249
          ],
          [
            "Cyprus",
            0.001498653320595622
          ],
          [
            "United Kingdom",
            0.0014961627312004566
          ],
          [
            "Hungary",
            0.0014865624252706766
          ],
          [
            "Oman",
            0.001465915236622095
          ],
          [
            "Lesotho",
            0.0014296077424660325
          ],
          [
            "Equatorial Guinea",
            0.00136800785548985
          ],
          [
            "Afghanistan",
            0.0013273786753416061
          ],
          [
            "Poland",
            0.0012889564968645573
          ],
          [
            "Uruguay",
            0.0012769951717928052
          ],
          [
            "Algeria",
            0.0012686754344031215
          ],
          [
            "Botswana",
            0.0012652173172682524
          ],
          [
            "Guam",
            0.0012581327464431524
          ],
          [
            "Ireland",
            0.0012560515897348523
          ],
          [
            "Colombia",
            0.0012450271751731634
          ],
          [
            "Solomon Islands",
            0.001244732760824263
          ],
          [
            "Madeira Islands",
            0.001213607145473361
          ],
          [
            "Ecuador",
            0.0012118907179683447
          ],
          [
            "Gambia",
            0.0012079145526513457
          ],
          [
            "DR Congo",
            0.0011877752840518951
          ],
          [
            "Greenland",
            0.0011606899788603187
          ],
          [
            "Reunion",
            0.0011479489039629698
          ],
          [
            "Comoros",
            0.0010877043241634965
          ],
          [
            "Barbados",
            0.0010469871340319514
          ],
          [
            "Libya",
            0.0010321420850232244
          ],
          [
            "Pakistan",
            0.0010038077598437667
          ],
          [
            "French Guiana",
            0.001000775839202106
          ],
          [
            "Mayotte",
            0.0009938213042914867
          ],
          [
            "Isle of Man",
            0.0009880472207441926
          ],
          [
            "Sweden",
            0.0009275880875065923
          ],
          [
            "Bosnia & Herzegovina",
            0.0009268399444408715
          ],
          [
            "Portugal",
            0.0009050347725860775
          ],
          [
            "Austria",
            0.0009004547027871013
          ],
          [
            "Lebanon",
            0.000889658578671515
          ],
          [
            "Trinidad and Tobago",
            0.0008782412041909993
          ],
          [
            "Germany",
            0.0008699452155269682
          ],
          [
            "Albania",
            0.0008673854172229767
          ],
          [
            "Morocco",
            0.0008663618937134743
          ],
          [
            "Luxembourg",
            0.0008592575322836637
          ],
          [
            "Zimbabwe",
            0.0008409633301198483
          ],
          [
            "Finland",
            0.0008199968724511564
          ],
          [
            "Myanmar",
            0.0008028508746065199
          ],
          [
            "Namibia",
            0.0007655569352209568
          ],
          [
            "Egypt",
            0.000740336487069726
          ],
          [
            "Vietnam",
            0.0007373433327302337
          ],
          [
            "Tunisia",
            0.0007237316458486021
          ],
          [
            "Togo",
            0.0007183598354458809
          ],
          [
            "Japan",
            0.0006874657119624317
          ],
          [
            "Vanuatu",
            0.0006792698986828327
          ],
          [
            "Netherlands Antilles",
            0.000672873982694
          ],
          [
            "Western Sahara",
            0.0006632182630710304
          ],
          [
            "Cameroon",
            0.0006553177954629064
          ],
          [
            "Ghana",
            0.0006434523384086788
          ],
          [
            "Faroe Islands",
            0.0006324455025605857
          ],
          [
            "Argentina",
            0.0006088657537475228
          ],
          [
            "Israel",
            0.0005689873942174017
          ],
          [
            "Sri Lanka",
            0.0005602643941529095
          ],
          [
            "Bahrain",
            0.0004860128101427108
          ],
          [
            "Kenya",
            0.00047584131243638694
          ],
          [
            "Norway",
            0.00046979193575680256
          ],
          [
            "New Zealand",
            0.00044767020153813064
          ],
          [
            "West Bank",
            0.0004418373864609748
          ],
          [
            "Taiwan",
            0.0003953736450057477
          ],
          [
            "Tanzania",
            0.0003918690490536392
          ],
          [
            "Qatar",
            0.00038883654633536935
          ],
          [
            "Dominica",
            0.00036573686520569026
          ],
          [
            "Chile",
            0.00023692245304118842
          ],
          [
            "Madagascar",
            0.0002314800804015249
          ],
          [
            "Palau",
            0.00021711058798246086
          ],
          [
            "Eswatini",
            0.00021621880296152085
          ],
          [
            "Saint Lucia",
            0.00021497363923117518
          ],
          [
            "Antigua & Barbuda",
            0.00019433513807598501
          ],
          [
            "Chad",
            0.0001761017629178241
          ],
          [
            "United States Virgin Islands",
            0.00011510287004057318
          ],
          [
            "Sao Tome and Principe",
            9.379329276271164e-05
          ]
        ]
      },
      "geometry": {
        "type": "MultiLineString",
        "coordinates": [
          [
            [
              10.26830428814469,
              47.78764663798091
            ],
            [
              8.920210453529393,
              47.78764663798091
            ],
            [
              8.201231639230343,
              47.69777257463261
            ],
            [
              6.943015291085146,
              47.607901934406144
            ],
            [
              5.864540223392936,
              47.51802787105785
            ],
            [
              4.7860651557006975,
              47.42815380770955
            ],
            [
              4.06708634140162,
              47.338283167483084
            ],
            [
              3.2582300406324407,
              47.248409104134794
            ],
            [
              2.808856300769179,
              46.529426866713905
            ],
            [
              2.44936004737599,
              45.00158832852385
            ],
            [
              2.3594962533931607,
              43.833242620605134
            ],
            [
              2.179754972940202,
              42.75476755291291
            ],
            [
              2.179754972940202,
              41.67629248522067
            ],
            [
              2.089877486470101,
              40.59781741752843
            ],
            [
              2.089877486470101,
              39.519342349836194
            ],
            [
              2.0,
              37.901629748297864
            ],
            [
              2.0,
              36.9130287439539
            ],
            [
              2.0,
              36.01429837983645
            ],
            [
              2.0,
              35.20544892531092
            ],
            [
              2.089877486470101,
              34.216841074723334
            ],
            [
              2.179754972940202,
              32.95862472657814
            ],
            [
              2.2696324594103316,
              31.610530891962867
            ],
            [
              2.3594962533931607,
              30.172562993999264
            ],
            [
              2.44936004737599,
              28.91434322273227
            ],
            [
              2.5392375338461193,
              27.386504684542217
            ],
            [
              2.5392375338461193,
              26.2181589766235
            ],
            [
              2.6291150203162204,
              24.959939205356505
            ],
            [
              2.6291150203162204,
              23.611845370741207
            ],
            [
              2.7189925067863214,
              22.353618753230563
            ],
            [
              2.808856300769179,
              21.365021172008454
            ],
            [
              2.988611273709381,
              20.466294231012796
            ],
            [
              3.1683525541623396,
              19.297941676850456
            ],
            [
              3.34810752710257,
              18.039725328705288
            ],
            [
              3.5278351150682283,
              16.60176085386351
            ],
            [
              3.617712601538358,
              15.88277519332081
            ]
          ],
          [
            [
              12.065758170136007,
              45.720570565944726
            ],
            [
              11.70627560923009,
              46.349678740017325
            ],
            [
              11.16703807538397,
              47.338283167483084
            ],
            [
              10.89741930846094,
              47.96739134155567
            ],
            [
              10.89741930846094,
              48.68637700209837
            ],
            [
              11.2569155618541,
              49.31548859929278
            ],
            [
              11.97589437615315,
              49.58510736621584
            ],
            [
              13.144233237828217,
              49.76485206979061
            ],
            [
              14.312585791990585,
              49.944596773365376
            ],
            [
              15.480938346152925,
              50.124344900061956
            ],
            [
              16.649277207827993,
              49.674978006442316
            ],
            [
              17.188528434161384,
              49.1357404725962
            ],
            [
              17.548010995067273,
              48.32688417182702
            ],
            [
              17.548010995067273,
              47.338283167483084
            ],
            [
              17.188528434161384,
              46.43955622648744
            ],
            [
              16.379658440904933,
              45.720570565944726
            ],
            [
              15.840420907058814,
              45.2712070954469
            ],
            [
              15.121442092759764,
              44.73196956160079
            ],
            [
              14.042980717554798,
              44.82184362494908
            ],
            [
              13.234110724298347,
              45.18133303209862
            ]
          ],
          [
            [
              12.24551314307621,
              49.31548859929278
            ],
            [
              12.605009396469399,
              48.68637700209837
            ],
            [
              13.413865697238577,
              48.05726540490396
            ],
            [
              14.222708305520456,
              47.51802787105785
            ],
            [
              15.391060859682796,
              46.529426866713905
            ],
            [
              16.649277207827993,
              45.720570565944726
            ],
            [
              17.36825602212707,
              45.18133303209862
            ],
            [
              17.99737104244329,
              44.73196956160079
            ],
            [
              16.739154694298094,
              45.990189332867786
            ]
          ],
          [
            [
              13.054369443845388,
              44.37248015445125
            ],
            [
              13.413865697238577,
              45.18133303209862
            ],
            [
              13.863225744614567,
              45.810444629293016
            ],
            [
              14.402463278460687,
              46.43955622648744
            ],
            [
              14.941700812306806,
              46.978793760333545
            ],
            [
              15.750557113075985,
              47.78764663798091
            ],
            [
              16.469535927375034,
              48.50662887540179
            ],
            [
              17.188528434161384,
              49.1357404725962
            ],
            [
              17.72775227552023,
              49.58510736621584
            ]
          ],
          [
            [
              18.177126015383493,
              47.248409104134794
            ],
            [
              19.34547856954586,
              47.248409104134794
            ],
            [
              20.69355871167386,
              47.248409104134794
            ],
            [
              21.59229249891314,
              47.248409104134794
            ],
            [
              22.760631360588235,
              47.338283167483084
            ],
            [
              23.749228941810344,
              47.42815380770955
            ],
            [
              25.007458982442813,
              47.51802787105785
            ],
            [
              26.355552817058083,
              47.69777257463261
            ],
            [
              27.07453163135716,
              47.69777257463261
            ],
            [
              28.1530066990494,
              47.8775207013292
            ],
            [
              28.87199920583572,
              47.96739134155567
            ]
          ],
          [
            [
              29.77718215458134,
              52.76648832201991
            ],
            [
              29.77718215458134,
              51.91375615734037
            ],
            [
              29.682430142641465,
              50.87153023814659
            ],
            [
              29.540315817218982,
              49.68717801260394
            ],
            [
              29.35081179333929,
              48.69232296469734
            ],
            [
              29.256073473886715,
              47.50797416227651
            ],
            [
              29.208697467916778,
              46.465746531521816
            ],
            [
              29.303435787369352,
              45.04452796861682
            ],
            [
              29.492939811249073,
              43.19693904446977
            ],
            [
              29.587678130701647,
              42.10733883086698
            ],
            [
              29.77718215458134,
              41.34935354344455
            ]
          ],
          [
            [
              33.51972231635807,
              50.35041642276924
            ],
            [
              33.188103967055866,
              48.88182014233341
            ],
            [
              32.998613635663446,
              47.88696509442681
            ],
            [
              32.85648561775366,
              46.98685863533825
            ],
            [
              32.85648561775366,
              45.75513725006931
            ],
            [
              32.998613635663446,
              44.997151962646896
            ],
            [
              33.188103967055866,
              44.3339152640425
            ]
          ],
          [
            [
              38.73086389325337,
              55.32468481605855
            ],
            [
              38.73086389325337,
              54.51932694578802
            ],
            [
              38.58874956783086,
              53.28760384895817
            ],
            [
              38.39924554395117,
              52.05587904056742
            ],
            [
              38.257131218528684,
              50.72940564335863
            ],
            [
              38.1150032006189,
              48.64495038184924
            ],
            [
              38.1150032006189,
              47.27110440179234
            ],
            [
              38.20975521255875,
              45.89725842173546
            ],
            [
              38.30449353201132,
              44.57078502452667
            ],
            [
              38.39924554395117,
              43.5759333997419
            ],
            [
              38.54137356186095,
              42.86532069516758
            ],
            [
              38.683501579770706,
              42.05996282489704
            ]
          ],
          [
            [
              41.999671380305415,
              51.534761802068246
            ],
            [
              41.999671380305415,
              50.72940564335863
            ],
            [
              41.90491936836557,
              49.924047773088105
            ],
            [
              41.85754336239563,
              48.97656530802962
            ],
            [
              41.76281873543033,
              47.934341100396736
            ],
            [
              41.81016735642572,
              47.081607224156286
            ],
            [
              41.95229537433548,
              45.89725842173546
            ]
          ],
          [
            [
              46.168581903324196,
              55.65630145379984
            ],
            [
              46.26333391526404,
              54.471952651379
            ],
            [
              46.168581903324196,
              53.4297250206243
            ],
            [
              45.979091571931775,
              52.29274880105159
            ],
            [
              45.742211542082146,
              50.82415423217665
            ],
            [
              45.50535889720709,
              48.92919614830333
            ],
            [
              45.410606885267214,
              47.27110440179234
            ],
            [
              45.363230879297305,
              45.849882415765535
            ],
            [
              45.410606885267214,
              44.712906196192804
            ],
            [
              45.410606885267214,
              43.860175743074166
            ],
            [
              45.45798289123715,
              42.86532069516758
            ]
          ],
          [
            [
              49.24789905898382,
              50.918901109433776
            ],
            [
              49.20052305301388,
              50.018796361906126
            ],
            [
              49.153147047043944,
              49.26081107448371
            ],
            [
              49.05839503510413,
              48.265956026577115
            ],
            [
              48.916280709681615,
              46.98685863533825
            ],
            [
              48.86890470371168,
              46.18150418818955
            ]
          ],
          [
            [
              52.32720252215614,
              55.08781163245257
            ],
            [
              52.42195453409602,
              54.28245547374294
            ],
            [
              52.37457852812608,
              52.76648832201991
            ],
            [
              52.13769849827645,
              51.15577258147886
            ],
            [
              51.80609384146152,
              47.60272275109455
            ],
            [
              51.663979516039035,
              46.13412818221963
            ],
            [
              51.52185149812925,
              44.85503079098076
            ],
            [
              51.47447549215934,
              43.81280316022607
            ],
            [
              51.427099486189405,
              42.86532069516758
            ]
          ],
          [
            [
              55.406519677815766,
              50.82415423217665
            ],
            [
              55.50127168975564,
              50.018796361906126
            ],
            [
              55.50127168975564,
              48.69232296469734
            ],
            [
              55.50127168975564,
              47.88696509442681
            ],
            [
              55.54863400323825,
              46.60786770318795
            ]
          ],
          [
            [
              56.664516946164554,
              48.51093516264963
            ],
            [
              57.36918711126174,
              48.81294693134245
            ],
            [
              58.275218994218335,
              49.014288110470986
            ],
            [
              59.18125087717496,
              49.21562928959953
            ],
            [
              60.288617093016484,
              49.31629645604198
            ],
            [
              61.29531614241557,
              49.31629645604198
            ],
            [
              62.0,
              49.31629645604198
            ],
            [
              61.798665667115074,
              48.108259650636185
            ],
            [
              61.69799850067264,
              47.30289835724383
            ],
            [
              61.69799850067264,
              46.39686989740903
            ],
            [
              61.69799850067264,
              45.49084143757423
            ],
            [
              61.597317641742904,
              44.48414923441881
            ],
            [
              61.597317641742904,
              43.37677617233365
            ],
            [
              61.49665047530044,
              42.16873936692785
            ],
            [
              61.49665047530044,
              41.363384919779136
            ],
            [
              61.39598330885801,
              40.45735645994435
            ],
            [
              61.39598330885801,
              39.45065741054526
            ],
            [
              61.29531614241557,
              38.54462895071046
            ],
            [
              61.29531614241557,
              37.235924978862215
            ],
            [
              61.29531614241557,
              35.12185971362163
            ],
            [
              61.19464897597311,
              33.51114397308058
            ],
            [
              61.093981809530646,
              32.504441500559665
            ],
            [
              60.99331464308818,
              31.699090476532774
            ],
            [
              60.89264747664575,
              30.9943963495829
            ],
            [
              60.89264747664575,
              30.289712491998444
            ],
            [
              60.89264747664575,
              29.58502521129219
            ],
            [
              60.791980310203314,
              28.57831931564948
            ],
            [
              60.69131314376085,
              27.370282510243698
            ],
            [
              60.69131314376085,
              26.26291971752397
            ],
            [
              60.590618592343844,
              25.45756184725346
            ],
            [
              60.48995142590138,
              24.048183862719128
            ],
            [
              60.38928425945892,
              23.343496582012847
            ],
            [
              60.18793623408675,
              22.538138711742334
            ],
            [
              60.087269067644286,
              21.63210682878571
            ],
            [
              59.98660190120185,
              20.92741612495763
            ],
            [
              59.88593473475942,
              19.92072392180222
            ],
            [
              59.88593473475942,
              19.216033217974143
            ],
            [
              59.785267568316954,
              18.410675347703602
            ],
            [
              59.785267568316954,
              17.705984643875524
            ],
            [
              59.785267568316954,
              16.900633619848634
            ],
            [
              59.88593473475942,
              16.195942916020556
            ],
            [
              59.88593473475942,
              15.390585045750015
            ],
            [
              59.88593473475942,
              14.484553162793418
            ],
            [
              59.88593473475942,
              13.779869305208962
            ],
            [
              58.97991654429006,
              13.779869305208962
            ],
            [
              57.57053513663391,
              13.679188446279227
            ],
            [
              56.76518411260702,
              13.578528126080414
            ]
          ],
          [
            [
              49.617623600371076,
              9.954414286741212
            ],
            [
              48.812258883856884,
              9.753073107612693
            ],
            [
              47.90622700090029,
              10.256422632312223
            ],
            [
              47.20154314331583,
              10.860439323454216
            ],
            [
              46.69820731110357,
              11.363788848153746
            ],
            [
              46.094163234987036,
              12.169146718424258
            ],
            [
              45.89282890210214,
              13.175852614066969
            ],
            [
              46.19485778640404,
              14.383885996350955
            ],
            [
              46.496859285731404,
              14.987902687492948
            ],
            [
              46.89954164398847,
              15.591919378634941
            ],
            [
              47.50354464264319,
              16.09526890333447
            ],
            [
              48.10758871875973,
              16.598618428034
            ],
            [
              48.812258883856884,
              17.001293940047447
            ],
            [
              49.617623600371076,
              17.403983144548164
            ],
            [
              50.42298831688524,
              17.60531063118944
            ],
            [
              51.53034084023949,
              17.60531063118944
            ],
            [
              52.23505208279846,
              17.60531063118944
            ],
            [
              53.44307177259515,
              17.202635119175994
            ],
            [
              54.3490899630645,
              16.699285594476464
            ],
            [
              54.953120346693765,
              16.195942916020556
            ],
            [
              55.65780420427819,
              15.692593391321026
            ],
            [
              56.261820895420215,
              15.189237020377846
            ],
            [
              56.86585127904948,
              14.28321198366487
            ],
            [
              57.16785277837681,
              13.578528126080414
            ],
            [
              57.469867970191444,
              12.773163409566251
            ],
            [
              57.268519944819275,
              11.867138372853276
            ],
            [
              56.966518445491914,
              11.061787348826385
            ],
            [
              56.36248806186265,
              10.45776381144077
            ],
            [
              55.65780420427819,
              10.055081453183675
            ],
            [
              54.953120346693765,
              9.551738774727767
            ],
            [
              54.248422796622066,
              9.249723582913134
            ],
            [
              53.24173743971028,
              9.048389250028237
            ],
            [
              52.134357531381454,
              9.048389250028237
            ],
            [
              51.22833934091213,
              8.947722083585802
            ],
            [
              50.42298831688524,
              9.048389250028237
            ]
          ],
          [
            [
              47.302210309758294,
              15.692593391321026
            ],
            [
              48.006921552317294,
              15.390585045750015
            ],
            [
              48.61092455097199,
              15.088569853935383
            ],
            [
              49.51695643392861,
              14.484553162793418
            ],
            [
              50.22162659902577,
              13.880536471651425
            ],
            [
              51.02700500802723,
              13.175852614066969
            ],
            [
              51.631008006681924,
              12.873837422252336
            ],
            [
              52.335719249240924,
              12.471155063995269
            ],
            [
              52.83905508145318,
              11.96781238553936
            ],
            [
              53.74508696440978,
              11.061787348826385
            ],
            [
              54.3490899630645,
              10.558437824126855
            ],
            [
              54.953120346693765,
              10.15575546586976
            ],
            [
              55.65780420427819,
              9.65240594117023
            ],
            [
              56.36248806186265,
              8.64570689177117
            ]
          ],
          [
            [
              49.31560840855644,
              8.343698546200159
            ],
            [
              50.120959432583334,
              8.947722083585802
            ],
            [
              50.7249898162126,
              9.65240594117023
            ],
            [
              51.22833934091213,
              10.256422632312223
            ],
            [
              51.73167517312439,
              10.759772157011753
            ],
            [
              52.335719249240924,
              11.263114835467661
            ],
            [
              53.24173743971028,
              12.068479551981824
            ],
            [
              53.74508696440978,
              12.571829076681354
            ],
            [
              54.248422796622066,
              13.276519780509432
            ],
            [
              54.8524531802513,
              13.98120363809386
            ],
            [
              55.35580270495086,
              14.585220329235852
            ],
            [
              55.95980570360558,
              15.088569853935383
            ],
            [
              56.261820895420215,
              15.793253711519839
            ]
          ],
          [
            [
              46.496859285731404,
              12.773163409566251
            ],
            [
              45.28882590344742,
              12.471155063995269
            ],
            [
              44.181459687605894,
              12.269820731110372
            ],
            [
              43.17474694571956,
              12.068479551981824
            ],
            [
              42.26872875525021,
              11.96781238553936
            ],
            [
              41.56403120517848,
              11.867138372853276
            ],
            [
              40.75868018115159,
              11.766471206410813
            ],
            [
              39.852661990682265,
              11.665804039968378
            ]
          ],
          [
            [
              24.550855609298566,
              8.746374058213604
            ],
            [
              23.745490892784403,
              9.249723582913134
            ],
            [
              23.34282222701458,
              9.853747120298777
            ],
            [
              23.34282222701458,
              10.558437824126855
            ],
            [
              23.946838918156573,
              10.860439323454216
            ],
            [
              24.550855609298566,
              11.162454515268848
            ],
            [
              25.356206633325456,
              11.263114835467661
            ],
            [
              26.362905682724517,
              10.96110648989665
            ],
            [
              27.268937565681142,
              10.45776381144077
            ],
            [
              27.7722733978934,
              9.954414286741212
            ],
            [
              27.671606231450937,
              9.249723582913134
            ],
            [
              26.765588040981612,
              8.847041224656067
            ],
            [
              25.758888991582523,
              8.746374058213604
            ],
            [
              25.15487230044056,
              9.048389250028237
            ]
          ],
          [
            [
              38.14127908369875,
              9.249723582913134
            ],
            [
              37.53723500758221,
              9.853747120298777
            ],
            [
              37.73859672544165,
              10.659098144325668
            ],
            [
              38.040611917256285,
              11.263114835467661
            ],
            [
              38.644614915911006,
              11.665804039968378
            ],
            [
              39.349298773495434,
              11.867138372853276
            ],
            [
              40.154663490009625,
              11.766471206410813
            ],
            [
              40.658013014709155,
              11.263114835467661
            ],
            [
              40.859361040081325,
              10.558437824126855
            ],
            [
              40.75868018115159,
              9.753073107612693
            ],
            [
              40.154663490009625,
              9.249723582913134
            ],
            [
              39.14796444061054,
              9.249723582913134
            ]
          ],
          [
            [
              26.96693606635378,
              11.263114835467661
            ],
            [
              27.369604732123605,
              11.867138372853276
            ],
            [
              28.376303781522665,
              12.571829076681354
            ],
            [
              28.98032047266466,
              12.9745045886948
            ],
            [
              29.886338663133984,
              13.679188446279227
            ],
            [
              30.691703379648175,
              14.383885996350955
            ],
            [
              31.396400929719874,
              14.987902687492948
            ],
            [
              32.30241912018923,
              15.692593391321026
            ],
            [
              33.20845100314585,
              16.39727040266183
            ],
            [
              33.91313486073028,
              16.900633619848634
            ],
            [
              34.61783241080201,
              17.5046503109906
            ]
          ],
          [
            [
              4.416888313804407,
              19.61871557623121
            ],
            [
              4.316234839849244,
              18.914024872403132
            ],
            [
              4.416888313804407,
              17.80665865656161
            ],
            [
              4.517569172734142,
              16.79995960716255
            ],
            [
              4.517569172734142,
              15.793253711519839
            ],
            [
              4.618250031663877,
              14.887228674806863
            ],
            [
              4.819570672061502,
              13.98120363809386
            ],
            [
              4.920251530991237,
              13.175852614066969
            ],
            [
              5.020918697433672,
              12.471155063995269
            ],
            [
              5.121585863876135,
              11.766471206410813
            ],
            [
              5.322920196761032,
              10.860439323454216
            ],
            [
              5.52426822213323,
              10.055081453183675
            ],
            [
              5.725602555018128,
              9.350397595599247
            ],
            [
              6.631634437974753,
              9.14904957022705
            ],
            [
              7.436985462001644,
              9.14904957022705
            ],
            [
              8.645018844285602,
              9.249723582913134
            ],
            [
              10.05441394442903,
              9.350397595599247
            ],
            [
              11.262447326713016,
              9.45105791579806
            ],
            [
              13.17516456658143,
              9.65240594117023
            ],
            [
              14.18186361598049,
              9.753073107612693
            ],
            [
              15.188562665379578,
              9.954414286741212
            ],
            [
              16.19526171477864,
              10.15575546586976
            ],
            [
              17.403295097062625,
              10.357089798754657
            ],
            [
              18.712009338276317,
              10.558437824126855
            ],
            [
              19.517360362303208,
              10.659098144325668
            ],
            [
              20.725393744587194,
              10.759772157011753
            ],
            [
              21.933440819358424,
              10.759772157011753
            ],
            [
              22.839459009827777,
              10.860439323454216
            ],
            [
              23.846158059226866,
              10.759772157011753
            ],
            [
              24.95352427506839,
              10.860439323454216
            ],
            [
              25.758888991582523,
              10.860439323454216
            ],
            [
              26.46357284916698,
              10.759772157011753
            ]
          ],
          [
            [
              3.108187765077986,
              27.370282510243698
            ],
            [
              3.9135524815921485,
              27.370282510243698
            ],
            [
              4.718903505619039,
              27.370282510243698
            ],
            [
              5.926950580390297,
              27.470959946051607
            ],
            [
              7.235651129116718,
              27.672294278936505
            ],
            [
              8.54436537033044,
              27.772964868500765
            ],
            [
              9.85306591905686,
              27.873635458065053
            ],
            [
              10.658430635571023,
              27.873635458065053
            ],
            [
              11.463781659597913,
              27.974302624507487
            ],
            [
              12.470480708997002,
              28.074976637193572
            ],
            [
              13.477179758396062,
              28.074976637193572
            ],
            [
              14.383211641352688,
              28.074976637193572
            ],
            [
              15.591245023636645,
              28.17564722675786
            ],
            [
              16.69861123947817,
              28.276310970078498
            ],
            [
              17.403295097062625,
              28.477652149207017
            ],
            [
              18.107978954647052,
              28.57831931564948
            ]
          ],
          [
            [
              19.31601233693104,
              26.061581961517277
            ],
            [
              18.712009338276317,
              26.66559865265924
            ],
            [
              18.107978954647052,
              27.571627112494042
            ],
            [
              17.80597745531969,
              28.779663917899853
            ],
            [
              18.107978954647052,
              29.78635954417709
            ],
            [
              18.81267650471878,
              30.59171741444763
            ],
            [
              19.61802752874567,
              30.9943963495829
            ],
            [
              20.524059411702297,
              31.397078707839967
            ],
            [
              21.228756961773996,
              31.49774587428243
            ],
            [
              22.034107985800887,
              31.397078707839967
            ],
            [
              22.839459009827777,
              31.09506693914716
            ],
            [
              23.44347570096977,
              30.793058593576177
            ],
            [
              24.651522775741,
              29.987700723305636
            ],
            [
              25.15487230044056,
              29.383680609041846
            ],
            [
              25.45688749225519,
              28.779663917899853
            ],
            [
              25.557540966210354,
              27.974302624507487
            ],
            [
              25.15487230044056,
              27.370282510243698
            ],
            [
              24.45017475036883,
              26.66559865265924
            ],
            [
              23.846158059226866,
              26.26291971752397
            ],
            [
              23.040807035199947,
              25.75957019282444
            ],
            [
              21.933440819358424,
              25.45756184725346
            ],
            [
              20.926741769959364,
              25.15555007856065
            ],
            [
              20.1213770534452,
              25.15555007856065
            ],
            [
              19.416693195860745,
              25.356894680810996
            ]
          ],
          [
            [
              18.107978954647052,
              29.48434777548428
            ],
            [
              19.215345170488575,
              28.678993328335565
            ],
            [
              20.222044219887664,
              28.17564722675786
            ],
            [
              21.530758461101357,
              27.672294278936505
            ],
            [
              22.436790344057954,
              27.269615343801235
            ],
            [
              23.040807035199947,
              26.96761042135205
            ],
            [
              23.745490892784403,
              26.66559865265924
            ]
          ],
          [
            [
              19.718708387675377,
              24.048183862719128
            ],
            [
              20.32272507881737,
              24.652203976982918
            ],
            [
              21.027408936401798,
              25.356894680810996
            ],
            [
              21.83277365291599,
              26.16224912795971
            ],
            [
              22.336109485128247,
              26.66559865265924
            ],
            [
              22.839459009827777,
              27.269615343801235
            ],
            [
              23.34282222701458,
              27.873635458065053
            ],
            [
              23.846158059226866,
              28.57831931564948
            ],
            [
              24.349507583926368,
              29.08167568659266
            ],
            [
              24.95352427506839,
              29.58502521129219
            ]
          ],
          [
            [
              25.88529803410114,
              27.69760484166349
            ],
            [
              27.026457308536237,
              27.917061181456262
            ],
            [
              28.387066076520455,
              28.048731562210094
            ],
            [
              29.08932636385731,
              28.136514098127208
            ],
            [
              29.87935549462398,
              28.22429663404432
            ],
            [
              30.581602089473563,
              28.26818447888104
            ],
            [
              31.371644912727504,
              28.355967014798154
            ],
            [
              32.205572157696366,
              28.399858282756725
            ],
            [
              32.995601288463035,
              28.399858282756725
            ],
            [
              33.87341295514682,
              28.443749550715268
            ],
            [
              35.36570237325034,
              28.443749550715268
            ],
            [
              36.419079111768355,
              28.48764081867381
            ],
            [
              37.34077520016706,
              28.575423354590924
            ],
            [
              38.043035487503886,
              28.66320589050804
            ],
            [
              38.78916650406836,
              28.750981580181502
            ],
            [
              40.062006428622766,
              28.882658807178984
            ],
            [
              40.93981809530655,
              28.926546652015702
            ],
            [
              41.817643454477604,
              28.926546652015702
            ],
            [
              42.7832376570785,
              28.970437919974245
            ],
            [
              43.617164902047364,
              29.10211172384993
            ],
            [
              44.451092147016226,
              29.18989083664519
            ],
            [
              45.15332504937854,
              29.18989083664519
            ]
          ],
          [
            [
              46.470049395647834,
              35.11514012549165
            ],
            [
              46.38228055221799,
              33.71064008954886
            ],
            [
              46.294498016300906,
              32.87671284458
            ],
            [
              46.250613594585985,
              31.998901177896215
            ],
            [
              46.1628173661816,
              31.077194820132064
            ],
            [
              46.11894663695398,
              30.0677059264508
            ],
            [
              46.075034830264485,
              29.05822045589136
            ],
            [
              45.9872522943474,
              28.180408789207576
            ],
            [
              45.94336787263248,
              27.346481544238713
            ],
            [
              45.89948345091756,
              26.556445567228394
            ],
            [
              45.89948345091756,
              25.810300858176646
            ],
            [
              45.94336787263248,
              24.713036274821917
            ],
            [
              46.03115040854959,
              23.835214338772687
            ]
          ],
          [
            [
              48.97183113055445,
              32.13057155865005
            ],
            [
              48.88403490215006,
              31.033300129051696
            ],
            [
              48.79626605872022,
              29.49712628923325
            ],
            [
              48.79626605872022,
              28.794872848140045
            ],
            [
              48.79626605872022,
              27.56593446090966
            ],
            [
              48.75236794451803,
              26.68811937110405
            ]
          ],
          [
            [
              49.23516504581849,
              28.575423354590924
            ],
            [
              49.93742533315532,
              28.61931119942767
            ],
            [
              51.12248272179261,
              28.707093735344756
            ],
            [
              51.912511852559305,
              28.794872848140045
            ],
            [
              52.65865656161105,
              28.838764116098616
            ],
            [
              53.492583806579916,
              28.882658807178984
            ],
            [
              54.897090688766355,
              28.882658807178984
            ],
            [
              56.21381503503565,
              28.970437919974245
            ],
            [
              57.57442380301987,
              29.01432576481099
            ],
            [
              58.75946749916989,
              29.05822045589136
            ],
            [
              59.725061701770784,
              28.970437919974245
            ],
            [
              60.42732198910761,
              28.926546652015702
            ],
            [
              61.12958227644447,
              28.926546652015702
            ]
          ]
        ]
      }
    }
  ]
}