{
  "type": "FeatureCollection",
  "crs": {
    "type": "name",
    "properties": {
      "name": "urn:ogc:def:crs:OGC:1.3:CRS84"
    }
  },
  "features": [
    {
      "type": "Feature",
      "properties": {
        "timestamp": "2026-06-15T19:15:13.431438",
        "country_name": "United Kingdom",
        "author": "Hi",
        "author_id": "82eb82af-ba18-4f50-b91f-ad9a9585603c",
        "validated": false,
        "ranking": [
          [
            "South Korea",
            0.09505169093608856
          ],
          [
            "Guyana",
            0.07782643288373947
          ],
          [
            "Peru",
            0.06794696301221848
          ],
          [
            "Albania",
            0.06115918233990669
          ],
          [
            "Mozambique",
            0.04980578273534775
          ],
          [
            "Sri Lanka",
            0.041109465062618256
          ],
          [
            "Italy",
            0.03992190957069397
          ],
          [
            "Serbia",
            0.033934321254491806
          ],
          [
            "Bangladesh",
            0.023738957941532135
          ],
          [
            "Qatar",
            0.023595115169882774
          ],
          [
            "Thailand",
            0.020230533555150032
          ],
          [
            "Ireland",
            0.017078453674912453
          ],
          [
            "Finland",
            0.01640275865793228
          ],
          [
            "Laos",
            0.01598716340959072
          ],
          [
            "United Kingdom",
            0.015801087021827698
          ],
          [
            "Argentina",
            0.01538922730833292
          ],
          [
            "West Bank",
            0.015178204514086246
          ],
          [
            "Tunisia",
            0.014569033868610859
          ],
          [
            "Svalbard",
            0.013886312954127789
          ],
          [
            "Malawi",
            0.013349166139960289
          ],
          [
            "Greece",
            0.012816677801311016
          ],
          [
            "Philippines",
            0.012220432050526142
          ],
          [
            "Portugal",
            0.012090644799172878
          ],
          [
            "Tajikistan",
            0.009077228605747223
          ],
          [
            "Benin",
            0.008636576123535633
          ],
          [
            "Luxembourg",
            0.008576953783631325
          ],
          [
            "Croatia",
            0.008141277357935905
          ],
          [
            "Bahamas",
            0.00781506672501564
          ],
          [
            "France",
            0.007240242324769497
          ],
          [
            "Ghana",
            0.00706105213612318
          ],
          [
            "Somalia",
            0.0069404118694365025
          ],
          [
            "Togo",
            0.006924333516508341
          ],
          [
            "Iraq",
            0.006922286469489336
          ],
          [
            "Canada",
            0.006745391990989447
          ],
          [
            "Saudi Arabia",
            0.006167493294924498
          ],
          [
            "Greenland",
            0.006012581754475832
          ],
          [
            "Martinique",
            0.005832252558320761
          ],
          [
            "South Georgia Islands",
            0.005660959519445896
          ],
          [
            "Mexico",
            0.005628369748592377
          ],
          [
            "Guadeloupe",
            0.005530297756195068
          ],
          [
            "Bahrain",
            0.005406126379966736
          ],
          [
            "Denmark",
            0.004873559344559908
          ],
          [
            "Colombia",
            0.004804393742233515
          ],
          [
            "Vietnam",
            0.0046272543258965015
          ],
          [
            "Vanuatu",
            0.0044761463068425655
          ],
          [
            "Sweden",
            0.004469321575015783
          ],
          [
            "United States of America",
            0.00433987844735384
          ],
          [
            "Belize",
            0.004224791191518307
          ],
          [
            "Faroe Islands",
            0.004188429098576307
          ],
          [
            "Turkmenistan",
            0.004024785943329334
          ],
          [
            "Guatemala",
            0.003936263732612133
          ],
          [
            "Saint Lucia",
            0.0035423687659204006
          ],
          [
            "Dominica",
            0.0035216936375945807
          ],
          [
            "Myanmar",
            0.0033221414778381586
          ],
          [
            "Romania",
            0.003214634023606777
          ],
          [
            "Algeria",
            0.0032060127705335617
          ],
          [
            "Eritrea",
            0.003024797886610031
          ],
          [
            "Senegal",
            0.0025306609459221363
          ],
          [
            "Moldova",
            0.002503311261534691
          ],
          [
            "Heard and McDonald Islands",
            0.002468740101903677
          ],
          [
            "Congo",
            0.0022596949711441994
          ],
          [
            "El Salvador",
            0.002166005549952388
          ],
          [
            "Barbados",
            0.0020914552733302116
          ],
          [
            "Papua New Guinea",
            0.002088346052914858
          ],
          [
            "Namibia",
            0.0019881692714989185
          ],
          [
            "Ethiopia",
            0.0019833289552479982
          ],
          [
            "Germany",
            0.001963167218491435
          ],
          [
            "Cameroon",
            0.001947376993484795
          ],
          [
            "Mauritania",
            0.0019348112400621176
          ],
          [
            "Nepal",
            0.001917302724905312
          ],
          [
            "Gabon",
            0.0017332027200609446
          ],
          [
            "Taiwan",
            0.0017099156975746155
          ],
          [
            "Georgia",
            0.0016135025070980191
          ],
          [
            "Australia",
            0.0015546823851764202
          ],
          [
            "Lithuania",
            0.0014977806713432074
          ],
          [
            "Russia",
            0.001494365045800805
          ],
          [
            "Mayotte",
            0.0014725305372849107
          ],
          [
            "French Guiana",
            0.001403269125148654
          ],
          [
            "Samoa",
            0.0013445751974359155
          ],
          [
            "Spain",
            0.0013153209583833814
          ],
          [
            "Cuba",
            0.001307651400566101
          ],
          [
            "Belarus",
            0.0012658368796110153
          ],
          [
            "Turks and Caicos Islands",
            0.0012603680370375514
          ],
          [
            "Chad",
            0.001255152514204383
          ],
          [
            "Uganda",
            0.0012545565841719508
          ],
          [
            "Kuwait",
            0.0012054464314132929
          ],
          [
            "Uzbekistan",
            0.0011921549448743463
          ],
          [
            "Guinea",
            0.0011828256538137794
          ],
          [
            "Costa Rica",
            0.0011532348580658436
          ],
          [
            "Burundi",
            0.0011518080718815327
          ],
          [
            "Eswatini",
            0.001143673318438232
          ],
          [
            "Norway",
            0.0011083846911787987
          ],
          [
            "Netherlands",
            0.0010671885684132576
          ],
          [
            "Zimbabwe",
            0.0010210509644821286
          ],
          [
            "Azerbaijan",
            0.0010174447670578957
          ],
          [
            "New Zealand",
            0.0009617735631763935
          ],
          [
            "Reunion",
            0.0009563279454596341
          ],
          [
            "Israel",
            0.0009325118735432625
          ],
          [
            "Suriname",
            0.0008812021696940064
          ],
          [
            "Djibouti",
            0.0008697190205566585
          ],
          [
            "Kiribati",
            0.0008313666330650449
          ],
          [
            "Rwanda",
            0.0007950481376610696
          ],
          [
            "Iran",
            0.0007793954573571682
          ],
          [
            "Latvia",
            0.0007607166771776974
          ],
          [
            "Sierra Leone",
            0.000752714928239584
          ],
          [
            "Czech Republic",
            0.0007450659177266061
          ],
          [
            "Kenya",
            0.0007238333346322179
          ],
          [
            "Liberia",
            0.0007150348392315209
          ],
          [
            "Ukraine",
            0.0007138002547435462
          ],
          [
            "Solomon Islands",
            0.0007096341578289866
          ],
          [
            "Trinidad and Tobago",
            0.0006993495626375079
          ],
          [
            "Hong Kong",
            0.0006759349489584565
          ],
          [
            "Nicaragua",
            0.0006432640948332846
          ],
          [
            "Estonia",
            0.000635282602161169
          ],
          [
            "Fiji",
            0.000624700216576457
          ],
          [
            "Antigua & Barbuda",
            0.0006183002260513604
          ],
          [
            "India",
            0.0006146035739220679
          ],
          [
            "Falkland Islands",
            0.0006074663833715022
          ],
          [
            "Cape Verde",
            0.0006009929347783327
          ],
          [
            "Paraguay",
            0.0005959192058071494
          ],
          [
            "Oman",
            0.0005938654649071395
          ],
          [
            "New Caledonia",
            0.0005916494992561638
          ],
          [
            "DR Congo",
            0.0005892742774449289
          ],
          [
            "Angola",
            0.0005846985150128603
          ],
          [
            "Indonesia",
            0.0005780817591585219
          ],
          [
            "Armenia",
            0.0005745137459598482
          ],
          [
            "Belgium",
            0.0005575456307269633
          ],
          [
            "Bolivia",
            0.0005431746249087155
          ],
          [
            "South Sudan",
            0.0005400496302172542
          ],
          [
            "Mali",
            0.0005357304471544921
          ],
          [
            "Lesotho",
            0.000494830310344696
          ],
          [
            "United States Virgin Islands",
            0.000483729992993176
          ],
          [
            "Switzerland",
            0.00046870147343724966
          ],
          [
            "Montenegro",
            0.0004607753362506628
          ],
          [
            "North Macedonia",
            0.0004568513249978423
          ],
          [
            "Guinea-Bissau",
            0.0004518027708400041
          ],
          [
            "Dominican Republic",
            0.0004422046768013388
          ],
          [
            "Jamaica",
            0.00044030766002833843
          ],
          [
            "Chile",
            0.0004362283507362008
          ],
          [
            "Iceland",
            0.00043603035737760365
          ],
          [
            "Guam",
            0.00042785785626620054
          ],
          [
            "Comoros",
            0.0004261694266460836
          ],
          [
            "Kazakhstan",
            0.00042377097997814417
          ],
          [
            "Burkina Faso",
            0.0004031767894048244
          ],
          [
            "Jordan",
            0.00038761747418902814
          ],
          [
            "Slovakia",
            0.0003839479177258909
          ],
          [
            "Japan",
            0.0003782910935115069
          ],
          [
            "Côte d'Ivoire",
            0.00037257757503539324
          ],
          [
            "Mongolia",
            0.0003695611085277051
          ],
          [
            "Equatorial Guinea",
            0.00036597318830899894
          ],
          [
            "Lebanon",
            0.00036438580718822777
          ],
          [
            "Turkey",
            0.000358046789187938
          ],
          [
            "China",
            0.0003554699069354683
          ],
          [
            "Timor-Leste",
            0.0003458981809671968
          ],
          [
            "Egypt",
            0.0003367685421835631
          ],
          [
            "Venezuela",
            0.00032752356491982937
          ],
          [
            "Isle of Man",
            0.00032454237225465477
          ],
          [
            "Madagascar",
            0.0003055138513445854
          ],
          [
            "Bosnia & Herzegovina",
            0.00029877154156565666
          ],
          [
            "Sudan",
            0.0002882237604353577
          ],
          [
            "Bhutan",
            0.00028633774491027
          ],
          [
            "Syria",
            0.00027808654704131186
          ],
          [
            "Kyrgyzstan",
            0.0002773698070086539
          ],
          [
            "Brazil",
            0.0002771566796582192
          ],
          [
            "Uruguay",
            0.00027181519544683397
          ],
          [
            "Central African Republic",
            0.0002691675035748631
          ],
          [
            "South Africa",
            0.0002519125700928271
          ],
          [
            "Poland",
            0.00024920146097429097
          ],
          [
            "Puerto Rico",
            0.00024575009592808783
          ],
          [
            "Cambodia",
            0.0002385842817602679
          ],
          [
            "Western Sahara",
            0.00022795591212343425
          ],
          [
            "Yemen",
            0.00020860201038885862
          ],
          [
            "Honduras",
            0.0002029404859058559
          ],
          [
            "Niger",
            0.00019975949544459581
          ],
          [
            "Brunei",
            0.00019714023801498115
          ],
          [
            "Panama",
            0.00019574417092371732
          ],
          [
            "Ecuador",
            0.0001918314810609445
          ],
          [
            "Palau",
            0.0001893179869512096
          ],
          [
            "Zambia",
            0.0001855765876825899
          ],
          [
            "Libya",
            0.00017908307199832052
          ],
          [
            "United Arab Emirates",
            0.00016967700503300875
          ],
          [
            "Sao Tome and Principe",
            0.00015684179379604757
          ],
          [
            "North Korea",
            0.00015528500080108643
          ],
          [
            "Gambia",
            0.00012710691953543574
          ],
          [
            "Botswana",
            0.00011369802814442664
          ],
          [
            "Netherlands Antilles",
            0.0001047445330186747
          ],
          [
            "Nigeria",
            0.00010003375791711733
          ],
          [
            "Madeira Islands",
            9.249809954781085e-05
          ],
          [
            "Tanzania",
            8.660073217470199e-05
          ],
          [
            "Cyprus",
            8.320959750562906e-05
          ],
          [
            "Afghanistan",
            7.619127427460626e-05
          ],
          [
            "Haiti",
            7.06755236024037e-05
          ],
          [
            "Malaysia",
            5.825320477015339e-05
          ],
          [
            "Pakistan",
            5.680975300492719e-05
          ],
          [
            "Morocco",
            4.7613033530069515e-05
          ],
          [
            "Slovenia",
            4.156258364673704e-05
          ],
          [
            "Hungary",
            4.0416132833343e-05
          ],
          [
            "Bulgaria",
            3.893934626830742e-05
          ],
          [
            "Austria",
            3.525150896166451e-05
          ]
        ]
      },
      "geometry": {
        "type": "MultiLineString",
        "coordinates": [
          [
            [
              27.936749764355795,
              7.419359266902916
            ],
            [
              27.60505579003592,
              6.976962178546671
            ],
            [
              26.720542746400383,
              6.3133665460123325
            ],
            [
              25.393766849120993,
              5.760365120106201
            ],
            [
              24.78566080741291,
              5.4285723692999
            ],
            [
              24.34340175286468,
              5.207373825121806
            ],
            [
              23.956425871613305,
              5.041474916988193
            ],
            [
              23.514166817065075,
              4.8202713073492305
            ],
            [
              23.071910295247335,
              4.599077828632005
            ],
            [
              22.40852234660764,
              4.3225796484093735
            ],
            [
              21.800418837629934,
              4.101381104231223
            ],
            [
              21.413441690013315,
              3.935477130636798
            ],
            [
              20.97118263546514,
              3.769588353424922
            ],
            [
              20.58420675421371,
              3.603689445291309
            ],
            [
              20.307794686825446,
              3.49308004228061
            ],
            [
              19.86553816500765,
              3.3271912650686772
            ],
            [
              19.2021514827332,
              2.995393448801508
            ],
            [
              18.59404417465987,
              2.7188952685788763
            ],
            [
              18.096504479545274,
              2.55299636044532
            ],
            [
              17.598963518065545,
              2.3871025177725755
            ],
            [
              17.046140649654205,
              2.2764981802226885
            ],
            [
              16.659164768402775,
              2.2211985441781508
            ],
            [
              16.21690698021979,
              2.1105992720890754
            ],
            [
              15.71936728510525,
              2.0
            ],
            [
              15.387673310785374,
              2.0
            ],
            [
              15.055979336465555,
              2.0552996360445377
            ],
            [
              14.669003455214124,
              2.1659039735944816
            ],
            [
              14.447875827487849,
              2.3317927508063576
            ],
            [
              14.282027573962694,
              2.55299636044532
            ],
            [
              14.171463760099584,
              2.8294996061288202
            ],
            [
              14.116180586802784,
              3.1059927208905833
            ],
            [
              14.226745667031139,
              3.382490901113215
            ],
            [
              14.337309480894305,
              3.769588353424922
            ],
            [
              14.447875827487849,
              4.0460865336475536
            ],
            [
              14.724285362145679,
              4.211985441781167
            ],
            [
              15.055979336465555,
              4.3225796484093735
            ],
            [
              15.33239140385382,
              4.377874218993043
            ],
            [
              15.664085378173638,
              4.4331839859592606
            ],
            [
              15.940496179196714,
              4.488483622003798
            ],
            [
              16.272188887151344,
              4.543778192587467
            ],
            [
              16.60388286147122,
              4.599077828632005
            ],
            [
              16.659164768402775,
              4.875581074315448
            ],
            [
              16.493319047608054,
              5.096779618493599
            ],
            [
              16.272188887151344,
              5.262668395705475
            ],
            [
              16.21690698021979,
              5.539176706849787
            ],
            [
              16.382755233744945,
              5.815669821611607
            ],
            [
              16.76973111499632,
              5.981558598823483
            ],
            [
              17.046140649654205,
              6.092168001834239
            ],
            [
              17.48839970420238,
              6.147462572417908
            ],
            [
              17.764811771590644,
              6.202762208462445
            ],
            [
              18.096504479545274,
              6.36866618205687
            ],
            [
              18.37291528056835,
              6.534565090190426
            ],
            [
              18.649327347956614,
              6.7004639983240395
            ],
            [
              18.981020055911245,
              6.811058204952246
            ],
            [
              19.31271529659631,
              7.087556385174878
            ],
            [
              19.69969117784774,
              7.364059630858378
            ],
            [
              20.03138388580237,
              7.585258175036472
            ],
            [
              20.307794686825446,
              7.751146952248405
            ],
            [
              20.58420675421371,
              7.9723505618873105
            ],
            [
              20.805335648305174,
              8.193544040604593
            ],
            [
              21.081747715693496,
              8.414747650243555
            ],
            [
              21.30287534341977,
              8.580646558377111
            ],
            [
              21.579287410808035,
              8.746545466510725
            ],
            [
              21.8556994781963,
              8.9124342437226
            ],
            [
              22.132110279219376,
              9.078338217317025
            ],
            [
              22.40852234660764,
              9.299541826955988
            ],
            [
              22.684933147630716,
              9.4654407350896
            ],
            [
              22.96134521501898,
              9.631339643223157
            ],
            [
              23.29303792297361,
              9.797228420435033
            ],
            [
              23.569449990361875,
              9.963132394029458
            ],
            [
              23.901142698316505,
              10.073736731579402
            ],
            [
              24.23283667263638,
              10.184330938207609
            ],
            [
              24.61981508661819,
              10.350234911802033
            ],
            [
              24.95150652820763,
              10.51613381993559
            ],
            [
              25.28320050252745,
              10.73733236411374
            ],
            [
              25.559612569915714,
              10.958530908291834
            ],
            [
              25.78074019764199,
              11.179729452469928
            ],
            [
              26.0018703580987,
              11.456222567231748
            ],
            [
              26.222997985824975,
              11.677421111409842
            ],
            [
              26.44413067901212,
              11.953919291632474
            ],
            [
              26.665258306738394,
              12.175117835810568
            ],
            [
              26.88638593446467,
              12.34101674394418
            ],
            [
              27.162798001852934,
              12.562215288122275
            ],
            [
              27.439210069241255,
              12.783413832300369
            ],
            [
              27.66033769696753,
              13.059912012523
            ],
            [
              27.77090151083064,
              13.33640512728482
            ],
            [
              27.82618595049263,
              13.612903307507452
            ],
            [
              27.71562213662952,
              14.000000759819159
            ],
            [
              27.60505579003592,
              14.33179351062546
            ],
            [
              27.383925629579267,
              14.774190598981704
            ],
            [
              27.162798001852934,
              15.161288051293411
            ],
            [
              26.996949748327836,
              15.493090933021392
            ],
            [
              26.88638593446467,
              15.769589113244024
            ],
            [
              26.720542746400383,
              15.990787657422175
            ],
            [
              26.38884623935013,
              16.267280772183938
            ],
            [
              26.112434171961866,
              16.599083653911975
            ],
            [
              25.8360221045736,
              16.930876404718276
            ],
            [
              25.44904622332217,
              17.207374584940908
            ],
            [
              25.11735478173273,
              17.37327349307452
            ],
            [
              24.78566080741291,
              17.317973857029983
            ],
            [
              24.398686192526725,
              17.15207494889637
            ],
            [
              24.122274125138404,
              16.930876404718276
            ],
            [
              23.790578884453396,
              16.87557676867374
            ],
            [
              23.403603003201965,
              16.87557676867374
            ],
            [
              22.96134521501898,
              16.930876404718276
            ],
            [
              22.629651240699104,
              16.986176040762814
            ],
            [
              22.35323917331084,
              16.986176040762814
            ],
            [
              22.02154646535621,
              16.87557676867374
            ],
            [
              21.745134397967945,
              16.76497749658472
            ],
            [
              21.46872359694487,
              16.986176040762814
            ],
            [
              21.358158516716514,
              17.317973857029983
            ],
            [
              21.13702962262505,
              17.649771673297153
            ],
            [
              20.91589946216834,
              17.870970217475246
            ],
            [
              20.694771834442065,
              18.03686912560886
            ],
            [
              20.473642940350544,
              18.202768033742416
            ],
            [
              20.14194769966548,
              18.313362240370623
            ],
            [
              19.86553816500765,
              18.202768033742416
            ],
            [
              19.64440800455094,
              17.981569489564322
            ],
            [
              19.478563550121464,
              17.76037094538617
            ],
            [
              19.14686704307121,
              17.539172401208077
            ],
            [
              18.870456242048135,
              17.262669155524577
            ],
            [
              18.483480360796705,
              17.041470611346483
            ],
            [
              18.096504479545274,
              16.930876404718276
            ],
            [
              17.7095285982939,
              16.986176040762814
            ],
            [
              17.48839970420238,
              17.15207494889637
            ],
            [
              17.377834623974024,
              17.483867699702728
            ],
            [
              17.267270810110915,
              17.81567058143071
            ],
            [
              17.267270810110915,
              18.258067669786954
            ],
            [
              17.267270810110915,
              18.64516512209866
            ],
            [
              17.15670699624775,
              18.921658236860424
            ],
            [
              17.046140649654205,
              19.198156417083055
            ],
            [
              16.990858742722594,
              19.529959298811093
            ],
            [
              17.046140649654205,
              19.91705168566193
            ],
            [
              17.10142382295095,
              20.19354480042375
            ],
            [
              17.267270810110915,
              20.414743344601845
            ],
            [
              17.48839970420238,
              20.63594188877994
            ],
            [
              17.82009241215701,
              20.91244513446344
            ],
            [
              18.151787652842074,
              21.24423788526974
            ],
            [
              18.42819972023034,
              21.520736065492372
            ],
            [
              18.649327347956614,
              21.741934609670466
            ],
            [
              18.870456242048135,
              21.90783351780408
            ],
            [
              19.036303229208045,
              22.129032061982173
            ],
            [
              19.31271529659631,
              22.23963639953206
            ],
            [
              19.589126097619385,
              22.405530242204804
            ],
            [
              19.754971818414106,
              22.626728786382955
            ],
            [
              19.81025499171085,
              22.90322190114472
            ],
            [
              19.64440800455094,
              23.400923691006312
            ],
            [
              19.478563550121464,
              23.78801607785715
            ],
            [
              19.31271529659631,
              24.230413166213395
            ],
            [
              19.31271529659631,
              24.506916411896896
            ],
            [
              19.31271529659631,
              24.838709162703196
            ],
            [
              19.367995937162675,
              25.115207342925828
            ],
            [
              19.589126097619385,
              25.391700457687648
            ],
            [
              19.86553816500765,
              25.612899001865742
            ],
            [
              20.08666705909917,
              25.778802975460167
            ],
            [
              20.473642940350544,
              26.00000151963826
            ],
            [
              20.750055007738865,
              26.110600791727336
            ],
            [
              20.97118263546514,
              26.27649463440008
            ],
            [
              21.081747715693496,
              26.608294983397684
            ],
            [
              20.860618821601975,
              26.774196424261675
            ],
            [
              20.58420675421371,
              26.99539496843977
            ],
            [
              20.4183597670538,
              27.271890615931966
            ],
            [
              20.4183597670538,
              27.603688432199192
            ],
            [
              20.58420675421371,
              27.824886976377286
            ],
            [
              20.860618821601975,
              28.10138009113905
            ],
            [
              20.91589946216834,
              28.377880804092115
            ],
            [
              20.91589946216834,
              28.709678620359284
            ],
            [
              20.91589946216834,
              28.98617426785154
            ],
            [
              20.58420675421371,
              29.262674980804547
            ],
            [
              20.25251531262427,
              29.428571356207726
            ],
            [
              19.920818805574015,
              29.594472797071717
            ],
            [
              19.64440800455094,
              29.760369172474896
            ],
            [
              19.423279110459475,
              30.03686988542796
            ],
            [
              19.2021514827332,
              30.258063364145244
            ],
            [
              18.981020055911245,
              30.53456407709831
            ],
            [
              18.75989116181978,
              30.755762621276403
            ],
            [
              18.59404417465987,
              31.032255736038167
            ],
            [
              18.538763534093505,
              31.308756448991232
            ],
            [
              18.483480360796705,
              31.6405542652584
            ],
            [
              18.483480360796705,
              32.02765171757011
            ],
            [
              18.483480360796705,
              32.359447001106844
            ],
            [
              18.59404417465987,
              32.63594771405991
            ],
            [
              18.870456242048135,
              32.746546986148985
            ],
            [
              19.14686704307121,
              32.91244336155211
            ],
            [
              19.423279110459475,
              33.02304263364118
            ],
            [
              19.69969117784774,
              33.13364190573026
            ],
            [
              19.976103245236004,
              33.244241177819276
            ],
            [
              20.307794686825446,
              33.244241177819276
            ],
            [
              20.58420675421371,
              33.299535748403
            ],
            [
              20.860618821601975,
              33.46543972199743
            ],
            [
              21.192311529556605,
              33.520734292581096
            ],
            [
              21.46872359694487,
              33.520734292581096
            ],
            [
              21.8556994781963,
              33.35484044990835
            ],
            [
              22.132110279219376,
              33.18893900904436
            ],
            [
              22.40852234660764,
              33.07833720422485
            ],
            [
              22.684933147630716,
              32.91244336155211
            ],
            [
              22.96134521501898,
              32.69124481737401
            ],
            [
              23.1271909358137,
              32.47004627319592
            ],
            [
              23.3483223626356,
              32.08295135361465
            ],
            [
              23.514166817065075,
              31.861752809436553
            ],
            [
              23.790578884453396,
              31.695851368572505
            ],
            [
              24.01170904491005,
              31.529954993169383
            ],
            [
              24.288118579567936,
              31.308756448991232
            ],
            [
              24.5645306469562,
              31.142857540857676
            ],
            [
              25.227918595595895,
              31.087560437543573
            ],
            [
              25.50433066298416,
              31.087560437543573
            ],
            [
              26.05715226503031,
              31.198157176902214
            ],
            [
              26.55469196014485,
              31.36405608503577
            ],
            [
              26.94167037412666,
              31.419355721080308
            ],
            [
              27.21808244151498,
              31.253454280216317
            ],
            [
              27.494494508903244,
              31.142857540857676
            ],
            [
              27.82618595049263,
              31.087560437543573
            ],
            [
              28.10259801788095,
              31.142857540857676
            ],
            [
              28.434289459470335,
              31.253454280216317
            ],
            [
              28.655419619927045,
              31.47465282439441
            ],
            [
              28.5448532733335,
              31.751153537347477
            ],
            [
              28.37900755253878,
              31.97235208152557
            ],
            [
              28.047313578218905,
              32.193550625703665
            ],
            [
              27.77090151083064,
              32.359447001106844
            ],
            [
              27.494494508903244,
              32.69124481737401
            ],
            [
              27.32864625537809,
              32.96774553032708
            ],
            [
              27.162798001852934,
              33.18893900904436
            ],
            [
              26.996949748327836,
              33.46543972199743
            ],
            [
              26.94167037412666,
              33.74193283675919
            ],
            [
              26.94167037412666,
              34.12903282180133
            ],
            [
              27.052234187989825,
              34.40552846929353
            ],
            [
              27.21808244151498,
              34.682029182246595
            ],
            [
              27.494494508903244,
              34.682029182246595
            ],
            [
              27.77090151083064,
              34.57142991015752
            ],
            [
              28.047313578218905,
              34.40552846929353
            ],
            [
              28.323725645607226,
              34.184329925115435
            ],
            [
              28.5448532733335,
              34.018433549712256
            ],
            [
              28.76598596652059,
              33.797237538264596
            ],
            [
              29.04239803390891,
              33.576038994086446
            ],
            [
              29.374089475498295,
              33.299535748403
            ],
            [
              29.705780917087736,
              32.96774553032708
            ],
            [
              29.926911077544446,
              32.69124481737401
            ],
            [
              30.20332314493271,
              32.414749169881816
            ],
            [
              30.42445330538942,
              32.248847729017825
            ],
            [
              30.70086284004725,
              32.248847729017825
            ],
            [
              30.977274907435515,
              32.359447001106844
            ],
            [
              31.198405067892224,
              32.58064554528494
            ],
            [
              31.198405067892224,
              32.857146258238004
            ],
            [
              31.198405067892224,
              33.13364190573026
            ],
            [
              31.36425332141738,
              33.410137553222455
            ],
            [
              31.585380949143655,
              33.63133609740055
            ],
            [
              31.751226669938376,
              33.963131380937284
            ],
            [
              31.86179301653192,
              34.23963209389035
            ],
            [
              31.86179301653192,
              34.62672701347162
            ],
            [
              31.695944763006764,
              34.90322772642469
            ],
            [
              31.530096509481666,
              35.17972337391694
            ],
            [
              31.2536844420934,
              35.45622408686995
            ],
            [
              30.977274907435515,
              35.6774226310481
            ],
            [
              30.70086284004725,
              35.898616109765385
            ],
            [
              30.47973267959054,
              36.175116822718394
            ],
            [
              30.20332314493271,
              36.451609937480214
            ],
            [
              30.03747742413799,
              36.67280848165831
            ],
            [
              29.816349796411714,
              37.00460883065591
            ],
            [
              29.65050154288656,
              37.39170628296762
            ],
            [
              29.53993772902345,
              37.88940047463791
            ],
            [
              29.48465328936146,
              38.497699003858145
            ],
            [
              29.374089475498295,
              39.16128703820124
            ],
            [
              29.208241221973196,
              39.76958556742147
            ],
            [
              29.04239803390891,
              40.267279759091764
            ],
            [
              28.821265340721766,
              40.59908010808937
            ],
            [
              28.655419619927045,
              40.9308753916261
            ],
            [
              28.489573899132324,
              41.26267320789327
            ],
            [
              28.434289459470335,
              41.649768127474545
            ],
            [
              28.37900755253878,
              42.036868112516686
            ],
            [
              28.37900755253878,
              42.479265200872874
            ],
            [
              28.37900755253878,
              42.921659756498684
            ],
            [
              28.434289459470335,
              43.25345757276585
            ],
            [
              28.489573899132324,
              43.58525538903302
            ],
            [
              28.489573899132324,
              43.91705320530019
            ],
            [
              28.489573899132324,
              44.304148124881465
            ],
            [
              28.5448532733335,
              44.801842316551756
            ],
            [
              28.60013771299549,
              45.244239404908
            ],
            [
              28.76598596652059,
              45.63133685721971
            ],
            [
              28.931829154584875,
              45.90783503744234
            ],
            [
              29.152959315041585,
              46.18433321766497
            ],
            [
              29.263525661635185,
              46.46082886515717
            ],
            [
              29.48465328936146,
              46.79262668142434
            ],
            [
              29.65050154288656,
              47.069127394377404
            ],
            [
              29.59521710322457,
              47.34562304186966
            ],
            [
              29.318805035836306,
              47.56682158604775
            ],
            [
              28.98711359424692,
              47.89861940231492
            ],
            [
              28.655419619927045,
              48.894010318385995
            ],
            [
              28.489573899132324,
              49.44700667883126
            ],
            [
              28.323725645607226,
              50.11059851226997
            ],
            [
              28.15787739208207,
              50.49769723094687
            ],
            [
              27.936749764355795,
              50.66359487271524
            ],
            [
              27.71562213662952,
              50.82949504721404
            ],
            [
              27.439210069241255,
              50.94009431930306
            ],
            [
              27.10751609492138,
              50.995392688982406
            ],
            [
              26.77582212060156,
              50.995392688982406
            ],
            [
              26.38884623935013,
              51.10599196107148
            ],
            [
              26.05715226503031,
              51.27188960283985
            ],
            [
              25.78074019764199,
              51.54838904942767
            ],
            [
              25.44904622332217,
              51.88018686569484
            ],
            [
              25.11735478173273,
              52.2672830516413
            ],
            [
              24.840942714344465,
              52.82027561299094
            ],
            [
              24.5645306469562,
              53.37327197343626
            ],
            [
              24.288118579567936,
              53.81566906179245
            ],
            [
              24.066989685476415,
              54.313364519827985
            ],
            [
              23.790578884453396,
              54.70046197213969
            ],
            [
              23.569449990361875,
              54.921660516317786
            ],
            [
              23.23775474967681,
              55.0875594244514
            ],
            [
              22.90606204172218,
              55.25345579985458
            ],
            [
              22.574370600132738,
              55.47465434403267
            ],
            [
              22.297958532744474,
              55.7511525242553
            ],
            [
              22.076827105922575,
              56.08295034052247
            ],
            [
              21.966263292059466,
              56.470046526468934
            ],
            [
              21.8556994781963,
              56.91244361482518
            ],
            [
              21.800418837629934,
              57.29953980077164
            ],
            [
              21.966263292059466,
              57.63133761703881
            ],
            [
              22.24267535944773,
              57.90783579726144
            ],
            [
              22.51908616047075,
              58.18433207793629
            ],
            [
              22.79549822785907,
              58.405530622114384
            ],
            [
              23.016627121950535,
              58.571429530248
            ],
            [
              23.182474109110444,
              58.84792771047063
            ],
            [
              23.403603003201965,
              59.17972362718996
            ],
            [
              23.62473063092824,
              59.40092217136805
            ],
            [
              23.84586205775014,
              59.566821079501665
            ],
            [
              24.122274125138404,
              59.73271998763522
            ],
            [
              24.453965566727845,
              59.898618895768834
            ],
            [
              24.730378900481355,
              60.17511580962622
            ],
            [
              24.896227154006453,
              60.39631435380437
            ],
            [
              24.730378900481355,
              60.72811217007154
            ],
            [
              24.453965566727845,
              60.8940110782051
            ],
            [
              24.122274125138404,
              61.00460845074633
            ],
            [
              23.84586205775014,
              61.05990808679087
            ],
            [
              23.569449990361875,
              61.281106630968964
            ],
            [
              23.29303792297361,
              61.281106630968964
            ],
            [
              23.23775474967681,
              61.61290444723613
            ],
            [
              23.62473063092824,
              61.778803355369746
            ],
            [
              24.34340175286468,
              61.88940072791098
            ],
            [
              24.61981508661819,
              61.94470036395552
            ],
            [
              25.11735478173273,
              62.0
            ],
            [
              25.393766849120993,
              61.94470036395552
            ],
            [
              26.0018703580987,
              61.94470036395552
            ],
            [
              26.720542746400383,
              61.88940072791098
            ],
            [
              27.82618595049263,
              61.778803355369746
            ],
            [
              28.37900755253878,
              61.72350371932521
            ],
            [
              29.65050154288656,
              61.61290444723613
            ],
            [
              30.313889491526254,
              61.557604811191595
            ],
            [
              31.585380949143655,
              61.502305175147114
            ],
            [
              32.248766365052916,
              61.44700553910258
            ],
            [
              33.575542262332306,
              61.3364062670135
            ],
            [
              34.18365083677082,
              61.22580699492448
            ],
            [
              35.234012133931515,
              61.11520772283541
            ],
            [
              35.73155436177649,
              61.05990808679087
            ],
            [
              36.450221684617304,
              60.83871144216056
            ],
            [
              36.726633752005625,
              60.72811217007154
            ],
            [
              37.279457886782154,
              60.50691362589339
            ],
            [
              37.61114679564116,
              60.45161398984891
            ],
            [
              38.27453727701129,
              60.45161398984891
            ],
            [
              38.550949344399555,
              60.45161398984891
            ],
            [
              39.15905032064683,
              60.56221326193793
            ],
            [
              39.546028734628635,
              60.617512897982465
            ],
            [
              40.31997796440106,
              60.8940110782051
            ],
            [
              40.65167700418175,
              61.00460845074633
            ],
            [
              41.20449354076703,
              61.11520772283541
            ],
            [
              41.867884022137105,
              61.170507358879945
            ],
            [
              42.47598499838443,
              61.170507358879945
            ],
            [
              42.7523970657727,
              61.170507358879945
            ],
            [
              43.24993676088724,
              61.22580699492448
            ],
            [
              43.74748405419308,
              61.281106630968964
            ],
            [
              44.35558503044035,
              61.3364062670135
            ],
            [
              44.90840663248645,
              61.3364062670135
            ],
            [
              45.40594632760099,
              61.39170590305804
            ],
            [
              45.90348855544596,
              61.3364062670135
            ],
            [
              46.40102825056056,
              61.22580699492448
            ],
            [
              46.73272475761081,
              61.00460845074633
            ],
            [
              47.009136824999075,
              60.78341180611608
            ],
            [
              47.11970570432305,
              60.50691362589339
            ],
            [
              47.11970570432305,
              60.17511580962622
            ],
            [
              47.009136824999075,
              59.898618895768834
            ],
            [
              46.8985679456751,
              59.6221207155462
            ],
            [
              46.78800413181193,
              59.34562253532357
            ],
            [
              46.73272475761081,
              59.06912435510088
            ],
            [
              46.566881569546524,
              58.73732843838155
            ],
            [
              46.456312690222546,
              58.46083025815892
            ],
            [
              46.23518506249627,
              58.12903180870916
            ],
            [
              46.12461618317229,
              57.852536161216904
            ],
            [
              45.84820411578397,
              57.46543870890525
            ],
            [
              45.46123076726303,
              57.023042886914254
            ],
            [
              45.07425235328117,
              56.63594543460255
            ],
            [
              44.797845351353715,
              56.24884798229084
            ],
            [
              44.63199456509818,
              55.9723510684334
            ],
            [
              44.466151377033896,
              55.7511525242553
            ],
            [
              44.18973930964563,
              55.419354707988134
            ],
            [
              44.07917296305209,
              55.0875594244514
            ],
            [
              43.96860914918892,
              54.81106124422877
            ],
            [
              43.96860914918892,
              54.534563064006136
            ],
            [
              44.18973930964563,
              54.36866415587252
            ],
            [
              44.466151377033896,
              54.14746687805962
            ],
            [
              44.63199456509818,
              53.870968697836986
            ],
            [
              44.797845351353715,
              53.64977015365889
            ],
            [
              44.963691072148436,
              53.31797360375691
            ],
            [
              44.963691072148436,
              52.98617578748974
            ],
            [
              44.963691072148436,
              52.65437797122257
            ],
            [
              44.963691072148436,
              52.377882323730375
            ],
            [
              44.963691072148436,
              52.046084507463206
            ],
            [
              44.90840663248645,
              51.60368741910702
            ],
            [
              44.797845351353715,
              51.161290330750774
            ],
            [
              44.74256344442216,
              50.82949504721404
            ],
            [
              44.797845351353715,
              50.55299560062616
            ],
            [
              44.90840663248645,
              50.22119778435899
            ],
            [
              45.18481869987471,
              50.055300142590625
            ],
            [
              45.51651267419459,
              49.8894037671875
            ],
            [
              45.68235839498931,
              49.66820522300935
            ],
            [
              45.68235839498931,
              49.225808134653164
            ],
            [
              45.68235839498931,
              48.672811774207844
            ],
            [
              45.57179964658701,
              47.843318499905195
            ],
            [
              45.51651267419459,
              47.51151941727278
            ],
            [
              45.295387579198746,
              46.84792885019931
            ],
            [
              45.18481869987471,
              46.51613103393214
            ],
            [
              44.797845351353715,
              45.797235765353264
            ],
            [
              44.63199456509818,
              45.41013831304156
            ],
            [
              44.18973930964563,
              44.69124304446274
            ],
            [
              44.02388852339004,
              44.41474739697048
            ],
            [
              43.69219708180066,
              43.80645393321112
            ],
            [
              43.41578754714277,
              43.14285830067678
            ],
            [
              43.24993676088724,
              42.589861940231515
            ],
            [
              43.139375479754506,
              42.20276448791981
            ],
            [
              43.08409104009252,
              41.815669568338535
            ],
            [
              43.139375479754506,
              41.483871752071366
            ],
            [
              43.139375479754506,
              41.09677683249009
            ],
            [
              43.02880913316096,
              40.48848083600029
            ],
            [
              42.91824785202823,
              40.21198265577766
            ],
            [
              42.58655134497798,
              39.65898882806283
            ],
            [
              42.420705624183256,
              39.38248558237933
            ],
            [
              42.08901164986344,
              38.94008849402309
            ],
            [
              41.867884022137105,
              38.497699003858145
            ],
            [
              41.867884022137105,
              38.165901187590975
            ],
            [
              42.08901164986344,
              37.834103371323806
            ],
            [
              42.199580529187415,
              37.50230555505664
            ],
            [
              42.31013927758971,
              37.225807374834005
            ],
            [
              42.53126943804642,
              37.00460883065591
            ],
            [
              42.80768150543469,
              36.8387099225223
            ],
            [
              43.139375479754506,
              36.67280848165831
            ],
            [
              43.36050310748078,
              36.451609937480214
            ],
            [
              43.47107198680476,
              36.064517550629375
            ],
            [
              43.30522120054923,
              35.56682335895903
            ],
            [
              43.139375479754506,
              35.23502554269186
            ],
            [
              42.86296341236624,
              34.57142991015752
            ],
            [
              42.69711769157152,
              34.29493172993489
            ],
            [
              42.47598499838443,
              33.963131380937284
            ],
            [
              42.3654237172517,
              33.68663826617552
            ],
            [
              42.58655134497798,
              33.244241177819276
            ],
            [
              42.86296341236624,
              32.857146258238004
            ],
            [
              43.139375479754506,
              32.47004627319592
            ],
            [
              43.5263488282755,
              32.08295135361465
            ],
            [
              43.85804280259538,
              31.585254629213864
            ],
            [
              44.07917296305209,
              30.755762621276403
            ],
            [
              44.13445486998364,
              30.368660103503885
            ],
            [
              44.300300590778306,
              29.09677607267099
            ],
            [
              44.41086693737191,
              28.654378984314747
            ],
            [
              44.466151377033896,
              28.377880804092115
            ],
            [
              44.63199456509818,
              28.10138009113905
            ],
            [
              44.63199456509818,
              27.824886976377286
            ],
            [
              44.68727900476017,
              27.54838626342422
            ],
            [
              44.85312472555489,
              27.327192784706938
            ],
            [
              45.07425235328117,
              27.105994240528844
            ],
            [
              45.35066442066943,
              26.88479569635075
            ],
            [
              45.627076488057696,
              26.718894255486703
            ],
            [
              46.014057434769995,
              26.49769571130861
            ],
            [
              46.73272475761081,
              26.442398607994505
            ],
            [
              47.009136824999075,
              26.442398607994505
            ],
            [
              47.506676520113615,
              26.49769571130861
            ],
            [
              48.0595006548902,
              26.442398607994505
            ],
            [
              48.391197161940454,
              26.33179933590543
            ],
            [
              48.61231972420592,
              26.110600791727336
            ],
            [
              48.88873179159418,
              25.834097546043836
            ],
            [
              49.10986448478127,
              25.66820370337109
            ],
            [
              49.49683530057189,
              25.447005159192997
            ],
            [
              49.88381118182326,
              25.28110625105944
            ],
            [
              50.215512754334384,
              25.05990770688129
            ],
            [
              50.49191469080097,
              24.78340952665866
            ],
            [
              50.657768009786935,
              24.506916411896896
            ],
            [
              50.87889563751321,
              24.175118595629726
            ],
            [
              51.0447388255775,
              23.843320779362557
            ],
            [
              51.21059214456352,
              23.400923691006312
            ],
            [
              51.37643533262781,
              22.84792733056105
            ],
            [
              51.487004211951785,
              22.350230606160324
            ],
            [
              51.54227852069209,
              21.90783351780408
            ],
            [
              51.59756296035408,
              21.465436429447834
            ],
            [
              51.70812677421719,
              21.023039341091646
            ],
            [
              51.81869058808036,
              20.63594188877994
            ],
            [
              51.929259467404336,
              20.30414913797364
            ],
            [
              52.09510265546862,
              19.91705168566193
            ],
            [
              52.26095090899378,
              19.585253869394762
            ],
            [
              52.3162302831949,
              19.198156417083055
            ],
            [
              52.426799162518876,
              18.866363666276754
            ],
            [
              52.482083602180865,
              18.589860420593254
            ],
            [
              52.53736297638204,
              18.313362240370623
            ],
            [
              52.64792679024515,
              18.03686912560886
            ],
            [
              52.81376997830944,
              17.649771673297153
            ],
            [
              52.97962329729546,
              17.37327349307452
            ],
            [
              52.97962329729546,
              17.096775312851832
            ],
            [
              53.03490773695745,
              16.82028219809007
            ],
            [
              53.03490773695745,
              16.54377895240657
            ],
            [
              53.03490773695745,
              16.267280772183938
            ],
            [
              52.97962329729546,
              15.935488021377637
            ],
            [
              52.97962329729546,
              15.658984775694137
            ],
            [
              52.924338857633416,
              15.327192024887836
            ],
            [
              52.924338857633416,
              15.050693844665204
            ],
            [
              52.924338857633416,
              14.774190598981704
            ],
            [
              52.924338857633416,
              14.442397848175347
            ],
            [
              52.924338857633416,
              14.165899667952715
            ],
            [
              52.81376997830944,
              13.778802215641065
            ],
            [
              52.70321122990714,
              13.33640512728482
            ],
            [
              52.426799162518876,
              12.894008038928632
            ],
            [
              52.09510265546862,
              12.506910586616925
            ],
            [
              51.87397502774235,
              12.230417471855105
            ],
            [
              51.487004211951785,
              12.009213862216143
            ],
            [
              51.155307704901475,
              11.788020383498917
            ],
            [
              50.87889563751321,
              11.511522203276286
            ],
            [
              50.602483570124946,
              11.235024023053597
            ],
            [
              50.43663531659979,
              11.013825478875503
            ],
            [
              50.215512754334384,
              10.73733236411374
            ],
            [
              49.99437499568643,
              10.350234911802033
            ],
            [
              49.77324736796015,
              10.018432030073996
            ],
            [
              49.44155592637071,
              9.741933849851364
            ],
            [
              49.05458004511928,
              9.576034941717808
            ],
            [
              48.66760922932872,
              9.4654407350896
            ],
            [
              48.280628282616476,
              9.4654407350896
            ],
            [
              47.783088587501936,
              9.4654407350896
            ],
            [
              47.23026445272535,
              9.4654407350896
            ],
            [
              46.8985679456751,
              9.4654407350896
            ],
            [
              46.40102825056056,
              9.410141099045063
            ],
            [
              45.737645367381674,
              9.354831332078845
            ],
            [
              45.18481869987471,
              9.133637853361563
            ],
            [
              44.52143328396545,
              8.9124342437226
            ],
            [
              43.91332724225737,
              8.580646558377111
            ],
            [
              43.41578754714277,
              8.138249470020924
            ],
            [
              42.86296341236624,
              7.751146952248405
            ],
            [
              42.58655134497798,
              7.640552745620141
            ],
            [
              42.14429355679499,
              7.474653837486585
            ],
            [
              41.425626233954176,
              7.30874986389216
            ],
            [
              40.65167700418175,
              7.142861086680227
            ],
            [
              39.87772270894851,
              7.03225674913034
            ],
            [
              39.26961666724037,
              7.142861086680227
            ],
            [
              38.772074439395396,
              7.364059630858378
            ],
            [
              38.05340711655458,
              7.585258175036472
            ],
            [
              37.77699504916626,
              7.640552745620141
            ],
            [
              37.22417091438973,
              7.751146952248405
            ],
            [
              36.560782965750036,
              7.861751289798292
            ],
            [
              35.95267945677233,
              7.917050925842773
            ],
            [
              35.34457341506425,
              7.917050925842773
            ],
            [
              34.84703371994965,
              7.917050925842773
            ],
            [
              34.570621652561385,
              7.917050925842773
            ],
            [
              34.29420958517312,
              7.861751289798292
            ],
            [
              34.01780005051529,
              7.806456719214566
            ],
            [
              33.68610354346504,
              7.751146952248405
            ],
            [
              33.35441463460603,
              7.806456719214566
            ],
            [
              32.967436220624165,
              7.917050925842773
            ],
            [
              32.63574731176516,
              8.027655263392717
            ],
            [
              32.304050804714905,
              8.082949833976386
            ],
            [
              31.86179301653192,
              8.082949833976386
            ],
            [
              31.4195326956185,
              8.082949833976386
            ],
            [
              31.143120628230236,
              7.9723505618873105
            ],
            [
              30.811429186640794,
              7.861751289798292
            ],
            [
              30.47973267959054,
              7.695852381664679
            ],
            [
              30.148041238001156,
              7.474653837486585
            ],
            [
              29.926911077544446,
              7.198160722724765
            ],
            [
              29.65050154288656,
              6.976962178546671
            ],
            [
              29.42937138242985,
              6.755763634368577
            ],
            [
              29.152959315041585,
              6.645159296818633
            ],
            [
              28.876549780383755,
              6.589859660774152
            ],
            [
              28.655419619927045,
              6.423955687179728
            ],
            [
              28.37900755253878,
              6.202762208462445
            ],
            [
              28.10259801788095,
              6.092168001834239
            ]
          ],
          [
            [
              20.97118263546514,
              36.949309194611374
            ],
            [
              20.805335648305174,
              35.898616109765385
            ],
            [
              20.805335648305174,
              35.45622408686995
            ],
            [
              20.91589946216834,
              35.12442627060284
            ],
            [
              21.192311529556605,
              35.06912410182787
            ],
            [
              21.247594702853405,
              35.40092191809504
            ],
            [
              21.081747715693496,
              35.732719734362206
            ],
            [
              20.805335648305174,
              35.843319006451225
            ],
            [
              20.52892358091691,
              35.843319006451225
            ]
          ],
          [
            [
              20.19723087296228,
              44.69124304446274
            ],
            [
              20.36307786012219,
              44.24885102156736
            ],
            [
              20.473642940350544,
              43.972350308614295
            ],
            [
              20.639489927510454,
              43.41935648089941
            ],
            [
              20.91589946216834,
              43.14285830067678
            ],
            [
              21.13702962262505,
              42.97695939254322
            ],
            [
              21.413441690013315,
              42.81106048440961
            ],
            [
              21.745134397967945,
              42.64516157627605
            ],
            [
              22.02154646535621,
              42.70046121232059
            ],
            [
              22.18739345251612,
              42.921659756498684
            ],
            [
              22.35323917331084,
              43.198157936721316
            ],
            [
              22.40852234660764,
              43.52995322025805
            ],
            [
              22.51908616047075,
              43.80645393321112
            ],
            [
              22.40852234660764,
              44.08294958070337
            ],
            [
              22.24267535944773,
              44.304148124881465
            ],
            [
              21.910981385127855,
              44.47004450028459
            ],
            [
              21.689851224671145,
              44.635945941148634
            ],
            [
              21.413441690013315,
              44.69124304446274
            ],
            [
              21.13702962262505,
              44.58064377237366
            ],
            [
              21.02646707512713,
              44.304148124881465
            ],
            [
              20.91589946216834,
              43.972350308614295
            ],
            [
              21.02646707512713,
              43.640552492347126
            ],
            [
              21.192311529556605,
              43.41935648089941
            ]
          ],
          [
            [
              15.88521300589997,
              51.437789777338594
            ],
            [
              15.49823712464854,
              51.38248887492887
            ],
            [
              15.221827589990653,
              51.38248887492887
            ],
            [
              14.61372154828257,
              51.27188960283985
            ],
            [
              14.116180586802784,
              51.10599196107148
            ],
            [
              13.673923431802393,
              50.82949504721404
            ],
            [
              13.121099930208459,
              50.49769723094687
            ],
            [
              12.568277061797119,
              50.11059851226997
            ],
            [
              12.126019906796785,
              49.83410159841253
            ],
            [
              11.739044025545354,
              49.44700667883126
            ],
            [
              11.46263195815709,
              48.894010318385995
            ],
            [
              11.296784337814529,
              48.17511631617231
            ],
            [
              11.186219890768825,
              47.456222313958676
            ],
            [
              11.186219890768825,
              46.958528122288385
            ],
            [
              11.130937983837214,
              46.51613103393214
            ],
            [
              11.130937983837214,
              45.96313467348688
            ],
            [
              11.07565607690566,
              45.686636493264245
            ],
            [
              11.020373536791453,
              45.133640132818925
            ],
            [
              10.965092263042493,
              44.41474739697048
            ],
            [
              10.965092263042493,
              43.91705320530019
            ],
            [
              11.241502430882974,
              43.640552492347126
            ],
            [
              11.517913865088644,
              43.52995322025805
            ],
            [
              11.849607839408463,
              43.52995322025805
            ],
            [
              12.236583720659894,
              43.47465611694395
            ],
            [
              12.512995788048158,
              43.30875720881039
            ],
            [
              12.734124048957085,
              43.03225902858776
            ],
            [
              12.95525294304855,
              42.70046121232059
            ],
            [
              13.34222882429998,
              42.479265200872874
            ],
            [
              13.618640891688244,
              42.3686659287838
            ],
            [
              14.171463760099584,
              42.3686659287838
            ],
            [
              14.558439641351015,
              42.479265200872874
            ],
            [
              14.945415522602389,
              42.70046121232059
            ],
            [
              15.442955217716985,
              43.03225902858776
            ],
            [
              15.829931098968359,
              43.36405684485493
            ],
            [
              16.161625073288235,
              43.58525538903302
            ],
            [
              16.4380371406765,
              43.640552492347126
            ],
            [
              16.76973111499632,
              43.6958546611221
            ],
            [
              17.046140649654205,
              43.6958546611221
            ],
            [
              17.377834623974024,
              43.6958546611221
            ],
            [
              17.654247957727534,
              43.86175103652522
            ],
            [
              17.87537558545381,
              44.02765247738921
            ],
            [
              18.04122257261372,
              44.35945029365638
            ],
            [
              18.151787652842074,
              44.69124304446274
            ],
            [
              18.317634640001984,
              45.07834302950482
            ],
            [
              18.483480360796705,
              45.465437949086095
            ],
            [
              18.704611787618603,
              45.741936129308726
            ],
            [
              18.92573941534488,
              45.96313467348688
            ],
            [
              19.14686704307121,
              46.12903358162043
            ],
            [
              19.367995937162675,
              46.35022959306815
            ],
            [
              19.478563550121464,
              46.626730306021216
            ],
            [
              19.478563550121464,
              46.90322595351341
            ],
            [
              19.25743212329951,
              47.23502376978058
            ],
            [
              19.036303229208045,
              47.456222313958676
            ],
            [
              18.538763534093505,
              47.788020130225846
            ],
            [
              18.04122257261372,
              48.17511631617231
            ],
            [
              17.598963518065545,
              48.78341104629692
            ],
            [
              17.48839970420238,
              49.17050596587819
            ],
            [
              17.377834623974024,
              50.33179705644807
            ],
            [
              17.32255271704247,
              50.71889577512496
            ],
            [
              17.267270810110915,
              50.995392688982406
            ],
            [
              17.15670699624775,
              51.27188960283985
            ],
            [
              16.880294928859485,
              51.327190505249575
            ],
            [
              16.493319047608054,
              51.2165912331605
            ]
          ],
          [
            [
              15.442955217716985,
              47.51151941727278
            ],
            [
              14.669003455214124,
              47.95391777199421
            ],
            [
              14.337309480894305,
              47.788020130225846
            ],
            [
              14.282027573962694,
              47.51151941727278
            ],
            [
              14.337309480894305,
              47.23502376978058
            ],
            [
              14.503156468054215,
              46.90322595351341
            ],
            [
              14.724285362145679,
              46.626730306021216
            ],
            [
              15.11126124339711,
              46.46082886515717
            ],
            [
              15.442955217716985,
              46.46082886515717
            ],
            [
              15.664085378173638,
              46.737329578110234
            ],
            [
              15.664085378173638,
              47.12442449769151
            ],
            [
              15.49823712464854,
              47.34562304186966
            ],
            [
              15.221827589990653,
              47.40092014518376
            ],
            [
              14.945415522602389,
              47.290320873094686
            ]
          ]
        ]
      }
    }
  ]
}