{
  "type": "FeatureCollection",
  "crs": {
    "type": "name",
    "properties": {
      "name": "urn:ogc:def:crs:OGC:1.3:CRS84"
    }
  },
  "features": [
    {
      "type": "Feature",
      "properties": {
        "timestamp": "2026-03-22T18:45:36.127680",
        "country_name": "Uzbekistan",
        "author": "",
        "author_id": "a38a5464-80fc-4952-b8d5-71319d0c1f44",
        "validated": false,
        "ranking": [
          [
            "Uzbekistan",
            0.08989130705595016
          ],
          [
            "Georgia",
            0.08698732405900955
          ],
          [
            "Heard and McDonald Islands",
            0.0574287474155426
          ],
          [
            "Turks and Caicos Islands",
            0.033712003380060196
          ],
          [
            "Turkey",
            0.031216979026794434
          ],
          [
            "United States of America",
            0.029815955087542534
          ],
          [
            "Mexico",
            0.028840743005275726
          ],
          [
            "El Salvador",
            0.02788059040904045
          ],
          [
            "Tajikistan",
            0.02459493838250637
          ],
          [
            "Nepal",
            0.022697776556015015
          ],
          [
            "Mongolia",
            0.022049998864531517
          ],
          [
            "Turkmenistan",
            0.019645914435386658
          ],
          [
            "Saudi Arabia",
            0.01889977790415287
          ],
          [
            "Cuba",
            0.017554176971316338
          ],
          [
            "Czech Republic",
            0.016930894926190376
          ],
          [
            "Puerto Rico",
            0.016709117218852043
          ],
          [
            "New Caledonia",
            0.016644736751914024
          ],
          [
            "Ecuador",
            0.015575471334159374
          ],
          [
            "Jamaica",
            0.01503715105354786
          ],
          [
            "Madeira Islands",
            0.01387233380228281
          ],
          [
            "Russia",
            0.013704754412174225
          ],
          [
            "Timor-Leste",
            0.012945019640028477
          ],
          [
            "Cape Verde",
            0.012204358354210854
          ],
          [
            "Indonesia",
            0.011944429017603397
          ],
          [
            "Samoa",
            0.010950542986392975
          ],
          [
            "South Georgia Islands",
            0.00936458446085453
          ],
          [
            "Bahamas",
            0.008768249303102493
          ],
          [
            "Kazakhstan",
            0.008471629582345486
          ],
          [
            "Italy",
            0.008241109549999237
          ],
          [
            "Dominican Republic",
            0.0071413833647966385
          ],
          [
            "Bangladesh",
            0.006940265651792288
          ],
          [
            "Ukraine",
            0.006629613693803549
          ],
          [
            "Eritrea",
            0.0066143181174993515
          ],
          [
            "Lithuania",
            0.006526831071823835
          ],
          [
            "Comoros",
            0.006476421374827623
          ],
          [
            "Guatemala",
            0.006317026447504759
          ],
          [
            "Bhutan",
            0.006138106808066368
          ],
          [
            "Guadeloupe",
            0.006031233351677656
          ],
          [
            "Iceland",
            0.005695410072803497
          ],
          [
            "Bulgaria",
            0.00565419252961874
          ],
          [
            "Solomon Islands",
            0.005290753208100796
          ],
          [
            "Netherlands Antilles",
            0.004936012905091047
          ],
          [
            "Latvia",
            0.004899356979876757
          ],
          [
            "China",
            0.004712096881121397
          ],
          [
            "Panama",
            0.0044919769279658794
          ],
          [
            "Bolivia",
            0.004268798045814037
          ],
          [
            "Equatorial Guinea",
            0.004166985861957073
          ],
          [
            "Malaysia",
            0.004163030069321394
          ],
          [
            "Costa Rica",
            0.004090662579983473
          ],
          [
            "Papua New Guinea",
            0.004090342670679092
          ],
          [
            "Guinea",
            0.004035831894725561
          ],
          [
            "Sudan",
            0.004035778343677521
          ],
          [
            "Slovakia",
            0.00390421599149704
          ],
          [
            "Serbia",
            0.0038528400473296642
          ],
          [
            "Martinique",
            0.003833349095657468
          ],
          [
            "Barbados",
            0.0034799142740666866
          ],
          [
            "Ethiopia",
            0.0034540914930403233
          ],
          [
            "Moldova",
            0.0033219510223716497
          ],
          [
            "Cyprus",
            0.0032682539895176888
          ],
          [
            "Zambia",
            0.0031938727479428053
          ],
          [
            "North Macedonia",
            0.003165000816807151
          ],
          [
            "Romania",
            0.003025899874046445
          ],
          [
            "Spain",
            0.003004936035722494
          ],
          [
            "Sierra Leone",
            0.002972046611830592
          ],
          [
            "Suriname",
            0.002947551431134343
          ],
          [
            "Mali",
            0.002698476891964674
          ],
          [
            "Burundi",
            0.0025703117717057467
          ],
          [
            "Nigeria",
            0.0025395769625902176
          ],
          [
            "Angola",
            0.002495559398084879
          ],
          [
            "Brazil",
            0.002484052674844861
          ],
          [
            "Paraguay",
            0.002435272792354226
          ],
          [
            "South Sudan",
            0.002342046005651355
          ],
          [
            "France",
            0.002319657476618886
          ],
          [
            "Venezuela",
            0.002276418963447213
          ],
          [
            "Vanuatu",
            0.0022068521939218044
          ],
          [
            "Colombia",
            0.0021512452512979507
          ],
          [
            "Laos",
            0.002101543825119734
          ],
          [
            "Hong Kong",
            0.0020745343063026667
          ],
          [
            "Austria",
            0.0020630396902561188
          ],
          [
            "Gabon",
            0.0020578482653945684
          ],
          [
            "Botswana",
            0.0019743270240724087
          ],
          [
            "Kyrgyzstan",
            0.0019665248692035675
          ],
          [
            "Honduras",
            0.0019185316050425172
          ],
          [
            "United Arab Emirates",
            0.001913269399665296
          ],
          [
            "Falkland Islands",
            0.001900691888295114
          ],
          [
            "Uganda",
            0.0018164016073569655
          ],
          [
            "Armenia",
            0.0017882544780150056
          ],
          [
            "Bosnia & Herzegovina",
            0.0017599392449483275
          ],
          [
            "South Korea",
            0.0017323200590908527
          ],
          [
            "Central African Republic",
            0.0016792496899142861
          ],
          [
            "Liberia",
            0.0016736889956519008
          ],
          [
            "India",
            0.001671108533628285
          ],
          [
            "Peru",
            0.001636849483475089
          ],
          [
            "Yemen",
            0.0016203767154365778
          ],
          [
            "Guinea-Bissau",
            0.0016056217718869448
          ],
          [
            "Switzerland",
            0.001592840999364853
          ],
          [
            "South Africa",
            0.0015833752695471048
          ],
          [
            "Syria",
            0.0015740407397970557
          ],
          [
            "Malawi",
            0.001561707933433354
          ],
          [
            "Iran",
            0.0014855663757771254
          ],
          [
            "Belgium",
            0.0014851923333480954
          ],
          [
            "Albania",
            0.0014496537623926997
          ],
          [
            "Gambia",
            0.0014467784203588963
          ],
          [
            "Côte d'Ivoire",
            0.0014239324955269694
          ],
          [
            "Thailand",
            0.0014209563378244638
          ],
          [
            "Rwanda",
            0.0014098096871748567
          ],
          [
            "Uruguay",
            0.0013143502874299884
          ],
          [
            "Hungary",
            0.001274125766940415
          ],
          [
            "Somalia",
            0.0012708904687315226
          ],
          [
            "Cambodia",
            0.001269330270588398
          ],
          [
            "French Guiana",
            0.0012630487326532602
          ],
          [
            "Philippines",
            0.0012392548378556967
          ],
          [
            "Egypt",
            0.0012265867553651333
          ],
          [
            "Luxembourg",
            0.0012135065626353025
          ],
          [
            "Oman",
            0.0012122850166633725
          ],
          [
            "Senegal",
            0.0011618873104453087
          ],
          [
            "Lesotho",
            0.0011399491922929883
          ],
          [
            "Guyana",
            0.0011043772101402283
          ],
          [
            "Bahrain",
            0.0010425604414194822
          ],
          [
            "Burkina Faso",
            0.0010265596210956573
          ],
          [
            "Niger",
            0.0009829187765717506
          ],
          [
            "Montenegro",
            0.0009828063193708658
          ],
          [
            "Slovenia",
            0.0009787525050342083
          ],
          [
            "Croatia",
            0.000964001112151891
          ],
          [
            "Australia",
            0.0009459003922529519
          ],
          [
            "Sri Lanka",
            0.0009441159781999886
          ],
          [
            "Congo",
            0.0009383925353176892
          ],
          [
            "Togo",
            0.0009226431720890105
          ],
          [
            "Dominica",
            0.0008882269030436873
          ],
          [
            "Ghana",
            0.0008533754153177142
          ],
          [
            "Estonia",
            0.0008512442000210285
          ],
          [
            "Azerbaijan",
            0.0008347987895831466
          ],
          [
            "Jordan",
            0.0007898561889305711
          ],
          [
            "Belize",
            0.000748987018596381
          ],
          [
            "Trinidad and Tobago",
            0.0007418314344249666
          ],
          [
            "Iraq",
            0.0007327092462219298
          ],
          [
            "Mozambique",
            0.0007313535315915942
          ],
          [
            "Vietnam",
            0.0007272139191627502
          ],
          [
            "Namibia",
            0.0007245846791192889
          ],
          [
            "Reunion",
            0.000668077846057713
          ],
          [
            "New Zealand",
            0.0006500030867755413
          ],
          [
            "Cameroon",
            0.0006468307692557573
          ],
          [
            "Sao Tome and Principe",
            0.0006028608186170459
          ],
          [
            "Chile",
            0.000588519440498203
          ],
          [
            "Benin",
            0.000583058106712997
          ],
          [
            "Israel",
            0.0005798684433102608
          ],
          [
            "Mayotte",
            0.0005651958053931594
          ],
          [
            "Japan",
            0.0005511960480362177
          ],
          [
            "Djibouti",
            0.0005426702555269003
          ],
          [
            "Kuwait",
            0.0005248596426099539
          ],
          [
            "Poland",
            0.0005095591768622398
          ],
          [
            "Isle of Man",
            0.0005048825405538082
          ],
          [
            "DR Congo",
            0.0004903449444100261
          ],
          [
            "Finland",
            0.00047136496868915856
          ],
          [
            "United States Virgin Islands",
            0.00043206397094763815
          ],
          [
            "Tanzania",
            0.00041914076427929103
          ],
          [
            "Myanmar",
            0.0004098071367479861
          ],
          [
            "West Bank",
            0.0003950635145884007
          ],
          [
            "Tunisia",
            0.0003816079697571695
          ],
          [
            "Qatar",
            0.00037265283754095435
          ],
          [
            "Svalbard",
            0.0003639266360551119
          ],
          [
            "Argentina",
            0.0003568706742953509
          ],
          [
            "Belarus",
            0.00035646383184939623
          ],
          [
            "Algeria",
            0.00035417452454566956
          ],
          [
            "Eswatini",
            0.00035338031011633575
          ],
          [
            "Kenya",
            0.00034584407694637775
          ],
          [
            "Ireland",
            0.000324078428093344
          ],
          [
            "Antigua & Barbuda",
            0.0003120563633274287
          ],
          [
            "Guam",
            0.0003113886632490903
          ],
          [
            "Libya",
            0.0003063681360799819
          ],
          [
            "Pakistan",
            0.00030628981767222285
          ],
          [
            "Nicaragua",
            0.00029938644729554653
          ],
          [
            "Sweden",
            0.00029610510682687163
          ],
          [
            "Mauritania",
            0.000289363379124552
          ],
          [
            "United Kingdom",
            0.0002735272573772818
          ],
          [
            "Portugal",
            0.00026330709806643426
          ],
          [
            "Faroe Islands",
            0.00026041921228170395
          ],
          [
            "Brunei",
            0.000248280557570979
          ],
          [
            "Greenland",
            0.0002430974127491936
          ],
          [
            "Morocco",
            0.00022777770936954767
          ],
          [
            "Netherlands",
            0.00021541469322983176
          ],
          [
            "Canada",
            0.00021211949933785945
          ],
          [
            "Lebanon",
            0.0001925040705827996
          ],
          [
            "Greece",
            0.0001910938008222729
          ],
          [
            "Denmark",
            0.00017765723168849945
          ],
          [
            "Kiribati",
            0.0001771959796315059
          ],
          [
            "Palau",
            0.00017681109602563083
          ],
          [
            "Zimbabwe",
            0.00017362291691824794
          ],
          [
            "Fiji",
            0.00015758843801449984
          ],
          [
            "Afghanistan",
            0.00013970324653200805
          ],
          [
            "North Korea",
            0.00013813756231684238
          ],
          [
            "Saint Lucia",
            0.0001374518615193665
          ],
          [
            "Germany",
            0.0001359204761683941
          ],
          [
            "Norway",
            0.00011076781811425462
          ],
          [
            "Western Sahara",
            8.992606308311224e-05
          ],
          [
            "Haiti",
            8.860537491273135e-05
          ],
          [
            "Chad",
            8.829412399791181e-05
          ],
          [
            "Taiwan",
            7.846812513889745e-05
          ],
          [
            "Madagascar",
            3.613003354985267e-05
          ]
        ]
      },
      "geometry": {
        "type": "MultiLineString",
        "coordinates": [
          [
            [
              25.554376657824918,
              38.68435013262598
            ],
            [
              26.03183023872677,
              39.0026525198939
            ],
            [
              26.66843501326258,
              38.84350132625994
            ],
            [
              27.305039787798393,
              38.68435013262598
            ],
            [
              27.941644562334204,
              38.52519893899205
            ],
            [
              28.419098143236056,
              38.36604774535809
            ],
            [
              28.896551724137908,
              38.0477453580902
            ],
            [
              29.374005305039788,
              37.88859416445624
            ],
            [
              30.0106100795756,
              37.88859416445624
            ],
            [
              30.647214854111382,
              37.88859416445624
            ],
            [
              31.283819628647223,
              37.88859416445624
            ],
            [
              31.920424403183006,
              37.88859416445624
            ],
            [
              32.55702917771882,
              37.88859416445624
            ],
            [
              33.19363395225463,
              38.0477453580902
            ],
            [
              33.83023872679044,
              38.0477453580902
            ],
            [
              34.46684350132625,
              38.0477453580902
            ],
            [
              35.103448275862064,
              38.0477453580902
            ],
            [
              35.580901856763916,
              37.88859416445624
            ],
            [
              36.05835543766577,
              37.72944297082228
            ],
            [
              36.53580901856762,
              37.88859416445624
            ],
            [
              36.85411140583554,
              38.36604774535809
            ],
            [
              37.33156498673739,
              38.84350132625994
            ],
            [
              37.64986737400528,
              39.32095490716179
            ],
            [
              38.12732095490716,
              39.63925729442971
            ],
            [
              38.604774535809014,
              39.48010610079575
            ],
            [
              39.082228116710866,
              39.16180371352786
            ],
            [
              39.55968169761272,
              38.84350132625994
            ],
            [
              39.87798408488064,
              38.36604774535809
            ],
            [
              40.35543766578249,
              38.20689655172413
            ],
            [
              40.83289124668434,
              38.0477453580902
            ],
            [
              41.31034482758619,
              37.88859416445624
            ],
            [
              41.787798408488044,
              37.72944297082228
            ],
            [
              42.424403183023855,
              37.57029177718832
            ],
            [
              43.06100795755967,
              37.57029177718832
            ],
            [
              43.69761273209548,
              37.57029177718832
            ],
            [
              44.33421750663129,
              37.57029177718832
            ],
            [
              44.9708222811671,
              37.57029177718832
            ],
            [
              45.607427055702914,
              37.57029177718832
            ],
            [
              46.244031830238725,
              37.57029177718832
            ],
            [
              46.88063660477451,
              37.57029177718832
            ],
            [
              47.51724137931035,
              37.57029177718832
            ],
            [
              47.9946949602122,
              37.41114058355436
            ],
            [
              48.47214854111405,
              37.092838196286465
            ],
            [
              48.790450928381944,
              36.61538461538461
            ],
            [
              49.267904509283824,
              36.45623342175065
            ],
            [
              49.745358090185675,
              36.29708222811672
            ],
            [
              50.38196286472146,
              36.29708222811672
            ],
            [
              51.0185676392573,
              36.13793103448276
            ],
            [
              51.49602122015915,
              35.9787798408488
            ],
            [
              52.13262599469493,
              35.9787798408488
            ],
            [
              52.610079575596814,
              36.45623342175065
            ],
            [
              52.928381962864705,
              36.933687002652505
            ],
            [
              53.246684350132625,
              37.41114058355436
            ],
            [
              53.72413793103448,
              37.57029177718832
            ],
            [
              54.20159151193633,
              37.88859416445624
            ],
            [
              54.67904509283818,
              38.36604774535809
            ],
            [
              54.9973474801061,
              38.84350132625994
            ],
            [
              55.31564986737399,
              39.32095490716179
            ],
            [
              55.9522546419098,
              39.32095490716179
            ],
            [
              56.588859416445615,
              39.32095490716179
            ],
            [
              57.06631299734747,
              39.63925729442971
            ],
            [
              57.54376657824932,
              40.11671087533156
            ],
            [
              58.0212201591512,
              40.435013262599455
            ],
            [
              58.33952254641909,
              40.912466843501335
            ],
            [
              58.65782493368698,
              41.389920424403186
            ],
            [
              59.13527851458883,
              41.70822281167108
            ],
            [
              59.61273209549071,
              41.86737400530504
            ],
            [
              60.090185676392565,
              41.549071618037146
            ],
            [
              60.40848806366046,
              41.071618037135266
            ],
            [
              60.88594164456231,
              40.594164456233415
            ],
            [
              61.36339522546419,
              40.11671087533156
            ],
            [
              61.68169761273208,
              39.63925729442971
            ],
            [
              61.84084880636604,
              39.16180371352786
            ],
            [
              62.0,
              38.68435013262598
            ],
            [
              61.84084880636604,
              38.0477453580902
            ],
            [
              61.52254641909815,
              37.57029177718832
            ],
            [
              61.04509283819627,
              37.251989389920425
            ],
            [
              60.56763925729442,
              37.092838196286465
            ],
            [
              60.090185676392565,
              36.77453580901857
            ],
            [
              59.61273209549071,
              36.45623342175065
            ],
            [
              59.13527851458883,
              36.13793103448276
            ],
            [
              58.81697612732094,
              35.66047745358088
            ],
            [
              58.49867374005305,
              35.18302387267903
            ],
            [
              58.18037135278513,
              34.70557029177718
            ],
            [
              57.70291777188328,
              34.22811671087533
            ],
            [
              57.22546419098143,
              33.90981432360741
            ],
            [
              56.748010610079575,
              33.591511936339515
            ],
            [
              56.588859416445615,
              33.11405835543766
            ],
            [
              56.27055702917772,
              32.63660477453581
            ],
            [
              56.11140583554376,
              32.0
            ],
            [
              55.9522546419098,
              31.52254641909815
            ],
            [
              55.63395225464188,
              31.045092838196297
            ],
            [
              55.31564986737399,
              30.567639257294417
            ],
            [
              54.83819628647214,
              30.090185676392565
            ],
            [
              54.36074270557029,
              29.771883289124673
            ],
            [
              54.20159151193633,
              29.29442970822282
            ],
            [
              54.04244031830237,
              28.81697612732094
            ],
            [
              53.88328912466841,
              28.18037135278513
            ],
            [
              53.88328912466841,
              27.543766578249347
            ],
            [
              53.88328912466841,
              26.907161803713535
            ],
            [
              53.88328912466841,
              26.270557029177724
            ],
            [
              53.88328912466841,
              25.633952254641912
            ],
            [
              54.04244031830237,
              25.15649867374006
            ],
            [
              54.20159151193633,
              24.67904509283818
            ],
            [
              54.36074270557029,
              24.20159151193633
            ],
            [
              54.51989389920425,
              23.724137931034477
            ],
            [
              54.67904509283818,
              23.246684350132625
            ],
            [
              54.83819628647214,
              22.769230769230774
            ],
            [
              54.9973474801061,
              22.132625994694962
            ],
            [
              55.15649867374003,
              21.49602122015915
            ],
            [
              55.31564986737399,
              20.85941644562334
            ],
            [
              55.47480106100795,
              20.381962864721487
            ],
            [
              55.63395225464188,
              19.904509283819635
            ],
            [
              55.79310344827584,
              19.427055702917755
            ],
            [
              55.9522546419098,
              18.790450928381972
            ],
            [
              56.11140583554376,
              18.31299734748012
            ],
            [
              56.27055702917772,
              17.83554376657824
            ],
            [
              56.588859416445615,
              17.35809018567639
            ],
            [
              56.748010610079575,
              16.88063660477451
            ],
            [
              56.90716180371351,
              16.403183023872657
            ],
            [
              57.06631299734747,
              15.925729442970805
            ],
            [
              57.38461538461536,
              15.448275862068954
            ],
            [
              57.38461538461536,
              14.81167108753317
            ],
            [
              57.38461538461536,
              14.17506631299733
            ],
            [
              57.22546419098143,
              13.697612732095479
            ],
            [
              56.90716180371351,
              13.220159151193627
            ],
            [
              56.429708222811655,
              12.901856763925707
            ],
            [
              55.79310344827584,
              12.901856763925707
            ],
            [
              55.15649867374003,
              12.901856763925707
            ],
            [
              54.67904509283818,
              13.061007957559696
            ],
            [
              54.20159151193633,
              13.538461538461547
            ],
            [
              53.72413793103448,
              13.85676392572941
            ],
            [
              53.246684350132625,
              14.17506631299733
            ],
            [
              52.769230769230774,
              14.49336870026525
            ],
            [
              52.450928381962854,
              14.970822281167102
            ],
            [
              52.13262599469493,
              15.448275862068954
            ],
            [
              51.973474801061,
              15.925729442970805
            ],
            [
              51.81432360742704,
              16.403183023872657
            ],
            [
              51.65517241379308,
              16.88063660477451
            ],
            [
              51.49602122015915,
              17.51724137931035
            ],
            [
              51.33687002652519,
              17.9946949602122
            ],
            [
              50.85941644562334,
              18.15384615384616
            ],
            [
              50.38196286472146,
              18.472148541114052
            ],
            [
              49.90450928381961,
              18.631299734748012
            ],
            [
              49.267904509283824,
              18.631299734748012
            ],
            [
              48.631299734747984,
              18.631299734748012
            ],
            [
              47.9946949602122,
              18.472148541114052
            ],
            [
              47.35809018567639,
              18.472148541114052
            ],
            [
              46.72148541114058,
              18.472148541114052
            ],
            [
              46.244031830238725,
              18.631299734748012
            ],
            [
              45.766578249336874,
              18.790450928381972
            ],
            [
              45.289124668434994,
              19.108753315649864
            ],
            [
              44.81167108753314,
              19.267904509283824
            ],
            [
              44.17506631299733,
              19.267904509283824
            ],
            [
              43.69761273209548,
              18.949602122015904
            ],
            [
              43.22015915119363,
              18.790450928381972
            ],
            [
              42.742705570291776,
              18.631299734748012
            ],
            [
              42.265251989389924,
              18.31299734748012
            ],
            [
              41.946949602122004,
              17.83554376657824
            ],
            [
              41.628647214854084,
              17.35809018567639
            ],
            [
              41.46949602122015,
              16.88063660477451
            ],
            [
              40.9920424403183,
              16.562334217506645
            ],
            [
              40.51458885941645,
              16.084880636604794
            ],
            [
              40.03713527851457,
              15.925729442970805
            ],
            [
              39.55968169761272,
              15.607427055702942
            ],
            [
              38.923076923076906,
              15.607427055702942
            ],
            [
              38.445623342175054,
              15.766578249336874
            ],
            [
              38.12732095490716,
              16.244031830238725
            ],
            [
              37.80901856763924,
              16.721485411140577
            ],
            [
              37.33156498673739,
              17.19893899204243
            ],
            [
              37.0132625994695,
              17.67639257294428
            ],
            [
              36.53580901856762,
              17.19893899204243
            ],
            [
              36.37665782493369,
              16.721485411140577
            ],
            [
              36.21750663129973,
              16.244031830238725
            ],
            [
              36.05835543766577,
              15.766578249336874
            ],
            [
              35.89920424403181,
              15.289124668435022
            ],
            [
              35.740053050397876,
              14.81167108753317
            ],
            [
              35.740053050397876,
              14.17506631299733
            ],
            [
              35.580901856763916,
              13.697612732095479
            ],
            [
              35.421750663129956,
              13.220159151193627
            ],
            [
              34.944297082228104,
              13.061007957559696
            ],
            [
              34.46684350132625,
              12.901856763925707
            ],
            [
              33.83023872679044,
              12.901856763925707
            ],
            [
              33.35278514588859,
              13.061007957559696
            ],
            [
              32.87533156498674,
              13.379310344827559
            ],
            [
              32.39787798408486,
              13.697612732095479
            ],
            [
              31.920424403183006,
              14.17506631299733
            ],
            [
              31.442970822281154,
              14.49336870026525
            ],
            [
              31.283819628647223,
              14.970822281167102
            ],
            [
              30.965517241379303,
              15.448275862068954
            ],
            [
              30.806366047745342,
              15.925729442970805
            ],
            [
              30.647214854111382,
              16.403183023872657
            ],
            [
              30.48806366047745,
              16.88063660477451
            ],
            [
              30.0106100795756,
              17.19893899204243
            ],
            [
              29.374005305039788,
              17.19893899204243
            ],
            [
              28.737400530503976,
              17.19893899204243
            ],
            [
              28.100795755968164,
              17.19893899204243
            ],
            [
              27.464190981432353,
              17.35809018567639
            ],
            [
              26.9867374005305,
              17.67639257294428
            ],
            [
              26.50928381962865,
              18.15384615384616
            ],
            [
              26.50928381962865,
              17.51724137931035
            ],
            [
              25.872679045092838,
              17.51724137931035
            ],
            [
              25.236074270557026,
              17.51724137931035
            ],
            [
              24.758620689655174,
              17.83554376657824
            ],
            [
              24.281167108753294,
              18.15384615384616
            ],
            [
              23.803713527851443,
              18.631299734748012
            ],
            [
              23.48541114058355,
              19.108753315649864
            ],
            [
              23.16710875331563,
              19.586206896551715
            ],
            [
              22.68965517241378,
              19.904509283819635
            ],
            [
              22.53050397877982,
              20.381962864721487
            ],
            [
              22.53050397877982,
              21.0185676392573
            ],
            [
              22.68965517241378,
              21.49602122015915
            ],
            [
              22.68965517241378,
              22.132625994694962
            ],
            [
              22.84880636604774,
              22.610079575596814
            ],
            [
              22.84880636604774,
              23.246684350132625
            ],
            [
              22.84880636604774,
              23.883289124668437
            ],
            [
              22.84880636604774,
              24.51989389920425
            ],
            [
              22.68965517241378,
              25.15649867374006
            ],
            [
              22.53050397877982,
              25.633952254641912
            ],
            [
              22.371352785145888,
              26.111405835543763
            ],
            [
              22.371352785145888,
              26.748010610079575
            ],
            [
              22.371352785145888,
              27.384615384615387
            ],
            [
              22.212201591511928,
              27.86206896551724
            ],
            [
              22.212201591511928,
              28.49867374005305
            ],
            [
              22.212201591511928,
              29.13527851458886
            ],
            [
              22.212201591511928,
              29.771883289124673
            ],
            [
              22.371352785145888,
              30.249336870026525
            ],
            [
              22.53050397877982,
              30.726790450928377
            ],
            [
              22.68965517241378,
              31.20424403183023
            ],
            [
              22.84880636604774,
              31.68169761273208
            ],
            [
              23.0079575596817,
              32.31830238726789
            ],
            [
              23.0079575596817,
              32.9549071618037
            ],
            [
              23.16710875331563,
              33.432360742705555
            ],
            [
              23.16710875331563,
              34.06896551724137
            ],
            [
              23.16710875331563,
              34.70557029177718
            ],
            [
              23.32625994694959,
              35.18302387267903
            ],
            [
              23.644562334217483,
              35.66047745358088
            ],
            [
              24.122015915119363,
              36.13793103448276
            ],
            [
              24.281167108753294,
              36.61538461538461
            ],
            [
              24.440318302387254,
              37.092838196286465
            ],
            [
              24.599469496021214,
              37.57029177718832
            ],
            [
              25.076923076923066,
              38.0477453580902
            ],
            [
              25.395225464190958,
              38.52519893899205
            ]
          ],
          [
            [
              18.710875331564978,
              58.259946949602124
            ],
            [
              18.551724137931018,
              57.46419098143235
            ],
            [
              18.551724137931018,
              56.82758620689654
            ],
            [
              18.392572944297058,
              56.35013262599469
            ],
            [
              18.233421750663126,
              55.395225464190986
            ],
            [
              18.233421750663126,
              54.758620689655174
            ],
            [
              18.074270557029166,
              54.28116710875332
            ],
            [
              17.915119363395206,
              53.32625994694959
            ],
            [
              17.755968169761275,
              52.37135278514589
            ],
            [
              17.596816976127315,
              51.893899204244036
            ],
            [
              17.596816976127315,
              50.938992042440304
            ],
            [
              17.437665782493355,
              50.30238726790452
            ],
            [
              17.437665782493355,
              49.50663129973475
            ],
            [
              17.278514588859423,
              48.87002652519894
            ]
          ],
          [
            [
              18.870026525198938,
              57.78249336870027
            ],
            [
              18.233421750663126,
              57.78249336870027
            ],
            [
              17.596816976127315,
              57.78249336870027
            ],
            [
              16.960212201591503,
              57.78249336870027
            ],
            [
              16.48275862068965,
              57.46419098143235
            ],
            [
              16.0053050397878,
              57.30503978779839
            ],
            [
              15.527851458885948,
              56.9867374005305
            ],
            [
              15.050397877984068,
              56.82758620689654
            ],
            [
              14.572944297082216,
              56.66843501326258
            ],
            [
              14.095490716180365,
              56.50928381962865
            ],
            [
              13.458885941644553,
              56.50928381962865
            ],
            [
              12.981432360742701,
              56.35013262599469
            ],
            [
              12.822281167108741,
              55.87267904509284
            ],
            [
              12.663129973474781,
              55.395225464190986
            ],
            [
              12.18567639257293,
              54.917771883289106
            ],
            [
              11.708222811671078,
              54.599469496021214
            ],
            [
              11.230769230769226,
              54.28116710875332
            ],
            [
              10.912466843501306,
              53.80371352785147
            ],
            [
              10.753315649867375,
              53.32625994694959
            ],
            [
              10.753315649867375,
              52.68965517241378
            ],
            [
              10.912466843501306,
              52.21220159151193
            ],
            [
              11.230769230769226,
              51.734748010610076
            ],
            [
              11.708222811671078,
              51.575596816976116
            ],
            [
              12.18567639257293,
              51.257294429708224
            ],
            [
              12.663129973474781,
              50.938992042440304
            ],
            [
              12.663129973474781,
              50.30238726790452
            ],
            [
              12.50397877984085,
              49.82493368700264
            ],
            [
              12.50397877984085,
              49.18832891246683
            ],
            [
              12.822281167108741,
              48.71087533156498
            ],
            [
              13.299734748010593,
              48.392572944297086
            ],
            [
              13.777188328912473,
              48.074270557029166
            ],
            [
              14.254641909814325,
              47.915119363395206
            ],
            [
              14.732095490716176,
              47.755968169761275
            ],
            [
              15.368700265251988,
              47.755968169761275
            ],
            [
              16.0053050397878,
              47.755968169761275
            ],
            [
              16.641909814323583,
              47.915119363395206
            ],
            [
              17.119363395225463,
              48.074270557029166
            ],
            [
              17.596816976127315,
              48.392572944297086
            ]
          ],
          [
            [
              12.34482758620689,
              48.392572944297086
            ],
            [
              11.867374005305038,
              48.074270557029166
            ],
            [
              11.389920424403186,
              47.755968169761275
            ],
            [
              10.753315649867375,
              47.27851458885942
            ],
            [
              9.957559681697603,
              46.80106100795757
            ],
            [
              9.480106100795751,
              46.64190981432361
            ],
            [
              8.68435013262598,
              46.16445623342173
            ],
            [
              7.8885941644562365,
              45.68700265251988
            ],
            [
              7.092838196286465,
              45.52785145888595
            ],
            [
              6.615384615384613,
              45.20954907161803
            ],
            [
              5.9787798408488015,
              45.050397877984096
            ]
          ],
          [
            [
              17.915119363395206,
              47.755968169761275
            ],
            [
              17.915119363395206,
              47.11936339522546
            ],
            [
              18.074270557029166,
              46.64190981432361
            ],
            [
              18.074270557029166,
              46.0053050397878
            ],
            [
              18.233421750663126,
              45.52785145888595
            ],
            [
              18.392572944297058,
              45.050397877984096
            ],
            [
              18.551724137931018,
              44.572944297082216
            ],
            [
              18.710875331564978,
              44.095490716180365
            ],
            [
              18.870026525198938,
              43.61803713527851
            ],
            [
              19.029177718832898,
              43.14058355437666
            ],
            [
              19.34748010610079,
              42.66312997347481
            ]
          ],
          [
            [
              19.50663129973475,
              42.18567639257293
            ],
            [
              19.82493368700264,
              41.70822281167108
            ],
            [
              19.82493368700264,
              41.071618037135266
            ]
          ],
          [
            [
              9.639257294429711,
              8.12732095490719
            ],
            [
              10.275862068965523,
              8.12732095490719
            ],
            [
              10.753315649867375,
              8.286472148541122
            ],
            [
              11.230769230769226,
              8.763925729442974
            ],
            [
              11.389920424403186,
              9.241379310344826
            ],
            [
              11.389920424403186,
              9.877984084880609
            ],
            [
              11.071618037135266,
              10.35543766578246
            ],
            [
              10.594164456233415,
              10.514588859416449
            ],
            [
              9.957559681697603,
              10.514588859416449
            ],
            [
              9.480106100795751,
              10.35543766578246
            ],
            [
              9.0026525198939,
              10.196286472148529
            ],
            [
              8.525198938992048,
              10.037135278514597
            ],
            [
              8.047745358090168,
              9.559681697612746
            ],
            [
              7.8885941644562365,
              9.082228116710894
            ],
            [
              7.7294429708222765,
              8.604774535809042
            ],
            [
              8.366047745358088,
              8.286472148541122
            ],
            [
              9.0026525198939,
              8.12732095490719
            ],
            [
              9.639257294429711,
              8.12732095490719
            ],
            [
              10.116710875331563,
              7.968169761273202
            ]
          ],
          [
            [
              5.8196286472148415,
              8.12732095490719
            ],
            [
              6.297082228116693,
              7.809018567639271
            ],
            [
              6.297082228116693,
              8.445623342175054
            ],
            [
              5.8196286472148415,
              8.923076923076906
            ],
            [
              5.34217506631299,
              9.082228116710894
            ],
            [
              5.023872679045098,
              8.604774535809042
            ],
            [
              5.18302387267903,
              8.12732095490719
            ]
          ],
          [
            [
              3.1140583554376633,
              7.172413793103431
            ],
            [
              3.591511936339515,
              6.854111405835511
            ],
            [
              4.228116710875327,
              6.854111405835511
            ],
            [
              4.387267904509287,
              7.331564986737419
            ],
            [
              4.387267904509287,
              7.968169761273202
            ],
            [
              3.9098143236074065,
              7.809018567639271
            ],
            [
              3.591511936339515,
              7.331564986737419
            ]
          ],
          [
            [
              2.0,
              6.058355437665796
            ],
            [
              2.4774535809018516,
              5.740053050397876
            ],
            [
              2.9549071618037033,
              5.899204244031807
            ],
            [
              3.1140583554376633,
              6.376657824933659
            ],
            [
              2.4774535809018516,
              6.217506631299727
            ],
            [
              2.3183023872678916,
              5.740053050397876
            ]
          ]
        ]
      }
    }
  ]
}