{
  "type": "FeatureCollection",
  "crs": {
    "type": "name",
    "properties": {
      "name": "urn:ogc:def:crs:OGC:1.3:CRS84"
    }
  },
  "features": [
    {
      "type": "Feature",
      "properties": {
        "timestamp": "2026-06-22T16:51:31.081050",
        "country_name": "Uzbekistan",
        "author": "",
        "author_id": "1c464dfc-d8a9-42b2-8b6f-72ecd219fc18",
        "validated": false,
        "ranking": [
          [
            "Uzbekistan",
            0.19997082650661469
          ],
          [
            "Turks and Caicos Islands",
            0.15494219958782196
          ],
          [
            "Cuba",
            0.12808559834957123
          ],
          [
            "Samoa",
            0.09147573262453079
          ],
          [
            "Nepal",
            0.07168668508529663
          ],
          [
            "Jamaica",
            0.04059930890798569
          ],
          [
            "Georgia",
            0.03250718116760254
          ],
          [
            "Indonesia",
            0.03113139048218727
          ],
          [
            "United States of America",
            0.028463127091526985
          ],
          [
            "New Caledonia",
            0.018685169517993927
          ],
          [
            "Mexico",
            0.018543101847171783
          ],
          [
            "Solomon Islands",
            0.01784043200314045
          ],
          [
            "Puerto Rico",
            0.017075879499316216
          ],
          [
            "Turkey",
            0.012875593267381191
          ],
          [
            "Mongolia",
            0.0109323775395751
          ],
          [
            "Malaysia",
            0.010075182653963566
          ],
          [
            "Bahamas",
            0.008453206159174442
          ],
          [
            "El Salvador",
            0.007093402091413736
          ],
          [
            "Guinea-Bissau",
            0.0053329262882471085
          ],
          [
            "Tajikistan",
            0.004961087368428707
          ],
          [
            "Falkland Islands",
            0.004842116963118315
          ],
          [
            "Ecuador",
            0.0044275857508182526
          ],
          [
            "Turkmenistan",
            0.004368222318589687
          ],
          [
            "Ukraine",
            0.003458320861682296
          ],
          [
            "Russia",
            0.003269429784268141
          ],
          [
            "Papua New Guinea",
            0.0032307326328009367
          ],
          [
            "Panama",
            0.0030707973055541515
          ],
          [
            "Netherlands Antilles",
            0.0029123593121767044
          ],
          [
            "Kazakhstan",
            0.002800005953758955
          ],
          [
            "Gambia",
            0.0025280173867940903
          ],
          [
            "Slovakia",
            0.0024436041712760925
          ],
          [
            "Kyrgyzstan",
            0.0024143753107637167
          ],
          [
            "Latvia",
            0.0022906858939677477
          ],
          [
            "Costa Rica",
            0.002122641308233142
          ],
          [
            "Timor-Leste",
            0.0020535746589303017
          ],
          [
            "Eritrea",
            0.001996196573600173
          ],
          [
            "Heard and McDonald Islands",
            0.001967847580090165
          ],
          [
            "South Georgia Islands",
            0.0017586693866178393
          ],
          [
            "Hong Kong",
            0.001721689011901617
          ],
          [
            "Czech Republic",
            0.0016234598588198423
          ],
          [
            "Madeira Islands",
            0.0013666365994140506
          ],
          [
            "Italy",
            0.0013647479936480522
          ],
          [
            "Yemen",
            0.0011111078783869743
          ],
          [
            "Honduras",
            0.0011043952545151114
          ],
          [
            "Dominican Republic",
            0.0009977322770282626
          ],
          [
            "Comoros",
            0.0008868042496033013
          ],
          [
            "Bangladesh",
            0.0008621389279142022
          ],
          [
            "Zambia",
            0.0008304181392304599
          ],
          [
            "Switzerland",
            0.000801874790340662
          ],
          [
            "Estonia",
            0.0007997333304956555
          ],
          [
            "Cyprus",
            0.0007897290051914752
          ],
          [
            "Guinea",
            0.0007663519354537129
          ],
          [
            "Armenia",
            0.0006727292202413082
          ],
          [
            "Vanuatu",
            0.0006594595615752041
          ],
          [
            "Guadeloupe",
            0.0006364900036714971
          ],
          [
            "Iceland",
            0.000549155636690557
          ],
          [
            "Burkina Faso",
            0.000533970189280808
          ],
          [
            "Laos",
            0.0005087769823148847
          ],
          [
            "Belgium",
            0.0004992856993339956
          ],
          [
            "Bulgaria",
            0.0004942120285704732
          ],
          [
            "Central African Republic",
            0.00047291620285250247
          ],
          [
            "China",
            0.0004657486279029399
          ],
          [
            "Cape Verde",
            0.00045977061381563544
          ],
          [
            "South Korea",
            0.0004433088470250368
          ],
          [
            "Brazil",
            0.00042722790385596454
          ],
          [
            "Malawi",
            0.00041764971683733165
          ],
          [
            "Venezuela",
            0.00041428572149015963
          ],
          [
            "Guatemala",
            0.0004100765800103545
          ],
          [
            "Svalbard",
            0.0003981974150519818
          ],
          [
            "Burundi",
            0.00039683416252955794
          ],
          [
            "Hungary",
            0.0003801112179644406
          ],
          [
            "Saudi Arabia",
            0.0003777564852498472
          ],
          [
            "Equatorial Guinea",
            0.0003540688776411116
          ],
          [
            "South Africa",
            0.00034101688652299345
          ],
          [
            "Gabon",
            0.0003353734209667891
          ],
          [
            "Peru",
            0.00032796774758026004
          ],
          [
            "Moldova",
            0.0003176348109263927
          ],
          [
            "Lithuania",
            0.0003161864879075438
          ],
          [
            "Bhutan",
            0.00029433341114781797
          ],
          [
            "Bahrain",
            0.00028975363238714635
          ],
          [
            "Croatia",
            0.00028310087509453297
          ],
          [
            "France",
            0.0002710911212489009
          ],
          [
            "Spain",
            0.0002626748464535922
          ],
          [
            "Azerbaijan",
            0.0002392909227637574
          ],
          [
            "Syria",
            0.0002378702483838424
          ],
          [
            "North Macedonia",
            0.00021663661755155772
          ],
          [
            "Djibouti",
            0.00021228974219411612
          ],
          [
            "Guyana",
            0.00020830679568462074
          ],
          [
            "Rwanda",
            0.0001959733635885641
          ],
          [
            "South Sudan",
            0.0001910309656523168
          ],
          [
            "Ethiopia",
            0.00018880539573729038
          ],
          [
            "Romania",
            0.0001857138122431934
          ],
          [
            "Slovenia",
            0.000182518910150975
          ],
          [
            "Martinique",
            0.00017186829063575715
          ],
          [
            "Benin",
            0.0001702340814517811
          ],
          [
            "Paraguay",
            0.0001676715910434723
          ],
          [
            "Austria",
            0.0001664283190621063
          ],
          [
            "Myanmar",
            0.00016246360610239208
          ],
          [
            "Mozambique",
            0.000152519452967681
          ],
          [
            "Australia",
            0.00014138361439108849
          ],
          [
            "Sudan",
            0.00013624585699290037
          ],
          [
            "Lesotho",
            0.00013478085747919977
          ],
          [
            "Togo",
            0.00013035457232035697
          ],
          [
            "Barbados",
            0.00012947960931342095
          ],
          [
            "Serbia",
            0.0001258074917132035
          ],
          [
            "Uganda",
            0.00012490346853155643
          ],
          [
            "Liberia",
            0.00012314329796936363
          ],
          [
            "Sierra Leone",
            0.00012014507228741422
          ],
          [
            "Dominica",
            0.00011838803038699552
          ],
          [
            "Bosnia & Herzegovina",
            0.00011817303311545402
          ],
          [
            "Faroe Islands",
            0.00011741273920051754
          ],
          [
            "Somalia",
            0.00011171978258062154
          ],
          [
            "Greenland",
            0.00010905813542194664
          ],
          [
            "Philippines",
            0.0001076277403626591
          ],
          [
            "Fiji",
            0.00010174161434406415
          ],
          [
            "Iran",
            0.00010069907875731587
          ],
          [
            "Canada",
            9.869282803265378e-05
          ],
          [
            "Thailand",
            9.866779873846099e-05
          ],
          [
            "Tunisia",
            9.843958832789212e-05
          ],
          [
            "Albania",
            9.840937127592042e-05
          ],
          [
            "Mali",
            9.79733667918481e-05
          ],
          [
            "Chile",
            9.695188782643527e-05
          ],
          [
            "Montenegro",
            9.660945943323895e-05
          ],
          [
            "India",
            9.596996824257076e-05
          ],
          [
            "Israel",
            9.466084884479642e-05
          ],
          [
            "Vietnam",
            9.287262219004333e-05
          ],
          [
            "New Zealand",
            8.837862696964294e-05
          ],
          [
            "United Kingdom",
            8.684297790750861e-05
          ],
          [
            "Namibia",
            8.427713328273967e-05
          ],
          [
            "Luxembourg",
            8.403603715123609e-05
          ],
          [
            "Belize",
            8.382504165638238e-05
          ],
          [
            "Botswana",
            8.365972462343052e-05
          ],
          [
            "DR Congo",
            8.144461753545329e-05
          ],
          [
            "Brunei",
            8.003097173059359e-05
          ],
          [
            "Nigeria",
            7.814560376573354e-05
          ],
          [
            "Sri Lanka",
            7.700129935983568e-05
          ],
          [
            "Kiribati",
            7.469730189768597e-05
          ],
          [
            "Algeria",
            7.346044003497809e-05
          ],
          [
            "Nicaragua",
            7.193084456957877e-05
          ],
          [
            "Kuwait",
            6.869975914014503e-05
          ],
          [
            "United Arab Emirates",
            6.65354382363148e-05
          ],
          [
            "Cambodia",
            6.579553155461326e-05
          ],
          [
            "Denmark",
            6.437799311242998e-05
          ],
          [
            "Suriname",
            6.413055962184444e-05
          ],
          [
            "Bolivia",
            6.32621522527188e-05
          ],
          [
            "Colombia",
            6.157137977425009e-05
          ],
          [
            "Niger",
            6.0765207308577374e-05
          ],
          [
            "Senegal",
            5.9550817240960896e-05
          ],
          [
            "Angola",
            5.878824958926998e-05
          ],
          [
            "Iraq",
            5.8161342167295516e-05
          ],
          [
            "Egypt",
            5.76577840547543e-05
          ],
          [
            "Belarus",
            5.6193912314483896e-05
          ],
          [
            "Jordan",
            4.9165915697813034e-05
          ],
          [
            "Isle of Man",
            4.8984235036186874e-05
          ],
          [
            "Qatar",
            4.7927973355399445e-05
          ],
          [
            "Eswatini",
            4.791289029526524e-05
          ],
          [
            "Côte d'Ivoire",
            4.670979978982359e-05
          ],
          [
            "Zimbabwe",
            4.630088369594887e-05
          ],
          [
            "Congo",
            4.5842094550607726e-05
          ],
          [
            "Argentina",
            4.4018106564180925e-05
          ],
          [
            "Greece",
            4.270916178938933e-05
          ],
          [
            "Trinidad and Tobago",
            4.132926551392302e-05
          ],
          [
            "Mauritania",
            4.1303654143121094e-05
          ],
          [
            "Sao Tome and Principe",
            4.111438465770334e-05
          ],
          [
            "Uruguay",
            3.984099384979345e-05
          ],
          [
            "Guam",
            3.9788745198166e-05
          ],
          [
            "West Bank",
            3.926582940039225e-05
          ],
          [
            "Afghanistan",
            3.741922773770057e-05
          ],
          [
            "Finland",
            3.46753113262821e-05
          ],
          [
            "Ghana",
            3.431083678151481e-05
          ],
          [
            "Oman",
            3.336893496452831e-05
          ],
          [
            "Japan",
            3.266297426307574e-05
          ],
          [
            "French Guiana",
            3.064372867811471e-05
          ],
          [
            "Saint Lucia",
            2.984356615343131e-05
          ],
          [
            "Reunion",
            2.931142080342397e-05
          ],
          [
            "Portugal",
            2.6676849302020855e-05
          ],
          [
            "Antigua & Barbuda",
            2.6139476176467724e-05
          ],
          [
            "Sweden",
            2.5746789106051438e-05
          ],
          [
            "United States Virgin Islands",
            2.564205897215288e-05
          ],
          [
            "Germany",
            2.5392577299498953e-05
          ],
          [
            "Mayotte",
            2.4914934328990057e-05
          ],
          [
            "North Korea",
            2.336273064429406e-05
          ],
          [
            "Kenya",
            2.2386398995877244e-05
          ],
          [
            "Morocco",
            2.2107282347860746e-05
          ],
          [
            "Taiwan",
            2.156216032744851e-05
          ],
          [
            "Ireland",
            2.1512494640774094e-05
          ],
          [
            "Poland",
            1.912999687192496e-05
          ],
          [
            "Lebanon",
            1.823830825742334e-05
          ],
          [
            "Tanzania",
            1.7684291378827766e-05
          ],
          [
            "Libya",
            1.5631147107342258e-05
          ],
          [
            "Netherlands",
            1.5525043636444025e-05
          ],
          [
            "Cameroon",
            1.370953305013245e-05
          ],
          [
            "Pakistan",
            1.3022950042795856e-05
          ],
          [
            "Norway",
            1.2875255379185546e-05
          ],
          [
            "Western Sahara",
            1.0054338417830877e-05
          ],
          [
            "Chad",
            8.471964974887669e-06
          ],
          [
            "Palau",
            7.6028727562516e-06
          ],
          [
            "Haiti",
            6.34222033113474e-06
          ],
          [
            "Madagascar",
            5.091065304441145e-06
          ]
        ]
      },
      "geometry": {
        "type": "MultiLineString",
        "coordinates": [
          [
            [
              2.0,
              33.98757763975158
            ],
            [
              2.0,
              34.48447204968943
            ],
            [
              2.1242236024845056,
              34.85714285714289
            ],
            [
              2.1242236024845056,
              35.47826086956525
            ],
            [
              2.1242236024845056,
              35.9751552795031
            ],
            [
              2.37267080745346,
              36.3478260869565
            ],
            [
              2.37267080745346,
              36.96894409937886
            ],
            [
              2.37267080745346,
              37.46583850931677
            ],
            [
              2.37267080745346,
              38.086956521739125
            ],
            [
              2.37267080745346,
              38.583850931677034
            ],
            [
              2.4968944099379087,
              39.20496894409939
            ],
            [
              2.4968944099379087,
              39.7018633540373
            ],
            [
              2.4968944099379087,
              40.32298136645966
            ],
            [
              2.745341614906863,
              40.81987577639751
            ],
            [
              2.745341614906863,
              41.44099378881987
            ],
            [
              2.745341614906863,
              41.937888198757776
            ],
            [
              3.118012422360266,
              42.18633540372673
            ],
            [
              3.490683229813669,
              42.31055900621118
            ],
            [
              3.8633540372670723,
              42.68322981366458
            ],
            [
              4.236024844720532,
              43.05590062111804
            ],
            [
              4.608695652173935,
              43.428571428571445
            ],
            [
              4.981366459627338,
              43.6770186335404
            ],
            [
              5.478260869565247,
              43.80124223602485
            ],
            [
              5.726708074534201,
              44.17391304347825
            ],
            [
              6.223602484472053,
              44.54658385093171
            ],
            [
              6.844720496894411,
              44.919254658385114
            ],
            [
              7.341614906832319,
              45.29192546583852
            ],
            [
              7.590062111801274,
              45.66459627329192
            ],
            [
              7.962732919254677,
              45.913043478260875
            ],
            [
              8.33540372670808,
              46.28571428571428
            ],
            [
              8.708074534161483,
              46.40993788819878
            ],
            [
              9.080745341614943,
              46.782608695652186
            ],
            [
              9.453416149068346,
              47.03105590062114
            ],
            [
              9.950310559006255,
              47.403726708074544
            ],
            [
              10.571428571428612,
              47.52795031055899
            ],
            [
              11.068322981366464,
              47.90062111801245
            ],
            [
              11.440993788819924,
              48.273291925465855
            ],
            [
              11.813664596273327,
              48.52173913043481
            ],
            [
              12.18633540372673,
              48.64596273291926
            ],
            [
              12.559006211180133,
              48.52173913043481
            ],
            [
              12.931677018633536,
              48.14906832298135
            ],
            [
              13.304347826086996,
              47.77639751552795
            ],
            [
              13.6770186335404,
              47.6521739130435
            ],
            [
              14.049689440993802,
              47.279503105590095
            ],
            [
              14.422360248447205,
              47.03105590062114
            ],
            [
              14.795031055900665,
              46.65838509316768
            ],
            [
              15.167701863354068,
              46.53416149068323
            ],
            [
              15.540372670807471,
              46.16149068322983
            ],
            [
              15.913043478260875,
              45.913043478260875
            ],
            [
              16.285714285714334,
              45.788819875776426
            ],
            [
              16.534161490683232,
              45.416149068322966
            ],
            [
              16.906832298136692,
              45.16770186335407
            ],
            [
              17.279503105590095,
              45.04347826086956
            ],
            [
              17.652173913043498,
              44.79503105590061
            ],
            [
              18.149068322981407,
              44.79503105590061
            ],
            [
              18.52173913043481,
              44.67080745341616
            ],
            [
              19.142857142857167,
              44.67080745341616
            ],
            [
              19.63975155279502,
              44.67080745341616
            ],
            [
              20.260869565217433,
              44.67080745341616
            ],
            [
              20.757763975155285,
              44.67080745341616
            ],
            [
              21.378881987577643,
              44.67080745341616
            ],
            [
              21.87577639751555,
              44.67080745341616
            ],
            [
              22.248447204968954,
              44.422360248447205
            ],
            [
              22.86956521739131,
              44.422360248447205
            ],
            [
              23.36645962732922,
              44.422360248447205
            ],
            [
              23.36645962732922,
              43.92546583850935
            ],
            [
              23.36645962732922,
              43.30434782608694
            ],
            [
              23.36645962732922,
              42.80745341614909
            ],
            [
              23.614906832298175,
              42.43478260869563
            ],
            [
              23.987577639751578,
              42.18633540372673
            ],
            [
              24.36024844720498,
              41.81366459627327
            ],
            [
              24.732919254658384,
              41.68944099378882
            ],
            [
              25.105590062111844,
              41.44099378881987
            ],
            [
              25.602484472049696,
              41.31677018633542
            ],
            [
              26.223602484472053,
              41.31677018633542
            ],
            [
              26.596273291925513,
              41.068322981366464
            ],
            [
              26.968944099378916,
              40.944099378882015
            ],
            [
              27.34161490683232,
              40.571428571428555
            ],
            [
              27.465838509316768,
              40.19875776397515
            ],
            [
              27.714285714285722,
              39.82608695652175
            ],
            [
              27.838509316770228,
              39.453416149068346
            ],
            [
              28.086956521739125,
              39.08074534161494
            ],
            [
              28.21118012422363,
              38.70807453416148
            ],
            [
              28.459627329192585,
              38.33540372670808
            ],
            [
              28.583850931677034,
              37.96273291925468
            ],
            [
              28.83229813664599,
              37.590062111801274
            ],
            [
              29.20496894409939,
              37.34161490683232
            ],
            [
              29.577639751552795,
              37.217391304347814
            ],
            [
              29.950310559006255,
              36.96894409937886
            ],
            [
              30.322981366459658,
              36.596273291925456
            ],
            [
              30.69565217391306,
              36.22360248447205
            ],
            [
              31.068322981366464,
              35.85093167701865
            ],
            [
              31.440993788819924,
              35.47826086956525
            ],
            [
              31.813664596273327,
              35.35403726708074
            ],
            [
              31.937888198757776,
              34.98136645962734
            ],
            [
              32.31055900621118,
              34.732919254658384
            ],
            [
              32.68322981366464,
              34.608695652173935
            ],
            [
              33.05590062111804,
              34.36024844720498
            ],
            [
              33.6770186335404,
              33.98757763975158
            ],
            [
              34.17391304347825,
              33.86335403726707
            ],
            [
              34.79503105590061,
              33.49068322981367
            ],
            [
              35.29192546583852,
              33.242236024844715
            ],
            [
              35.913043478260875,
              32.86956521739131
            ],
            [
              36.285714285714334,
              32.74534161490686
            ],
            [
              36.65838509316774,
              32.49689440993791
            ],
            [
              37.15527950310559,
              32.3726708074534
            ],
            [
              37.77639751552795,
              32.12422360248445
            ],
            [
              38.273291925465855,
              32.0
            ],
            [
              38.89440993788821,
              31.751552795031046
            ],
            [
              39.63975155279502,
              31.627329192546597
            ],
            [
              40.13664596273293,
              31.627329192546597
            ],
            [
              40.50931677018633,
              31.378881987577643
            ],
            [
              41.130434782608745,
              31.378881987577643
            ],
            [
              41.254658385093194,
              31.00621118012424
            ],
            [
              41.87577639751555,
              30.881987577639734
            ],
            [
              42.248447204968954,
              30.633540372670836
            ],
            [
              42.62111801242236,
              30.50931677018633
            ],
            [
              42.99378881987582,
              30.136645962732928
            ],
            [
              43.36645962732922,
              29.888198757763973
            ],
            [
              43.73913043478262,
              29.763975155279525
            ],
            [
              44.23602484472053,
              29.763975155279525
            ],
            [
              44.608695652173935,
              29.51552795031057
            ],
            [
              45.22981366459629,
              29.51552795031057
            ],
            [
              45.7267080745342,
              29.51552795031057
            ],
            [
              46.34782608695656,
              29.51552795031057
            ],
            [
              46.72049689440996,
              29.63975155279502
            ],
            [
              47.093167701863365,
              30.01242236024848
            ],
            [
              47.46583850931677,
              30.385093167701882
            ],
            [
              47.96273291925468,
              30.633540372670836
            ],
            [
              48.33540372670808,
              30.757763975155285
            ],
            [
              48.583850931677034,
              31.13043478260869
            ],
            [
              48.583850931677034,
              31.751552795031046
            ],
            [
              48.583850931677034,
              32.248447204968954
            ],
            [
              48.70807453416148,
              32.62111801242236
            ],
            [
              48.95652173913044,
              32.99378881987576
            ],
            [
              49.32919254658384,
              33.242236024844715
            ],
            [
              49.7018633540373,
              33.36645962732922
            ],
            [
              50.19875776397521,
              33.36645962732922
            ],
            [
              50.819875776397566,
              33.36645962732922
            ],
            [
              51.31677018633542,
              33.614906832298175
            ],
            [
              51.937888198757776,
              33.73913043478262
            ],
            [
              52.434782608695684,
              33.73913043478262
            ],
            [
              52.80745341614909,
              33.98757763975158
            ],
            [
              53.428571428571445,
              34.11180124223603
            ],
            [
              54.17391304347825,
              34.36024844720498
            ],
            [
              54.67080745341616,
              34.36024844720498
            ],
            [
              55.416149068322966,
              34.48447204968943
            ],
            [
              56.03726708074538,
              34.48447204968943
            ],
            [
              56.53416149068323,
              34.48447204968943
            ],
            [
              56.90683229813669,
              34.732919254658384
            ],
            [
              57.279503105590095,
              35.10559006211179
            ],
            [
              57.52795031055905,
              35.47826086956525
            ],
            [
              57.6521739130435,
              35.85093167701865
            ],
            [
              57.90062111801245,
              36.3478260869565
            ],
            [
              58.0248447204969,
              36.96894409937886
            ],
            [
              58.273291925465855,
              37.34161490683232
            ],
            [
              58.64596273291926,
              37.46583850931677
            ],
            [
              59.01863354037266,
              37.71428571428572
            ],
            [
              59.39130434782612,
              37.83850931677017
            ],
            [
              59.763975155279525,
              38.086956521739125
            ],
            [
              60.26086956521738,
              38.086956521739125
            ],
            [
              60.88198757763979,
              38.086956521739125
            ],
            [
              61.37888198757764,
              38.086956521739125
            ],
            [
              61.7515527950311,
              37.96273291925468
            ],
            [
              62.0,
              37.590062111801274
            ],
            [
              62.0,
              36.96894409937886
            ],
            [
              62.0,
              36.47204968944101
            ],
            [
              61.87577639751555,
              35.85093167701865
            ],
            [
              61.87577639751555,
              35.35403726708074
            ],
            [
              61.6273291925466,
              34.98136645962734
            ],
            [
              61.50310559006215,
              34.36024844720498
            ],
            [
              61.254658385093194,
              33.98757763975158
            ],
            [
              60.88198757763979,
              33.86335403726707
            ],
            [
              60.50931677018639,
              33.614906832298175
            ],
            [
              60.01242236024848,
              33.614906832298175
            ],
            [
              59.39130434782612,
              33.614906832298175
            ],
            [
              58.89440993788821,
              33.49068322981367
            ],
            [
              58.273291925465855,
              33.49068322981367
            ],
            [
              57.90062111801245,
              33.242236024844715
            ],
            [
              57.403726708074544,
              33.118012422360266
            ],
            [
              56.782608695652186,
              32.86956521739131
            ],
            [
              56.40993788819878,
              32.74534161490686
            ],
            [
              56.03726708074538,
              32.49689440993791
            ],
            [
              55.66459627329198,
              32.3726708074534
            ],
            [
              55.54037267080747,
              32.0
            ],
            [
              55.54037267080747,
              31.378881987577643
            ],
            [
              55.788819875776426,
              31.00621118012424
            ],
            [
              56.03726708074538,
              30.633540372670836
            ],
            [
              55.913043478260875,
              30.260869565217376
            ],
            [
              55.54037267080747,
              30.136645962732928
            ],
            [
              54.919254658385114,
              30.136645962732928
            ],
            [
              54.422360248447205,
              30.136645962732928
            ],
            [
              54.0496894409938,
              29.888198757763973
            ],
            [
              53.6770186335404,
              29.763975155279525
            ],
            [
              53.6770186335404,
              29.142857142857167
            ],
            [
              53.80124223602485,
              28.770186335403764
            ],
            [
              53.80124223602485,
              28.273291925465855
            ],
            [
              53.92546583850935,
              27.900621118012452
            ],
            [
              53.92546583850935,
              27.279503105590038
            ],
            [
              53.92546583850935,
              26.782608695652186
            ],
            [
              53.80124223602485,
              26.409937888198783
            ],
            [
              53.92546583850935,
              26.037267080745323
            ],
            [
              54.29813664596276,
              25.788819875776426
            ],
            [
              54.67080745341616,
              25.66459627329192
            ],
            [
              54.919254658385114,
              25.291925465838517
            ],
            [
              55.04347826086956,
              24.919254658385114
            ],
            [
              55.04347826086956,
              24.298136645962757
            ],
            [
              55.04347826086956,
              23.801242236024848
            ],
            [
              54.919254658385114,
              23.428571428571445
            ],
            [
              54.919254658385114,
              22.807453416149087
            ],
            [
              54.54658385093171,
              22.931677018633536
            ],
            [
              54.17391304347825,
              23.18012422360249
            ],
            [
              53.80124223602485,
              23.30434782608694
            ],
            [
              53.6770186335404,
              23.6770186335404
            ],
            [
              53.05590062111804,
              23.925465838509353
            ],
            [
              52.68322981366464,
              24.049689440993802
            ],
            [
              52.31055900621118,
              24.298136645962757
            ],
            [
              51.937888198757776,
              24.422360248447205
            ],
            [
              51.56521739130437,
              24.67080745341616
            ],
            [
              51.068322981366464,
              24.67080745341616
            ],
            [
              50.69565217391306,
              24.54658385093171
            ],
            [
              50.447204968944106,
              24.17391304347825
            ],
            [
              50.32298136645966,
              23.801242236024848
            ],
            [
              49.9503105590062,
              23.552795031055894
            ],
            [
              49.577639751552795,
              23.428571428571445
            ],
            [
              49.20496894409939,
              23.18012422360249
            ],
            [
              48.83229813664599,
              23.05590062111804
            ],
            [
              48.583850931677034,
              22.683229813664582
            ],
            [
              48.21118012422363,
              22.434782608695627
            ],
            [
              48.21118012422363,
              21.937888198757776
            ],
            [
              47.83850931677023,
              21.68944099378882
            ],
            [
              47.71428571428572,
              21.316770186335418
            ],
            [
              47.34161490683232,
              21.192546583850913
            ],
            [
              46.72049689440996,
              21.192546583850913
            ],
            [
              46.34782608695656,
              20.944099378882015
            ],
            [
              45.602484472049696,
              20.944099378882015
            ],
            [
              44.85714285714289,
              21.068322981366464
            ],
            [
              44.36024844720498,
              21.068322981366464
            ],
            [
              43.98757763975158,
              21.316770186335418
            ],
            [
              43.614906832298175,
              21.440993788819867
            ],
            [
              43.36645962732922,
              21.81366459627327
            ],
            [
              42.86956521739131,
              22.062111801242224
            ],
            [
              42.49689440993791,
              22.18633540372673
            ],
            [
              42.37267080745346,
              22.559006211180133
            ],
            [
              42.248447204968954,
              22.931677018633536
            ],
            [
              41.87577639751555,
              23.18012422360249
            ],
            [
              41.50310559006215,
              23.30434782608694
            ],
            [
              41.00621118012424,
              23.30434782608694
            ],
            [
              40.633540372670836,
              23.18012422360249
            ],
            [
              40.633540372670836,
              22.434782608695627
            ],
            [
              40.633540372670836,
              21.937888198757776
            ],
            [
              40.633540372670836,
              21.192546583850913
            ],
            [
              40.633540372670836,
              20.571428571428555
            ],
            [
              40.633540372670836,
              19.82608695652175
            ],
            [
              40.633540372670836,
              19.32919254658384
            ],
            [
              40.38509316770188,
              18.708074534161483
            ],
            [
              40.38509316770188,
              18.21118012422363
            ],
            [
              40.26086956521743,
              17.83850931677017
            ],
            [
              40.26086956521743,
              17.217391304347814
            ],
            [
              40.01242236024848,
              16.84472049689441
            ],
            [
              39.88819875776397,
              16.472049689441008
            ],
            [
              39.63975155279502,
              16.099378881987604
            ],
            [
              39.51552795031057,
              15.726708074534145
            ],
            [
              39.267080745341616,
              15.354037267080741
            ],
            [
              38.89440993788821,
              15.478260869565247
            ],
            [
              38.52173913043481,
              16.099378881987604
            ],
            [
              38.397515527950304,
              16.472049689441008
            ],
            [
              38.0248447204969,
              16.596273291925456
            ],
            [
              37.77639751552795,
              16.96894409937886
            ],
            [
              37.279503105590095,
              17.34161490683232
            ],
            [
              36.90683229813669,
              17.714285714285722
            ],
            [
              36.285714285714334,
              18.086956521739125
            ],
            [
              35.913043478260875,
              18.33540372670808
            ],
            [
              35.788819875776426,
              18.708074534161483
            ],
            [
              35.41614906832302,
              18.83229813664599
            ],
            [
              35.16770186335407,
              19.20496894409939
            ],
            [
              34.79503105590061,
              19.453416149068346
            ],
            [
              34.79503105590061,
              19.950310559006198
            ],
            [
              34.67080745341616,
              20.322981366459658
            ],
            [
              34.67080745341616,
              20.944099378882015
            ],
            [
              34.422360248447205,
              21.316770186335418
            ],
            [
              34.0496894409938,
              21.440993788819867
            ],
            [
              33.6770186335404,
              21.68944099378882
            ],
            [
              33.304347826086996,
              21.81366459627327
            ],
            [
              32.931677018633536,
              22.062111801242224
            ],
            [
              32.434782608695684,
              22.18633540372673
            ],
            [
              32.06211180124228,
              22.434782608695627
            ],
            [
              31.68944099378882,
              22.559006211180133
            ],
            [
              31.316770186335418,
              22.807453416149087
            ],
            [
              30.69565217391306,
              22.931677018633536
            ],
            [
              30.571428571428612,
              23.30434782608694
            ],
            [
              30.198757763975152,
              23.552795031055894
            ],
            [
              29.950310559006255,
              23.925465838509353
            ],
            [
              29.577639751552795,
              24.049689440993802
            ],
            [
              29.20496894409939,
              24.298136645962757
            ],
            [
              28.83229813664599,
              24.422360248447205
            ],
            [
              28.708074534161483,
              24.79503105590061
            ],
            [
              28.33540372670808,
              25.043478260869563
            ],
            [
              27.962732919254677,
              25.416149068322966
            ],
            [
              27.590062111801274,
              25.54037267080747
            ],
            [
              27.34161490683232,
              25.913043478260875
            ],
            [
              26.968944099378916,
              26.16149068322983
            ],
            [
              26.596273291925513,
              26.534161490683232
            ],
            [
              26.472049689441008,
              26.906832298136635
            ],
            [
              26.223602484472053,
              27.279503105590038
            ],
            [
              26.099378881987604,
              27.652173913043498
            ],
            [
              26.099378881987604,
              28.14906832298135
            ],
            [
              26.099378881987604,
              28.770186335403764
            ],
            [
              26.099378881987604,
              29.267080745341616
            ],
            [
              26.099378881987604,
              29.888198757763973
            ],
            [
              26.099378881987604,
              30.385093167701882
            ],
            [
              25.85093167701865,
              30.757763975155285
            ],
            [
              25.7267080745342,
              31.13043478260869
            ],
            [
              25.478260869565247,
              31.50310559006209
            ],
            [
              25.105590062111844,
              31.87577639751555
            ],
            [
              24.98136645962734,
              32.248447204968954
            ],
            [
              24.608695652173935,
              32.62111801242236
            ],
            [
              24.36024844720498,
              32.99378881987576
            ],
            [
              23.987577639751578,
              33.242236024844715
            ],
            [
              23.614906832298175,
              33.614906832298175
            ],
            [
              23.242236024844715,
              33.73913043478262
            ],
            [
              22.86956521739131,
              33.98757763975158
            ],
            [
              22.49689440993791,
              34.11180124223603
            ],
            [
              22.124223602484506,
              34.36024844720498
            ],
            [
              21.751552795031103,
              34.48447204968943
            ],
            [
              21.378881987577643,
              34.85714285714289
            ],
            [
              21.00621118012424,
              35.10559006211179
            ],
            [
              20.633540372670836,
              35.22981366459629
            ],
            [
              20.260869565217433,
              35.47826086956525
            ],
            [
              19.888198757763973,
              35.602484472049696
            ],
            [
              19.51552795031057,
              35.85093167701865
            ],
            [
              19.01863354037266,
              35.9751552795031
            ],
            [
              18.64596273291926,
              36.22360248447205
            ],
            [
              18.0248447204969,
              36.22360248447205
            ],
            [
              17.652173913043498,
              36.3478260869565
            ],
            [
              17.279503105590095,
              36.596273291925456
            ],
            [
              16.782608695652186,
              36.596273291925456
            ],
            [
              16.16149068322983,
              36.596273291925456
            ],
            [
              15.788819875776426,
              36.72049689440996
            ],
            [
              15.291925465838517,
              36.72049689440996
            ],
            [
              14.67080745341616,
              36.72049689440996
            ],
            [
              14.173913043478251,
              36.72049689440996
            ],
            [
              13.801242236024848,
              36.596273291925456
            ],
            [
              13.428571428571445,
              36.47204968944101
            ],
            [
              12.807453416149087,
              36.22360248447205
            ],
            [
              12.434782608695684,
              36.099378881987604
            ],
            [
              12.062111801242281,
              35.47826086956525
            ],
            [
              11.689440993788821,
              35.35403726708074
            ],
            [
              11.565217391304373,
              34.98136645962734
            ],
            [
              11.316770186335418,
              34.608695652173935
            ],
            [
              10.944099378882015,
              34.23602484472053
            ],
            [
              10.81987577639751,
              33.86335403726707
            ],
            [
              10.571428571428612,
              33.49068322981367
            ],
            [
              10.447204968944106,
              33.118012422360266
            ],
            [
              10.198757763975152,
              32.74534161490686
            ],
            [
              10.074534161490703,
              32.3726708074534
            ],
            [
              9.826086956521749,
              32.0
            ],
            [
              9.7018633540373,
              31.627329192546597
            ],
            [
              9.453416149068346,
              31.254658385093194
            ],
            [
              9.32919254658384,
              30.881987577639734
            ],
            [
              9.080745341614943,
              30.50931677018633
            ],
            [
              8.956521739130437,
              30.136645962732928
            ],
            [
              8.708074534161483,
              29.763975155279525
            ],
            [
              8.211180124223631,
              29.763975155279525
            ],
            [
              7.838509316770228,
              29.888198757763973
            ],
            [
              7.217391304347871,
              30.01242236024848
            ],
            [
              6.844720496894411,
              30.260869565217376
            ],
            [
              6.472049689441008,
              30.385093167701882
            ],
            [
              6.0993788819876045,
              30.633540372670836
            ],
            [
              5.726708074534201,
              30.757763975155285
            ],
            [
              5.3540372670807415,
              31.00621118012424
            ],
            [
              4.981366459627338,
              31.13043478260869
            ],
            [
              4.608695652173935,
              31.378881987577643
            ],
            [
              4.111801242236027,
              31.50310559006209
            ],
            [
              3.7391304347826235,
              31.751552795031046
            ],
            [
              3.490683229813669,
              32.12422360248445
            ],
            [
              3.3664596273292204,
              32.49689440993791
            ],
            [
              3.3664596273292204,
              32.99378881987576
            ],
            [
              3.3664596273292204,
              33.614906832298175
            ],
            [
              3.3664596273292204,
              34.11180124223603
            ]
          ]
        ]
      }
    }
  ]
}