{
  "type": "FeatureCollection",
  "crs": {
    "type": "name",
    "properties": {
      "name": "urn:ogc:def:crs:OGC:1.3:CRS84"
    }
  },
  "features": [
    {
      "type": "Feature",
      "properties": {
        "timestamp": "2026-05-31T01:51:09.585875",
        "country_name": "Venezuela",
        "author": "00",
        "author_id": "031ce661-41af-4d7e-b9da-987558739903",
        "validated": false,
        "ranking": [
          [
            "Lithuania",
            0.10091707855463028
          ],
          [
            "Ukraine",
            0.041355978697538376
          ],
          [
            "Venezuela",
            0.03316027671098709
          ],
          [
            "India",
            0.029732277616858482
          ],
          [
            "Bangladesh",
            0.025206398218870163
          ],
          [
            "Saudi Arabia",
            0.023454850539565086
          ],
          [
            "Belgium",
            0.023299772292375565
          ],
          [
            "Montenegro",
            0.020634343847632408
          ],
          [
            "Guinea",
            0.018665557727217674
          ],
          [
            "Iran",
            0.01773826591670513
          ],
          [
            "North Macedonia",
            0.016310691833496094
          ],
          [
            "Rwanda",
            0.016270004212856293
          ],
          [
            "Romania",
            0.015598884783685207
          ],
          [
            "Burkina Faso",
            0.015554809011518955
          ],
          [
            "Turkmenistan",
            0.014409216120839119
          ],
          [
            "Mayotte",
            0.013256680220365524
          ],
          [
            "Latvia",
            0.01306399330496788
          ],
          [
            "Switzerland",
            0.013030373491346836
          ],
          [
            "Ecuador",
            0.012900974601507187
          ],
          [
            "Syria",
            0.012137537822127342
          ],
          [
            "Turkey",
            0.011771826073527336
          ],
          [
            "Burundi",
            0.011712498031556606
          ],
          [
            "Nigeria",
            0.011281429789960384
          ],
          [
            "Czech Republic",
            0.011105924844741821
          ],
          [
            "Cambodia",
            0.01082921214401722
          ],
          [
            "Australia",
            0.010674944147467613
          ],
          [
            "Brazil",
            0.010191747918725014
          ],
          [
            "Iceland",
            0.010082160122692585
          ],
          [
            "Gabon",
            0.009944004006683826
          ],
          [
            "Heard and McDonald Islands",
            0.009504828602075577
          ],
          [
            "France",
            0.009465913288295269
          ],
          [
            "Dominican Republic",
            0.008242486044764519
          ],
          [
            "Estonia",
            0.008060891181230545
          ],
          [
            "Mali",
            0.00800887681543827
          ],
          [
            "Namibia",
            0.007671331521123648
          ],
          [
            "Kazakhstan",
            0.0075981575064361095
          ],
          [
            "Belize",
            0.006900331471115351
          ],
          [
            "Slovakia",
            0.0068403673358261585
          ],
          [
            "Armenia",
            0.006767112296074629
          ],
          [
            "Costa Rica",
            0.006607994902879
          ],
          [
            "Yemen",
            0.006535869557410479
          ],
          [
            "Bhutan",
            0.006476329639554024
          ],
          [
            "Greenland",
            0.006211391184478998
          ],
          [
            "Senegal",
            0.006119841244071722
          ],
          [
            "Ethiopia",
            0.005842690821737051
          ],
          [
            "Georgia",
            0.005752942059189081
          ],
          [
            "Croatia",
            0.005548560526221991
          ],
          [
            "Papua New Guinea",
            0.005424692761152983
          ],
          [
            "New Caledonia",
            0.005283548031002283
          ],
          [
            "Angola",
            0.005266393534839153
          ],
          [
            "Jamaica",
            0.005213126074522734
          ],
          [
            "El Salvador",
            0.005177837796509266
          ],
          [
            "Benin",
            0.004918424878269434
          ],
          [
            "Hong Kong",
            0.004666825290769339
          ],
          [
            "Paraguay",
            0.00466070557013154
          ],
          [
            "Comoros",
            0.004646379500627518
          ],
          [
            "Guinea-Bissau",
            0.00463247811421752
          ],
          [
            "Malaysia",
            0.004517784342169762
          ],
          [
            "Bosnia & Herzegovina",
            0.004455044399946928
          ],
          [
            "Moldova",
            0.004441325552761555
          ],
          [
            "Mexico",
            0.004380908794701099
          ],
          [
            "Lesotho",
            0.004171300213783979
          ],
          [
            "Uzbekistan",
            0.004150720778852701
          ],
          [
            "South Korea",
            0.0040144165977835655
          ],
          [
            "Uruguay",
            0.003924565389752388
          ],
          [
            "United States of America",
            0.0038899187929928303
          ],
          [
            "Peru",
            0.003840671619400382
          ],
          [
            "Spain",
            0.0038384816143661737
          ],
          [
            "Thailand",
            0.003807462751865387
          ],
          [
            "Honduras",
            0.003775117453187704
          ],
          [
            "Mongolia",
            0.003744782181456685
          ],
          [
            "Hungary",
            0.0037226483691483736
          ],
          [
            "Turks and Caicos Islands",
            0.0035947540309280157
          ],
          [
            "Bulgaria",
            0.003523194929584861
          ],
          [
            "Martinique",
            0.0035141215194016695
          ],
          [
            "Puerto Rico",
            0.003508341731503606
          ],
          [
            "Guyana",
            0.0034834707621484995
          ],
          [
            "Kyrgyzstan",
            0.003471101401373744
          ],
          [
            "Cape Verde",
            0.003276558592915535
          ],
          [
            "Mozambique",
            0.003268506610766053
          ],
          [
            "Somalia",
            0.0031450793612748384
          ],
          [
            "Guadeloupe",
            0.003133134450763464
          ],
          [
            "French Guiana",
            0.0030918163247406483
          ],
          [
            "Svalbard",
            0.003089859150350094
          ],
          [
            "Suriname",
            0.003071432700380683
          ],
          [
            "Madeira Islands",
            0.0029350609984248877
          ],
          [
            "Reunion",
            0.002928998786956072
          ],
          [
            "South Georgia Islands",
            0.002843581372871995
          ],
          [
            "Brunei",
            0.0028195641934871674
          ],
          [
            "Bahamas",
            0.0028056055307388306
          ],
          [
            "Serbia",
            0.0028023594059050083
          ],
          [
            "Solomon Islands",
            0.0027985400520265102
          ],
          [
            "Liberia",
            0.0027885017916560173
          ],
          [
            "Indonesia",
            0.002757239853963256
          ],
          [
            "Sudan",
            0.002734692534431815
          ],
          [
            "Panama",
            0.0026762597262859344
          ],
          [
            "Botswana",
            0.002661324804648757
          ],
          [
            "Falkland Islands",
            0.002661289181560278
          ],
          [
            "South Sudan",
            0.0025391390081495047
          ],
          [
            "Central African Republic",
            0.0025293941143900156
          ],
          [
            "Bolivia",
            0.0024760093074291945
          ],
          [
            "Slovenia",
            0.0023764586076140404
          ],
          [
            "Azerbaijan",
            0.002323920140042901
          ],
          [
            "Zambia",
            0.002295619109645486
          ],
          [
            "Jordan",
            0.0022460967302322388
          ],
          [
            "Netherlands Antilles",
            0.002200704999268055
          ],
          [
            "Sierra Leone",
            0.00209407159127295
          ],
          [
            "Russia",
            0.002061916748061776
          ],
          [
            "Fiji",
            0.0019706569146364927
          ],
          [
            "Tajikistan",
            0.001886906335130334
          ],
          [
            "Afghanistan",
            0.0018398521933704615
          ],
          [
            "Faroe Islands",
            0.001823314349167049
          ],
          [
            "Italy",
            0.001787219662219286
          ],
          [
            "United Arab Emirates",
            0.0017316513694822788
          ],
          [
            "Myanmar",
            0.0016935683088377118
          ],
          [
            "Vietnam",
            0.001587516744621098
          ],
          [
            "Taiwan",
            0.0015693687601014972
          ],
          [
            "Djibouti",
            0.0015394166111946106
          ],
          [
            "Colombia",
            0.0014931696932762861
          ],
          [
            "Eswatini",
            0.0014915444189682603
          ],
          [
            "Egypt",
            0.0014273629058152437
          ],
          [
            "Iraq",
            0.0014234153786674142
          ],
          [
            "Cyprus",
            0.0014116676757112145
          ],
          [
            "Tanzania",
            0.0013877474702894688
          ],
          [
            "Sri Lanka",
            0.0013736007967963815
          ],
          [
            "Laos",
            0.0013315528631210327
          ],
          [
            "Cuba",
            0.0013262148713693023
          ],
          [
            "China",
            0.0013182052643969655
          ],
          [
            "Côte d'Ivoire",
            0.0012866822071373463
          ],
          [
            "Argentina",
            0.00126756785903126
          ],
          [
            "Samoa",
            0.0012615332379937172
          ],
          [
            "Oman",
            0.0012424227315932512
          ],
          [
            "Austria",
            0.0012174234725534916
          ],
          [
            "Kuwait",
            0.001202960149385035
          ],
          [
            "Qatar",
            0.0011944593861699104
          ],
          [
            "Poland",
            0.0011754432925954461
          ],
          [
            "Nepal",
            0.001158456434495747
          ],
          [
            "Sweden",
            0.001150336000137031
          ],
          [
            "Equatorial Guinea",
            0.0011500399559736252
          ],
          [
            "Portugal",
            0.0011397155467420816
          ],
          [
            "New Zealand",
            0.0011308202520012856
          ],
          [
            "Germany",
            0.0010918014449998736
          ],
          [
            "Albania",
            0.001090758596546948
          ],
          [
            "South Africa",
            0.0010792214889079332
          ],
          [
            "Luxembourg",
            0.0010703124571591616
          ],
          [
            "Niger",
            0.0010590541642159224
          ],
          [
            "Algeria",
            0.0010516627226024866
          ],
          [
            "Timor-Leste",
            0.001050977036356926
          ],
          [
            "Zimbabwe",
            0.0010455326410010457
          ],
          [
            "Dominica",
            0.0010111619485542178
          ],
          [
            "Kenya",
            0.000978102209046483
          ],
          [
            "Belarus",
            0.0009776396909728646
          ],
          [
            "Uganda",
            0.0009757600491866469
          ],
          [
            "Vanuatu",
            0.0009633275913074613
          ],
          [
            "Libya",
            0.0009504660265520215
          ],
          [
            "Antigua & Barbuda",
            0.0008948783506639302
          ],
          [
            "Eritrea",
            0.000870782183483243
          ],
          [
            "Japan",
            0.0008559601265005767
          ],
          [
            "Tunisia",
            0.0008313467842526734
          ],
          [
            "Western Sahara",
            0.0008280362235382199
          ],
          [
            "North Korea",
            0.000812578306067735
          ],
          [
            "Nicaragua",
            0.0008061363478191197
          ],
          [
            "Congo",
            0.0007847498636692762
          ],
          [
            "Malawi",
            0.0007539786747656763
          ],
          [
            "Madagascar",
            0.0007321735611185431
          ],
          [
            "Israel",
            0.0007141685928218067
          ],
          [
            "Bahrain",
            0.0007017406751401722
          ],
          [
            "Guam",
            0.000694632122758776
          ],
          [
            "Guatemala",
            0.0006845049210824072
          ],
          [
            "Togo",
            0.0006779808318242431
          ],
          [
            "West Bank",
            0.0006706396234221756
          ],
          [
            "Barbados",
            0.000624887936282903
          ],
          [
            "DR Congo",
            0.0005740684573538601
          ],
          [
            "Sao Tome and Principe",
            0.000557116640266031
          ],
          [
            "Mauritania",
            0.0005554836825467646
          ],
          [
            "Greece",
            0.0005525471060536802
          ],
          [
            "Finland",
            0.0005305499653331935
          ],
          [
            "Trinidad and Tobago",
            0.0005253409035503864
          ],
          [
            "Chad",
            0.0005245849024504423
          ],
          [
            "Ireland",
            0.0005161034059710801
          ],
          [
            "Canada",
            0.0004941695951856673
          ],
          [
            "Philippines",
            0.00045589599176310003
          ],
          [
            "Haiti",
            0.00040448197978548706
          ],
          [
            "Ghana",
            0.0003964868956245482
          ],
          [
            "Chile",
            0.00039630389073863626
          ],
          [
            "Lebanon",
            0.0003562025376595557
          ],
          [
            "Cameroon",
            0.00033303332747891545
          ],
          [
            "Saint Lucia",
            0.0003288828884251416
          ],
          [
            "Morocco",
            0.00032278141588903964
          ],
          [
            "Isle of Man",
            0.0003031319647561759
          ],
          [
            "United Kingdom",
            0.0002951541682705283
          ],
          [
            "Palau",
            0.00029282152536325157
          ],
          [
            "Pakistan",
            0.00027975832927040756
          ],
          [
            "United States Virgin Islands",
            0.00025910703698173165
          ],
          [
            "Gambia",
            0.0002290544507559389
          ],
          [
            "Denmark",
            0.00019837269792333245
          ],
          [
            "Netherlands",
            0.00019621459068730474
          ],
          [
            "Norway",
            0.00017275926074944437
          ],
          [
            "Kiribati",
            8.183936006389558e-05
          ]
        ]
      },
      "geometry": {
        "type": "MultiLineString",
        "coordinates": [
          [
            [
              6.5051194539249195,
              57.18771331058022
            ],
            [
              6.300341296928309,
              56.16382252559728
            ],
            [
              5.890784982935145,
              55.54948805460751
            ],
            [
              5.481228668941981,
              54.93515358361776
            ],
            [
              5.0716723549488165,
              54.116040955631405
            ],
            [
              4.6621160409555955,
              53.50170648464166
            ],
            [
              4.047781569965878,
              53.092150170648466
            ],
            [
              3.6382252559726567,
              52.47781569965872
            ],
            [
              3.433447098976103,
              51.863481228668945
            ],
            [
              3.2286689419794925,
              51.04436860068262
            ],
            [
              3.2286689419794925,
              50.22525597269626
            ],
            [
              3.2286689419794925,
              49.4061433447099
            ],
            [
              3.023890784982939,
              48.587030716723575
            ],
            [
              2.8191126279863283,
              47.76791808873719
            ],
            [
              2.6143344709897747,
              46.94880546075086
            ],
            [
              2.409556313993164,
              46.12969283276453
            ],
            [
              2.2047781569965537,
              45.51535836177476
            ],
            [
              2.0,
              44.901023890784984
            ],
            [
              2.0,
              44.081911262798656
            ],
            [
              2.0,
              43.05802047781572
            ],
            [
              2.0,
              42.23890784982939
            ],
            [
              2.0,
              41.419795221843
            ],
            [
              2.0,
              40.600682593856675
            ],
            [
              2.6143344709897747,
              40.395904436860064
            ],
            [
              3.2286689419794925,
              40.19112627986351
            ],
            [
              4.047781569965878,
              39.78156996587029
            ],
            [
              4.866894197952206,
              39.576791808873736
            ],
            [
              5.481228668941981,
              38.96245733788396
            ],
            [
              6.095563139931755,
              38.5529010238908
            ],
            [
              6.5051194539249195,
              37.93856655290102
            ],
            [
              6.709897610921473,
              37.324232081911305
            ],
            [
              6.709897610921473,
              36.50511945392492
            ],
            [
              7.324232081911248,
              36.30034129692831
            ],
            [
              7.9385665529010225,
              35.890784982935145
            ],
            [
              8.552901023890797,
              35.07167235494882
            ],
            [
              9.372013651877126,
              34.66211604095565
            ],
            [
              9.9863481228669,
              34.04778156996588
            ],
            [
              10.600682593856618,
              33.843003412969324
            ],
            [
              11.419795221843003,
              33.843003412969324
            ],
            [
              12.238907849829332,
              33.843003412969324
            ],
            [
              13.26279863481227,
              33.843003412969324
            ],
            [
              14.49146757679182,
              33.843003412969324
            ],
            [
              15.310580204778148,
              33.843003412969324
            ],
            [
              16.129692832764476,
              33.4334470989761
            ],
            [
              16.74402730375425,
              33.02389078498294
            ],
            [
              17.56313993174058,
              32.614334470989775
            ],
            [
              18.382252559726965,
              32.614334470989775
            ],
            [
              18.996587030716682,
              32.0
            ],
            [
              19.201365187713293,
              31.385665529010225
            ],
            [
              19.610921501706457,
              30.566552901023897
            ],
            [
              20.020477815699678,
              29.542662116040958
            ],
            [
              20.020477815699678,
              28.72354948805463
            ],
            [
              20.020477815699678,
              27.904436860068245
            ],
            [
              19.610921501706457,
              27.085324232081916
            ],
            [
              19.406143344709903,
              26.266211604095588
            ],
            [
              19.201365187713293,
              25.651877133105813
            ],
            [
              18.996587030716682,
              25.03754266211604
            ],
            [
              18.996587030716682,
              23.808873720136546
            ],
            [
              18.79180887372013,
              22.784982935153607
            ],
            [
              18.58703071672352,
              21.96587030716728
            ],
            [
              18.58703071672352,
              20.73720136518773
            ],
            [
              18.382252559726965,
              19.71331058020479
            ],
            [
              18.177474402730354,
              18.894197952218406
            ],
            [
              17.9726962457338,
              18.075085324232077
            ],
            [
              17.76791808873719,
              17.25597269624575
            ],
            [
              17.56313993174058,
              16.43686006825942
            ],
            [
              17.358361774744026,
              15.617747440273035
            ],
            [
              16.94880546075086,
              15.003412969283318
            ],
            [
              16.94880546075086,
              13.979522184300322
            ],
            [
              16.94880546075086,
              12.75085324232083
            ],
            [
              16.94880546075086,
              11.931740614334501
            ],
            [
              17.56313993174058,
              11.522184300341337
            ],
            [
              18.177474402730354,
              10.498293515358341
            ],
            [
              18.79180887372013,
              10.293515358361788
            ],
            [
              19.610921501706457,
              10.293515358361788
            ],
            [
              20.634812286689396,
              10.088737201365234
            ],
            [
              21.24914675767917,
              9.679180887372013
            ],
            [
              22.27303754266211,
              9.269624573378849
            ],
            [
              22.887372013651884,
              8.860068259385685
            ],
            [
              23.501706484641602,
              8.45051194539252
            ],
            [
              24.116040955631377,
              8.24573378839591
            ],
            [
              24.73037542662115,
              7.836177474402746
            ],
            [
              25.75426621160409,
              7.0170648464163605
            ],
            [
              26.368600682593865,
              6.607508532423253
            ],
            [
              26.98293515358364,
              6.402730375426643
            ],
            [
              28.00682593856652,
              6.402730375426643
            ],
            [
              28.621160409556296,
              6.607508532423253
            ],
            [
              29.23549488054607,
              7.4266211604095815
            ],
            [
              29.849829351535845,
              7.631399317406135
            ],
            [
              30.873720136518727,
              8.655290102389074
            ],
            [
              31.692832764505113,
              9.269624573378849
            ],
            [
              32.51194539249144,
              9.883959044368623
            ],
            [
              33.331058020477826,
              10.703071672354952
            ],
            [
              33.74061433447099,
              11.317406143344726
            ],
            [
              33.945392491467544,
              12.136518771331055
            ],
            [
              34.150170648464155,
              12.75085324232083
            ],
            [
              34.150170648464155,
              13.569965870307158
            ],
            [
              34.150170648464155,
              14.593856655290097
            ],
            [
              34.35494880546071,
              15.208191126279871
            ],
            [
              34.76450511945393,
              16.0273037542662
            ],
            [
              34.76450511945393,
              17.05119453924914
            ],
            [
              34.96928327645048,
              17.665529010238913
            ],
            [
              34.96928327645048,
              18.894197952218406
            ],
            [
              34.96928327645048,
              19.71331058020479
            ],
            [
              34.96928327645048,
              20.941979522184283
            ],
            [
              34.96928327645048,
              21.76109215017067
            ],
            [
              35.17406143344709,
              22.375426621160386
            ],
            [
              35.99317406143342,
              23.19453924914677
            ],
            [
              37.22184300341297,
              23.604095563139936
            ],
            [
              38.0409556313993,
              24.0136518771331
            ],
            [
              39.06484641638224,
              24.627986348122874
            ],
            [
              39.88395904436857,
              25.03754266211604
            ],
            [
              40.49829351535834,
              25.447098976109203
            ],
            [
              41.31740614334467,
              26.061433447098977
            ],
            [
              41.931740614334444,
              26.47098976109214
            ],
            [
              42.54607508532422,
              26.675767918088752
            ],
            [
              43.36518771331055,
              26.675767918088752
            ],
            [
              44.18430034129693,
              26.061433447098977
            ],
            [
              44.5938566552901,
              25.447098976109203
            ],
            [
              45.00341296928326,
              24.627986348122874
            ],
            [
              45.822525597269646,
              24.423208191126264
            ],
            [
              46.436860068259364,
              23.604095563139936
            ],
            [
              46.84641638225253,
              22.98976109215016
            ],
            [
              47.25597269624575,
              22.375426621160386
            ],
            [
              47.66552901023891,
              21.556313993174058
            ],
            [
              48.27986348122863,
              20.53242320819112
            ],
            [
              48.68941979522185,
              19.9180887372014
            ],
            [
              49.30375426621157,
              19.71331058020479
            ],
            [
              49.918088737201344,
              18.894197952218406
            ],
            [
              50.32764505119451,
              18.279863481228688
            ],
            [
              50.53242320819112,
              17.665529010238913
            ],
            [
              51.35153583617745,
              17.05119453924914
            ],
            [
              51.96587030716722,
              16.641638225255974
            ],
            [
              52.580204778157,
              16.43686006825942
            ],
            [
              53.194539249146715,
              16.846416382252585
            ],
            [
              54.21843003412971,
              18.279863481228688
            ],
            [
              54.627986348122874,
              19.50853242320818
            ],
            [
              55.24232081911259,
              21.146757679180894
            ],
            [
              55.4470989761092,
              21.96587030716728
            ],
            [
              55.85665529010237,
              22.580204778156997
            ],
            [
              56.26621160409553,
              23.19453924914677
            ],
            [
              56.47098976109214,
              23.808873720136546
            ],
            [
              56.880546075085306,
              24.423208191126264
            ],
            [
              57.085324232081916,
              25.24232081911265
            ],
            [
              57.69965870307169,
              25.856655290102424
            ],
            [
              58.1092150170648,
              26.47098976109214
            ],
            [
              58.51877133105802,
              27.290102389078527
            ],
            [
              59.133105802047794,
              27.69965870307169
            ],
            [
              59.33788395904435,
              28.313993174061466
            ],
            [
              59.74744027303751,
              28.928327645051183
            ],
            [
              60.36177474402729,
              29.952218430034122
            ],
            [
              60.5665529010239,
              30.566552901023897
            ],
            [
              60.77133105802045,
              31.385665529010225
            ],
            [
              60.97610921501706,
              32.0
            ],
            [
              61.18088737201367,
              32.614334470989775
            ],
            [
              61.385665529010225,
              33.4334470989761
            ],
            [
              61.385665529010225,
              34.45733788395904
            ],
            [
              61.59044368600678,
              35.27645051194543
            ],
            [
              61.79522184300339,
              36.095563139931755
            ],
            [
              62.0,
              36.914675767918084
            ],
            [
              62.0,
              37.73378839590447
            ],
            [
              62.0,
              38.75767918088741
            ],
            [
              62.0,
              39.576791808873736
            ],
            [
              61.79522184300339,
              40.600682593856675
            ],
            [
              61.385665529010225,
              41.419795221843
            ],
            [
              60.77133105802045,
              42.23890784982939
            ],
            [
              60.156996587030676,
              43.05802047781572
            ],
            [
              59.95221843003412,
              43.67235494880549
            ],
            [
              59.54266211604096,
              44.28668941979521
            ],
            [
              58.72354948805457,
              44.28668941979521
            ],
            [
              57.69965870307169,
              44.28668941979521
            ],
            [
              56.880546075085306,
              44.28668941979521
            ],
            [
              55.65187713310581,
              44.49146757679182
            ],
            [
              55.03754266211604,
              44.901023890784984
            ],
            [
              54.423208191126264,
              45.51535836177476
            ],
            [
              53.80887372013649,
              45.92491467576792
            ],
            [
              53.194539249146715,
              46.12969283276453
            ],
            [
              52.580204778157,
              46.5392491467577
            ],
            [
              51.96587030716722,
              46.74402730375425
            ],
            [
              51.35153583617745,
              47.15358361774747
            ],
            [
              50.53242320819112,
              47.15358361774747
            ],
            [
              49.713310580204734,
              46.94880546075086
            ],
            [
              48.894197952218406,
              46.74402730375425
            ],
            [
              48.07508532423208,
              46.74402730375425
            ],
            [
              47.4607508532423,
              46.5392491467577
            ],
            [
              46.84641638225253,
              46.33447098976109
            ],
            [
              46.23208191126275,
              46.12969283276453
            ],
            [
              45.412969283276425,
              46.12969283276453
            ],
            [
              44.5938566552901,
              46.12969283276453
            ],
            [
              43.77474402730377,
              46.5392491467577
            ],
            [
              42.95563139931738,
              46.94880546075086
            ],
            [
              42.341296928327665,
              47.358361774744026
            ],
            [
              41.52218430034128,
              47.358361774744026
            ],
            [
              40.907849829351505,
              47.563139931740636
            ],
            [
              40.08873720136518,
              47.563139931740636
            ],
            [
              39.26962457337879,
              47.76791808873719
            ],
            [
              38.655290102389074,
              48.587030716723575
            ],
            [
              38.0409556313993,
              48.79180887372013
            ],
            [
              37.22184300341297,
              49.81569965870307
            ],
            [
              36.81228668941981,
              50.43003412969284
            ],
            [
              36.19795221843003,
              51.2491467576792
            ],
            [
              35.58361774744026,
              51.863481228668945
            ],
            [
              34.76450511945393,
              52.27303754266211
            ],
            [
              34.150170648464155,
              52.068259385665556
            ],
            [
              33.53583617747438,
              51.65870307167236
            ],
            [
              32.921501706484605,
              51.863481228668945
            ],
            [
              32.10238907849828,
              52.27303754266211
            ],
            [
              31.078498293515338,
              52.27303754266211
            ],
            [
              30.46416382252562,
              52.47781569965872
            ],
            [
              29.645051194539235,
              52.47781569965872
            ],
            [
              28.825938566552907,
              52.47781569965872
            ],
            [
              27.802047781569968,
              52.47781569965872
            ],
            [
              27.187713310580193,
              52.27303754266211
            ],
            [
              25.959044368600644,
              53.092150170648466
            ],
            [
              24.935153583617762,
              54.116040955631405
            ],
            [
              24.320819112627987,
              54.5255972696246
            ],
            [
              23.29692832764505,
              55.139931740614344
            ],
            [
              22.682593856655274,
              55.344709897610926
            ],
            [
              21.863481228668945,
              55.344709897610926
            ],
            [
              21.04436860068256,
              55.344709897610926
            ],
            [
              20.430034129692842,
              55.139931740614344
            ],
            [
              19.815699658703068,
              54.5255972696246
            ],
            [
              18.996587030716682,
              54.116040955631405
            ],
            [
              18.382252559726965,
              53.70648464163824
            ],
            [
              17.9726962457338,
              53.092150170648466
            ],
            [
              17.56313993174058,
              52.47781569965872
            ],
            [
              17.358361774744026,
              51.863481228668945
            ],
            [
              17.358361774744026,
              50.634812286689424
            ],
            [
              16.94880546075086,
              50.02047781569968
            ],
            [
              16.334470989761087,
              49.81569965870307
            ],
            [
              15.515358361774702,
              49.20136518771335
            ],
            [
              15.105802047781538,
              48.587030716723575
            ],
            [
              14.49146757679182,
              48.382252559726965
            ],
            [
              13.877133105802045,
              48.177474402730354
            ],
            [
              13.058020477815717,
              47.9726962457338
            ],
            [
              12.443686006825942,
              47.76791808873719
            ],
            [
              11.829351535836167,
              47.358361774744026
            ],
            [
              11.215017064846393,
              46.94880546075086
            ],
            [
              10.600682593856618,
              46.74402730375425
            ],
            [
              9.576791808873736,
              46.74402730375425
            ],
            [
              8.962457337883961,
              47.563139931740636
            ],
            [
              8.75767918088735,
              48.177474402730354
            ],
            [
              8.75767918088735,
              48.99658703071674
            ],
            [
              8.552901023890797,
              49.610921501706514
            ],
            [
              8.348122866894187,
              50.22525597269626
            ],
            [
              8.143344709897576,
              50.839590443686006
            ],
            [
              8.143344709897576,
              51.863481228668945
            ],
            [
              8.143344709897576,
              52.6825938566553
            ],
            [
              7.9385665529010225,
              53.50170648464166
            ],
            [
              7.9385665529010225,
              54.32081911262799
            ],
            [
              8.143344709897576,
              55.139931740614344
            ],
            [
              8.552901023890797,
              55.75426621160409
            ],
            [
              8.75767918088735,
              56.57337883959045
            ],
            [
              8.75767918088735,
              57.392491467576804
            ],
            [
              8.143344709897576,
              57.597269624573386
            ],
            [
              7.119453924914637,
              57.597269624573386
            ]
          ]
        ]
      }
    }
  ]
}