{
  "type": "FeatureCollection",
  "crs": {
    "type": "name",
    "properties": {
      "name": "urn:ogc:def:crs:OGC:1.3:CRS84"
    }
  },
  "features": [
    {
      "type": "Feature",
      "properties": {
        "timestamp": "2026-04-18T18:08:00.808111",
        "country_name": "Vietnam",
        "author": "",
        "author_id": "bfcecee8-519b-45cd-93af-93cc3bb7cf12",
        "validated": false,
        "ranking": [
          [
            "Vietnam",
            0.4079705774784088
          ],
          [
            "Belize",
            0.1598115712404251
          ],
          [
            "Antigua & Barbuda",
            0.09647881239652634
          ],
          [
            "Togo",
            0.06139330938458443
          ],
          [
            "Faroe Islands",
            0.03169934079051018
          ],
          [
            "Finland",
            0.02821926400065422
          ],
          [
            "Benin",
            0.01721043884754181
          ],
          [
            "Portugal",
            0.012431932613253593
          ],
          [
            "Qatar",
            0.011695069260895252
          ],
          [
            "Malawi",
            0.01124313473701477
          ],
          [
            "United States Virgin Islands",
            0.009607101790606976
          ],
          [
            "Israel",
            0.009154544211924076
          ],
          [
            "Chile",
            0.009100566618144512
          ],
          [
            "Moldova",
            0.0088091641664505
          ],
          [
            "Tunisia",
            0.007819095626473427
          ],
          [
            "Albania",
            0.007025093771517277
          ],
          [
            "Sweden",
            0.006419287994503975
          ],
          [
            "Myanmar",
            0.005660551600158215
          ],
          [
            "Palau",
            0.005659051239490509
          ],
          [
            "Spain",
            0.005596589297056198
          ],
          [
            "Vanuatu",
            0.005298582371324301
          ],
          [
            "Oman",
            0.004922890104353428
          ],
          [
            "West Bank",
            0.00396693404763937
          ],
          [
            "Dominica",
            0.003149468917399645
          ],
          [
            "United Kingdom",
            0.0031290750484913588
          ],
          [
            "New Zealand",
            0.002921827370300889
          ],
          [
            "Thailand",
            0.002676641335710883
          ],
          [
            "Saint Lucia",
            0.0026664400938898325
          ],
          [
            "Argentina",
            0.00259137200191617
          ],
          [
            "Greenland",
            0.002589830197393894
          ],
          [
            "Somalia",
            0.0025243638083338737
          ],
          [
            "Namibia",
            0.002239629626274109
          ],
          [
            "Cape Verde",
            0.002106499159708619
          ],
          [
            "Taiwan",
            0.0019171701278537512
          ],
          [
            "Bahrain",
            0.0017372530419379473
          ],
          [
            "Cameroon",
            0.0016396298306062818
          ],
          [
            "Jordan",
            0.00163669278845191
          ],
          [
            "Philippines",
            0.0015874083619564772
          ],
          [
            "Guyana",
            0.0015292535535991192
          ],
          [
            "Madagascar",
            0.0015064006438478827
          ],
          [
            "Sao Tome and Principe",
            0.0014889102894812822
          ],
          [
            "Mozambique",
            0.001416385406628251
          ],
          [
            "Peru",
            0.0012549005914479494
          ],
          [
            "Congo",
            0.0012434949167072773
          ],
          [
            "Sri Lanka",
            0.0009491060045547783
          ],
          [
            "Saudi Arabia",
            0.0009322499972768128
          ],
          [
            "Ecuador",
            0.000903679640032351
          ],
          [
            "Burundi",
            0.0008729593828320503
          ],
          [
            "Rwanda",
            0.0008711712434887886
          ],
          [
            "Martinique",
            0.0006687277345918119
          ],
          [
            "Equatorial Guinea",
            0.0006485365447588265
          ],
          [
            "Japan",
            0.000631720176897943
          ],
          [
            "Botswana",
            0.0006143242935650051
          ],
          [
            "Mayotte",
            0.0005932492786087096
          ],
          [
            "Chad",
            0.0005680541507899761
          ],
          [
            "Romania",
            0.0005457944935187697
          ],
          [
            "South Korea",
            0.0005222929175943136
          ],
          [
            "French Guiana",
            0.0005197409191168845
          ],
          [
            "Colombia",
            0.0005147970514371991
          ],
          [
            "Guam",
            0.0005134624079801142
          ],
          [
            "Bolivia",
            0.0005104139563627541
          ],
          [
            "Fiji",
            0.00047964687109924853
          ],
          [
            "Serbia",
            0.00047950330190360546
          ],
          [
            "North Korea",
            0.0004715131362900138
          ],
          [
            "Brunei",
            0.0004575233906507492
          ],
          [
            "Egypt",
            0.0004339840670581907
          ],
          [
            "Mali",
            0.0004134381015319377
          ],
          [
            "Heard and McDonald Islands",
            0.00041141328983940184
          ],
          [
            "Isle of Man",
            0.00040863308822736144
          ],
          [
            "North Macedonia",
            0.0004050642601214349
          ],
          [
            "Libya",
            0.00037133300793357193
          ],
          [
            "Canada",
            0.00036099867429584265
          ],
          [
            "Ghana",
            0.0003317749942652881
          ],
          [
            "Trinidad and Tobago",
            0.0003308359591756016
          ],
          [
            "Ethiopia",
            0.000329483300447464
          ],
          [
            "Bangladesh",
            0.0003110596735496074
          ],
          [
            "Syria",
            0.000303244887618348
          ],
          [
            "Switzerland",
            0.0003032194508705288
          ],
          [
            "Guadeloupe",
            0.0002970723435282707
          ],
          [
            "Lithuania",
            0.0002886384027078748
          ],
          [
            "Cambodia",
            0.000285477057332173
          ],
          [
            "Nigeria",
            0.000262164423475042
          ],
          [
            "Guatemala",
            0.000249696196988225
          ],
          [
            "Paraguay",
            0.0002468539751134813
          ],
          [
            "India",
            0.0002465354045853019
          ],
          [
            "Angola",
            0.0002406444400548935
          ],
          [
            "Lesotho",
            0.0002345074462937191
          ],
          [
            "Zambia",
            0.00023279037850443274
          ],
          [
            "Svalbard",
            0.0002295185549883172
          ],
          [
            "Reunion",
            0.0002276885643368587
          ],
          [
            "South Sudan",
            0.00021384263527579606
          ],
          [
            "Montenegro",
            0.00020717957522720098
          ],
          [
            "Barbados",
            0.00019892482669092715
          ],
          [
            "Suriname",
            0.0001953479804797098
          ],
          [
            "Gabon",
            0.00019518558110576123
          ],
          [
            "Afghanistan",
            0.00018754495249595493
          ],
          [
            "South Africa",
            0.000182346033398062
          ],
          [
            "Iran",
            0.00017662631580606103
          ],
          [
            "Czech Republic",
            0.000164030134328641
          ],
          [
            "South Georgia Islands",
            0.00016299597336910665
          ],
          [
            "Croatia",
            0.00015714204346295446
          ],
          [
            "Turkmenistan",
            0.00015204779629129916
          ],
          [
            "Papua New Guinea",
            0.00014707465015817434
          ],
          [
            "Luxembourg",
            0.00014535342052113265
          ],
          [
            "Laos",
            0.0001429722469765693
          ],
          [
            "Mauritania",
            0.00013960730575490743
          ],
          [
            "Western Sahara",
            0.00013813514669891447
          ],
          [
            "Brazil",
            0.0001370591198792681
          ],
          [
            "Bahamas",
            0.00013349145592655987
          ],
          [
            "Pakistan",
            0.00013119920913595706
          ],
          [
            "Eswatini",
            0.0001298459101235494
          ],
          [
            "Italy",
            0.00012890156358480453
          ],
          [
            "Uruguay",
            0.00012565117503982037
          ],
          [
            "Slovenia",
            0.0001242816069861874
          ],
          [
            "Ukraine",
            0.00011852612806251273
          ],
          [
            "Ireland",
            0.0001133111072704196
          ],
          [
            "Yemen",
            0.0001127056239056401
          ],
          [
            "Solomon Islands",
            0.00011023390834452584
          ],
          [
            "Timor-Leste",
            0.0001101309317164123
          ],
          [
            "Bosnia & Herzegovina",
            0.00010986405686708167
          ],
          [
            "Liberia",
            0.00010597533400868997
          ],
          [
            "Lebanon",
            0.00010444960935274139
          ],
          [
            "Kenya",
            0.00010258050315314904
          ],
          [
            "Norway",
            9.889807552099228e-05
          ],
          [
            "Sudan",
            9.63729980867356e-05
          ],
          [
            "Germany",
            9.347653394797817e-05
          ],
          [
            "Armenia",
            9.265590779250488e-05
          ],
          [
            "Netherlands",
            8.957509999163449e-05
          ],
          [
            "Comoros",
            8.870493911672384e-05
          ],
          [
            "Iraq",
            8.855634223436937e-05
          ],
          [
            "Uzbekistan",
            8.706907829036936e-05
          ],
          [
            "United Arab Emirates",
            8.322907524416223e-05
          ],
          [
            "France",
            7.829273090464994e-05
          ],
          [
            "Burkina Faso",
            7.78507674112916e-05
          ],
          [
            "Turkey",
            7.183476554928347e-05
          ],
          [
            "Slovakia",
            7.022252975730225e-05
          ],
          [
            "Honduras",
            6.9075045757927e-05
          ],
          [
            "Venezuela",
            6.717239011777565e-05
          ],
          [
            "Bhutan",
            6.611269054701552e-05
          ],
          [
            "Hong Kong",
            6.59011784591712e-05
          ],
          [
            "Kazakhstan",
            6.59011784591712e-05
          ],
          [
            "Djibouti",
            6.427790503948927e-05
          ],
          [
            "Indonesia",
            6.341790140140802e-05
          ],
          [
            "Hungary",
            5.897988012293354e-05
          ],
          [
            "Central African Republic",
            5.738396066590212e-05
          ],
          [
            "New Caledonia",
            5.5836131650721654e-05
          ],
          [
            "Australia",
            5.264753781375475e-05
          ],
          [
            "Latvia",
            5.187503120396286e-05
          ],
          [
            "Côte d'Ivoire",
            5.056231748312712e-05
          ],
          [
            "Belgium",
            4.9987069360213354e-05
          ],
          [
            "Puerto Rico",
            4.9384259909857064e-05
          ],
          [
            "Mongolia",
            4.8912268539424986e-05
          ],
          [
            "Niger",
            4.8893707571551204e-05
          ],
          [
            "Malaysia",
            4.834528226638213e-05
          ],
          [
            "Dominican Republic",
            4.806118886335753e-05
          ],
          [
            "Cuba",
            4.692851143772714e-05
          ],
          [
            "Uganda",
            4.623542190529406e-05
          ],
          [
            "Guinea",
            4.5373071770882234e-05
          ],
          [
            "Senegal",
            4.5252247218741104e-05
          ],
          [
            "Azerbaijan",
            4.436302333488129e-05
          ],
          [
            "Poland",
            4.3307594751240686e-05
          ],
          [
            "Algeria",
            4.258691842551343e-05
          ],
          [
            "Nicaragua",
            4.219679249217734e-05
          ],
          [
            "Belarus",
            4.108915527467616e-05
          ],
          [
            "El Salvador",
            4.065276516485028e-05
          ],
          [
            "Eritrea",
            3.845514584099874e-05
          ],
          [
            "Cyprus",
            3.824718442047015e-05
          ],
          [
            "Bulgaria",
            3.809349436778575e-05
          ],
          [
            "Costa Rica",
            3.7292913475539535e-05
          ],
          [
            "United States of America",
            3.679711153381504e-05
          ],
          [
            "China",
            3.521950202411972e-05
          ],
          [
            "Mexico",
            3.4294429497094825e-05
          ],
          [
            "Kyrgyzstan",
            3.070364982704632e-05
          ],
          [
            "Tanzania",
            2.9896047635702416e-05
          ],
          [
            "Georgia",
            2.9565280783572234e-05
          ],
          [
            "Russia",
            2.9283435651450418e-05
          ],
          [
            "Sierra Leone",
            2.8094758818042465e-05
          ],
          [
            "Zimbabwe",
            2.7859698093379848e-05
          ],
          [
            "Tajikistan",
            2.6389714548713528e-05
          ],
          [
            "Falkland Islands",
            2.439821037114598e-05
          ],
          [
            "Iceland",
            2.4306475097546354e-05
          ],
          [
            "Greece",
            2.4209357434301637e-05
          ],
          [
            "Estonia",
            2.2877935407450423e-05
          ],
          [
            "Kuwait",
            2.0472280084504746e-05
          ],
          [
            "Panama",
            2.0361298084026203e-05
          ],
          [
            "Jamaica",
            1.9183788026566617e-05
          ],
          [
            "Netherlands Antilles",
            1.9079716366832145e-05
          ],
          [
            "Samoa",
            1.8353615814703517e-05
          ],
          [
            "Haiti",
            1.6855366993695498e-05
          ],
          [
            "Guinea-Bissau",
            1.6456373487017117e-05
          ],
          [
            "Morocco",
            1.636625347600784e-05
          ],
          [
            "Austria",
            1.562355100759305e-05
          ],
          [
            "Denmark",
            1.3503326044883579e-05
          ],
          [
            "Madeira Islands",
            1.2612823411473073e-05
          ],
          [
            "Turks and Caicos Islands",
            1.2018975212413352e-05
          ],
          [
            "Nepal",
            1.0498824849491939e-05
          ],
          [
            "DR Congo",
            1.0196772564086132e-05
          ],
          [
            "Gambia",
            8.76997182785999e-06
          ],
          [
            "Kiribati",
            1.5880631281106616e-06
          ]
        ]
      },
      "geometry": {
        "type": "MultiLineString",
        "coordinates": [
          [
            [
              17.27167848032194,
              5.251029664693846
            ],
            [
              18.367340573436692,
              5.251029664693846
            ],
            [
              19.14867669809884,
              5.251029664693846
            ],
            [
              20.109539641776664,
              5.251029664693846
            ],
            [
              21.187222485455052,
              5.251029664693846
            ],
            [
              22.35471113364362,
              5.251029664693846
            ],
            [
              23.441425054931344,
              5.259968415409219
            ],
            [
              24.716700641288796,
              5.538426327660716
            ],
            [
              25.632658798489203,
              5.978429925269211
            ],
            [
              26.5397611107566,
              6.696883898239946
            ],
            [
              27.922735076833547,
              7.9811924464290485
            ],
            [
              29.3147420047422,
              9.382141893497703
            ],
            [
              30.239819798001307,
              10.352034030562578
            ],
            [
              30.976166346181387,
              11.214231556352559
            ],
            [
              31.53299172801276,
              11.878744012569513
            ],
            [
              32.08980580451016,
              12.669032077503346
            ],
            [
              32.48499128986826,
              13.37854729975868
            ],
            [
              32.98787515494588,
              14.016137987379238
            ],
            [
              33.526717518896234,
              14.635843636679738
            ],
            [
              34.15536568735676,
              15.336307054880109
            ],
            [
              34.891798909763835,
              16.207450868274776
            ],
            [
              35.744967242166794,
              17.159375061237228
            ],
            [
              36.6070743252851,
              18.17426242745114
            ],
            [
              37.26264426234202,
              19.117240332808933
            ],
            [
              37.792540338687715,
              19.95242564733087
            ],
            [
              38.13378807573669,
              20.74270617537536
            ],
            [
              38.385230008275514,
              21.44318466735436
            ],
            [
              38.61878690249425,
              22.67355169878971
            ],
            [
              38.59185759700857,
              24.011711321060943
            ],
            [
              38.19667211165047,
              25.19709066023654
            ],
            [
              37.792540338687715,
              26.373606617589786
            ],
            [
              37.38840856572493,
              27.34349875465466
            ],
            [
              36.67890088035891,
              28.070899015230054
            ],
            [
              35.978429925269225,
              28.771467949880673
            ],
            [
              35.215067397376444,
              29.81318664201936
            ],
            [
              34.87382342877213,
              30.91779313851646
            ],
            [
              34.7570920872209,
              31.968556097820795
            ],
            [
              34.72112981990351,
              32.87557550430583
            ],
            [
              34.84689412328642,
              33.85450437164701
            ],
            [
              35.25997218385386,
              34.581904632222404
            ],
            [
              35.6102566511792,
              35.46208140744875
            ],
            [
              35.718037936681085,
              36.48582085015107
            ],
            [
              35.753909761326824,
              37.81495127903523
            ],
            [
              35.73593051189043,
              39.05435504074694
            ],
            [
              35.448616754705895,
              40.015217984424766
            ],
            [
              34.91872067836023,
              40.724725669790786
            ],
            [
              34.25411777947163,
              41.32644830121026
            ],
            [
              33.526717518896234,
              41.68567528769563
            ],
            [
              32.538842363950366,
              42.15269109657217
            ],
            [
              31.488083173090686,
              42.96989716165774
            ],
            [
              30.437327750675692,
              44.20026796153775
            ],
            [
              29.63809716658183,
              45.0714117749324
            ],
            [
              29.027428247557665,
              45.91554337705901
            ],
            [
              28.551387013738733,
              46.912451493836585
            ],
            [
              28.14725147233132,
              48.05292981497942
            ],
            [
              27.743119699368563,
              49.31925911373216
            ],
            [
              27.446780517241635,
              50.17242367769046
            ],
            [
              26.863033366813866,
              51.48356732024895
            ],
            [
              26.234385198353337,
              52.7498966190017
            ],
            [
              25.785348638913163,
              53.84547015366712
            ],
            [
              25.44410090186416,
              54.581903376074195
            ],
            [
              25.37227434679035,
              55.830253425390566
            ],
            [
              25.399196115386744,
              56.75524454442268
            ],
            [
              25.659671009757247,
              57.50965701626612
            ],
            [
              26.108711337642077,
              58.11129297345859
            ],
            [
              26.800149330900084,
              58.77589964079185
            ],
            [
              27.931768038665254,
              59.48540732615788
            ],
            [
              29.180031413754634,
              59.862526887852596
            ],
            [
              29.98829119123549,
              60.087043283350354
            ],
            [
              30.931265328148626,
              60.38347667659359
            ],
            [
              31.973074462958934,
              60.81453021815274
            ],
            [
              32.9968252109952,
              61.1468354360417
            ],
            [
              34.04757686496556,
              61.443182155057926
            ],
            [
              35.18814186033539,
              61.64077301351465
            ],
            [
              36.346686105141615,
              61.784429892106914
            ],
            [
              37.352453835296856,
              61.87423569661709
            ],
            [
              38.2595523791196,
              61.92808300225454
            ],
            [
              39.085795174481504,
              61.96404150112727
            ],
            [
              40.298186724925145,
              61.982020750563635
            ],
            [
              41.41173950902693,
              61.99096703816831
            ],
            [
              42.55230450439676,
              62.0
            ],
            [
              43.585080677375416,
              62.0
            ],
            [
              44.49209631541579,
              62.0
            ],
            [
              45.28246728613196,
              62.0
            ],
            [
              46.207458405164076,
              61.91914048309451
            ],
            [
              46.63851948361254,
              60.93126155970397
            ],
            [
              46.719375232073375,
              60.18588581813687
            ],
            [
              46.72832151967806,
              59.314742004742214
            ],
            [
              46.46784662530756,
              58.47955669022028
            ],
            [
              46.18947915572771,
              57.716197930772154
            ],
            [
              45.91111922303715,
              56.88100884780559
            ],
            [
              45.614682061349285,
              56.05476605244368
            ],
            [
              45.30035609289668,
              55.31833659848127
            ],
            [
              44.91421110625957,
              54.510073052555725
            ],
            [
              44.330460187387175,
              53.60306118295999
            ],
            [
              43.63893175145749,
              52.758842906606375
            ],
            [
              42.758841650458166,
              51.72606296518309
            ],
            [
              42.103267944956585,
              51.0525137786898
            ],
            [
              41.52847085057816,
              50.5316506641758
            ],
            [
              40.495690909154845,
              49.920981745151636
            ],
            [
              39.40906366209411,
              49.66050685078115
            ],
            [
              38.29542420376531,
              49.57070104627097
            ],
            [
              37.62187124882739,
              49.184548522744564
            ],
            [
              37.89129243080255,
              48.15176858132128
            ],
            [
              38.2595523791196,
              47.388409821873154
            ],
            [
              38.69955597672809,
              46.49034047143745
            ],
            [
              39.112724479967184,
              45.53833714113729
            ],
            [
              39.480890217167925,
              44.50555719971399
            ],
            [
              39.85809645308966,
              43.544694256036166
            ],
            [
              40.18136870914692,
              42.691529692077864
            ],
            [
              40.48674462155019,
              41.72154711234134
            ],
            [
              40.684339248451536,
              40.92232029669216
            ],
            [
              40.944731237039676,
              40.185883305840434
            ],
            [
              41.37586768438119,
              39.42252831483697
            ],
            [
              42.291829610026284,
              38.39869466101834
            ],
            [
              43.073163850466116,
              37.49167902297796
            ],
            [
              43.782675304276765,
              36.52178311746843
            ],
            [
              44.330460187387175,
              35.587759036604666
            ],
            [
              44.689687173872514,
              34.66276791757255
            ],
            [
              44.94112910641131,
              33.495273616717014
            ],
            [
              45.0309424478108,
              32.74086114487358
            ],
            [
              45.09381894683527,
              31.429713733870415
            ],
            [
              44.95016206824302,
              30.432899828209173
            ],
            [
              44.79747976470837,
              29.597624071015588
            ],
            [
              44.65381911767143,
              28.295422947617112
            ],
            [
              44.68074842315714,
              26.849561177181727
            ],
            [
              44.842377014296474,
              25.97841736378706
            ],
            [
              45.075839697398905,
              24.92766947826135
            ],
            [
              45.24650878725923,
              23.706331640213023
            ],
            [
              45.36324012881046,
              22.07182906737023
            ],
            [
              45.41718164556421,
              20.57204085395969
            ],
            [
              45.44409964571595,
              19.521368337327033
            ],
            [
              45.45304593332064,
              18.713097254512206
            ],
            [
              45.264488036695596,
              17.3031186140565
            ],
            [
              44.94112910641131,
              16.413999319670125
            ],
            [
              44.48315002781111,
              15.399194859238548
            ],
            [
              43.5940269649801,
              13.719795036807653
            ],
            [
              42.45355618072655,
              11.878744012569513
            ],
            [
              41.95961860325362,
              11.160290039598806
            ],
            [
              41.20520613141018,
              10.16346859704825
            ],
            [
              40.12751763506482,
              8.942055390106873
            ],
            [
              39.18454726659634,
              8.008114215025444
            ],
            [
              38.19667211165047,
              7.118987383749754
            ],
            [
              37.18187141966352,
              6.2209218017587204
            ],
            [
              36.193996264717654,
              5.4216949861095145
            ],
            [
              35.170162610899055,
              4.676228801870764
            ],
            [
              34.09248165144298,
              4.038630577360891
            ],
            [
              32.17067285830497,
              3.374027678472288
            ],
            [
              30.670880876449772,
              3.077684727900703
            ],
            [
              28.811861908109236,
              2.8800901009993254
            ],
            [
              26.521781861320235,
              2.7274907032470423
            ],
            [
              24.842378270444684,
              2.547879094226687
            ],
            [
              23.674887738033803,
              2.3053796808479206
            ],
            [
              22.615186028014122,
              2.107785053946543
            ],
            [
              21.82490361574726,
              2.0
            ]
          ]
        ]
      }
    }
  ]
}