{
  "type": "FeatureCollection",
  "crs": {
    "type": "name",
    "properties": {
      "name": "urn:ogc:def:crs:OGC:1.3:CRS84"
    }
  },
  "features": [
    {
      "type": "Feature",
      "properties": {
        "timestamp": "2026-05-29T17:53:55.950946",
        "country_name": "Western Sahara",
        "author": "",
        "author_id": "5d7fccd6-fd6e-41f6-a5e6-04dbb63c5ea6",
        "validated": false,
        "ranking": [
          [
            "Western Sahara",
            0.22540000081062317
          ],
          [
            "Jordan",
            0.0872839167714119
          ],
          [
            "Belize",
            0.08203421533107758
          ],
          [
            "Benin",
            0.03927787393331528
          ],
          [
            "Greenland",
            0.03779067099094391
          ],
          [
            "Rwanda",
            0.03671463578939438
          ],
          [
            "Namibia",
            0.031648728996515274
          ],
          [
            "Syria",
            0.023757347837090492
          ],
          [
            "Montenegro",
            0.019694123417139053
          ],
          [
            "Faroe Islands",
            0.018968485295772552
          ],
          [
            "Afghanistan",
            0.0185716450214386
          ],
          [
            "Taiwan",
            0.014644142240285873
          ],
          [
            "Burundi",
            0.014148356392979622
          ],
          [
            "Spain",
            0.01355153787881136
          ],
          [
            "Somalia",
            0.013435260392725468
          ],
          [
            "Gabon",
            0.011756008490920067
          ],
          [
            "Qatar",
            0.010916457511484623
          ],
          [
            "Myanmar",
            0.01057770848274231
          ],
          [
            "Tunisia",
            0.010302586480975151
          ],
          [
            "Lesotho",
            0.00989086925983429
          ],
          [
            "Mayotte",
            0.009023689664900303
          ],
          [
            "South Korea",
            0.008366762660443783
          ],
          [
            "Portugal",
            0.007640812546014786
          ],
          [
            "Peru",
            0.006744484882801771
          ],
          [
            "Guyana",
            0.006585523020476103
          ],
          [
            "Angola",
            0.0063153463415801525
          ],
          [
            "Mozambique",
            0.006043341942131519
          ],
          [
            "Fiji",
            0.005511369556188583
          ],
          [
            "Kuwait",
            0.0054640700109303
          ],
          [
            "Djibouti",
            0.005264927167445421
          ],
          [
            "Switzerland",
            0.005058964714407921
          ],
          [
            "Svalbard",
            0.004924864508211613
          ],
          [
            "Croatia",
            0.004916568286716938
          ],
          [
            "Ecuador",
            0.004866439383476973
          ],
          [
            "India",
            0.004779383074492216
          ],
          [
            "Guam",
            0.004447149112820625
          ],
          [
            "Moldova",
            0.004280976485460997
          ],
          [
            "Vietnam",
            0.004265140276402235
          ],
          [
            "Argentina",
            0.0041426061652600765
          ],
          [
            "Sri Lanka",
            0.0037417758721858263
          ],
          [
            "North Korea",
            0.0036837791558355093
          ],
          [
            "Albania",
            0.003617292968556285
          ],
          [
            "Bangladesh",
            0.0034556370228528976
          ],
          [
            "North Macedonia",
            0.003350525861606002
          ],
          [
            "Eswatini",
            0.003232184099033475
          ],
          [
            "Thailand",
            0.003110756864771247
          ],
          [
            "Nigeria",
            0.0026815072633326054
          ],
          [
            "Germany",
            0.002620439510792494
          ],
          [
            "Romania",
            0.002598956460133195
          ],
          [
            "Vanuatu",
            0.0025511879939585924
          ],
          [
            "Sweden",
            0.002449081977829337
          ],
          [
            "Dominica",
            0.0023987642489373684
          ],
          [
            "Burkina Faso",
            0.0023707272484898567
          ],
          [
            "Egypt",
            0.002225771313533187
          ],
          [
            "Slovakia",
            0.0022145116236060858
          ],
          [
            "Uganda",
            0.00220351479947567
          ],
          [
            "Antigua & Barbuda",
            0.002127304207533598
          ],
          [
            "Slovenia",
            0.0020498197991400957
          ],
          [
            "Togo",
            0.0020216500852257013
          ],
          [
            "Cambodia",
            0.0019996296614408493
          ],
          [
            "Botswana",
            0.00194810691755265
          ],
          [
            "Iraq",
            0.0018878531409427524
          ],
          [
            "Mali",
            0.0018443389562889934
          ],
          [
            "Ghana",
            0.0018085145857185125
          ],
          [
            "Suriname",
            0.0017739137401804328
          ],
          [
            "Ethiopia",
            0.0017687072977423668
          ],
          [
            "Turkmenistan",
            0.001710455515421927
          ],
          [
            "Australia",
            0.001710390322841704
          ],
          [
            "French Guiana",
            0.0016789535293355584
          ],
          [
            "Saudi Arabia",
            0.001649783574976027
          ],
          [
            "Belarus",
            0.001641406212002039
          ],
          [
            "Brunei",
            0.001616951427422464
          ],
          [
            "Guadeloupe",
            0.0016005965881049633
          ],
          [
            "Sudan",
            0.001595387584529817
          ],
          [
            "Kyrgyzstan",
            0.0015680193901062012
          ],
          [
            "South Africa",
            0.0014606629265472293
          ],
          [
            "Hong Kong",
            0.0014597020344808698
          ],
          [
            "Saint Lucia",
            0.0014577071415260434
          ],
          [
            "Malawi",
            0.001453534234315157
          ],
          [
            "Bhutan",
            0.0014288201928138733
          ],
          [
            "Papua New Guinea",
            0.0014267885126173496
          ],
          [
            "Cyprus",
            0.0014029546873643994
          ],
          [
            "Bahrain",
            0.0013826536014676094
          ],
          [
            "Zambia",
            0.0013469790574163198
          ],
          [
            "West Bank",
            0.0013402799377217889
          ],
          [
            "France",
            0.0013053476577624679
          ],
          [
            "Congo",
            0.0012996114091947675
          ],
          [
            "Lithuania",
            0.001289773266762495
          ],
          [
            "Martinique",
            0.0012535819550976157
          ],
          [
            "Mauritania",
            0.0012492950772866607
          ],
          [
            "Falkland Islands",
            0.0012337632942944765
          ],
          [
            "Serbia",
            0.0011746856616809964
          ],
          [
            "Trinidad and Tobago",
            0.001174396718852222
          ],
          [
            "Honduras",
            0.0011554376687854528
          ],
          [
            "Madagascar",
            0.0011522903805598617
          ],
          [
            "Algeria",
            0.0010984479449689388
          ],
          [
            "Heard and McDonald Islands",
            0.0010757504496723413
          ],
          [
            "Czech Republic",
            0.0010662719141691923
          ],
          [
            "Bolivia",
            0.001055114553309977
          ],
          [
            "Luxembourg",
            0.0010418539168313146
          ],
          [
            "Guatemala",
            0.000995971611700952
          ],
          [
            "Yemen",
            0.0009706626879051328
          ],
          [
            "Chad",
            0.0009507960639894009
          ],
          [
            "Malaysia",
            0.0009202819783240557
          ],
          [
            "Bahamas",
            0.0009146385127678514
          ],
          [
            "Dominican Republic",
            0.0008918147068470716
          ],
          [
            "New Zealand",
            0.0008796429028734565
          ],
          [
            "Turkey",
            0.0008722764905542135
          ],
          [
            "China",
            0.0008523547439835966
          ],
          [
            "Ukraine",
            0.0008378351922146976
          ],
          [
            "Japan",
            0.0008312024874612689
          ],
          [
            "Brazil",
            0.0008269897662103176
          ],
          [
            "Lebanon",
            0.0008116628159768879
          ],
          [
            "Côte d'Ivoire",
            0.000804219744168222
          ],
          [
            "Israel",
            0.0007973435567691922
          ],
          [
            "Iran",
            0.0007833591080270708
          ],
          [
            "Kenya",
            0.0007712200749665499
          ],
          [
            "Belgium",
            0.000756385619752109
          ],
          [
            "Reunion",
            0.0007531436276622117
          ],
          [
            "Finland",
            0.0007445509545505047
          ],
          [
            "Chile",
            0.0007314980030059814
          ],
          [
            "Senegal",
            0.0007311241351999342
          ],
          [
            "Solomon Islands",
            0.0007040250930003822
          ],
          [
            "Libya",
            0.0006846864707767963
          ],
          [
            "United States Virgin Islands",
            0.0006466772756539285
          ],
          [
            "Uzbekistan",
            0.0006437225383706391
          ],
          [
            "Estonia",
            0.000643462291918695
          ],
          [
            "Norway",
            0.0006405698950402439
          ],
          [
            "DR Congo",
            0.0006376795354299247
          ],
          [
            "Venezuela",
            0.0006369235343299806
          ],
          [
            "Armenia",
            0.0006261871894821525
          ],
          [
            "Puerto Rico",
            0.0006125689251348376
          ],
          [
            "Cape Verde",
            0.000608060450758785
          ],
          [
            "Bosnia & Herzegovina",
            0.0006074507255107164
          ],
          [
            "Uruguay",
            0.0005963632138445973
          ],
          [
            "Canada",
            0.0005900530959479511
          ],
          [
            "Guinea",
            0.0005753323202952743
          ],
          [
            "Sao Tome and Principe",
            0.0005665833596140146
          ],
          [
            "New Caledonia",
            0.0005652697291225195
          ],
          [
            "Latvia",
            0.0005580270080827177
          ],
          [
            "El Salvador",
            0.0005551966605708003
          ],
          [
            "Mongolia",
            0.0005404489347711205
          ],
          [
            "Russia",
            0.0005031421314924955
          ],
          [
            "Hungary",
            0.0005018405499868095
          ],
          [
            "Azerbaijan",
            0.000499346642754972
          ],
          [
            "Bulgaria",
            0.0004699945857282728
          ],
          [
            "Kazakhstan",
            0.00046975439181551337
          ],
          [
            "Guinea-Bissau",
            0.00046801226562820375
          ],
          [
            "Paraguay",
            0.00045922715798951685
          ],
          [
            "Indonesia",
            0.0004513243620749563
          ],
          [
            "Oman",
            0.00044658465776592493
          ],
          [
            "Colombia",
            0.0004438850446604192
          ],
          [
            "Zimbabwe",
            0.00044098126818425953
          ],
          [
            "Liberia",
            0.00043575058225542307
          ],
          [
            "Jamaica",
            0.00043222843669354916
          ],
          [
            "Netherlands",
            0.00042287353426218033
          ],
          [
            "United States of America",
            0.00041254382813349366
          ],
          [
            "South Georgia Islands",
            0.00040395846008323133
          ],
          [
            "Comoros",
            0.0004031825519632548
          ],
          [
            "United Arab Emirates",
            0.00037418812280520797
          ],
          [
            "Timor-Leste",
            0.0003707079740706831
          ],
          [
            "Iceland",
            0.0003673218307085335
          ],
          [
            "Costa Rica",
            0.0003636078618001193
          ],
          [
            "Laos",
            0.00035864379606209695
          ],
          [
            "South Sudan",
            0.00035594854853115976
          ],
          [
            "Palau",
            0.0003521621401887387
          ],
          [
            "Sierra Leone",
            0.00033794509363360703
          ],
          [
            "Central African Republic",
            0.0003065309429075569
          ],
          [
            "Mexico",
            0.0003033633402083069
          ],
          [
            "Isle of Man",
            0.0002921019331552088
          ],
          [
            "Nicaragua",
            0.00027963085449300706
          ],
          [
            "Philippines",
            0.0002746882091742009
          ],
          [
            "Cuba",
            0.0002617595891933888
          ],
          [
            "Georgia",
            0.00022787050693295896
          ],
          [
            "Eritrea",
            0.00022658244415652007
          ],
          [
            "United Kingdom",
            0.00022271714988164604
          ],
          [
            "Niger",
            0.00022000617173034698
          ],
          [
            "Tajikistan",
            0.00021947639470454305
          ],
          [
            "Netherlands Antilles",
            0.00020912087347824126
          ],
          [
            "Poland",
            0.00020774653239641339
          ],
          [
            "Panama",
            0.0001958873908733949
          ],
          [
            "Ireland",
            0.00019562378292903304
          ],
          [
            "Cameroon",
            0.0001950563455466181
          ],
          [
            "Italy",
            0.0001945295080076903
          ],
          [
            "Turks and Caicos Islands",
            0.00016128631250467151
          ],
          [
            "Pakistan",
            0.00015323967090807855
          ],
          [
            "Equatorial Guinea",
            0.00015207093383651227
          ],
          [
            "Tanzania",
            0.00015050379442982376
          ],
          [
            "Barbados",
            0.0001477152982261032
          ],
          [
            "Greece",
            0.00011200716107850894
          ],
          [
            "Madeira Islands",
            0.00010310321522410959
          ],
          [
            "Samoa",
            8.864164556143805e-05
          ],
          [
            "Austria",
            7.89692421676591e-05
          ],
          [
            "Nepal",
            7.410992111545056e-05
          ],
          [
            "Denmark",
            7.377594738500193e-05
          ],
          [
            "Gambia",
            6.847774784546345e-05
          ],
          [
            "Morocco",
            6.364629371091723e-05
          ],
          [
            "Haiti",
            1.642071765672881e-05
          ],
          [
            "Kiribati",
            8.993572009785566e-06
          ]
        ]
      },
      "geometry": {
        "type": "MultiLineString",
        "coordinates": [
          [
            [
              26.20420607705509,
              60.34481829414369
            ],
            [
              28.274101856534855,
              60.34481829414369
            ],
            [
              29.516112815995484,
              60.34481829414369
            ],
            [
              31.999987751371208,
              60.34481829414369
            ],
            [
              33.24199871083181,
              60.34481829414369
            ],
            [
              34.483936178519684,
              60.34481829414369
            ],
            [
              35.725898143465116,
              60.34481829414369
            ],
            [
              37.38186376156409,
              60.34481829414369
            ],
            [
              38.62380122925197,
              60.34481829414369
            ],
            [
              39.86573869693984,
              60.34481829414369
            ],
            [
              41.10774965640044,
              60.75861372060774
            ],
            [
              42.34968712408829,
              60.75861372060774
            ],
            [
              43.59164908903375,
              61.172396898443054
            ],
            [
              45.247614707132726,
              61.172396898443054
            ],
            [
              46.489552174820574,
              61.172396898443054
            ],
            [
              47.73148964250845,
              61.172396898443054
            ],
            [
              48.97350060196908,
              62.0
            ],
            [
              50.215438069656926,
              62.0
            ],
            [
              51.45740003460236,
              62.0
            ],
            [
              52.69931300503265,
              62.0
            ],
            [
              53.94132396449328,
              62.0
            ],
            [
              55.18328592943871,
              62.0
            ],
            [
              56.425198899868974,
              62.0
            ],
            [
              57.6672098593296,
              61.172396898443054
            ],
            [
              58.90917182427506,
              59.93103511630838
            ],
            [
              58.90917182427506,
              58.68964883691615
            ],
            [
              58.90917182427506,
              57.44827480615271
            ],
            [
              59.32315098017099,
              56.20688852676045
            ],
            [
              59.32315098017099,
              54.96550224736819
            ],
            [
              59.73713013606695,
              53.724140465233546
            ],
            [
              59.73713013606695,
              52.482741937212495
            ],
            [
              59.73713013606695,
              50.82758472861377
            ],
            [
              59.73713013606695,
              49.58619232490713
            ],
            [
              59.73713013606695,
              48.34484279140128
            ],
            [
              59.32315098017099,
              47.103444263380226
            ],
            [
              57.6672098593296,
              46.275853410452044
            ],
            [
              56.425198899868974,
              46.68963658828736
            ],
            [
              54.35530312038924,
              47.103444263380226
            ],
            [
              53.11336565270136,
              47.51722744121551
            ],
            [
              51.87135469324073,
              47.51722744121551
            ],
            [
              50.629417225552885,
              47.51722744121551
            ],
            [
              49.38747975786504,
              47.51722744121551
            ],
            [
              48.14546879840441,
              47.51722744121551
            ],
            [
              46.90353133071653,
              47.51722744121551
            ],
            [
              45.661593863028685,
              47.51722744121551
            ],
            [
              44.419582903568084,
              47.51722744121551
            ],
            [
              43.17766993313779,
              47.103444263380226
            ],
            [
              41.93570796819233,
              47.103444263380226
            ],
            [
              40.69369700873173,
              47.103444263380226
            ],
            [
              39.45178403830147,
              46.68963658828736
            ],
            [
              38.62380122925197,
              45.448287054781474
            ],
            [
              39.037780385147926,
              44.20688852676045
            ],
            [
              39.86573869693984,
              42.96551449599701
            ],
            [
              40.2797178528358,
              41.724140465233546
            ],
            [
              40.69369700873173,
              40.06895875937721
            ],
            [
              40.69369700873173,
              38.82758472861377
            ],
            [
              41.10774965640044,
              37.58621069785033
            ],
            [
              41.10774965640044,
              36.34481216982928
            ],
            [
              41.5217288122964,
              34.68965496123053
            ],
            [
              41.93570796819233,
              33.44825643320951
            ],
            [
              41.93570796819233,
              32.206906899703654
            ],
            [
              41.93570796819233,
              30.965532868940187
            ],
            [
              41.93570796819233,
              29.724134340919136
            ],
            [
              41.93570796819233,
              28.482760310155697
            ],
            [
              41.93570796819233,
              27.24138627939226
            ],
            [
              41.5217288122964,
              26.000012248628792
            ],
            [
              41.5217288122964,
              24.75861372060774
            ],
            [
              39.86573869693984,
              23.93104736493717
            ],
            [
              38.20982207335601,
              23.517239689844303
            ],
            [
              36.96781111389541,
              22.68964883691615
            ],
            [
              35.725898143465116,
              21.862057983987995
            ],
            [
              34.89791533441564,
              20.62068395322453
            ],
            [
              33.65597786672777,
              20.206900775389244
            ],
            [
              33.24199871083181,
              18.965526744625777
            ],
            [
              33.24199871083181,
              17.724128216604754
            ],
            [
              33.65597786672777,
              16.068971008006002
            ],
            [
              33.65597786672777,
              14.82757247998498
            ],
            [
              34.069957022623726,
              13.586222946479097
            ],
            [
              34.483936178519684,
              11.931016743365205
            ],
            [
              34.483936178519684,
              10.689667209859323
            ],
            [
              34.483936178519684,
              9.448293179095856
            ],
            [
              34.483936178519684,
              8.206894651074833
            ],
            [
              34.89791533441564,
              6.965520620311395
            ],
            [
              34.89791533441564,
              5.724146589547956
            ],
            [
              34.89791533441564,
              4.4827725587844895
            ],
            [
              33.65597786672777,
              4.4827725587844895
            ],
            [
              32.41396690726717,
              4.068964883691592
            ],
            [
              31.586033092732833,
              2.8275908529281537
            ],
            [
              30.3440711277874,
              2.8275908529281537
            ],
            [
              29.10210916284194,
              2.8275908529281537
            ],
            [
              27.44616804200055,
              2.8275908529281537
            ],
            [
              26.20420607705509,
              2.8275908529281537
            ],
            [
              24.96224411210966,
              2.8275908529281537
            ],
            [
              23.720257649906614,
              2.8275908529281537
            ],
            [
              22.478320182218766,
              2.8275908529281537
            ],
            [
              21.236358217273335,
              2.8275908529281537
            ],
            [
              19.99437175507029,
              2.8275908529281537
            ],
            [
              18.752434287382414,
              2.8275908529281537
            ],
            [
              17.510496819694566,
              2.4137831778352847
            ],
            [
              16.268485860233966,
              2.4137831778352847
            ],
            [
              15.02654839254609,
              2.4137831778352847
            ],
            [
              13.784610924858242,
              2.0
            ],
            [
              12.542599965397613,
              2.0
            ],
            [
              11.300662497709766,
              2.0
            ],
            [
              10.05872503002189,
              2.0
            ],
            [
              8.81671407056129,
              2.0
            ],
            [
              7.574801100130998,
              2.4137831778352847
            ],
            [
              6.332839135185566,
              3.2413740307634384
            ],
            [
              6.332839135185566,
              4.4827725587844895
            ],
            [
              5.504856326136064,
              5.724146589547956
            ],
            [
              5.09087717024012,
              6.965520620311395
            ],
            [
              4.6768490198289925,
              8.206894651074833
            ],
            [
              4.6768490198289925,
              9.448293179095856
            ],
            [
              4.262869863933048,
              10.689667209859323
            ],
            [
              4.262869863933048,
              11.931016743365205
            ],
            [
              4.262869863933048,
              13.172415271386228
            ],
            [
              4.6768490198289925,
              14.413789302149667
            ],
            [
              5.09087717024012,
              15.655163332913133
            ],
            [
              5.918859979289607,
              16.896561860934185
            ],
            [
              7.160797446977469,
              17.724128216604754
            ],
            [
              8.40273491466533,
              18.965526744625777
            ],
            [
              9.230742220972402,
              20.206900775389244
            ],
            [
              9.644745874125945,
              21.44827480615271
            ],
            [
              10.05872503002189,
              23.103456512009018
            ],
            [
              10.472704185917848,
              24.75861372060774
            ],
            [
              10.886683341813807,
              26.000012248628792
            ],
            [
              11.714666150863295,
              27.655169457227544
            ],
            [
              12.95662811580874,
              29.31035116308385
            ],
            [
              13.3706072717047,
              30.55172519384729
            ],
            [
              13.3706072717047,
              32.62069007753894
            ],
            [
              13.3706072717047,
              34.68965496123053
            ],
            [
              13.3706072717047,
              37.172403022757436
            ],
            [
              13.784610924858242,
              38.82758472861377
            ],
            [
              14.198590080754187,
              40.48276643447008
            ],
            [
              15.02654839254609,
              42.13792364306883
            ],
            [
              15.440552045699633,
              43.3792976738323
            ],
            [
              16.268485860233966,
              45.034479379688605
            ],
            [
              17.096493166541023,
              47.103444263380226
            ],
            [
              17.510496819694566,
              48.34484279140128
            ],
            [
              18.338455131486484,
              49.58619232490713
            ],
            [
              19.166413443278373,
              50.82758472861377
            ],
            [
              20.40835091096625,
              52.896561860934185
            ],
            [
              21.236358217273335,
              54.13792364306883
            ],
            [
              22.478320182218766,
              55.3792976738323
            ],
            [
              23.720257649906614,
              56.620671704595736
            ],
            [
              24.96224411210966,
              57.44827480615271
            ],
            [
              26.61818523295105,
              57.862057983987995
            ],
            [
              27.860122700638925,
              58.68964883691615
            ],
            [
              29.10210916284194,
              59.103444263380226
            ],
            [
              30.3440711277874,
              60.34481829414369
            ],
            [
              31.586033092732833,
              60.75861372060774
            ]
          ]
        ]
      }
    }
  ]
}