{
  "type": "FeatureCollection",
  "crs": {
    "type": "name",
    "properties": {
      "name": "urn:ogc:def:crs:OGC:1.3:CRS84"
    }
  },
  "features": [
    {
      "type": "Feature",
      "properties": {
        "timestamp": "2026-06-25T13:04:25.574511",
        "country_name": "Yemen",
        "author": "",
        "author_id": "9f719b72-4a51-4664-94be-d4c8e9b95823",
        "validated": false,
        "ranking": [
          [
            "Yemen",
            0.3656899929046631
          ],
          [
            "Slovakia",
            0.07117927819490433
          ],
          [
            "Bulgaria",
            0.05199408903717995
          ],
          [
            "Turkey",
            0.04859748110175133
          ],
          [
            "Slovenia",
            0.031122742220759392
          ],
          [
            "Puerto Rico",
            0.027872610837221146
          ],
          [
            "Hungary",
            0.02560531347990036
          ],
          [
            "Honduras",
            0.023921990767121315
          ],
          [
            "Guinea-Bissau",
            0.015511210076510906
          ],
          [
            "Ecuador",
            0.014471556060016155
          ],
          [
            "China",
            0.01341005228459835
          ],
          [
            "Guadeloupe",
            0.012191991321742535
          ],
          [
            "Kyrgyzstan",
            0.012024316005408764
          ],
          [
            "Syria",
            0.009365975856781006
          ],
          [
            "Indonesia",
            0.009301991201937199
          ],
          [
            "Falkland Islands",
            0.008541940711438656
          ],
          [
            "Jamaica",
            0.00853427778929472
          ],
          [
            "Timor-Leste",
            0.006862313486635685
          ],
          [
            "Dominican Republic",
            0.006729436572641134
          ],
          [
            "Solomon Islands",
            0.006717388052493334
          ],
          [
            "Panama",
            0.006432538386434317
          ],
          [
            "Iceland",
            0.006334563251584768
          ],
          [
            "India",
            0.005991955287754536
          ],
          [
            "Malaysia",
            0.005635603331029415
          ],
          [
            "New Caledonia",
            0.005628620274364948
          ],
          [
            "Turkmenistan",
            0.005559131037443876
          ],
          [
            "Burkina Faso",
            0.005547267850488424
          ],
          [
            "Uzbekistan",
            0.005441541317850351
          ],
          [
            "Czech Republic",
            0.0054228706285357475
          ],
          [
            "Switzerland",
            0.005330575164407492
          ],
          [
            "Georgia",
            0.005187969654798508
          ],
          [
            "Mongolia",
            0.004923304542899132
          ],
          [
            "Cyprus",
            0.004912339150905609
          ],
          [
            "Ukraine",
            0.004893803969025612
          ],
          [
            "Latvia",
            0.004857517313212156
          ],
          [
            "Central African Republic",
            0.00480880681425333
          ],
          [
            "Afghanistan",
            0.00456557422876358
          ],
          [
            "Rwanda",
            0.004369825124740601
          ],
          [
            "Spain",
            0.004314592573791742
          ],
          [
            "Kazakhstan",
            0.004230809863656759
          ],
          [
            "Nigeria",
            0.00397952226921916
          ],
          [
            "Fiji",
            0.003832364920526743
          ],
          [
            "Azerbaijan",
            0.003523328574374318
          ],
          [
            "Japan",
            0.003191189607605338
          ],
          [
            "South Sudan",
            0.0031025910284370184
          ],
          [
            "Papua New Guinea",
            0.0029576625674962997
          ],
          [
            "Montenegro",
            0.0028724009171128273
          ],
          [
            "Burundi",
            0.002790549537166953
          ],
          [
            "North Macedonia",
            0.0027139433659613132
          ],
          [
            "Heard and McDonald Islands",
            0.0023098490200936794
          ],
          [
            "Madeira Islands",
            0.0022973662707954645
          ],
          [
            "Bhutan",
            0.0022255415096879005
          ],
          [
            "Jordan",
            0.0022158336360007524
          ],
          [
            "Somalia",
            0.0021597736049443483
          ],
          [
            "Russia",
            0.0021092919632792473
          ],
          [
            "Cuba",
            0.0020268503576517105
          ],
          [
            "Turks and Caicos Islands",
            0.0019637190271168947
          ],
          [
            "Cape Verde",
            0.0019348199712112546
          ],
          [
            "Namibia",
            0.0018808082677423954
          ],
          [
            "Hong Kong",
            0.0018718504579737782
          ],
          [
            "Nepal",
            0.0017472608014941216
          ],
          [
            "Zambia",
            0.0017425382975488901
          ],
          [
            "Svalbard",
            0.0017293207347393036
          ],
          [
            "Gabon",
            0.0015313919866457582
          ],
          [
            "Netherlands Antilles",
            0.0015293050091713667
          ],
          [
            "El Salvador",
            0.0015182143542915583
          ],
          [
            "New Zealand",
            0.0014817275805398822
          ],
          [
            "South Africa",
            0.0014694425044581294
          ],
          [
            "Belize",
            0.0014178548008203506
          ],
          [
            "Sao Tome and Principe",
            0.0013931760331615806
          ],
          [
            "Cambodia",
            0.0013925648527219892
          ],
          [
            "Australia",
            0.0013650651089847088
          ],
          [
            "Mozambique",
            0.0013486265670508146
          ],
          [
            "Estonia",
            0.0012486299965530634
          ],
          [
            "Austria",
            0.0011914283968508244
          ],
          [
            "Tajikistan",
            0.0011902201222255826
          ],
          [
            "Brunei",
            0.0011859552469104528
          ],
          [
            "Guam",
            0.0011221568565815687
          ],
          [
            "Guinea",
            0.001119587104767561
          ],
          [
            "Equatorial Guinea",
            0.0010926676914095879
          ],
          [
            "Bangladesh",
            0.001065988908521831
          ],
          [
            "Saudi Arabia",
            0.001061296439729631
          ],
          [
            "Niger",
            0.0010581574169918895
          ],
          [
            "Romania",
            0.0010501210344955325
          ],
          [
            "Mali",
            0.0010443206410855055
          ],
          [
            "Lithuania",
            0.0010374374687671661
          ],
          [
            "Thailand",
            0.0010023383656516671
          ],
          [
            "United Arab Emirates",
            0.0009883298771455884
          ],
          [
            "North Korea",
            0.0009837955003604293
          ],
          [
            "Botswana",
            0.0009284128900617361
          ],
          [
            "South Georgia Islands",
            0.0009240087820217013
          ],
          [
            "Mexico",
            0.0009080434101633728
          ],
          [
            "Benin",
            0.0008647919166833162
          ],
          [
            "Sudan",
            0.0008485604193992913
          ],
          [
            "Venezuela",
            0.0008454343769699335
          ],
          [
            "Egypt",
            0.0008387143607251346
          ],
          [
            "United States of America",
            0.0008378509664908051
          ],
          [
            "Congo",
            0.0007790749659761786
          ],
          [
            "Croatia",
            0.0007721324800513685
          ],
          [
            "Oman",
            0.0007349086226895452
          ],
          [
            "Chile",
            0.0007178818341344595
          ],
          [
            "Bahamas",
            0.0007152507896535099
          ],
          [
            "Eritrea",
            0.0007060649222694337
          ],
          [
            "Brazil",
            0.0007051161373965442
          ],
          [
            "Sierra Leone",
            0.0006720556411892176
          ],
          [
            "Samoa",
            0.0006448529311455786
          ],
          [
            "Faroe Islands",
            0.0006370995542965829
          ],
          [
            "Vanuatu",
            0.0006176229217089713
          ],
          [
            "Morocco",
            0.0005900439573451877
          ],
          [
            "Iran",
            0.000559840293135494
          ],
          [
            "Moldova",
            0.0005560262943618
          ],
          [
            "Israel",
            0.000539303757250309
          ],
          [
            "Libya",
            0.0005375035689212382
          ],
          [
            "Angola",
            0.0005229753442108631
          ],
          [
            "Palau",
            0.000522468879353255
          ],
          [
            "Comoros",
            0.0005191589589230716
          ],
          [
            "Belgium",
            0.0005155985709279776
          ],
          [
            "Trinidad and Tobago",
            0.0005148762138560414
          ],
          [
            "Côte d'Ivoire",
            0.0005000451346859336
          ],
          [
            "Peru",
            0.0004979892401024699
          ],
          [
            "Suriname",
            0.0004959228681400418
          ],
          [
            "Argentina",
            0.0004741624870803207
          ],
          [
            "Poland",
            0.0004725409671664238
          ],
          [
            "Tanzania",
            0.00045368645805865526
          ],
          [
            "Mayotte",
            0.00044869777048006654
          ],
          [
            "Lesotho",
            0.0004322217428125441
          ],
          [
            "France",
            0.0004099020443391055
          ],
          [
            "South Korea",
            0.00040216787601821125
          ],
          [
            "Sweden",
            0.0003843548474833369
          ],
          [
            "Ethiopia",
            0.000375783012714237
          ],
          [
            "Kuwait",
            0.00036597621510736644
          ],
          [
            "Gambia",
            0.0003634732565842569
          ],
          [
            "Reunion",
            0.00036057864781469107
          ],
          [
            "Pakistan",
            0.0003559986944310367
          ],
          [
            "Senegal",
            0.0003408398770261556
          ],
          [
            "Norway",
            0.00033853529021143913
          ],
          [
            "Myanmar",
            0.00033408173476345837
          ],
          [
            "Western Sahara",
            0.00033226425875909626
          ],
          [
            "Iraq",
            0.0002810107544064522
          ],
          [
            "Greenland",
            0.0002792369050439447
          ],
          [
            "Uruguay",
            0.0002785411197692156
          ],
          [
            "Paraguay",
            0.0002657614531926811
          ],
          [
            "Armenia",
            0.00026441048248670995
          ],
          [
            "Costa Rica",
            0.00026216122205369174
          ],
          [
            "Martinique",
            0.000250498327659443
          ],
          [
            "Liberia",
            0.000226223113713786
          ],
          [
            "Togo",
            0.00022590575099457055
          ],
          [
            "Taiwan",
            0.00022069073747843504
          ],
          [
            "Cameroon",
            0.00021975573326926678
          ],
          [
            "Malawi",
            0.0002131510409526527
          ],
          [
            "Mauritania",
            0.00020621198927983642
          ],
          [
            "Bosnia & Herzegovina",
            0.00020514217612799257
          ],
          [
            "Nicaragua",
            0.00020012803724966943
          ],
          [
            "Dominica",
            0.000197506946278736
          ],
          [
            "Madagascar",
            0.00019446565420366824
          ],
          [
            "Bolivia",
            0.0001910028513520956
          ],
          [
            "Antigua & Barbuda",
            0.00018425479356665164
          ],
          [
            "Lebanon",
            0.00018321712559554726
          ],
          [
            "Canada",
            0.00017740679322741926
          ],
          [
            "Eswatini",
            0.0001702843583188951
          ],
          [
            "Vietnam",
            0.0001701759174466133
          ],
          [
            "Barbados",
            0.0001669318589847535
          ],
          [
            "Guyana",
            0.00016559298092033714
          ],
          [
            "Algeria",
            0.00016327806224580854
          ],
          [
            "Qatar",
            0.00016018749738577753
          ],
          [
            "Italy",
            0.00015588515088893473
          ],
          [
            "Bahrain",
            0.00015369949687737972
          ],
          [
            "French Guiana",
            0.0001491836301283911
          ],
          [
            "Portugal",
            0.00014888402074575424
          ],
          [
            "Guatemala",
            0.00014386363909579813
          ],
          [
            "Isle of Man",
            0.00014179892605170608
          ],
          [
            "Serbia",
            0.0001290126529056579
          ],
          [
            "Kenya",
            0.00012695437180809677
          ],
          [
            "Zimbabwe",
            0.0001236955140484497
          ],
          [
            "Djibouti",
            0.00011834147881017998
          ],
          [
            "Albania",
            0.00011375645408406854
          ],
          [
            "Finland",
            0.00010970003495458513
          ],
          [
            "Uganda",
            9.835416858550161e-05
          ],
          [
            "Belarus",
            9.767126175574958e-05
          ],
          [
            "Philippines",
            9.694093751022592e-05
          ],
          [
            "Tunisia",
            9.646875696489587e-05
          ],
          [
            "Laos",
            9.482218592893332e-05
          ],
          [
            "Haiti",
            8.389987488044426e-05
          ],
          [
            "West Bank",
            7.392538100248203e-05
          ],
          [
            "Netherlands",
            7.09852174622938e-05
          ],
          [
            "United States Virgin Islands",
            6.936756835784763e-05
          ],
          [
            "Saint Lucia",
            6.745827704435214e-05
          ],
          [
            "Sri Lanka",
            6.501669122371823e-05
          ],
          [
            "Greece",
            5.674968269886449e-05
          ],
          [
            "DR Congo",
            5.5609918490517884e-05
          ],
          [
            "United Kingdom",
            5.156051702215336e-05
          ],
          [
            "Germany",
            4.98500230605714e-05
          ],
          [
            "Colombia",
            4.526861448539421e-05
          ],
          [
            "Ghana",
            4.263459413778037e-05
          ],
          [
            "Ireland",
            3.982965790783055e-05
          ],
          [
            "Luxembourg",
            3.512495459290221e-05
          ],
          [
            "Denmark",
            2.479105933161918e-05
          ],
          [
            "Chad",
            2.228601988463197e-05
          ],
          [
            "Kiribati",
            5.3485118769458495e-06
          ]
        ]
      },
      "geometry": {
        "type": "MultiLineString",
        "coordinates": [
          [
            [
              6.050632911392427,
              46.177215189873436
            ],
            [
              5.544303797468359,
              45.41772151898735
            ],
            [
              4.5316455696202524,
              44.91139240506331
            ],
            [
              3.518987341772174,
              44.40506329113924
            ],
            [
              2.506329113924039,
              44.15189873417722
            ],
            [
              2.0,
              43.139240506329116
            ],
            [
              2.0,
              41.62025316455697
            ],
            [
              2.759493670886087,
              40.607594936708864
            ],
            [
              3.0126582278481067,
              39.08860759493672
            ]
          ],
          [
            [
              3.0126582278481067,
              38.8354430379747
            ],
            [
              3.7721518987341938,
              38.32911392405066
            ],
            [
              4.5316455696202524,
              38.07594936708861
            ],
            [
              5.03797468354432,
              37.316455696202524
            ],
            [
              5.2911392405063395,
              36.303797468354446
            ],
            [
              5.544303797468359,
              35.54430379746836
            ],
            [
              6.303797468354446,
              35.29113924050634
            ],
            [
              6.810126582278485,
              34.53164556962025
            ],
            [
              7.063291139240505,
              33.01265822784811
            ],
            [
              7.063291139240505,
              30.98734177215192
            ],
            [
              7.3164556962025245,
              29.215189873417728
            ],
            [
              7.569620253164572,
              27.696202531645582
            ],
            [
              7.822784810126592,
              26.683544303797476
            ],
            [
              8.075949367088612,
              25.67088607594937
            ],
            [
              8.329113924050631,
              24.911392405063282
            ],
            [
              8.329113924050631,
              23.645569620253184
            ],
            [
              8.582278481012679,
              22.12658227848101
            ],
            [
              8.835443037974699,
              20.860759493670912
            ],
            [
              8.835443037974699,
              19.848101265822777
            ],
            [
              8.835443037974699,
              18.58227848101268
            ],
            [
              8.835443037974699,
              16.303797468354446
            ],
            [
              8.835443037974699,
              15.037974683544292
            ],
            [
              8.835443037974699,
              14.025316455696213
            ],
            [
              9.594936708860757,
              13.772151898734194
            ],
            [
              10.101265822784825,
              14.531645569620252
            ],
            [
              10.860759493670884,
              15.29113924050634
            ],
            [
              11.62025316455697,
              16.303797468354446
            ],
            [
              12.886075949367097,
              17.063291139240505
            ],
            [
              13.898734177215204,
              17.316455696202524
            ],
            [
              15.16455696202533,
              17.822784810126592
            ],
            [
              16.683544303797476,
              18.58227848101268
            ],
            [
              17.696202531645582,
              18.8354430379747
            ],
            [
              18.70886075949369,
              19.341772151898738
            ],
            [
              19.974683544303787,
              19.594936708860757
            ],
            [
              21.24050632911394,
              20.101265822784825
            ],
            [
              22.506329113924068,
              20.860759493670912
            ],
            [
              24.025316455696213,
              21.36708860759495
            ],
            [
              25.54430379746836,
              21.87341772151899
            ],
            [
              26.556962025316466,
              22.12658227848101
            ],
            [
              28.07594936708861,
              22.886075949367097
            ],
            [
              29.594936708860757,
              23.645569620253184
            ],
            [
              30.860759493670884,
              23.898734177215204
            ],
            [
              32.63291139240508,
              24.911392405063282
            ],
            [
              34.15189873417722,
              25.41772151898735
            ],
            [
              35.92405063291142,
              25.924050632911417
            ],
            [
              37.69620253164558,
              26.430379746835456
            ],
            [
              38.70886075949369,
              26.936708860759495
            ],
            [
              39.72151898734177,
              27.443037974683563
            ],
            [
              42.0,
              28.45569620253167
            ],
            [
              44.02531645569621,
              28.70886075949369
            ],
            [
              46.05063291139243,
              29.468354430379748
            ],
            [
              48.32911392405066,
              30.481012658227854
            ],
            [
              49.59493670886076,
              30.734177215189874
            ],
            [
              50.86075949367091,
              30.98734177215192
            ],
            [
              53.13924050632909,
              31.74683544303798
            ],
            [
              54.91139240506328,
              32.50632911392407
            ],
            [
              57.443037974683534,
              33.518987341772174
            ],
            [
              58.96202531645571,
              33.772151898734194
            ],
            [
              60.22784810126586,
              34.02531645569621
            ],
            [
              61.24050632911394,
              34.53164556962025
            ],
            [
              62.0,
              35.03797468354432
            ],
            [
              61.74683544303798,
              34.27848101265823
            ],
            [
              60.98734177215192,
              34.53164556962025
            ],
            [
              60.22784810126586,
              35.79746835443038
            ],
            [
              59.46835443037975,
              37.56962025316457
            ],
            [
              59.21518987341773,
              38.32911392405066
            ],
            [
              59.21518987341773,
              39.59493670886076
            ],
            [
              58.96202531645571,
              40.607594936708864
            ],
            [
              58.96202531645571,
              41.87341772151899
            ],
            [
              58.96202531645571,
              43.645569620253184
            ],
            [
              58.96202531645571,
              46.683544303797476
            ],
            [
              58.96202531645571,
              48.45569620253167
            ],
            [
              59.21518987341773,
              49.21518987341773
            ],
            [
              59.21518987341773,
              50.227848101265835
            ],
            [
              56.936708860759495,
              49.974683544303815
            ],
            [
              54.91139240506328,
              49.72151898734177
            ],
            [
              53.645569620253184,
              49.72151898734177
            ],
            [
              51.11392405063293,
              49.46835443037975
            ],
            [
              48.58227848101268,
              49.21518987341773
            ],
            [
              46.303797468354446,
              49.21518987341773
            ],
            [
              44.27848101265823,
              48.96202531645571
            ],
            [
              43.265822784810155,
              48.70886075949369
            ],
            [
              42.25316455696202,
              48.70886075949369
            ],
            [
              41.49367088607596,
              48.20253164556962
            ],
            [
              40.7341772151899,
              46.936708860759495
            ],
            [
              40.481012658227854,
              46.177215189873436
            ],
            [
              39.72151898734177,
              45.16455696202533
            ],
            [
              39.46835443037975,
              44.40506329113924
            ],
            [
              38.70886075949369,
              43.392405063291164
            ],
            [
              37.9493670886076,
              42.8860759493671
            ],
            [
              37.69620253164558,
              42.12658227848101
            ],
            [
              36.430379746835456,
              41.87341772151899
            ],
            [
              35.16455696202533,
              41.62025316455697
            ],
            [
              33.8987341772152,
              41.36708860759495
            ],
            [
              32.12658227848101,
              40.86075949367091
            ],
            [
              30.354430379746844,
              40.86075949367091
            ],
            [
              28.32911392405063,
              40.607594936708864
            ],
            [
              27.569620253164572,
              40.354430379746844
            ],
            [
              26.303797468354446,
              40.354430379746844
            ],
            [
              24.531645569620252,
              40.354430379746844
            ],
            [
              23.772151898734194,
              40.86075949367091
            ],
            [
              23.012658227848107,
              41.11392405063293
            ],
            [
              22.506329113924068,
              42.12658227848101
            ],
            [
              22.25316455696202,
              42.8860759493671
            ],
            [
              21.74683544303798,
              43.645569620253184
            ],
            [
              21.49367088607596,
              44.40506329113924
            ],
            [
              20.734177215189874,
              45.41772151898735
            ],
            [
              18.45569620253167,
              46.683544303797476
            ],
            [
              16.177215189873436,
              46.683544303797476
            ],
            [
              14.405063291139243,
              46.936708860759495
            ],
            [
              13.392405063291136,
              46.936708860759495
            ],
            [
              11.87341772151899,
              47.189873417721515
            ],
            [
              10.607594936708864,
              47.189873417721515
            ],
            [
              9.088607594936718,
              47.189873417721515
            ],
            [
              6.050632911392427,
              46.683544303797476
            ],
            [
              4.025316455696213,
              45.92405063291142
            ],
            [
              2.506329113924039,
              45.41772151898735
            ],
            [
              2.0,
              44.65822784810126
            ]
          ]
        ]
      }
    }
  ]
}